DataType=double
version=3
OpenSimVersion=4.6-2026-06-22-85aaf64
endheader
time	ground_force_r_vx	ground_force_r_vy	ground_force_r_vz	ground_force_r_px	ground_force_r_py	ground_force_r_pz	ground_force_l_vx	ground_force_l_vy	ground_force_l_vz	ground_force_l_px	ground_force_l_py	ground_force_l_pz	ground_torque_r_x	ground_torque_r_y	ground_torque_r_z	ground_torque_l_x	ground_torque_l_y	ground_torque_l_z
0	-259.4067600299909	965.486312544434	-0	0.3363206559072471	0	0.08956932934150494	97.61928747851263	283.0127059807414	-0	-0.111985018003218	0	-0.09478689634274365	0	-0.0001180554358171921	0	0	-6.298660799597744e-17	0
0.005043671031338167	-150.9277795339341	951.5897877112654	-0	0.3380739544436137	0	0.08957324072862087	92.41936200036548	247.5628262675916	-0	-0.1120673755292244	0	-0.09478689634274365	0	-0.001311385966754505	0	0	-4.26876577952346e-16	0
0.01008734206267633	-227.2586666902083	918.9281917993538	-0	0.3389379977990328	0	0.0896012809917533	86.32047338866914	214.8341780263265	-0	-0.1121872718601021	0	-0.09478689634274365	0	-0.007572444984269602	0	0	-1.693353734201717e-16	0
0.0151310130940145	-155.6696966712175	904.4588523994211	-0	0.34293058448692	0	0.08969085733919238	79.40540468462521	184.1929709156126	-0	-0.1123390501168123	0	-0.09478689634274365	0	-0.020866921518663	0	0	-1.538306013377522e-16	0
0.02017468412535267	-208.8395891631496	891.4880887108342	-0	0.3460855886097446	0	0.08979765412437184	71.65384050830504	155.5346832137194	-0	-0.1125268921980578	0	-0.09478689634274365	0	-0.0242068593939112	0	0	3.976567205414099e-16	0
0.02521835515669084	-163.0453217292165	889.3672842100361	-0	0.3513552896105556	0	0.08994838469820164	63.02311651788406	128.4102834011231	-0	-0.1127501993032134	0	-0.09478689634274365	0	-0.02272655219077017	0	0	-2.943015750399463e-16	0
0.030262026188029	-184.7282965040963	856.7833002173547	-0	0.353331915731272	0	0.09001510693818511	53.52743589595949	103.4843126629472	-0	-0.1130336306058766	0	-0.09478689634274365	0	-0.01133113791558877	0	0	4.806488180746546e-18	0
0.03530569721936717	-132.5160282858333	799.4388856946637	-0	0.3544340948488501	0	0.09002879682784792	43.20884783755326	80.65848976275096	-0	-0.1133911287995408	0	-0.09478689634274365	0	-0.005255603108164415	0	0	8.008865030952469e-17	0
0.04034936825070534	-132.4989679907903	732.3757832422633	-0	0.3538157671485697	0	0.09000419166636967	32.46159644879454	59.89179055386482	-0	-0.1138212477193057	0	-0.09478689634274365	0	-0.001571354732535406	0	0	2.20907487571819e-16	0
0.0453930392820435	-96.26382110333165	676.6582645815158	-0	0.3538403634380377	0	0.08998607188797889	19.34199150446975	39.32874626691362	-0	-0.1144922835417449	0	-0.09478689634274365	0	-0.0006347235010963925	0	0	-1.00019016368704e-16	0
0.05043671031338168	-94.6326487538134	630.4526190664319	-0	0.3530334095019184	0	0.08995401388274536	3.840627472081994	17.17417535372298	-0	-0.1157921987612313	0	-0.09478689634274365	0	8.221828927354261e-05	0	0	1.453623621349253e-17	0
0.05548038134471984	-73.54774966505794	598.4213214328047	-0	0.3529289850733382	0	0.08993615342202234	0.3511681787344144	-0.6160903129514085	-0	-0.1178297433854215	0	-0.09478689634274365	0	-7.42596632524131e-05	0	0	1.266676841838582e-18	0
0.06052405237605801	-71.64621140011991	572.3669986212034	-0	0.3524153471361964	0	0.08991335365550085	0.04476965741170495	-0.0442614529583301	-0	-0.1164820304771673	0	-0.09478689634274365	0	-7.67082119395463e-05	0	0	2.208785868509248e-19	0
0.06556772340739618	-58.41805115773482	550.5095743531871	-0	0.3523506872047197	0	0.08990012534581127	0.001166977890051226	-0.0009896087411793352	-0	-0.1122416060444564	0	-0.09478689634274365	0	-0.0003618695933172309	0	0	-4.341729872608537e-21	0
0.07061139443873435	-55.1564863048649	530.0634090006262	-0	0.3520323185525424	0	0.08988333864436289	0.0002856471106880333	-0.000214991171467725	-0	-0.1060785006871453	0	-0.09478689634274366	0	-0.0004352810451174861	0	0	2.411187457418179e-21	0
0.07565506547007252	-45.81147070037331	511.6164978064802	-0	0.3519214367495271	0	0.08987049463562015	0.0005463727440893019	-0.000377598872703299	-0	-0.09837453575474751	0	-0.09478689634274365	0	-0.0005709656727845706	0	0	2.320330120738042e-23	0
0.08069873650141067	-41.87456926712829	495.1099107758487	-0	0.3516775360357301	0	0.08985605942598543	0.001967349278254392	-0.001271235621499314	-0	-0.08949378888527976	0	-0.09478689634274365	0	-0.0005820624118459294	0	0	-4.131836935216153e-21	0
0.08574240753274884	-35.1541574668035	481.0948686170884	-0	0.351560110195079	0	0.08984457101487732	0.006227775894405118	-0.003798801797103757	-0	-0.0796339422135753	0	-0.09478689634274365	0	-0.0006299056804366164	0	0	-6.697887115163218e-21	0
0.09078607856408701	-31.43854271606929	469.1289470997846	-0	0.3514157152130785	0	0.08983397939435145	0.01407960582666188	-0.008176194441525231	-0	-0.06892508131155146	0	-0.09478689634274365	0	-0.0006371360706252711	0	0	1.696926194210391e-20	0
0.09582974959542517	-26.71089851199631	459.2183313095933	-0	0.3513744750835764	0	0.08982655907515999	-0.002235358779960144	0.001245165700073339	-0	-0.05750285551258283	0	-0.09478689634274365	0	-0.0006751832242284561	0	0	-2.840452745057549e-21	0
0.1008734206267634	-23.8081830066098	451.2462619040539	-0	0.3513625732163757	0	0.089821339301455	-0.03913753030503708	0.02104381057351667	-0	-0.04548978038328084	0	-0.09478689634274365	0	-0.0007057474543907075	0	0	3.689178402858361e-20	0
0.1059170916581015	-20.63719423361797	445.2068623474404	-0	0.3514379442216204	0	0.08981912802610291	-0.04164444219937474	0.02172999415673102	-0	-0.03299516819359063	0	-0.09478689634274366	0	-0.0007531183734706992	0	0	-6.381336603248302e-19	0
0.1109607626894397	-18.28597775790894	440.9203996034684	-0	0.3515512917276675	0	0.08981883460812277	-0.03332931275290769	0.01695688803563327	-0	-0.0201178155890909	0	-0.09478689634274365	0	-0.000785533547275648	0	0	-5.013343071403512e-20	0
0.1160044337207778	-15.73592008355281	438.2436480875151	-0	0.3517130675965651	0	0.08982027472187545	-0.02501719262671232	0.01246087912548963	-0	-0.006948786602191537	0	-0.09478689634274365	0	-0.0008055566678304892	0	0	-1.394995144819404e-19	0
0.121048104752116	-13.51432553934416	437.0245533325721	-0	0.3518866576896382	0	0.08982251425433942	-0.01869702256794285	0.009147851622429487	-0	0.006439985629769956	0	-0.09478689634274365	0	-0.0007965778378385452	0	0	-6.167925817910664e-20	0
0.1260917757834542	-11.13388978219842	437.1046677932841	-0	0.3520792233568866	0	0.08982558678565294	-0.0142931527126131	0.006886593921121262	-0	0.01999169214789271	0	-0.09478689634274365	0	-0.0007733978235764395	0	0	-7.733458785493984e-20	0
0.1311354468147924	-8.981188361368126	438.3412837500581	-0	0.3523015049063022	0	0.08983009382221782	-0.01131037556303346	0.005374894267199042	-0	0.03368067983537262	0	-0.09478689634274363	0	-0.000756668644792384	0	0	1.326176455199031e-19	0
0.1361791178461305	-6.932122684044345	440.6734643697007	-0	0.3525697134729174	0	0.08983651790151136	-0.009334764875760078	0.004379740564677929	-0	0.04749129621969574	0	-0.09478689634274365	0	-0.0007563205248735827	0	0	-5.396602047963924e-20	0
0.1412227888774687	-5.0870475279167	444.0576385680912	-0	0.3528786029130545	0	0.08984470591679024	-0.00806894934402934	0.003740546771603542	-0	0.06141675836408375	0	-0.09478689634274365	0	-0.0007619408381180407	0	0	3.773641869605277e-20	0
0.1462664599088069	-3.375175974273172	448.4368005156662	-0	0.3532170970199786	0	0.0898542200126924	-0.007325238150375398	0.0033576805694835	-0	0.07544711658159378	0	-0.09478689634274365	0	-0.0007583494909206157	0	0	2.068555626823709e-20	0
0.151310130940145	-1.799564286141471	453.7110591056181	-0	0.3535498581852213	0	0.0898638423406579	-0.007000386809316805	0.003175606505350737	-0	0.08956614606265693	0	-0.09478689634274365	0	-0.0007201921365355413	0	0	3.744660381349339e-20	0
0.1563538019714832	-0.1260057181206745	459.7268873711778	-0	0.3538606655351986	0	0.08987292695055575	-0.007040359456761808	0.003162859134501466	-0	0.1037653604179301	0	-0.09478689634274365	0	-0.0006485267033437858	0	0	1.841178462552237e-20	0
0.1613974730028213	1.620135384191167	466.3365674913959	-0	0.3541588126686576	0	0.08988183653487172	-0.007433516890847374	0.003308519877348237	-0	0.1180463995879562	0	-0.09478689634274365	0	-0.0005679438497560359	0	0	-2.057476696597895e-20	0
0.1664411440341595	3.383635843621178	473.4188965825192	-0	0.354446234771625	0	0.08989066428253099	-0.008213862646817787	0.003622757865876272	-0	0.1324139285362932	0	-0.09478689634274365	0	-0.0004870513145652191	0	0	1.553973269153406e-20	0
0.1714848150654977	5.179627282588422	480.8317604028168	-0	0.3547129191347873	0	0.08989904241733847	-0.009463776249796869	0.004137059482420761	-0	0.1468737077084482	0	-0.09478689634274365	0	-0.0003994285228663375	0	0	3.201105448694322e-21	0
0.1765284860968358	7.065127501033226	488.3926887718328	-0	0.3549521460301157	0	0.08990670587835427	-0.01132422334076859	0.004907384837684125	-0	0.1614315968605171	0	-0.09478689634274365	0	-0.0003049609842077365	0	0	-5.017062255525782e-20	0
0.181572157128174	9.050710444193076	495.9167536113035	-0	0.3551615498241885	0	0.08991356359341218	-0.01401398744560523	0.006021505454299853	-0	0.1760929741511962	0	-0.09478689634274365	0	-0.0002081156001448053	0	0	4.431332127971924e-20	0
0.1866158281595122	11.10925598978636	503.2494652300845	-0	0.3553292872237716	0	0.08991920660520202	-0.01785604281066883	0.007608844089462273	-0	0.1908637575542509	0	-0.09478689634274365	0	-0.0001034450037187739	0	0	-7.930213490811103e-21	0
0.1916594991908503	13.28538958005224	510.262817851359	-0	0.3554312233959308	0	0.08992277474679353	-0.02331219894913785	0.009853472058352703	-0	0.2057508452468089	0	-0.09478689634274365	0	2.149475124134877e-05	0	0	-7.960508393255739e-20	0
0.1967031702221885	15.72526739020175	516.8265768736032	-0	0.3554683914649879	0	0.08992425691060998	-0.03104146013445629	0.01301746245763821	-0	0.2207600099432464	0	-0.09478689634274365	0	0.0001518449157755716	0	0	1.792593447581576e-19	0
0.2017468412535267	18.36782026395603	522.8741252732577	-0	0.3554726751383698	0	0.0899247935802423	-0.04201164608906579	0.01748637311201236	-0	0.2358908273867857	0	-0.09478689634274365	0	0.0002555605850093392	0	0	-3.222870574518569e-20	0
0.2067905122848649	21.14459206444304	528.3841721643196	-0	0.3554849049802031	0	0.0899258186205079	-0.05760808013395908	0.02380980157432399	-0	0.2511416970329286	0	-0.09478689634274363	0	0.0003046497075579376	0	0	1.143180901375726e-18	0
0.211834183316203	23.93997175572694	533.4216188880509	-0	0.3555590043326037	0	0.08992920830319816	-0.07973887488324274	0.03273886605392342	-0	0.2665125772689384	0	-0.09478689634274365	0	0.0002754039905210393	0	0	4.131269178923799e-19	0
0.2168778543475412	26.57718734687066	538.0981203408153	-0	0.3557186416477457	0	0.08993579105381116	-0.1110332199374033	0.04530680221589873	-0	0.2820025652145712	0	-0.09478689634274365	0	0.0001783969524655675	0	0	-6.243538002801419e-19	0
0.2219215253788794	29.15739987034261	542.509723550467	-0	0.3559489067963786	0	0.08994495115235954	-0.155211761689429	0.06298044706816623	-0	0.2976047551718702	0	-0.09478689634274365	0	5.139050620273892e-05	0	0	-8.454838244743949e-19	0
0.2269651964102175	31.75560531661709	546.7711863562112	-0	0.3562346502887951	0	0.08995611095354522	-0.217312484812876	0.08773810612442516	-0	0.3133124412571994	0	-0.09478689634274366	0	-7.973094728879811e-05	0	0	-2.313105323213298e-18	0
0.2320088674415557	34.41773942369372	551.0538936462858	-0	0.3565590288047001	0	0.08996867787341724	-0.3034243359418778	0.121942757047695	-0	0.3291263332230664	0	-0.09478689634274365	0	-0.000200780702126127	0	0	1.246065903998242e-18	0
0.2370525384728938	37.2259722804321	555.4627968173971	-0	0.3569167199704377	0	0.08998245552719891	-0.4202693270128063	0.1681714934031529	-0	0.3450516360849986	0	-0.09478689634274365	0	-0.0003118669570072852	0	0	2.096265635682072e-18	0
0.242096209504232	40.16003730702595	559.7500925718421	-0	0.3573102646016832	0	0.08999755572961757	-0.5742065202983053	0.2288251771125999	-0	0.3610970924849206	0	-0.09478689634274365	0	-0.0004214222955219714	0	0	3.254210828825095e-18	0
0.2471398805355702	43.1000464339817	563.6341487149209	-0	0.3577492693051172	0	0.09001437002804001	-0.768629560428265	0.3050605082153228	-0	0.3772746090838353	0	-0.09478689634274365	0	-0.0005461290947024603	0	0	3.503519366119595e-18	0
0.2521835515669084	45.81734935276226	567.2183280791911	-0	0.358266504784434	0	0.09003412653406956	-0.9961636439270896	0.3936359088587039	-0	0.3936149037488282	0	-0.09478689634274363	0	-0.0007183664341574809	0	0	1.51623005830276e-17	0
0.2572272225982465	48.44707431663127	570.5906643373584	-0	0.3589005462078782	0	0.09005808529495211	-1.237334207809879	0.4866746897477561	-0	0.4101503426986269	0	-0.09478689634274365	0	-0.0009613401045475746	0	0	-4.836071069892499e-18	0
0.2622708936295847	51.22439452071742	573.5239726707298	-0	0.3596781685898484	0	0.09008705706486898	-1.472276887288334	0.5766030057906086	-0	0.4268862623597939	0	-0.09478689634274365	0	-0.001276753029895549	0	0	-3.764749453073083e-18	0
0.2673145646609228	54.80382337290342	576.037586181527	-0	0.3607871837102792	0	0.09012736523789121	-1.682921026203453	0.6567303700773105	-0	0.4438132877142772	0	-0.09478689634274365	0	-0.001855443468493828	0	0	-1.078965439320614e-17	0
0.272358235692261	58.67604597070314	578.8401271849283	-0	0.3625941863199154	0	0.09019201801236301	-1.858085167413186	0.7230733590133908	-0	0.4609062440067009	0	-0.09478689634274363	0	-0.003027778665607219	0	0	3.137411487119806e-17	0
0.2774019067235992	63.0248373965993	584.2038314837448	-0	0.3658838922584496	0	0.09030842027696323	-1.99415707189906	0.7745609816320133	-0	0.4781358397067063	0	-0.09478689634274365	0	-0.005630699217976772	0	0	9.048247320286e-18	0
0.2824455777549374	65.31022727704227	596.2027330898951	-0	0.3716467149645533	0	0.09051207536071616	-2.093519282378335	0.8123111968131073	-0	0.4954693930079121	0	-0.09478689634273978	0	-0.01067171280717745	0	0	1.44981610118608e-16	0
0.2874892487862756	61.11484814630686	616.2994861296954	-0	0.3797536771559658	0	0.09079938807232743	-2.159532417393093	0.8376452446017418	-0	0.5128766831956508	0	-0.09478689634272625	0	-0.01688482365459185	0	0	6.767191277435452e-16	0
0.2925329198176137	53.53507219760436	639.2426025813809	-0	0.3888911229377463	0	0.0911225235923246	-2.187713901339464	0.8486719105292707	-0	0.5303414342090269	0	-0.09478689634267692	0	-0.02096482802459622	0	0	2.552289830916591e-15	0
0.2975765908489518	45.95387202613022	657.4108923116595	-0	0.3977864930835924	0	0.09143578247065923	-2.17396095880917	0.843689519394234	-0	0.5478537095151477	0	-0.09478689634246364	0	-0.02098434443970087	0	0	9.974717808837899e-15	0
0.30262026188029	40.02517754291148	666.8593856821001	-0	0.4059644629951838	0	0.09172258464084423	-2.11690950363958	0.8221316148956894	-0	0.5654079083887043	0	-0.09478689634160513	0	-0.01783660993834549	0	0	3.662122377307031e-14	0
0.3076639329116282	35.95568622499377	668.7743545375255	-0	0.4136510363326685	0	0.09199143008588007	-2.015274275424305	0.7833868060182063	-0	0.5829995164168685	0	-0.09478689633818217	0	-0.01333737047701933	0	0	1.300978596655391e-13	0
0.3127076039429664	32.29359811841363	665.7382993139031	-0	0.4210578266336718	0	0.09225045668420644	-1.864206031783803	0.7253752604892333	-0	0.6006343342818484	0	-0.09478689632467972	0	-0.008362859678461773	0	0	4.441253934065844e-13	0
0.3177512749743046	29.08275799990407	659.2165655506767	-0	0.4282219586579118	0	0.09250104667560276	-1.662995654718839	0.6476716860006522	-0	0.6183234500526505	0	-0.09478689627134158	0	-0.003328680954909636	0	0	1.463066313125112e-12	0
0.3227949460056427	26.36373740548201	650.2400663447459	-0	0.4351342525272609	0	0.09274291467128069	-1.416477822592347	0.5520651827826981	-0	0.6360867802470765	0	-0.09478689605744182	0	0.001455610133685676	0	0	4.668260113462733e-12	0
0.3278386170369809	24.43282250731319	639.770548030086	-0	0.4417911641001521	0	0.09297588341631033	-1.144403710338506	0.4463161583516663	-0	0.6539433081543946	0	-0.09478689517900071	0	0.005739322137581195	0	0	1.443275921616476e-11	0
0.332882288068319	23.45169632319343	628.4097269330016	-0	0.4481721258850646	0	0.09319920548617283	-0.8900319682929971	0.3475275475386877	-0	0.6718734716170027	0	-0.0947868915609609	0	0.009332084383545181	0	0	4.285269493434716e-11	0
0.3379259590996572	23.15361912150946	616.8663851351845	-0	0.4542467496901854	0	0.09341193556256239	-0.6766569589770005	0.264742373872788	-0	0.6898364391927821	0	-0.09478687681944505	0	0.01210904582117192	0	0	1.218251003404979e-10	0
0.3429696301309954	23.11508900723922	605.7144421989894	-0	0.4599746018004409	0	0.09361280661176645	-0.5081732518098785	0.1993716136976155	-0	0.7077852069819675	0	-0.09478681783074309	0	0.01400710965181124	0	0	3.319738844981071e-10	0
0.3480133011623335	23.27944752978345	595.2746510532323	-0	0.4653260869180933	0	0.09380079109447025	-0.3821810515734849	0.1504744134046729	-0	0.7256688403173851	0	-0.09478658929681279	0	0.01501360129279238	0	0	8.654899433645524e-10	0
0.3530569721936717	23.54281400400564	585.685437809509	-0	0.4702762763815625	0	0.09397503317675519	-0.288629603526058	0.1141122010557221	-0	0.743440140431371	0	-0.09478573089309342	0	0.01515729471625753	0	0	2.162266399866084e-09	0
0.3581006432250098	23.8914053597317	576.9990830126266	-0	0.4748071724883998	0	0.0941348754478518	-0.2192349771430322	0.08707479101437049	-0	0.7610328462355248	0	-0.09478260850274342	0	0.01450465661377249	0	0	5.17044577973894e-09	0
0.363144314256348	24.29323488522378	569.188869308314	-0	0.478901094663012	0	0.09427966807327597	-0.1681307489883004	0.06710949547078597	-0	0.7782899055484532	0	-0.09477167106405823	0	0.01315524261937689	0	0	1.176716626499477e-08	0
0.3681879852876862	24.70431496263624	562.3103519782088	-0	0.4825345798555562	0	0.09440854349890747	-0.1303938011256133	0.05231014580001303	-0	0.7947332081875063	0	-0.09473479022872554	0	0.01125064758709189	0	0	2.531914923968043e-08	0
0.3732316563190244	25.07943095607398	556.4380586604341	-0	0.4856657484647779	0	0.09451995248763957	-0.1018952513804646	0.04105833979388913	-0	0.8088451298793925	0	-0.09461358056228172	0	0.008983331931047247	0	0	5.094810073942718e-08	0
0.3782753273503625	25.80071997801055	551.6710711354733	-0	0.4882240780688048	0	0.09461103548624068	-0.08175072990415826	0.03305231075822566	-0	0.8159551967523319	0	-0.09423457984363783	0	0.006627352016847286	0	0	9.103418513508275e-08	0
0.3833189983817007	27.32558575467841	548.1841921608423	-0	0.4901208103898143	0	0.09467819329464908	-0.07357755555368088	0.02982586874722234	-0	0.8060655130835847	0	-0.09324281213090943	0	0.004546766174783208	0	0	1.226972034841728e-07	0
0.3883626694130389	29.78202520826673	546.0110728640273	-0	0.4913407539263955	0	0.09472064362895058	-0.08818691441140608	0.03581992744669429	-0	0.7771479756882563	0	-0.09160580178640046	0	0.003054126480430784	0	0	8.550098129111289e-08	0
0.3934063404443771	33.01555071789767	544.5301449257433	-0	0.4920566819043241	0	0.09474462138443863	-0.1506564186064297	0.06128277970682022	-0	0.7555159670087306	0	-0.09030068042178205	0	0.002136109087128911	0	0	-3.347521558858867e-09	0
0.3984500114757152	36.70888500515129	542.8364951119979	-0	0.4925285213854795	0	0.09475971505049761	-0.3137778873965332	0.1278001890989613	-0	0.7543264111436297	0	-0.08976214636135245	0	0.00149893500710982	0	0	-5.470988160837841e-08	0
0.4034936825070534	40.61932172269438	540.6232945118462	-0	0.4928856566233005	0	0.09477076999747042	-0.6816441763103382	0.2780230023649919	-0	0.763823151513486	0	-0.08960934818817202	0	0.0009671206080922006	0	0	-5.380066551233315e-08	0
0.4085373535383915	44.69635292189876	537.9835535219341	-0	0.4931456535361584	0	0.09477844636088587	-1.438793671756636	0.5880940263463144	-0	0.7766984793266459	0	-0.08957527133958493	0	0.0005495254117836664	0	0	-2.882449294086248e-08	0
0.4135810245697297	48.91546032154218	535.0072752695617	-0	0.4933169241640163	0	0.09478305235482197	-2.850655648701121	1.170102508714777	-0	0.7903782050943373	0	-0.08956954542241102	0	0.0002704975410574108	0	0	-7.394698314157282e-09	0
0.4186246956010679	53.09416003648157	531.7405629810019	-0	0.4934192475235791	0	0.09478542554118914	-5.198463288389854	2.1495184485806	-0	0.8041671874630545	0	-0.08956896335885869	0	0.0001118044114806316	0	0	3.643751987627406e-10	0
0.423668366632406	57.05204369922898	528.2345842957943	-0	0.4934741844648303	0	0.09478646693992866	-8.631014835208708	3.607912134300436	-0	0.8178945474163678	0	-0.0895689744502156	0	3.521189681320673e-05	0	0	4.056010376116504e-11	0
0.4287120376637442	60.91283189406987	524.4169532527632	-0	0.4935023236605094	0	0.09478682941637895	-13.00912660861615	5.520266466973569	-0	0.8314828202074507	0	-0.08956897506963614	0	5.911858865139733e-06	0	0	1.110879975614658e-12	0
0.4337557086950824	64.84687829285124	520.1656868256821	-0	0.4935177608762339	0	0.09478690441354837	-17.90664399459448	7.74900592151577	-0	0.8448446683165808	0	-0.08956897507890911	0	-7.669637177887731e-07	0	0	3.401842147731754e-14	0
0.4387993797264205	68.85910992793279	515.4063146270473	-0	0.4935263647083299	0	0.0947869027122212	-22.82520069056049	10.12433924831141	-0	0.857873060662643	0	-0.08956897507908025	0	-6.50431065321456e-07	0	0	2.635877272208164e-15	0
0.4438430507577587	72.94201077639681	510.0872852778623	-0	0.4935300350462593	0	0.09478689786695622	-27.44222503363673	12.54483760502222	-0	0.8704502153773964	0	-0.08956897507908651	0	-1.671009279423114e-07	0	0	1.100302125287845e-15	0
0.4488867217890969	77.24723112615533	504.0432504523403	-0	0.4935323066008739	0	0.09478689658262812	-31.86816204399866	15.09299467032834	-0	0.8824562773939905	0	-0.08956897507908609	0	-2.820314633590653e-08	0	0	1.627798891339841e-15	0
0.4539303928204351	81.99132106760499	497.019693477351	-0	0.4935376640095841	0	0.09478689637143131	-36.80427166568729	18.14162085032866	-0	0.8937709202795407	0	-0.08956897507908064	0	-3.612554516517e-09	0	0	4.485569415896475e-15	0
0.4589740638517733	86.83832946059859	488.9330862716128	-0	0.4935392476447571	0	0.09478689634543673	-43.39676176640895	22.37493629315807	-0	0.9042721290906884	0	-0.08956897507903108	0	-3.629294622245776e-10	0	0	4.251654222500328e-14	0
0.4640177348831114	91.33408402152781	479.7234696314964	-0	0.4935286259669043	0	0.09478689634294041	-53.76686440028811	29.23747397115034	-0	0.9138115255300006	0	-0.08956897507956375	0	-2.836466907811644e-11	0	0	-4.582199467842143e-13	0
0.4690614059144495	95.5496539396474	468.9804659561813	-0	0.4935096641513685	0	0.09478689634275436	-73.57187011469885	42.79195587615926	-0	0.9222433085533698	0	-0.08956897507975108	0	-1.652176770556706e-12	0	0	-8.523558865332694e-13	0
0.4741050769457877	99.56105888806213	455.9073324959731	-0	0.4934881576765013	0	0.09478689634274402	-118.4566603193719	76.26881328213098	-0	0.9292756578819608	0	-0.08956897507979705	0	-6.344426310344033e-14	0	0	-1.11139967295013e-12	0
0.4791487479771259	103.2048648017538	439.3071955627437	-0	0.4934677024783329	0	0.09478689634274366	-212.3908522301959	164.6567747047475	-0	0.9345233199205597	0	-0.08956897508038474	0	-2.780521350757334e-15	0	0	5.000405912728197e-13	0
0.484192419008464	105.8432518054057	416.810368852151	-0	0.4934506772197128	0	0.09478689634274365	-331.5080487499765	365.4160291214963	-0	0.9374700507627647	0	-0.08956897508793139	0	-2.235226786750908e-16	0	0	1.304567174557343e-10	0
0.4892360900398022	106.2642851851687	389.5186610623658	-0	0.4934088533554032	0	0.09478689634274365	-79.79126546525333	624.7544875150741	-0	0.9406244891450016	0	-0.0895689751972667	0	-5.519617237827889e-16	0	0	2.556994728751029e-08	0
0.4942797610711404	105.2143543077745	356.6068553088114	-0	0.4933732154056982	0	0.09478689634274365	-268.0032212252743	828.2364339273254	-0	0.9400700043167448	0	-0.08956897666771713	0	-7.652847044685219e-16	0	0	4.032616848559604e-07	0
0.4993234321024785	102.0591387680465	319.7109400185606	-0	0.4933241826960545	0	0.09478689634274365	-136.2393259390334	941.2198425561178	-0	0.9417413714449785	0	-0.08956899952718946	0	1.564090357609063e-16	0	0	8.297485898288226e-06	0
0.5043671031338167	97.61928747851279	283.0127059807422	-0	0.4932555057573594	0	0.09478689634274365	-259.4067600299923	965.4863125444376	-0	0.9415611796678245	0	-0.08956932934150494	0	-5.431896179500823e-16	0	0	0.0001180554358157901	0
0.5094107741651549	92.41936200036562	247.5628262675923	-0	0.4931731482313529	0	0.09478689634274365	-150.9277795339352	951.5897877112692	-0	0.9433144782041911	0	-0.08957324072862086	0	-6.086536745623221e-16	0	0	0.001311385966756551	0
0.5144544451964931	86.32047338866944	214.8341780263274	-0	0.4930532519004752	0	0.09478689634274363	-227.2586666902095	918.9281917993567	-0	0.9441785215596102	0	-0.0896012809917533	0	1.501922947517743e-15	0	0	0.007572444984270766	0
0.5194981162278313	79.40540468462541	184.1929709156133	-0	0.4929014736437651	0	0.09478689634274365	-155.6696966712184	904.4588523994244	-0	0.9481711082474975	0	-0.08969085733919241	0	-5.246196460260788e-17	0	0	0.02086692151865704	0
0.5245417872591693	71.65384050830511	155.5346832137197	-0	0.4927136315625195	0	0.09478689634274365	-208.8395891631505	891.4880887108371	-0	0.9513261123703222	0	-0.08979765412437182	0	-2.72434270986187e-17	0	0	0.02420685939391514	0
0.5295854582905075	63.02311651788416	128.4102834011236	-0	0.492490324457364	0	0.09478689634274365	-163.0453217292173	889.3672842100394	-0	0.9565958133711331	0	-0.08994838469820164	0	-3.825690449599215e-17	0	0	0.0227265521907722	0
0.5346291293218457	53.52743589595988	103.484312662948	-0	0.4922068931547008	0	0.09478689634274365	-184.7282965040971	856.7833002173579	-0	0.9585724394918494	0	-0.09001510693818511	0	2.561097863543544e-16	0	0	0.01133113791558819	0
0.5396728003531839	43.20884783755318	80.65848976275113	-0	0.4918493949610365	0	0.09478689634274365	-132.5160282858338	799.4388856946667	-0	0.9596746186094275	0	-0.09002879682784791	0	2.229994626635052e-16	0	0	0.005255603108168158	0
0.5447164713845221	32.46159644879469	59.8917905538651	-0	0.4914192760412716	0	0.09478689634274365	-132.4989679907908	732.3757832422657	-0	0.9590562909091472	0	-0.09000419166636968	0	6.109470618224643e-17	0	0	0.001571354732530937	0
0.5497601424158602	19.34199150446986	39.32874626691384	-0	0.4907482402188323	0	0.09478689634274365	-96.26382110333196	676.6582645815181	-0	0.9590808871986152	0	-0.0899860718879789	0	1.042112400406761e-16	0	0	0.0006347235010953451	0
0.5548038134471984	3.840627472082018	17.17417535372309	-0	0.4894483249993461	0	0.09478689634274365	-94.63264875381375	630.4526190664343	-0	0.9582739332624958	0	-0.08995401388274536	0	-1.164628238531772e-17	0	0	-8.221828927352628e-05	0
0.5598474844785366	0.3511681787344219	-0.6160903129514216	-0	0.4874107803751558	0	0.09478689634274365	-73.54774966505818	598.4213214328068	-0	0.9581695088339155	0	-0.08993615342202234	0	3.105880681419657e-18	0	0	7.425966325289038e-05	0
0.5648911555098747	0.0447696574117059	-0.04426145295833105	-0	0.48875849328341	0	0.09478689634274365	-71.64621140012017	572.3669986212055	-0	0.957655870896774	0	-0.08991335365550086	0	8.726592792431144e-20	0	0	7.670821193864523e-05	0
0.5699348265412129	0.001166977890051242	-0.0009896087411793489	-0	0.4929989177161208	0	0.09478689634274365	-58.41805115773506	550.5095743531892	-0	0.957591210965297	0	-0.08990012534581125	0	-5.745085561031127e-21	0	0	0.00036186959331739	0
0.574978497572551	0.000285647110688037	-0.0002149911714677277	-0	0.4991620230734319	0	0.09478689634274365	-55.1564863048651	530.0634090006281	-0	0.9572728423131198	0	-0.0898833386443629	0	1.118796412330049e-21	0	0	0.0004352810451168513	0
0.5800221686038892	0.0005463727440893075	-0.0003775988727033028	-0	0.5068659880058299	0	0.09478689634274365	-45.81147070037351	511.6164978064822	-0	0.9571619605101046	0	-0.08987049463562015	0	-2.368518376159362e-21	0	0	0.0005709656727853424	0
0.5850658396352274	0.001967349278254416	-0.001271235621499329	-0	0.5157467348752977	0	0.09478689634274365	-41.87456926712846	495.1099107758507	-0	0.9569180597963076	0	-0.08985605942598544	0	6.054693256587157e-21	0	0	0.0005820624118462066	0
0.5901095106665656	0.006227775894405208	-0.003798801797103812	-0	0.525606581547002	0	0.09478689634274365	-35.15415746680365	481.0948686170904	-0	0.9568006339556563	0	-0.08984457101487733	0	-4.621463985886824e-21	0	0	0.0006299056804364892	0
0.5951531816979038	0.014079605826662	-0.008176194441525304	-0	0.536315442449026	0	0.09478689634274365	-31.43854271606943	469.1289470997866	-0	0.9566562389736563	0	-0.08983397939435146	0	7.036272574534014e-20	0	0	0.0006371360706252664	0
0.6001968527292418	-0.002235358779960067	0.001245165700073296	-0	0.5477376682479947	0	0.09478689634274365	-26.71089851199644	459.2183313095952	-0	0.9566149988441538	0	-0.08982655907515999	0	-9.890008623655971e-21	0	0	0.0006751832242283889	0
0.60524052376058	-0.03913753030503875	0.02104381057351756	-0	0.5597507433772965	0	0.09478689634274365	-23.8081830066099	451.2462619040558	-0	0.956603096976953	0	-0.08982133930145501	0	-4.483596920996625e-20	0	0	0.0007057474543901297	0
0.6102841947919182	-0.04164444219937891	0.0217299941567332	-0	0.5722453555669866	0	0.09478689634274365	-20.63719423361806	445.2068623474423	-0	0.9566784679821978	0	-0.0898191280261029	0	-1.693050556317963e-19	0	0	0.0007531183734710296	0
0.6153278658232564	-0.03332931275290749	0.01695688803563317	-0	0.5851227081714864	0	0.09478689634274365	-18.28597775790902	440.9203996034702	-0	0.9567918154882449	0	-0.08981883460812279	0	-1.657139806353929e-19	0	0	0.0007855335472755074	0
0.6203715368545946	-0.0250171926267122	0.01246087912548957	-0	0.598291737158386	0	0.09478689634274365	-15.73592008355289	438.243648087517	-0	0.9569535913571425	0	-0.08982027472187547	0	-9.483169272044304e-20	0	0	0.0008055566678301339	0
0.6254152078859327	-0.01869702256794278	0.009147851622429447	-0	0.6116805093903476	0	0.09478689634274365	-13.51432553934423	437.024553332574	-0	0.9571271814502156	0	-0.08982251425433942	0	9.455288145535727e-20	0	0	0.0007965778378385397	0
0.6304588789172709	-0.01429315271261305	0.00688659392112124	-0	0.6252322159084701	0	0.09478689634274365	-11.13388978219848	437.104667793286	-0	0.9573197471174641	0	-0.08982558678565294	0	-2.54411883229567e-20	0	0	0.000773397823576281	0
0.6355025499486091	-0.01131037556303343	0.005374894267199028	-0	0.6389212035959499	0	0.09478689634274365	-8.981188361368176	438.3412837500601	-0	0.9575420286668794	0	-0.08983009382221779	0	-4.434308276025222e-21	0	0	0.0007566686447924952	0
0.6405462209799473	-0.009334764875760041	0.004379740564677912	-0	0.6527318199802733	0	0.09478689634274365	-6.932122684044385	440.6734643697026	-0	0.9578102372334949	0	-0.08983651790151137	0	-3.801738513078589e-20	0	0	0.0007563205248735597	0
0.6455898920112855	-0.008068949344029314	0.00374054677160353	-0	0.6666572821246611	0	0.09478689634274365	-5.087047527916731	444.0576385680932	-0	0.9581191266736319	0	-0.08984470591679022	0	-1.050723649045606e-20	0	0	0.0007619408381181494	0
0.6506335630426237	-0.007325238150375377	0.00335768056948349	-0	0.6806876403421713	0	0.09478689634274363	-3.375175974273197	448.4368005156683	-0	0.9584576207805562	0	-0.0898542200126924	0	-1.17722707997615e-19	0	0	0.0007583494909206173	0
0.6556772340739617	-0.00700038680931679	0.00317560650535073	-0	0.6948066698232342	0	0.09478689634274365	-1.799564286141488	453.7110591056201	-0	0.9587903819457987	0	-0.08986384234065789	0	5.749489595747323e-22	0	0	0.0007201921365355364	0
0.6607209051052999	-0.007040359456761789	0.003162859134501459	-0	0.7090058841785075	0	0.09478689634274365	-0.1260057181206826	459.72688737118	-0	0.959101189295776	0	-0.08987292695055574	0	-1.019337880645971e-20	0	0	0.000648526703343795	0
0.6657645761366381	-0.007433516890847352	0.003308519877348227	-0	0.7232869233485335	0	0.09478689634274365	1.620135384191168	466.336567491398	-0	0.9593993364292348	0	-0.08988183653487172	0	2.51957159292178e-20	0	0	0.0005679438497560481	0
0.6708082471679763	-0.008213862646817765	0.003622757865876263	-0	0.7376544522968704	0	0.09478689634274365	3.383635843621187	473.4188965825214	-0	0.9596867585322023	0	-0.08989066428253101	0	1.528690636988646e-20	0	0	0.0004870513145651763	0
0.6758519181993144	-0.009463776249796848	0.004137059482420752	-0	0.7521142314690256	0	0.09478689634274365	5.179627282588442	480.831760402819	-0	0.9599534428953644	0	-0.08989904241733847	0	-2.478584658363713e-20	0	0	0.0003994285228663733	0
0.6808955892306525	-0.01132422334076855	0.004907384837684109	-0	0.7666721206210946	0	0.09478689634274365	7.065127501033256	488.3926887718351	-0	0.9601926697906933	0	-0.08990670587835428	0	6.660743419338313e-20	0	0	0.000304960984207774	0
0.6859392602619907	-0.01401398744560519	0.006021505454299836	-0	0.7813334979117735	0	0.09478689634274365	9.050710444193115	495.9167536113058	-0	0.9604020735847657	0	-0.08991356359341217	0	7.694625075113271e-20	0	0	0.0002081156001447518	0
0.6909829312933289	-0.01785604281066877	0.007608844089462247	-0	0.7961042813148284	0	0.09478689634274365	11.10925598978641	503.2494652300869	-0	0.960569810984349	0	-0.08991920660520202	0	4.799875047870933e-20	0	0	0.0001034450037187431	0
0.6960266023246671	-0.02331219894913778	0.009853472058352677	-0	0.8109913690073863	0	0.09478689634274365	13.28538958005231	510.2628178513614	-0	0.9606717471565083	0	-0.08992277474679353	0	7.655946816081367e-21	0	0	-2.149475124124685e-05	0
0.7010702733560052	-0.0310414601344562	0.01301746245763817	-0	0.8260005337038238	0	0.09478689634274365	15.72526739020183	516.8265768736057	-0	0.9607089152255655	0	-0.08992425691060997	0	-1.607755489052022e-19	0	0	-0.0001518449157757422	0
0.7061139443873434	-0.04201164608906567	0.01748637311201231	-0	0.841131351147363	0	0.09478689634274365	18.36782026395611	522.87412527326	-0	0.9607131988989471	0	-0.08992479358024232	0	1.267556071442773e-19	0	0	-0.0002555605850094104	0
0.7111576154186816	-0.05760808013395887	0.0238098015743239	-0	0.856382220793506	0	0.09478689634274365	21.14459206444314	528.3841721643219	-0	0.9607254287407804	0	-0.08992581862050791	0	-1.258747316162969e-19	0	0	-0.0003046497075574559	0
0.7162012864500198	-0.07973887488324248	0.0327388660539233	-0	0.8717531010295159	0	0.09478689634274365	23.93997175572705	533.4216188880533	-0	0.9607995280931813	0	-0.08992920830319814	0	-2.52852769940787e-19	0	0	-0.0002754039905213618	0
0.721244957481358	-0.1110332199374029	0.04530680221589857	-0	0.8872430889751487	0	0.09478689634274365	26.57718734687078	538.0981203408178	-0	0.9609591654083232	0	-0.08993579105381116	0	2.214386324278762e-19	0	0	-0.0001783969524658062	0
0.726288628512696	-0.1552117616894287	0.06298044706816606	-0	0.9028452789324477	0	0.09478689634274365	29.15739987034273	542.5097235504693	-0	0.9611894305569562	0	-0.08994495115235955	0	4.425686566221291e-19	0	0	-5.139050620244731e-05	0
0.7313322995440342	-0.2173124848128752	0.08773810612442483	-0	0.9185529650177766	0	0.09478689634274363	31.75560531661724	546.7711863562137	-0	0.9614751740493724	0	-0.08995611095354521	0	-2.847193950651586e-18	0	0	7.973094728813786e-05	0
0.7363759705753724	-0.3034243359418767	0.1219427570476946	-0	0.9343668569836437	0	0.09478689634274365	34.41773942369389	551.0538936462884	-0	0.9617995525652774	0	-0.08996867787341722	0	1.072194854091756e-18	0	0	0.0002007807021256975	0
0.7414196416067106	-0.420269327012857	0.1681714934031732	-0	0.9502921598455756	0	0.09478689634274366	37.22597228043227	555.4627968173996	-0	0.9621572437310152	0	-0.08998245552719891	0	7.657976019565645e-18	0	0	0.0003118669570064474	0
0.7464633126380488	-0.574206520298303	0.228825177112599	-0	0.9663376162454981	0	0.09478689634274366	40.16003730702614	559.7500925718446	-0	0.9625507883622607	0	-0.0899975557296176	0	5.766461362578278e-18	0	0	0.0004214222955228369	0
0.7515069836693868	-0.768629560428305	0.3050605082153388	-0	0.9825151328444126	0	0.09478689634274365	43.10004643398188	563.6341487149233	-0	0.9629897930656948	0	-0.09001437002804001	0	-3.694179810472778e-18	0	0	0.0005461290947031025	0
0.756550654700725	-0.9961636439270857	0.3936359088587023	-0	0.9988554275094055	0	0.09478689634274365	45.81734935276246	567.2183280791937	-0	0.9635070285450114	0	-0.09003412653406954	0	5.041436266589974e-18	0	0	0.000718366434156994	0
0.7615943257320632	-1.237334207809909	0.4866746897477678	-0	1.015390866459204	0	0.09478689634274365	48.44707431663147	570.590664337361	-0	0.9641410699684556	0	-0.0900580852949521	0	-5.945502358005955e-18	0	0	0.0009613401045468076	0
0.7666379967634014	-1.472276887288362	0.5766030057906194	-0	1.032126786120371	0	0.09478689634274365	51.22439452071764	573.5239726707323	-0	0.9649186923504258	0	-0.090087057064869	0	-2.150065219872651e-18	0	0	0.001276753029895923	0
0.7716816677947396	-1.682921026203476	0.6567303700773194	-0	1.049053811474855	0	0.09478689634274365	54.80382337290365	576.0375861815296	-0	0.9660277074708566	0	-0.09012736523789122	0	1.368740827507495e-17	0	0	0.001855443468494653	0
0.7767253388260777	-1.858085167413205	0.7230733590133982	-0	1.066146767767278	0	0.09478689634274365	58.67604597070336	578.8401271849309	-0	0.9678347100804927	0	-0.090192018012363	0	3.346115376492845e-19	0	0	0.003027778665606731	0
0.7817690098574159	-1.994157071899101	0.7745609816320294	-0	1.083376363467284	0	0.09478689634274365	63.02483739659954	584.2038314837474	-0	0.9711244160190274	0	-0.09030842027696324	0	-1.148827666868338e-18	0	0	0.005630699217977013	0
0.7868126808887541	-2.09351928237835	0.8123111968131129	-0	1.10070991676849	0	0.09478689634273978	65.3102272770425	596.2027330898978	-0	0.9768872387251307	0	-0.09051207536071616	0	-1.436637401674795e-16	0	0	0.01067171280717672	0
0.7918563519200923	-2.159532417393131	0.8376452446017566	-0	1.118117206956228	0	0.09478689634272625	61.11484814630705	616.2994861296984	-0	0.9849942009165433	0	-0.09079938807232743	0	-6.648738982909303e-16	0	0	0.0168848236545915	0
0.7969000229514305	-2.187713901339496	0.8486719105292834	-0	1.135581957969604	0	0.09478689634267694	53.53507219760449	639.2426025813837	-0	0.9941316466983238	0	-0.0911225235923246	0	-2.529947928174385e-15	0	0	0.02096482802459657	0
0.8019436939827685	-2.173960958809205	0.8436895193942474	-0	1.153094233275725	0	0.09478689634246364	45.95387202613031	657.4108923116625	-0	1.00302701684417	0	-0.09143578247065923	0	-9.966556375214682e-15	0	0	0.02098434443970132	0
0.8069873650141067	-2.116909503639612	0.8221316148957014	-0	1.170648432149282	0	0.09478689634160511	40.02517754291155	666.8593856821028	-0	1.011204986755761	0	-0.09172258464084425	0	-3.664612415619301e-14	0	0	0.01783660993834635	0
0.8120310360454449	-2.01527427542434	0.7833868060182198	-0	1.188240040177446	0	0.09478689633818216	35.95568622499381	668.7743545375283	-0	1.018891560093246	0	-0.09199143008588008	0	-1.301176657808331e-13	0	0	0.0133373704770202	0
0.8170747070767831	-1.864206031783833	0.7253752604892452	-0	1.205874858042426	0	0.09478689632467971	32.29359811841368	665.7382993139063	-0	1.026298350394249	0	-0.09225045668420644	0	-4.441544164306807e-13	0	0	0.008362859678462132	0
0.8221183781081213	-1.662995654718872	0.6476716860006649	-0	1.223563973813228	0	0.09478689627134157	29.0827579999041	659.2165655506797	-0	1.03346248241849	0	-0.09250104667560277	0	-1.463076363635876e-12	0	0	0.003328680954909773	0
0.8271620491394593	-1.41647782259238	0.5520651827827107	-0	1.241327304007654	0	0.09478689605744182	26.36373740548202	650.2400663447486	-0	1.040374776287838	0	-0.09274291467128068	0	-4.668261423541817e-12	0	0	-0.001455610133686056	0
0.8322057201707975	-1.14440371033852	0.4463161583516718	-0	1.259183831914972	0	0.09478689517900071	24.43282250731318	639.7705480300884	-0	1.04703168786073	0	-0.09297588341631033	0	-1.443275835878582e-11	0	0	-0.005739322137581856	0
0.8372493912021357	-0.8900319682930138	0.3475275475386941	-0	1.27711399537758	0	0.0947868915609609	23.45169632319346	628.4097269330045	-0	1.053412649645642	0	-0.09319920548617283	0	-4.28526984833156e-11	0	0	-0.009332084383545084	0
0.8422930622334739	-0.6766569589770172	0.2647423738727944	-0	1.295076962953359	0	0.09478687681944505	23.15361912150948	616.8663851351872	-0	1.059487273450763	0	-0.0934119355625624	0	-1.218251038897118e-10	0	0	-0.0121090458211715	0
0.8473367332648121	-0.508173251809876	0.1993716136976145	-0	1.313025730742545	0	0.09478681783074309	23.1150890072392	605.7144421989915	-0	1.065215125561018	0	-0.09361280661176646	0	-3.319738800916311e-10	0	0	-0.01400710965181069	0
0.8523804042961503	-0.3821810515734842	0.1504744134046726	-0	1.330909364077963	0	0.09478658929681279	23.27944752978344	595.2746510532348	-0	1.07056661067867	0	-0.09380079109447023	0	-8.654899440550596e-10	0	0	-0.01501360129279293	0
0.8574240753274884	-0.2886296035260793	0.1141122010557305	-0	1.348680664191948	0	0.0947857308930934	23.54281400400566	585.6854378095111	-0	1.07551680014214	0	-0.09397503317675518	0	-2.162266404402592e-09	0	0	-0.01515729471625774	0
0.8624677463588266	-0.2192349771430312	0.0870747910143701	-0	1.366273369996102	0	0.09478260850274343	23.89140535973166	576.9990830126285	-0	1.080047696248977	0	-0.09413487544785176	0	-5.170445775097481e-09	0	0	-0.01450465661377382	0
0.8675114173901648	-0.1681307489882998	0.06710949547078572	-0	1.383530429309031	0	0.09477167106405823	24.29323488522373	569.1888693083156	-0	1.084141618423589	0	-0.09427966807327597	0	-1.17671662630449e-08	0	0	-0.0131552426193767	0
0.872555088421503	-0.1303938011256129	0.05231014580001284	-0	1.399973731948084	0	0.09473479022872554	24.70431496263624	562.3103519782107	-0	1.087775103616134	0	-0.09440854349890747	0	-2.531914923927774e-08	0	0	-0.01125064758709189	0
0.8775987594528412	-0.1018952513804642	0.04105833979388897	-0	1.41408565363997	0	0.09461358056228171	25.07943095607395	556.4380586604356	-0	1.090906272225355	0	-0.0945199524876396	0	-5.094810074033344e-08	0	0	-0.008983331931047016	0
0.8826424304841792	-0.08175072990418843	0.03305231075823786	-0	1.421195720512915	0	0.09423457984363802	25.80071997801052	551.6710711354751	-0	1.093464601829382	0	-0.0946110354862407	0	-9.103418513493722e-08	0	0	-0.006627352016847061	0
0.8876861015155174	-0.07357755555368066	0.02982586874722225	-0	1.411306036844162	0	0.09324281213090946	27.32558575467837	548.1841921608435	-0	1.095361334150392	0	-0.09467819329464908	0	-1.22697203482018e-07	0	0	-0.00454676617478314	0
0.8927297725468556	-0.08818691441140576	0.03581992744669416	-0	1.382388499448834	0	0.09160580178640045	29.7820252082667	546.0110728640287	-0	1.096581277686973	0	-0.09472064362895059	0	-8.550098129208601e-08	0	0	-0.003054126480430291	0
0.8977734435781938	-0.1506564186064291	0.06128277970681999	-0	1.360756490769308	0	0.09030068042178208	33.01555071789769	544.5301449257453	-0	1.097297205664902	0	-0.09474462138443861	0	3.34752156495518e-09	0	0	-0.002136109087129369	0
0.902817114609532	-0.313777887396532	0.1278001890989608	-0	1.359566934904207	0	0.08976214636135245	36.70888500515124	542.8364951119993	-0	1.097769045146057	0	-0.09475971505049764	0	5.47098816117352e-08	0	0	-0.001498935007109517	0
0.9078607856408701	-0.6816441763103359	0.2780230023649911	-0	1.369063675274063	0	0.08960934818817202	40.61932172269434	540.6232945118476	-0	1.098126180383878	0	-0.09477076999747043	0	5.380066550463971e-08	0	0	-0.0009671206080918952	0
0.9129044566722082	-1.438793671756631	0.588094026346312	-0	1.381939003087224	0	0.08957527133958493	44.69635292189876	537.9835535219358	-0	1.098386177296736	0	-0.09477844636088587	0	2.88244929432202e-08	0	0	-0.0005495254117836664	0
0.9179481277035464	-2.850655648701185	1.170102508714803	-0	1.395618728854915	0	0.08956954542241102	48.91546032154218	535.0072752695629	-0	1.098557447924594	0	-0.09478305235482198	0	7.394698324377792e-09	0	0	-0.0002704975410567319	0
0.9229917987348846	-5.19846328838995	2.14951844858064	-0	1.409407711223632	0	0.08956896335885869	53.0941600364815	531.7405629810029	-0	1.098659771284156	0	-0.09478542554118914	0	-3.643751872013167e-10	0	0	-0.0001118044114804758	0
0.9280354697662228	-8.631014835208838	3.607912134300491	-0	1.423135071176945	0	0.0895689744502156	57.05204369922901	528.2345842957956	-0	1.098714708225408	0	-0.09478646693992866	0	-4.056014633131713e-11	0	0	-3.521189681228909e-05	0
0.9330791407975609	-13.00912660861637	5.520266466973662	-0	1.436723343968028	0	0.08956897506963614	60.91283189406992	524.4169532527646	-0	1.098742847421087	0	-0.09478682941637895	0	-1.111008912549572e-12	0	0	-5.911858864866118e-06	0
0.9381228118288991	-17.90664399459475	7.749005921515884	-0	1.450085192077158	0	0.08956897507890911	64.84687829285131	520.1656868256837	-0	1.098758284636812	0	-0.09478690441354837	0	-3.391122498237226e-14	0	0	7.669637183065388e-07	0
0.9431664828602373	-22.82520069056077	10.12433924831153	-0	1.46311358442322	0	0.08956897507908027	68.85910992793285	515.4063146270486	-0	1.098766888468907	0	-0.0947869027122212	0	-2.3675017411093e-15	0	0	6.504310653803971e-07	0
0.9482101538915755	-27.44222503363704	12.54483760502236	-0	1.475690739137974	0	0.08956897507908651	72.94201077639688	510.0872852778633	-0	1.098770558806837	0	-0.09478689786695624	0	-9.493088385054985e-16	0	0	1.671009294723503e-07	0
0.9532538249229137	-31.86816204399899	15.09299467032849	-0	1.487696801154568	0	0.08956897507908609	77.24723112615554	504.043250452342	-0	1.098772830361451	0	-0.09478689658262812	0	-1.536221542269369e-15	0	0	2.820314611284513e-08	0
0.9582974959542518	-36.80427166568759	18.14162085032881	-0	1.499011444040118	0	0.08956897507908065	81.99132106760501	497.0196934773523	-0	1.098778187770161	0	-0.0947868963714313	0	-4.142027179477964e-15	0	0	3.612553408129212e-09	0
0.96334116698559	-43.39676176640936	22.37493629315828	-0	1.509512652851265	0	0.08956897507903108	86.83832946059859	488.9330862716139	-0	1.098779771405334	0	-0.09478689634543674	0	-4.265558421533511e-14	0	0	3.629306673484874e-10	0
0.9683848380169281	-53.76686440028854	29.23747397115057	-0	1.519052049290578	0	0.08956897507956375	91.33408402152804	479.723469631498	-0	1.098769149727481	0	-0.09478689634294041	0	4.579620729186884e-13	0	0	2.836490484104898e-11	0
0.9734285090482662	-73.57187011469965	42.79195587615973	-0	1.527483832313947	0	0.08956897507975108	95.54965393964756	468.9804659561826	-0	1.098750187911946	0	-0.09478689634275436	0	8.525813077007413e-13	0	0	1.651006589943254e-12	0
0.9784721800796043	-118.4566603193736	76.2688132821321	-0	1.534516181642538	0	0.08956897507979705	99.56105888806222	455.9073324959739	-0	1.098728681437078	0	-0.09478689634274404	0	1.111137524032728e-12	0	0	6.40261830325988e-14	0
0.9835158511109425	-212.3908522301985	164.6567747047496	-0	1.539763843681137	0	0.08956897508038474	103.204864801754	439.307195562745	-0	1.09870822623891	0	-0.09478689634274365	0	-4.987762896833568e-13	0	0	6.66380282544651e-16	0
0.9885595221422807	-331.508048749979	365.416029121499	-0	1.542710574523342	0	0.08956897508793138	105.8432518054058	416.8103688521518	-0	1.09869120098029	0	-0.09478689634274365	0	-1.304611171180702e-10	0	0	7.707581714953334e-16	0
0.9936031931736189	-79.79126546525396	624.7544875150776	-0	1.545865012905579	0	0.0895689751972667	106.2642851851686	389.5186610623663	-0	1.09864937711598	0	-0.09478689634274365	0	-2.556994812545464e-08	0	0	4.930209906569717e-16	0
0.9986468642049571	-268.0032212252758	828.2364339273292	-0	1.545310528077322	0	0.08956897666771713	105.2143543077744	356.6068553088115	-0	1.098613739166276	0	-0.09478689634274363	0	-4.032616839297882e-07	0	0	-2.10080132490844e-15	0
1.003690535236295	-136.2393259390342	941.2198425561204	-0	1.546981895205556	0	0.08956899952718946	102.0591387680468	319.7109400185616	-0	1.098564706456632	0	-0.09478689634274365	0	-8.297485897825122e-06	0	0	5.676486564367878e-16	0
1.008734206267633	-259.4067600299933	965.48631254444	-0	1.546801703428402	0	0.08956932934150494	97.61928747851282	283.0127059807432	-0	1.098496029517937	0	-0.09478689634274365	0	-0.0001180554358180537	0	0	-3.155184351871343e-16	0
