
inDegrees=no
nColumns=11
nRows=50
DataType=double
version=3
OpenSimVersion=4.6-2026-06-22-85aaf64
endheader
time	/jointset/groundPelvis/pelvis_tilt/value	/jointset/groundPelvis/pelvis_tx/value	/jointset/groundPelvis/pelvis_ty/value	/jointset/hip_l/hip_flexion_l/value	/jointset/hip_r/hip_flexion_r/value	/jointset/knee_l/knee_angle_l/value	/jointset/knee_r/knee_angle_r/value	/jointset/ankle_l/ankle_angle_l/value	/jointset/ankle_r/ankle_angle_r/value	/jointset/lumbar/lumbar/value	/jointset/groundPelvis/pelvis_tilt/speed	/jointset/groundPelvis/pelvis_tx/speed	/jointset/groundPelvis/pelvis_ty/speed	/jointset/hip_l/hip_flexion_l/speed	/jointset/hip_r/hip_flexion_r/speed	/jointset/knee_l/knee_angle_l/speed	/jointset/knee_r/knee_angle_r/speed	/jointset/ankle_l/ankle_angle_l/speed	/jointset/ankle_r/ankle_angle_r/speed	/jointset/lumbar/lumbar/speed
0	-0.2639029695317447	6.858391835258959e-05	0.883661817846226	0.01662757102700714	0.6641168055163049	-0.2834613311416649	-0.1843718894455531	0.1010850783739684	0.2415516072666012	0.1678845066680553	0.09613734292538412	1.578084433843448	-0.09640060564566046	0.0007927822573848922	-1.219338133021002	-3.288102929226262	0.1266830631950787	-2.644679335319487	-1.011958480364328	0.2247847586467349
0.009593659999999948	-0.2629945144285739	0.01520079174795171	0.8827721943916076	0.01683499178349947	0.6523646292342905	-0.3150033782952923	-0.1832545862271624	0.07594323339544924	0.2318663207324118	0.1700212614806523	0.09309567479028404	1.576286855549891	-0.08867194371637654	0.04428150621910773	-1.230983387362428	-3.28743930891797	0.1052182372810891	-2.594348079757261	-1.006909704841794	0.2204597506537999
0.0191873199999999	-0.2621262592289342	0.03029736231027723	0.8819845481661486	0.01759096370212628	0.6404770682408039	-0.3465341435740553	-0.1824158668748151	0.05145105503990375	0.2222464653764259	0.1721016473345269	0.0871258903801114	1.569585727770377	-0.07355446554500036	0.1226127985066378	-1.248848613501103	-3.285318018594658	0.06465979436910885	-2.499585963612497	-0.9972805492152312	0.2121752074842321
0.02878097999999985	-0.2613365277734693	0.04529279900978646	0.8813950399761891	0.01934698371896122	0.6283782191344895	-0.3780221294997789	-0.1820881763805858	0.02819890201269602	0.2127573116743851	0.1740733047429046	0.07695603173897782	1.555483469580491	-0.04799123687572338	0.2496791262084821	-1.274105666776108	-3.277605119767031	0.001621460318726978	-2.33856000600913	-0.9795695702602986	0.1980585100737498
0.03837463999999979	-0.2606595172972664	0.06012339627473521	0.8810872517087011	0.02248993586373057	0.6160217350148611	-0.4093861643067423	-0.1824056422700603	0.006755410614380565	0.2034810035870716	0.1758870760206653	0.06367779685961535	1.53522717800521	-0.01498732166315722	0.4110563492556534	-1.3021870370924	-3.25851540660347	-0.06823178670413742	-2.122265762059012	-0.9524681896921984	0.1792749724648489
0.04796829999999974	-0.2601228679134278	0.07473150803470706	0.8811261715051578	0.0273232554124381	0.6033908402249812	-0.4404906107904265	-0.1833854821036092	-0.01234991936940844	0.1945197217131701	0.1774995078039993	0.04787732988121843	1.509326550730977	0.02380241380100682	0.6000876223130115	-1.3308550536552	-3.222687054151534	-0.134294464599749	-1.852608311530726	-0.9136093972327399	0.1562714735356951
0.05756195999999969	-0.2597453275916756	0.08906991832128502	0.8815529958460854	0.03405600765495017	0.5904908370989645	-0.4711549388365728	-0.184933326084288	-0.02865027459316053	0.1859937348530288	0.1788757830619168	0.03068263174411839	1.479231302575421	0.06542967405578362	0.8054792006082514	-1.358132198011426	-3.166312950152611	-0.1851728207957269	-1.538855198880027	-0.8614947057758732	0.1302247528040338
0.06715561999999964	-0.2595350519083436	0.1031054887818528	0.8823815744251016	0.04280048911754988	0.5773377269076118	-0.5011728215942949	-0.1868660470292838	-0.04176559649439516	0.1780352299251225	0.1799923033026429	0.0132090956373887	1.446486355239925	0.107044129271113	1.017820471973327	-1.383620775764376	-3.087857225642016	-0.2135058239272092	-1.190545619721695	-0.7952584946110142	0.1023498817221827
0.07674927999999959	-0.2594890176179208	0.1168213014428645	0.8835972928121337	0.05357796850984651	0.5639471513575893	-0.5303338628598681	-0.1889438754311646	-0.05142142306466097	0.1707793859884177	0.1808381560922986	-0.003375503966944506	1.412856692122555	0.1456736310357084	1.227953927727303	-1.40779095924444	-2.9879471130034	-0.2150569614321108	-0.8196460272905361	-0.7151309997555094	0.07401772616191703
0.08634293999999954	-0.2595937577643496	0.130216881745182	0.8851588259151327	0.06633115444090866	0.5503266672140193	-0.5584419299181653	-0.1909046951412936	-0.05745898987357055	0.1643543135465213	0.1814150640964714	-0.0180726604415622	1.379988477137381	0.1787443628765277	1.428613199634928	-1.431751250806606	-2.868804418265164	-0.1892736107932461	-0.4382913700548404	-0.6223617257192319	0.04647907079380219
0.09593659999999948	-0.2598272857707647	0.1433065683457259	0.8870026240104877	0.0809411482889288	0.5364725532466011	-0.5853267097076101	-0.1924953923891978	-0.05983577634716212	0.1588713796145081	0.1817358760143694	-0.03012317508953226	1.349292103931277	0.2042442677467843	1.614307561101731	-1.456680533094004	-2.733458995683216	-0.1385078237539362	-0.05836758807827653	-0.5191573723470584	0.02077825870310166
0.1055302599999994	-0.2601618149438503	0.1561164824041636	0.8890494424549412	0.09724628444975923	0.5223708280164735	-0.6108478705941748	-0.1934970383199649	-0.05861766721591351	0.1544171285935669	0.1818220068374169	-0.03908025614862574	1.321803289303199	0.2209264752594975	1.781578506709128	-1.483481506425033	-2.585022816935115	-0.06738337194966701	0.3094910821319856	-0.4084468062353885	-0.00234930085111003
0.1151239199999994	-0.2605667741257152	0.1686807367272911	0.8912118951607064	0.1150604309254347	0.5080012753458405	-0.6348930764381598	-0.1937423402481346	-0.05396497372028607	0.1510475544427254	0.181700379710278	-0.04480794474046135	1.29814917628918	0.2283416251365621	1.928750683410461	-1.512527077108265	-2.426149445002848	0.01809276360795709	0.6563069579103943	-0.2936226323836058	-0.02249112932208251
0.1247175799999993	-0.2610116595347726	0.1810375224519776	0.8934019677711993	0.1341888722339828	0.4933429925613491	-0.657371924768172	-0.1931251330099065	-0.04611491378135633	0.1487849994590371	0.1814003927620166	-0.04744698299774041	1.278560455774542	0.2267906608852182	2.055642292106826	-1.543584388357257	-2.258725010032471	0.1113133821806204	0.9750378495093674	-0.178264161859485	-0.03953570841956463
0.1343112399999993	-0.2614683896891614	0.1932255837017089	0.8955376101359636	0.1544406125841851	0.4783801002192946	-0.6782079605225998	-0.1916026455420039	-0.03536299845405207	0.1476175561585249	0.1809513045936904	-0.04734976496728072	1.262934283438837	0.2171897349570864	2.163141317281117	-1.575855315742506	-2.08377010931622	0.205771654464554	1.260559260105987	-0.06589498326592783	-0.05361229014228416
0.1439048999999992	-0.2619129841473153	0.2052814107653496	0.8975478270565957	0.1756366457824802	0.4631065801408318	-0.6973305836456298	-0.1891918680112058	-0.02204530350232992	0.1475005869281533	0.1803802693793541	-0.04500615213034626	1.250919116387448	0.2008959812809722	2.25279006459098	-1.608109022310462	-1.901506661617496	0.2955912646733471	1.509498070988555	0.0402131543806476	-0.06501737424975554
0.1534985599999992	-0.262326525807226	0.2172373029271413	0.899376001157123	0.1976143306849665	0.4475295970704635	-0.7146681649986603	-0.1859616104650972	-0.006522981917508306	0.1483598580085725	0.1797111011169015	-0.040970416583666	1.242008084195043	0.1795186739788117	2.326399926881281	-1.638859889469896	-1.711533725144444	0.3758920117345763	1.719947706494647	0.1371812663337559	-0.0741386958363911
0.1630922199999991	-0.2626954701589385	0.2291203033639653	0.900981449375048	0.2202284364439588	0.4316710238895868	-0.7301431585630405	-0.1820218606006463	0.010830276064158	0.150095785808837	0.1789637284655821	-0.03579911830049936	1.23562579035115	0.1547428514277332	2.385745048542948	-1.666558543242479	-1.513059608841172	0.4429910395755041	1.891146750956127	0.2226154318955699	-0.08138844766915063
0.1726858799999991	-0.2630114284318647	0.2409519026940131	0.9023394080469687	0.2433496720945186	0.4155671893595446	-0.743669528309878	-0.1775118950189111	0.02963771165620132	0.1525883761673194	0.1781542233346766	-0.03000407596693461	1.231200587878128	0.1281802593610616	2.432346497469507	-1.689767737870076	-1.305145771057332	0.494465536380634	2.023168920174335	0.2946612088561439	-0.08715122267165545
0.182279539999999	-0.2632705794495759	0.2527483452764586	0.9034397587155	0.2668616091473878	0.3992670851737503	-0.7551524328363421	-0.1725883452558426	0.04952622979449742	0.1557025584696955	0.1772952454247469	-0.02402196287726967	1.228217579765391	0.1012566957460906	2.467352190407827	-1.707305254805649	-1.086928952278871	0.5291048690610584	2.116667598678748	0.3520336318880348	-0.09174948987830195
0.191873199999999	-0.2634728656518332	0.2645213473804832	0.9042848587515943	0.2906568753834766	0.3828294050222503	-0.7644898435014311	-0.1674141238334795	0.07013103677980703	0.1592937355239184	0.1763967346139297	-0.01819940732649178	1.226251552464054	0.0751380891632361	2.491503005106048	-1.718343455897388	-0.8577993648669829	0.5467842349160819	2.172697377090658	0.3940336772770737	-0.09542623300772275
0.2014668599999989	-0.2636211111055743	0.2762790405097031	0.9048868433478768	0.314633377090113	0.3663188514301948	-0.7715756119960145	-0.1621488226589383	0.09109897512922002	0.1632134526165735	0.1754666955891812	-0.01279112096771342	1.224981429242815	0.05069362718095209	2.505169388281594	-1.722462290565376	-0.6175236178862143	0.5482885430952606	2.192620880567684	0.4205570949070328	-0.09834258503595536
0.2110605199999989	-0.263720170903279	0.2880269777549249	0.9052647334120382	0.3386911284316865	0.3498021524124635	-0.7763034413012964	-0.156940942534876	0.1120913512745162	0.1673151155871272	0.1745119466407613	-0.007967727907885892	1.224189607456869	0.02849121128061948	2.508437699649689	-1.719657387667204	-0.3663105215030965	0.5351101702492478	2.178094089621365	0.432095255253006	-0.1005870384446576
0.2206541799999988	-0.2637761879957486	0.2997690780271142	0.9054416297353625	0.3627300590045581	0.3333441964410168	-0.7785712356622411	-0.1519221168168889	0.132786930704628	0.1714596583741617	0.1735387402641591	-0.003829744473656462	1.223750422114183	0.008818817052244738	2.501224002486255	-1.710308406402952	-0.1048259200451594	0.5092379554965867	2.131112082251823	0.4297225273044409	-0.1021922723913182
0.2302478399999988	-0.2637960001187336	0.3115084256327815	0.9054422073569237	0.3866489545981254	0.3170046304493467	-0.7782853975390513	-0.1472033476404352	0.1528855580382198	0.1755209912195732	0.1725532024298289	-0.0004243740187649359	1.2236122749386	-0.008275520896612784	2.483392865645051	-1.695115734148815	0.1658305563154417	0.472950602144409	2.054088666096689	0.4150615957398757	-0.1031554350411113
0.2398414999999987	-0.2637867099954191	0.3232478853596404	0.9052906535104881	0.4103454775929457	0.3008351759187227	-0.7753647893973474	-0.1428731593711653	0.1721125808009305	0.179390971412011	0.1715615769659022	0.002237655980626899	1.223777713148404	-0.02293240222679294	2.454860390264946	-1.675015925464471	0.444168806645288	0.4286251724866892	1.949938991985132	0.390216970592082	-0.103457847501248
0.2494351599999987	-0.2637554086104856	0.3349905313024443	0.9050091250898504	0.4337170284951798	0.2848778153878855	-0.7697442655642069	-0.1389974855315801	0.1902239549393245	0.1829835457881045	0.1705702979448977	0.004167315099536772	1.224285037195327	-0.03542508712601847	2.415663998290399	-1.651086409535202	0.7283511163000715	0.3785680138134238	1.822134133110109	0.3576673965976164	-0.1030806494795549
0.2590288199999986	-0.2637090242765445	0.3467399171116724	0.9046167429924162	0.4566620656193182	0.2691639118364832	-0.761377874848934	-0.1356210614164095	0.2070116308036068	0.1862376350793785	0.1695859417036496	0.005386021901666156	1.225193952160688	-0.04610434704465935	2.36598660655473	-1.624447284660818	1.016214934856762	0.3248696593598406	1.674701192803674	0.3201103763363234	-0.1020139464907996
0.2686224799999986	-0.2636542588457841	0.3585002335580753	0.9041290947580941	0.4790814127572153	0.2537142663994922	-0.7502420037251241	-0.1327701081043786	0.2223086046769688	0.1891182885757462	0.1686151272531329	0.005918827687693194	1.22657652894283	-0.05534820224425803	2.306129720469289	-1.596164355539877	1.305260583117575	0.2692797796678787	1.512151534247772	0.2802574563173849	-0.1002583552055477
0.2782161399999985	-0.2635975665217547	0.370276405351907	0.9035581849855699	0.5008790734891482	0.2385400916746191	-0.7363388355037077	-0.1304561418111122	0.2359929120765216	0.1916156630579225	0.1676644377064117	0.005792356922652334	1.228513479545329	-0.06351915745759744	2.236438903180029	-1.56715553509056	1.592597563262866	0.2130969051727644	1.339332312581903	0.2405873726925638	-0.09781923934848971
0.2878097999999985	-0.2635451304220144	0.3820741735709695	0.9029127542018557	0.5219621529414615	0.2236448580066228	-0.7197005033939693	-0.1286807808553123	0.2479898609890405	0.1937414964466992	0.1667404260427636	0.005037245266199023	1.231094607088227	-0.07093029307196125	2.157195405216015	-1.538102944815097	1.874855898451909	0.1570707914811307	1.161210786526455	0.2030743940061863	-0.09469527100905889
0.2974034599999984	-0.2635027971785011	0.3939001945472437	0.902198878482836	0.5422396685035596	0.2090269410733553	-0.7003941818618773	-0.1274414182662655	0.258271960056727	0.1955229623874263	0.165849746941068	0.003694274472798407	1.234421389611416	-0.07782066876605416	2.06849754401745	-1.509374576968249	2.148084043336714	0.1013205980525226	0.9826142227818122	0.1689193278177506	-0.0908641433373554
0.3069971199999983	-0.2634759398785699	0.4057621636146623	0.9014207603713589	0.5616202937018501	0.1946829517872259	-0.6785280834930144	-0.1267375699837249	0.2668562653141027	0.196994097423099	0.1649994248462605	0.001822927076467865	1.238609132043268	-0.08434001719888341	1.970162335713207	-1.480961615123074	2.407669168810345	0.04527783873289409	0.8079577185718102	0.1383189531238714	-0.08626911500064938
0.3165907799999983	-0.2634692339396757	0.4176689468876796	0.9005816226720967	0.5800093848304996	0.180611559205384	-0.6542579343452519	-0.1265775961720086	0.2737992010651384	0.198185360641049	0.1641972312535845	-0.0004893314932222643	1.243786077571229	-0.09054258300563986	1.861679485749648	-1.452439956976344	2.648325078608381	-0.01233155736567213	0.6409956957983767	0.1103140632045785	-0.08081034354788887
0.3261844399999982	-0.2634863485531859	0.4296306810929289	0.899684617742475	0.5973059303834838	0.1668175239688318	-0.6277930510611112	-0.1269853330922396	0.2791892433229645	0.1991122721965029	0.1634521075891606	-0.003119102402367954	1.250087348943302	-0.09639005491434793	1.742245072006107	-1.422966726091268	2.864194731495568	-0.07344729805756105	0.4846296552050053	0.08275555479484158	-0.07434456593780428
0.3357780999999982	-0.2635295773032316	0.4416587854158404	0.8987336650435997	0.6134002705421403	0.1533155526081357	-0.5994007311362833	-0.1280059862979221	0.2831381277516161	0.1997644218274599	0.1627745411527373	-0.005902709669480812	1.257642580465388	-0.1017635808389278	1.61088941966348	-1.391322869247997	3.049104004993396	-0.1405576838186795	0.3407958112028247	0.05241955493640911	-0.06669545349903974
0.3453717599999981	-0.2635994536441862	0.4537658246936337	0.8977341303504471	0.6281734965774132	0.140133480227531	-0.5694074035222111	-0.1297104622981862	0.2857714167028009	0.2000963735956659	0.16217678693917	-0.008637747572625556	1.266557458889683	-0.1064846985723026	1.466697718945404	-1.356012036748719	3.196984009794503	-0.2164889061475141	0.2104449063831336	0.01528903604201197	-0.05767534962077435
0.3549654199999981	-0.2636944166691331	0.4659651728742914	0.8966932647351147	0.6414993249563608	0.127314217219848	-0.5381949744485085	-0.1321972101961979	0.2872193173245348	0.2000220556063155	0.1616728319349631	-0.01109222611332147	1.276890978090168	-0.1103442342902097	1.309099560405058	-1.315419215958086	3.302444160919151	-0.3040975658566804	0.0936136637445191	-0.03300456789038182	-0.04711675003980283
0.364559079999998	-0.263810605217805	0.4782704501791774	0.895620335160055	0.65324895199426	0.1149158860040419	-0.5061911210156563	-0.1355906665509524	0.287608594401521	0.199414067895265	0.1612780216395579	-0.01302224605869431	1.288631659310255	-0.1131372760749837	1.138194780248946	-1.268028924046158	3.36145105824433	-0.4058719130219839	-0.01042033029809745	-0.0966031015716043	-0.03491067039910956
0.374152739999998	-0.2639418593539155	0.4906947452006692	0.8945264055457215	0.663298968236119	0.1030096530976084	-0.4738529412162412	-0.1400355887505181	0.2870562897605659	0.1981089477353801	0.1610083092737424	-0.01419722330959495	1.301677347051218	-0.1147002315596523	0.9550531028266396	-1.212682339437395	3.372014604423064	-0.523483282056974	-0.1029212988709313	-0.1787722452403629	-0.02104565529816671
0.3837463999999979	-0.264079995015799	0.5032496795195621	0.8934237680528544	0.6715419188319989	0.09167494238727217	-0.441644251405704	-0.1456869306729683	0.285665768199903	0.1959188080876146	0.1608791412948741	-0.01443135847409774	1.31582334140071	-0.1149460850848491	0.7619665136147018	-1.148865882032136	3.334820038565228	-0.6573066348870817	-0.1854292462587061	-0.2812287572247016	-0.005644390405463032
0.3933400599999979	-0.2642153892188505	0.5159444191423834	0.8923250732386572	0.6778986511196536	0.08099199224735898	-0.4100077296548356	-0.1526954300791601	0.2835253766670217	0.192648959479038	0.1609040483824098	-0.01361559199144114	1.330764006765909	-0.1138904797577216	0.5625451312055076	-1.07695945643709	3.253633963441601	-0.8060348697920248	-0.2594913712890632	-0.4035995791151952	0.01101415067259426
0.4029337199999978	-0.2643378694576476	0.5287847742677069	0.8912422538322383	0.6823313154457437	0.07103207297152532	-0.379333872568496	-0.1611896945606386	0.280709741881464	0.188120234192474	0.1610930565758957	-0.01174935724508628	1.346109540175251	-0.1116695099084751	0.3618018169109315	-0.9984938172787805	3.135605887595052	-0.9663044070709201	-0.3263724572722776	-0.5429556202347601	0.02847558707955339
0.4125273799999978	-0.2644378446275308	0.5417725486711177	0.8901853699701214	0.6848558248198768	0.06184608026446532	-0.3499293255812855	-0.1712562391575063	0.2772834521407268	0.1821938814700556	0.1614510623508726	-0.008955115704896315	1.361422110135829	-0.1085347039084563	0.1658513831912903	-0.916166931258543	2.990965242092827	-1.13275116033394	-0.3868826897297373	-0.693851227245752	0.04613192439576588
0.4221210399999977	-0.2645075541094065	0.5549052980021485	0.8891615196133328	0.6855526537617522	0.05345262240812007	-0.321987606186607	-0.1829195743347058	0.2733065851915373	0.1747962098191323	0.1619763325862631	-0.005494453683199037	1.376262416427275	-0.1048521838045877	-0.01788972692162031	-0.8340610457966169	2.833107566961107	-1.297748754998283	-0.4410993559437547	-0.8481199672195689	0.06320301277601545
0.4317146999999977	-0.2645422594237181	0.5681766293372923	0.8881739578011021	0.6845749264292509	0.04582707202662836	-0.2955655947824882	-0.1961249736809515	0.2688412787522781	0.1659396998444389	0.1626593044177764	-0.001723365441909055	1.390259836863786	-0.1010422657613884	-0.1820347088247533	-0.756908643874473	2.676632486559948	-1.452758665838012	-0.4885948153126056	-0.996340864462954	0.07887131711991888
0.4413083599999976	-0.2645411719336596	0.581577116997153	0.88722155478906	0.6821527268939854	0.03889329984476913	-0.2705693780616016	-0.2107268508288605	0.2639583290763478	0.1557371692127493	0.1634818724139357	0.001880675059100932	1.403157833717416	-0.097611347881814	-0.317369000985538	-0.6909896163123129	2.538912212481086	-1.586930663041593	-0.5278253764970174	-1.126599840572811	0.09212455522157742
0.4509020199999976	-0.2645079106694396	0.5950958136671214	0.8862986966107016	0.678592498932869	0.03251987601728094	-0.2467529632422204	-0.2264856071568441	0.2587426934669618	0.144405840649181	0.1644173508343489	0.004930087307408137	1.414916390229362	-0.09493145287122597	-0.4187931675214056	-0.6406213629174404	2.432227924079519	-1.693093634887079	-0.5578533230574219	-1.230651033545831	0.1023425276770711
0.4604956799999975	-0.264450325423381	0.6087221925510339	0.8853956913576817	0.6742704268399613	0.02652231958234117	-0.2237327935515323	-0.2430752048626724	0.2532968222384221	0.1322589936973244	0.1654312683511319	0.006839424704271082	1.42563405721218	-0.09358714069232513	-0.4733422762477488	-0.6144279090854434	2.376982309210451	-1.757229389967237	-0.5749701011141871	-1.293577301995208	0.1081941070205605
0.4700893399999975	-0.2643796121766784	0.6224481592291322	0.8844996898153709	0.6696189913024616	0.0206723765920893	-0.2010195339105431	-0.2601023646276232	0.2477410187291959	0.1196844598757744	0.1664830705653137	0.007854695632774704	1.435804667978783	-0.09325693665520891	-0.4945968641230753	-0.6060567977102947	2.360102404787805	-1.790830284805212	-0.5827625458809716	-1.326251513588845	0.1109111747788375
