DataType=double
version=3
OpenSimVersion=4.6-2026-06-22-85aaf64
endheader
time	ground_force_r_vx	ground_force_r_vy	ground_force_r_vz	ground_force_r_px	ground_force_r_py	ground_force_r_pz	ground_force_l_vx	ground_force_l_vy	ground_force_l_vz	ground_force_l_px	ground_force_l_py	ground_force_l_pz	ground_torque_r_x	ground_torque_r_y	ground_torque_r_z	ground_torque_l_x	ground_torque_l_y	ground_torque_l_z
0	-42.42494101996976	32.1729337192954	-0	0.1050281872233381	0	0.08985379574957704	130.7224099278542	528.0913960496479	-0	-0.2207988335930672	0	-0.09478689634274365	0	-1.423549975171718e-05	0	0	-7.986850662527636e-16	0
0.009793520833333333	-81.115877238428	67.44882166785312	-0	0.1209844339028689	0	0.0901189201119752	118.2548870335428	444.3425477009295	-0	-0.2210563282160904	0	-0.09478689634274365	0	-5.642483847451827e-05	0	0	-4.295525502821365e-16	0
0.01958704166666667	-180.6403503762273	183.3406815009156	-0	0.1380995759783166	0	0.09053584940405376	97.2146848284024	358.9061590392804	-0	-0.2215144519803714	0	-0.09478689634274365	0	-0.0003275319066194492	0	0	7.443055391905503e-16	0
0.0293805625	-103.6654947544757	483.9356448739298	-0	0.1697160565269504	0	0.09154618523673606	67.57673537526667	255.4209378022163	-0	-0.222099434413599	0	-0.09478689634274365	0	-0.004137660302680497	0	0	-1.630692125799651e-16	0
0.03917408333333333	-141.0612128616783	862.1951660082427	-0	0.1864385150970064	0	0.09212643443567807	22.73098502675419	101.7892386703852	-0	-0.2229765980355861	0	-0.09478689634274365	0	0.001685660229690875	0	0	1.450057692673798e-16	0
0.04896760416666666	-160.515788459513	1105.955943549654	-0	0.199100951290903	0	0.09255949559784536	0.0742075938062125	-0.9029771367734016	-0	-0.2253986951561043	0	-0.09478689634274365	0	0.01406046981104365	0	0	2.555809243509791e-19	0
0.058761125	-172.2365057728032	1108.652691225862	-0	0.2083095824619196	0	0.09287611069409389	1.175268058716398e-05	-1.537080532507905e-05	-0	-0.2274724562670336	0	-0.09478689634274365	0	0.02276383611263925	0	0	-9.147097028995399e-23	0
0.06855464583333332	-135.8595994444282	1000.881746294232	-0	0.2194166030263385	0	0.09325294809588698	1.223454697005961e-08	-1.297500472506924e-08	-0	-0.2233323668626954	0	-0.09478689634274366	0	0.02758430662889285	0	0	2.06405420540081e-25	0
0.07834816666666666	-117.4926560366693	821.3766031337864	-0	0.2277553643587029	0	0.09353954813841722	1.678805862498329e-10	-1.660703078308696e-10	-0	-0.2167710855840272	0	-0.09478689634274365	0	0.02265591701691059	0	0	-1.398111124601831e-27	0
0.0881416875	-72.118353463158	686.3346531854726	-0	0.2366317920045474	0	0.09383296664058546	9.184987082187442e-12	-8.264374387637153e-12	-0	-0.2079570544520889	0	-0.09478689634274365	0	0.01796664608488567	0	0	2.852085820055537e-29	0
0.09793520833333333	-67.05873914950826	581.5961003324002	-0	0.2431408581647369	0	0.09405895442489226	7.605348023050171e-12	-6.290238691507604e-12	-0	-0.1967344454554936	0	-0.09478689634274365	0	0.01301431028983865	0	0	-1.339331177335782e-29	0
0.1077287291666667	-44.71032383757847	536.0707767775333	-0	0.2499749198573765	0	0.09428434768785902	7.81377838445787e-11	-6.007728427793701e-11	-0	-0.1834976448049454	0	-0.09478689634274365	0	0.01003624541253408	0	0	4.94742938343992e-28	0
0.11752225	-47.70606473997164	489.524571218594	-0	0.2546007543624402	0	0.09444717661944949	2.449899102892463e-09	-1.753108606163149e-09	-0	-0.168362704211805	0	-0.09478689634274365	0	0.006537243325803879	0	0	1.162378970437344e-26	0
0.1273157708333333	-32.00844015458789	476.8177352891183	-0	0.2590604845282842	0	0.09459019023548275	1.15917372176988e-07	-7.732908460448943e-08	-0	-0.1513727748836454	0	-0.09478689634274365	0	0.004135781970224226	0	0	5.801158938758017e-26	0
0.1371092916666667	-36.25506515736463	453.6751726365691	-0	0.2610777346631882	0	0.09466032303000146	-1.497918269720944e-06	9.373536337866614e-07	-0	-0.1327655454602963	0	-0.09478689634274365	0	0.002438926005410451	0	0	-7.431905099763291e-24	0
0.1469028125	-23.24323365423036	456.3632516174524	-0	0.2625142498558938	0	0.09469564508456287	-1.90918708073102e-06	1.127689429872187e-06	-0	-0.1128015380249217	0	-0.09478689634274365	0	0.0018271511260223	0	0	9.027725264988643e-24	0
0.1566963333333333	-26.20009247336487	446.0892597441082	-0	0.2631712671592047	0	0.09471630654817345	-1.261891369472494e-06	7.067429314965675e-07	-0	-0.09165321533013429	0	-0.09478689634274365	0	0.001261156539913612	0	0	-8.897569593318485e-24	0
0.1664898541666666	-15.01977426810413	457.1721942242962	-0	0.2641129140205653	0	0.09473685412728119	-1.004293701746307e-06	5.355568765394743e-07	-0	-0.06946372880579553	0	-0.09478689634274365	0	0.0009377732728374483	0	0	-4.866264213901375e-25	0
0.176283375	-18.40353909183742	459.4148152452715	-0	0.2645412693021965	0	0.09475084011970467	-1.066986644810072e-06	5.44312382188055e-07	-0	-0.04639546873475243	0	-0.09478689634274365	0	0.0006323144469384383	0	0	-4.149818660826216e-24	0
0.1860768958333333	-9.20928445131193	479.3509921005594	-0	0.2651307770050275	0	0.09476179086390955	-1.538199557077031e-06	7.540253839376904e-07	-0	-0.02258070801921179	0	-0.09478689634274363	0	0.0004846390430493021	0	0	1.361355111359658e-23	0
0.1958704166666667	-11.88271196758048	489.3372362671604	-0	0.2653475418856826	0	0.0947686410960247	-2.956737175740172e-06	1.397523812574536e-06	-0	0.001923395859238455	0	-0.09478689634274366	0	0.0003466086560514081	0	0	-6.465166033964574e-23	0
0.2056639375	-3.183907294344158	511.2820428061863	-0	0.2657216414582846	0	0.09477379987190876	-7.337799408447032e-06	3.354961094494276e-06	-0	0.02707349306681132	0	-0.09478689634274366	0	0.0002784359749962779	0	0	-6.515176576846367e-23	0
0.2154574583333333	-5.665560472122078	521.8212439409815	-0	0.2658160458086858	0	0.09477714041956427	-2.253643256376896e-05	1.000104085236049e-05	-0	0.05282898022639227	0	-0.09478689634274365	0	0.0002073515175864942	0	0	-1.357518360627412e-22	0
0.2252509791666666	2.352453433863944	540.5002979530823	-0	0.2660708625513928	0	0.0947797358664275	-8.166972333606361e-05	3.529284410644368e-05	-0	0.07917435211390142	0	-0.09478689634274365	0	0.0001679920320744127	0	0	1.781071756055731e-22	0
0.2350445	0.5811051287810333	548.044725949095	-0	0.2661105325180728	0	0.09478152706779865	-0.000331313949743317	0.0001398578667733856	-0	0.1061123306952095	0	-0.09478689634274365	0	0.000126124868435718	0	0	-2.196775497071676e-21	0
0.2448380208333333	8.394843472710582	561.9502012213862	-0	0.2663005238084557	0	0.09478296955555124	-0.001426459821795078	0.0005899837933543349	-0	0.133657222574167	0	-0.09478689634274365	0	0.0001007974069508425	0	0	9.882327743506242e-21	0
0.2546315416666666	6.977876526894303	566.1163410892153	-0	0.2663021178031068	0	0.09478401232676918	-0.006171941923581603	0.002508568351422377	-0	0.1618262510649814	0	-0.09478689634274365	0	7.488923702262927e-05	0	0	-5.899383513909486e-21	0
0.2644250625	14.18158117868329	576.1774657809433	-0	0.2664406976365621	0	0.09478485109156097	-0.02547854213827329	0.01020652365919334	-0	0.1906375298194051	0	-0.09478689634274365	0	5.813981410279929e-05	0	0	-8.256499993118295e-20	0
0.2742185833333333	12.94338086329959	578.4321634095396	-0	0.2664129773018675	0	0.09478546082102651	-0.09557852153356965	0.03784900265233757	-0	0.2200979248616562	0	-0.09478689634274365	0	4.216509473206859e-05	0	0	-3.34305894996692e-19	0
0.2840121041666667	19.29695723813894	586.2930241858945	-0	0.2665070090822197	0	0.09478593197719684	-0.3120973396647083	0.1225215282045476	-0	0.2502070378343073	0	-0.09478689634274365	0	3.134712221791759e-05	0	0	-1.319869944847267e-18	0
0.293805625	17.67541255063098	587.4973709529695	-0	0.2664489521949091	0	0.09478626282541994	-0.8527267482560087	0.3327733180642884	-0	0.2809595381950432	0	-0.09478689634274365	0	2.175702636351354e-05	0	0	-4.727329847038849e-18	0
0.3035991458333333	23.15477291415962	593.2146238944464	-0	0.2665086413764171	0	0.09478650124535871	-1.902939833632185	0.7409495089744565	-0	0.3122957410185261	0	-0.09478689634274363	0	1.512264951281642e-05	0	0	3.517155509228165e-17	0
0.3133926666666667	21.99742355232247	592.5074603823984	-0	0.2664434611807353	0	0.09478665867668271	-3.400754141537515	1.327864292881808	-0	0.3440693342108678	0	-0.09478689634272203	0	9.765338927112328e-06	0	0	1.666871014700605e-15	0
0.3231861875	27.4157135061712	595.0155128490973	-0	0.2664882048910709	0	0.09478676243165551	-4.851064075770807	1.910767765312917	-0	0.3760759048928914	0	-0.09478689634198469	0	6.159024665734112e-06	0	0	7.248036058662795e-14	0
0.3329797083333333	26.79760262010787	590.788447224932	-0	0.266419597145703	0	0.09478682462643222	-5.720043919796359	2.285478242568183	-0	0.4080421727240897	0	-0.09478689631888426	0	3.562395465017184e-06	0	0	2.269780414232399e-12	0
0.3427732291666667	32.70273984030637	590.486981426326	-0	0.2664594191491866	0	0.09478686087246901	-5.828888671389986	2.372943079015614	-0	0.4396637930218371	0	-0.09478689572464252	0	1.977186958660564e-06	0	0	4.936499755026764e-11	0
0.35256675	33.68902749707307	587.0581180875292	-0	0.2664006846783449	0	0.09478687999298367	-5.303559437974093	2.208337658741486	-0	0.4706859004445381	0	-0.09478688368241134	0	1.007948646977996e-06	0	0	7.373783253623229e-10	0
0.3623602708333333	41.54182037747808	589.6125506431788	-0	0.2664505570778375	0	0.09478688953513038	-4.394809480606706	1.877702620015157	-0	0.5008697067450517	0	-0.09478669487024802	0	4.845008536971971e-07	0	0	7.581558397543063e-09	0
0.3721537916666666	46.16036843020527	591.623381232461	-0	0.266422889135344	0	0.09478689379079425	-3.280629765384341	1.441530677974646	-0	0.5300463968408451	0	-0.09478434186931534	0	2.098585830061601e-07	0	0	5.445274992771519e-08	0
0.3819473125	56.48095529898877	597.7054368155493	-0	0.266473498098724	0	0.09478689551423269	-2.218292876208631	1.004581940315032	-0	0.5576327156564822	0	-0.09476066001293811	0	8.101491376941767e-08	0	0	2.727274940640717e-07	0
0.3917408333333333	62.62061866010715	600.3251318989611	-0	0.266430135158135	0	0.09478689611282579	-1.457359893526798	0.6818787435782582	-0	0.5798408960010575	0	-0.09457802443955482	0	2.641094481178596e-08	0	0	9.093526235672056e-07	0
0.4015343541666667	73.79809022191949	605.7514123615302	-0	0.2664507104410317	0	0.09478689629132704	-1.113879150472031	0.539851511629119	-0	0.5809877576903343	0	-0.09367675211684773	0	7.062977348593683e-09	0	0	1.681028857914605e-06	0
0.411327875	81.12197365389314	608.8603758428621	-0	0.2663821162141836	0	0.09478689633402206	-1.347535120119812	0.678362452048207	-0	0.5518291495153475	0	-0.09178979548247596	0	1.422250793136048e-09	0	0	1.018450035853441e-06	0
0.4211213958333333	92.30427939506718	611.9610140112594	-0	0.266360873766346	0	0.09478689634188749	-2.523300127550175	1.322503464545875	-0	0.5335031098409994	0	-0.09042539863836303	0	1.665712349396916e-10	0	0	-4.628237776680374e-07	0
0.4309149166666666	98.87307224976678	609.1859545440261	-0	0.2662495495625468	0	0.09478689634274996	-5.354197784091212	2.925887164330288	-0	0.5369579428692263	0	-0.08990900711887205	0	-1.440042633543942e-12	0	0	-1.357270847090085e-06	0
0.4407084375	109.7663229911645	605.5916997124455	-0	0.2661978411833217	0	0.09478689634274426	-10.97258990005277	6.27341776552011	-0	0.5488623618104838	0	-0.08973664852395513	0	-1.636111111546919e-13	0	0	-1.872237312686171e-06	0
0.4505019583333333	117.7071961051456	598.294291468075	-0	0.2660795865860558	0	0.09478689634274366	-20.19194212420327	12.25774654770263	-0	0.562646690667581	0	-0.08968249966149293	0	-3.386623539856622e-15	0	0	-2.290712690357652e-06	0
0.4602954791666667	127.0634048413587	576.2896452492331	-0	0.2660190968124375	0	0.09478689634274365	-31.40458363400525	20.87213579222387	-0	0.5764457948835255	0	-0.08969779815123054	0	-7.95521238926521e-16	0	0	-1.428367242194015e-06	0
0.470089	130.7224099278552	528.0913960496561	-0	0.2659335126039473	0	0.09478689634274365	-42.42494101997268	32.17293371929762	-0	0.5917605334203526	0	-0.08985379574957705	0	-2.03307396886128e-16	0	0	1.423549975162643e-05	0
0.4798825208333333	118.2548870335428	444.3425477009304	-0	0.2656760179809241	0	0.09478689634274365	-81.11587723842882	67.44882166785379	-0	0.6077167800998836	0	-0.09011892011197521	0	-5.8742209412289e-17	0	0	5.64248384728327e-05	0
0.4896760416666667	97.21468482840277	358.9061590392818	-0	0.265217894216643	0	0.09478689634274363	-180.6403503762287	183.3406815009171	-0	0.6248319221753311	0	-0.09053584940405376	0	1.109882883043896e-15	0	0	0.0003275319066212608	0
0.4994695625	67.57673537526657	255.4209378022169	-0	0.2646329117834155	0	0.09478689634274365	-103.6654947544765	483.9356448739333	-0	0.6564484027239651	0	-0.09154618523673605	0	-1.778737142999175e-16	0	0	0.004137660302681438	0
0.5092630833333334	22.73098502675416	101.7892386703853	-0	0.2637557481614283	0	0.09478689634274365	-141.061212861679	862.1951660082466	-0	0.6731708612940207	0	-0.09212643443567807	0	-8.196896062319126e-18	0	0	-0.001685660229693228	0
0.5190566041666667	0.07420759380621371	-0.902977136773411	-0	0.2613336510409102	0	0.09478689634274365	-160.5157884595137	1105.955943549659	-0	0.6858332974879173	0	-0.09255949559784536	0	-2.064533031950565e-19	0	0	-0.01406046981104284	0
0.5288501249999999	1.175268058716403e-05	-1.53708053250791e-05	-0	0.259259889929981	0	0.09478689634274365	-172.2365057728038	1108.652691225865	-0	0.695041928658934	0	-0.09287611069409386	0	3.52607069177071e-23	0	0	-0.02276383611263483	0
0.5386436458333332	1.22345469700597e-08	-1.297500472506933e-08	-0	0.2633999793343191	0	0.09478689634274363	-135.8595994444287	1000.881746294234	-0	0.7061489492233529	0	-0.09325294809588699	0	1.507989943850334e-25	0	0	-0.02758430662889626	0
0.5484371666666666	1.678805862498344e-10	-1.66070307830871e-10	-0	0.2699612606129874	0	0.09478689634274365	-117.4926560366697	821.3766031337884	-0	0.7144877105557175	0	-0.09353954813841724	0	-8.83855265999413e-28	0	0	-0.02265591701691259	0
0.5582306874999999	9.184987082187571e-12	-8.26437438763727e-12	-0	0.2787752917449256	0	0.09478689634274365	-72.11835346315821	686.3346531854741	-0	0.7233641382015618	0	-0.09383296664058546	0	3.941182229466658e-29	0	0	-0.01796664608488614	0
0.5680242083333333	7.605348023050145e-12	-6.290238691507582e-12	-0	0.2899979007415209	0	0.09478689634274365	-67.05873914950845	581.5961003324014	-0	0.7298732043617514	0	-0.09405895442489226	0	4.019645402162923e-29	0	0	-0.0130143102898396	0
0.5778177291666666	7.813778384457841e-11	-6.007728427793679e-11	-0	0.3032347013920693	0	0.09478689634274365	-44.71032383757863	536.0707767775345	-0	0.7367072660543911	0	-0.09428434768785904	0	6.078851933333096e-28	0	0	-0.01003624541253501	0
0.5876112499999999	2.449899102892458e-09	-1.753108606163146e-09	-0	0.3183696419852096	0	0.09478689634274365	-47.70606473997181	489.5245712185953	-0	0.7413331005594547	0	-0.0944471766194495	0	-6.477586392705329e-27	0	0	-0.00653724332580399	0
0.5974047708333333	1.159173721769878e-07	-7.732908460448928e-08	-0	0.335359571313369	0	0.09478689634274365	-32.00844015458799	476.8177352891194	-0	0.7457928307252986	0	-0.09459019023548274	0	-2.383073455351396e-25	0	0	-0.00413578197022365	0
0.6071982916666666	-1.497918269720941e-06	9.373536337866598e-07	-0	0.3539668007367181	0	0.09478689634274365	-36.25506515736473	453.67517263657	-0	0.7478100808602027	0	-0.09466032303000148	0	4.797049004189218e-24	0	0	-0.002438926005410156	0
0.6169918125	-1.909187080731018e-06	1.127689429872186e-06	-0	0.3739308081720928	0	0.09478689634274365	-23.24323365423043	456.3632516174533	-0	0.7492465960529086	0	-0.09469564508456288	0	-1.078429599537136e-23	0	0	-0.001827151126023026	0
0.6267853333333333	-1.261891369472492e-06	7.067429314965665e-07	-0	0.3950791308668803	0	0.09478689634274365	-26.20009247336494	446.089259744109	-0	0.7499036133562192	0	-0.09471630654817347	0	7.14099886293577e-24	0	0	-0.001261156539913937	0
0.6365788541666666	-1.004293701746306e-06	5.355568765394738e-07	-0	0.4172686173912191	0	0.09478689634274365	-15.01977426810418	457.1721942242973	-0	0.75084526021758	0	-0.09473685412728119	0	-3.916589438012201e-25	0	0	-0.0009377732728372754	0
0.646372375	-1.066986644810071e-06	5.443123821880542e-07	-0	0.440336877462262	0	0.09478689634274365	-18.4035390918375	459.4148152452726	-0	0.751273615499211	0	-0.09475084011970467	0	-4.004625628682881e-24	0	0	-0.0006323144469385165	0
0.6561658958333333	-1.538199557077029e-06	7.540253839376896e-07	-0	0.4641516381778027	0	0.09478689634274363	-9.209284451311962	479.3509921005602	-0	0.751863123202042	0	-0.09476179086390955	0	-1.537012184397928e-23	0	0	-0.0004846390430491124	0
0.6659594166666667	-2.956737175740167e-06	1.397523812574534e-06	-0	0.488655742056253	0	0.09478689634274365	-11.88271196758053	489.3372362671616	-0	0.7520798880826971	0	-0.0947686410960247	0	-7.242517216406645e-24	0	0	-0.0003466086560516271	0
0.6757529375	-7.337799408447023e-06	3.354961094494271e-06	-0	0.5138058392638258	0	0.09478689634274365	-3.18390729434418	511.2820428061871	-0	0.7524539876552991	0	-0.09477379987190876	0	3.306754238971503e-23	0	0	-0.0002784359749961887	0
0.6855464583333333	-2.253643256376893e-05	1.000104085236048e-05	-0	0.5395613264234067	0	0.09478689634274365	-5.665560472122117	521.8212439409826	-0	0.7525483920057002	0	-0.09477714041956427	0	1.076467043766178e-22	0	0	-0.0002073515175866454	0
0.6953399791666666	-8.166972333606344e-05	3.52928441064436e-05	-0	0.565906698310916	0	0.09478689634274365	2.352453433863932	540.5002979530835	-0	0.7528032087484072	0	-0.0947797358664275	0	-3.467379657223138e-22	0	0	-0.0001679920320744246	0
0.7051335	-0.0003313139497433166	0.0001398578667733854	-0	0.5928446768922239	0	0.09478689634274365	0.5811051287810168	548.0447259490962	-0	0.7528428787150871	0	-0.09478152706779865	0	1.747093390093701e-21	0	0	-0.000126124868435721	0
0.7149270208333333	-0.001426459821795075	0.0005899837933543339	-0	0.6203895687711815	0	0.09478689634274365	8.394843472710582	561.9502012213874	-0	0.7530328700054701	0	-0.09478296955555124	0	7.973211402218103e-21	0	0	-0.0001007974069508425	0
0.7247205416666667	-0.006171941923581592	0.002508568351422373	-0	0.6485585972619959	0	0.09478689634274365	6.977876526894297	566.1163410892165	-0	0.7530344640001213	0	-0.09478401232676915	0	2.131270304461974e-20	0	0	-7.488923702285713e-05	0
0.7345140625	-0.02547854213827322	0.01020652365919331	-0	0.6773698760164196	0	0.09478689634274365	14.1815811786833	576.1774657809441	-0	0.7531730438335765	0	-0.09478485109156097	0	1.061586281470693e-20	0	0	-5.813981410285297e-05	0
0.7443075833333332	-0.09557852153356947	0.03784900265233749	-0	0.7068302710586706	0	0.09478689634274365	12.94338086329959	578.4321634095409	-0	0.7531453234988819	0	-0.09478546082102651	0	5.809190074880562e-19	0	0	-4.216509473224432e-05	0
0.7541011041666666	-0.3120973396647073	0.1225215282045472	-0	0.736939384031322	0	0.09478689634274365	19.29695723813894	586.2930241858957	-0	0.7532393552792342	0	-0.09478593197719684	0	-1.393361795913614e-18	0	0	-3.134712221791759e-05	0
0.7638946249999999	-0.8527267482560066	0.3327733180642876	-0	0.7676918843920575	0	0.09478689634274363	17.67541255063098	587.4973709529708	-0	0.7531812983919237	0	-0.09478626282541994	0	-1.276333174360011e-17	0	0	-2.175702636362088e-05	0
0.7736881458333333	-1.902939833632217	0.7409495089744692	-0	0.7990280872155404	0	0.09478689634274365	23.15477291415964	593.2146238944474	-0	0.7532409875734316	0	-0.09478650124535873	0	1.097388918290669e-17	0	0	-1.512264951235829e-05	0
0.7834816666666666	-3.400754141537561	1.327864292881826	-0	0.8308016804078826	0	0.09478689634272204	21.9974235523225	592.5074603823997	-0	0.7531758073777498	0	-0.09478665867668271	0	-1.585204038004351e-15	0	0	-9.765338927082865e-06	0
0.7932751874999999	-4.851064075770873	1.910767765312944	-0	0.8628082510899058	0	0.0947868963419847	27.41571350617122	595.0155128490985	-0	0.7532205510880853	0	-0.09478676243165551	0	-7.242723410400792e-14	0	0	-6.159024665489968e-06	0
0.8030687083333333	-5.720043919796433	2.285478242568213	-0	0.8947745189211042	0	0.09478689631888426	26.79760262010789	590.7884472249331	-0	0.7531519433427174	0	-0.09478682462643223	0	-2.269814076824414e-12	0	0	-3.562395464630558e-06	0
0.8128622291666667	-5.828888671390048	2.372943079015639	-0	0.9263961392188517	0	0.09478689572464252	32.7027398403064	590.486981426327	-0	0.753191765346201	0	-0.09478686087246901	0	-4.93650727827057e-11	0	0	-1.977186958631094e-06	0
0.82265575	-5.303559437974162	2.208337658741515	-0	0.9574182466415525	0	0.09478688368241132	33.68902749707311	587.0581180875306	-0	0.7531330308753592	0	-0.09478687999298367	0	-7.373783558073673e-10	0	0	-1.007948647163203e-06	0
0.8324492708333333	-4.394809480606765	1.877702620015182	-0	0.9876020529420662	0	0.09478669487024802	41.5418203774781	589.6125506431797	-0	0.7531829032748518	0	-0.09478688953513038	0	-7.5815584191182e-09	0	0	-4.84500853897139e-07	0
0.8422427916666666	-3.280629765384373	1.44153067797466	-0	1.016778743037859	0	0.09478434186931534	46.16036843020534	591.6233812324624	-0	0.7531552353323586	0	-0.09478689379079425	0	-5.445274995015385e-08	0	0	-2.098585831618966e-07	0
0.8520363124999999	-2.218292876208659	1.004581940315044	-0	1.044365061853497	0	0.09476066001293811	56.48095529898883	597.7054368155503	-0	0.7532058442957386	0	-0.09478689551423269	0	-2.727274940774292e-07	0	0	-8.101491371047697e-08	0
0.8618298333333333	-1.457359893526818	0.6818787435782675	-0	1.066573242198072	0	0.09457802443955483	62.62061866010728	600.3251318989622	-0	0.7531624813551494	0	-0.09478689611282579	0	-9.093526235443112e-07	0	0	-2.641094512325855e-08	0
0.8716233541666667	-1.11387915047204	0.5398515116291239	-0	1.067720103887349	0	0.09367675211684773	73.79809022191951	605.7514123615315	-0	0.7531830566380462	0	-0.09478689629132704	0	-1.681028857943076e-06	0	0	-7.06297777794771e-09	0
0.881416875	-1.347535120119898	0.6783624520482505	-0	1.03856149571236	0	0.09178979548247589	81.12197365389311	608.860375842863	-0	0.7531144624111981	0	-0.09478689633402206	0	-1.018450035852146e-06	0	0	-1.422250822606415e-09	0
0.8912103958333333	-2.523300127550216	1.322503464545896	-0	1.020235456038014	0	0.09042539863836302	92.30427939506731	611.9610140112603	-0	0.7530932199633605	0	-0.09478689634188749	0	4.628237776359668e-07	0	0	-1.665715464122521e-10	0
0.9010039166666666	-5.354197784091262	2.925887164330315	-0	1.02369028906624	0	0.08990900711887204	98.87307224976678	609.1859545440271	-0	0.7529818957595613	0	-0.09478689634274995	0	1.357270847071126e-06	0	0	1.438670494027353e-12	0
0.9107974375	-10.97258990005288	6.273417765520171	-0	1.035594708007498	0	0.08973664852395513	109.7663229911647	605.5916997124464	-0	0.7529301873803361	0	-0.09478689634274426	0	1.872237312910298e-06	0	0	1.637879333540695e-13	0
0.9205909583333334	-20.19194212420344	12.25774654770274	-0	1.049379036864595	0	0.0896824996614929	117.707196105146	598.2942914680763	-0	0.7528119327830702	0	-0.09478689634274366	0	2.290712689422197e-06	0	0	2.452205858905705e-15	0
0.9303844791666667	-31.40458363400549	20.87213579222403	-0	1.06317814108054	0	0.08969779815123055	127.0634048413591	576.2896452492348	-0	0.7527514430094518	0	-0.09478689634274365	0	1.42836724298316e-06	0	0	-1.388964420244011e-16	0
0.940178	-42.42494101997301	32.17293371929787	-0	1.078492879617367	0	0.08985379574957707	130.7224099278556	528.0913960496579	-0	0.7526658588009617	0	-0.09478689634274365	0	-1.42354997512286e-05	0	0	6.748332618926652e-16	0
