DataType=double
version=3
OpenSimVersion=4.6-2026-06-22-85aaf64
endheader
time	ground_force_r_vx	ground_force_r_vy	ground_force_r_vz	ground_force_r_px	ground_force_r_py	ground_force_r_pz	ground_force_l_vx	ground_force_l_vy	ground_force_l_vz	ground_force_l_px	ground_force_l_py	ground_force_l_pz	ground_torque_r_x	ground_torque_r_y	ground_torque_r_z	ground_torque_l_x	ground_torque_l_y	ground_torque_l_z
0	-0.001971933490517337	0.0005730636506815649	-0	1.178262462154496	0	0.08956292318022978	-0	-0	-0	0	0	0	0	-4.359322083008044e-12	0	0	0	0
0.002566168956245681	-0.005115248099517056	0.001539516059033609	-0	1.186432921499632	0	0.08957949673516476	-0	-0	-0	0	0	0	0	9.568366800164963e-11	0	0	0	0
0.005132337912491363	-0.01249564473075988	0.003898508381742446	-0	1.193954245642427	0	0.08957837190971338	-0	-0	-0	0	0	0	0	3.470304606800436e-10	0	0	0	0
0.007698506868737044	-0.02903943542471999	0.009389548439711874	-0	1.201247851002634	0	0.08957387890118806	-0	-0	-0	0	0	0	0	5.535658748092893e-10	0	0	0	0
0.01026467582498273	-0.06484385172791532	0.02171079118369568	-0	1.208469670100948	0	0.08957132980505804	2.528517880515973e-15	-1.402532396926777e-15	-0	0	0	0	0	7.016730802236571e-10	0	0	-2.396703622412414e-16	0
0.01283084478122841	-0.1402438090070767	0.04856377321180232	-0	1.215591012261409	0	0.08957010829004915	1.120721708332494e-13	-6.0160575598064e-14	-0	0.7095786558070225	0	-0.09478689634274365	0	8.143301529822103e-10	0	0	6.87442553314094e-31	0
0.01539701373747409	-0.295924620862042	0.1058602238719611	-0	1.222566994666319	0	0.08956954146713249	6.245139934616874e-12	-3.242544218089999e-12	-0	0.7170054101416136	0	-0.09478689634274365	0	9.235957544276058e-10	0	0	4.582481276811256e-29	0
0.01796318269371977	-0.6126802503042916	0.2262193522663114	-0	1.229362989709411	0	0.08956927366934368	4.879153506119515e-10	-2.450529663091005e-10	-0	0.724744469182508	0	-0.09478689634274365	0	1.057765278250701e-09	0	0	-4.185549895976423e-28	0
0.02052935164996545	-1.249521957936454	0.4761290695759763	-0	1.235940796367151	0	0.08956914325266162	4.726730640653979e-08	-2.295541076913516e-08	-0	0.7327927957638779	0	-0.09478689634274365	0	1.248654212880848e-09	0	0	4.880942308186736e-26	0
0.02309552060621113	-2.514800904176778	0.9896680370058495	-0	1.242268660117859	0	0.08956907736267186	4.912719591523984e-06	-2.305569863770834e-06	-0	0.7411522839508853	0	-0.09478689634274365	0	1.536709462599363e-09	0	0	-6.493594634641934e-24	0
0.02566168956245682	-4.988501180497008	2.030854484500352	-0	1.248316404252028	0	0.08956904326743187	0.0004397271018963215	-0.0001993078028646404	-0	0.7498273764671474	0	-0.09478689634274365	0	1.985523279289442e-09	0	0	-2.878838148907178e-21	0
0.0282278585187025	-9.707082293515271	4.099049274589714	-0	1.254059495002285	0	0.08956902571484907	0.005109878153745308	-0.002236220739939066	-0	0.758819023394487	0	-0.09478689634274365	0	2.695617405490922e-09	0	0	7.040143306958623e-21	0
0.03079402747494818	-18.32850589953661	8.061678021622251	-0	1.25946683918182	0	0.08956901787684984	-0.08281271428375325	0.03501022810505682	-0	0.7681132404154398	0	-0.09478689634274365	0	3.820387234310177e-09	0	0	-2.95931938849695e-19	0
0.03336019643119386	-32.90595097106146	15.17026716892024	-0	1.264508068301119	0	0.089569017651184	-0.1329337904999217	0.05436755672654797	-0	0.7776843686734883	0	-0.09478689634274365	0	5.47088347876318e-09	0	0	4.220528576532491e-19	0
0.03592636538743954	-54.36152867491162	26.49454878167293	-0	1.269152223368637	0	0.08956902744882866	-0.1616090771631005	0.0641009309385898	-0	0.7874860092878411	0	-0.09478689634274365	0	6.988451971835599e-09	0	0	-3.344580159437183e-19	0
0.03849253434368523	-80.53653825952206	41.93079188794844	-0	1.273378089759173	0	0.0895690576328224	-0.1826649684948967	0.07046047895047668	-0	0.7974771598583357	0	-0.09478689634274365	0	3.160690348817996e-09	0	0	1.601934567836777e-18	0
0.0410587032999309	-114.2254544913137	64.35736948229113	-0	1.277158474366088	0	0.08956913140515955	-0.2027110867381954	0.07614682706792569	-0	0.8076594821881367	0	-0.09478689634274365	0	-3.586008672499073e-08	0	0	-1.66306696281951e-19	0
0.04362487225617658	-177.8670506636383	111.1946066986357	-0	1.280462482013244	0	0.08956929064343754	-0.2252058952148552	0.08240177599283832	-0	0.8180523189953914	0	-0.09478689634274365	0	-3.215757835612378e-07	0	0	-6.009482064075444e-19	0
0.04619104121242226	-266.4362542419157	194.6457410856113	-0	1.283234255277661	0	0.08956979099615746	-0.2513801444322794	0.08956398887165738	-0	0.828689323898232	0	-0.09478689634274365	0	-2.717086114670972e-06	0	0	1.471337314566943e-18	0
0.04875721016866794	-319.7934225948005	295.9668645665067	-0	1.285398518005123	0	0.08957228384104554	-0.2811793515139606	0.09752919821516758	-0	0.8396027445885823	0	-0.09478689634274365	0	-2.520268963887179e-05	0	0	-9.371646260579214e-19	0
0.05132337912491363	-207.2730845495188	402.057631178253	-0	1.287990469628885	0	0.08958469413638209	-0.3147334393730798	0.1063840648838986	-0	0.8507925685111967	0	-0.09478689634274365	0	-0.001521717017629915	0	0	-9.977032661951241e-19	0
0.05388954808115931	-50.74466480682201	528.0974533498644	-0	1.290872331854084	0	0.08962263344525682	-0.3513815524936549	0.1159626940404123	-0	0.8622509355635152	0	-0.09478689634274365	0	-0.004788879783699251	0	0	-3.182340981291689e-18	0
0.05645571703740499	-63.25811845124263	665.2013118602007	-0	1.293368554763484	0	0.08969885727749333	-0.3894609020650121	0.125729414700844	-0	0.8739758029541216	0	-0.09478689634274365	0	-0.01014133001087554	0	0	-1.380370257159167e-18	0
0.05902188599365066	-3.294773079906176	795.600446981308	-0	1.297169406642445	0	0.0898079699341735	-0.4274882733817713	0.1352267336863285	-0	0.88597132359433	0	-0.09478689634274365	0	-0.01825357691160003	0	0	2.864061391752421e-18	0
0.06158805494989635	-25.01339715783399	919.326909001132	-0	1.301377961197259	0	0.08995142462040456	-0.4640559031612883	0.1440489994876618	-0	0.8982392395490952	0	-0.09478689634274365	0	-0.02681006833144738	0	0	-1.663257587101113e-18	0
0.06415422390614203	-32.61572392481236	1050.507108576438	-0	1.309360309880692	0	0.09022574938186632	-0.4970014642432973	0.151578694500528	-0	0.910781703952078	0	-0.09478689634274365	0	-0.0356434789264594	0	0	1.518474491141623e-18	0
0.06672039286238772	-77.13757596987307	1148.306910831548	-0	1.314466911366081	0	0.09040857032382525	-0.5247217579362378	0.1574214497237306	-0	0.923596514850387	0	-0.09478689634274365	0	-0.02443381891861004	0	0	1.592180810172766e-18	0
0.06928656181863339	-69.29903579651372	1188.10566311216	-0	1.315325713973613	0	0.0904350518460969	-0.5462973864595175	0.1614111715164159	-0	0.9366767438264449	0	-0.09478689634274365	0	-0.007286466665964555	0	0	3.069141412305993e-18	0
0.07185273077487908	-70.49336133888862	1202.511220303284	-0	1.314548939008878	0	0.09040754745403995	-0.5612518378006809	0.1634917424901491	-0	0.9500147520259522	0	-0.09478689634274365	0	0.003294562739243389	0	0	3.211067489773681e-19	0
0.07441889973112477	-59.1066781714409	1214.63775291897	-0	1.314314436197011	0	0.09039718803277615	-0.5693628854776691	0.1636822375299669	-0	0.9636000510674936	0	-0.09478689634274365	0	0.007198920632165043	0	0	1.389313813622572e-18	0
0.07698506868737044	-61.62466151545766	1227.381988260118	-0	1.314281220765855	0	0.09039705488766417	-0.5706788434974401	0.1620719189939134	-0	0.977420578077582	0	-0.09478689634274365	0	0.008704816328025992	0	0	3.360036182981145e-18	0
0.07955123764361612	-54.49089370421586	1238.767899393623	-0	1.314509440859889	0	0.09040398549412122	-0.5655965196385074	0.1588339679443412	-0	0.9914628930065663	0	-0.09478689634274365	0	0.009108161950265325	0	0	-9.288175049190014e-19	0
0.0821174065998618	-53.37364091999021	1248.155238893979	-0	1.31466509551365	0	0.09040969744405442	-0.5548154018445591	0.1542089351396529	-0	1.005712975676842	0	-0.09478689634274365	0	0.00929654504447563	0	0	1.840881078665113e-18	0
0.08468357555610749	-42.53476312281729	1252.197484876147	-0	1.314870594114686	0	0.09041492327071211	-0.5392291240863032	0.1484728040893458	-0	1.020155876423521	0	-0.09478689634274365	0	0.009263193178807867	0	0	3.58766233415908e-19	0
0.08724974451235316	-30.10605049799505	1244.715102820368	-0	1.314960956812331	0	0.09041579469606269	-0.5197326696602559	0.1418846224991003	-0	1.034776818997482	0	-0.09478689634274365	0	0.00922015241525076	0	0	-1.415848168815602e-18	0
0.08981591346859884	-2.84164224491645	1236.529532324642	-0	1.316699626297726	0	0.09047090461026043	-0.4972108985735834	0.1346890418223614	-0	1.049560341426137	0	-0.09478689634274365	0	0.005171809579615609	0	0	2.196378474890373e-19	0
0.09238208242484452	20.84309420469938	1253.721180450562	-0	1.322359561236268	0	0.09066418292407893	-0.4723321926358762	0.1270551369666709	-0	1.064493731814172	0	-0.09478689634274365	0	-0.01041381562836824	0	0	9.344859780541991e-19	0
0.09494825138109021	17.93827839662127	1282.195454581154	-0	1.330070834615966	0	0.09093484846050473	-0.4457804475402965	0.1191439505943026	-0	1.079567271063289	0	-0.09478689634274365	0	-0.0343128833392421	0	0	-1.607833120864434e-18	0
0.09751442033733589	2.697101437346943	1284.821651668071	-0	1.336353674375263	0	0.09115707017379288	-0.418469728860754	0.1111810667111197	-0	1.094772363030392	0	-0.09478689634274366	0	-0.04785843462583365	0	0	-6.353126875396611e-18	0
0.1000805892935816	0.9967853645223812	1262.489831561157	-0	1.341089112617125	0	0.09132138749734284	-0.3913511981148304	0.1034089388615396	-0	1.110097287765338	0	-0.09478689634274365	0	-0.04956570664037413	0	0	-2.986334818240521e-18	0
0.1026467582498273	2.622541351897972	1233.243889750076	-0	1.345173109608533	0	0.09146203816131644	-0.3651914542774979	0.09602190703964759	-0	1.125526941377938	0	-0.09478689634274365	0	-0.04704093753623961	0	0	-7.669863835079952e-19	0
0.1052129272060729	11.32652961832713	1209.311773916675	-0	1.349631409035882	0	0.09161427529253111	-0.3405509290118505	0.08915173496210403	-0	1.141045637780322	0	-0.09478689634274365	0	-0.04515156679934018	0	0	-2.908982119030429e-18	0
0.1077790961623186	20.95457439420615	1201.559753964633	-0	1.355521842638381	0	0.09181688876469789	-0.3175547190510667	0.08280492350832429	-0	1.156642579498377	0	-0.09478689634274363	0	-0.04594357264299557	0	0	3.516146171663217e-18	0
0.1103452651185643	22.19602146259188	1196.727102895834	-0	1.362064675913575	0	0.09204466664211013	-0.2960555437050189	0.07691598573256286	-0	1.172311254627391	0	-0.09478689634274365	0	-0.04501738218161914	0	0	5.914567416022223e-19	0
0.11291143407481	20.54889962919157	1178.345031954317	-0	1.368246787933355	0	0.09226043337692617	-0.2755998962988981	0.07134323466968262	-0	1.188053337775842	0	-0.09478689634274365	0	-0.03960480418888889	0	0	6.268387578760793e-19	0
0.1154776030310557	21.03316810653089	1149.541558663308	-0	1.374263256106634	0	0.0924698970314642	-0.2557367969715927	0.06595616899769925	-0	1.203873208891197	0	-0.09478689634274365	0	-0.03173252234365863	0	0	-1.406530547923456e-18	0
0.1180437719873013	20.94769618138789	1113.444893036726	-0	1.380353921154234	0	0.09268230169906401	-0.2361204529613204	0.06066229331471323	-0	1.2197773899352	0	-0.09478689634274365	0	-0.0229237398653832	0	0	-3.748463832571496e-19	0
0.120609940943547	26.97859987450478	1080.238739510643	-0	1.387579710192268	0	0.09293343156738353	-0.2166049458890984	0.05542711690323888	-0	1.235771727773312	0	-0.09478689634274365	0	-0.01438203101006155	0	0	5.958746267282913e-19	0
0.1231761098997927	34.76066990996759	1056.339788234904	-0	1.396868198398055	0	0.09325740733149186	-0.1975462127733291	0.05035034599633183	-0	1.251855436910176	0	-0.09478689634274365	0	-0.005708156270563126	0	0	5.151898918232695e-19	0
0.1257422788560384	32.71626221480811	1025.953764391232	-0	1.407360393631499	0	0.09362723305592098	-0.1795076736110106	0.04558329057875849	-0	1.268022248985975	0	-0.09478689634274365	0	0.003010768431187284	0	0	8.062528447827113e-20	0
0.1283084478122841	25.41818732627671	984.5911058779054	-0	1.418062565146622	0	0.09400666068810082	-0.16375735137895	0.04145970532191889	-0	1.284242288733791	0	-0.09478689634274365	0	0.008904834786966302	0	0	1.090650071645632e-20	0
0.1308746167685297	18.59570056859069	941.6726552796774	-0	1.428691431812828	0	0.09438429825468944	-0.1513704788588561	0.03825198945815692	-0	1.300474871870917	0	-0.09478689634274365	0	0.009031798128128234	0	0	2.594484020017562e-20	0
0.1334407857247754	12.18774301696314	901.2208410935397	-0	1.438957856579399	0	0.09475025104676459	-0.1428675931811128	0.03607959159021461	-0	1.316673891811855	0	-0.09478689634274365	0	0.001299900369646515	0	0	6.986067500601118e-19	0
0.1360069546810211	21.34417590343874	912.2756918665342	-0	1.440396721170011	0	0.09479640211355049	-0.1383332353263518	0.03494792827191578	-0	1.332799161122098	0	-0.09478689634274365	0	-0.0004812268254970803	0	0	4.289646642224357e-19	0
0.1385731236372668	38.1189350237396	924.3545717466706	-0	1.440363708260714	0	0.09478709974890945	-0.1365340488122945	0.03451329999554103	-0	1.348852813034836	0	-0.09478689634274365	0	-1.383298505242633e-05	0	0	1.844748832103778e-19	0
0.1411392925935125	51.00813133155002	929.0401247815099	-0	1.440538722576661	0	0.09478689832077837	-0.136218195700018	0.03443475985879871	-0	1.364856743412995	0	-0.09478689634274365	0	-1.73756904863764e-07	0	0	-3.62783366741199e-19	0
0.1437054615497582	64.39664034486778	928.623042309883	-0	1.440725343739842	0	0.09478689635581521	-0.1367426711411036	0.03454588030501551	-0	1.380836417173617	0	-0.09478689634274365	0	-1.439714634650606e-09	0	0	7.419816976933547e-19	0
0.1462716305060039	76.27651314426672	924.135209890734	-0	1.440894650962542	0	0.09478689634281603	-0.1376496551319782	0.0347317150696441	-0	1.396814141816086	0	-0.09478689634274365	0	-9.758862081699969e-12	0	0	4.707481128945203e-19	0
0.1488377994622495	87.83401136605086	916.598545408461	-0	1.441061020522697	0	0.09478689634274402	-0.1386656504646168	0.03492816940904631	-0	1.41280599945941	0	-0.09478689634274365	0	-5.90035598617123e-14	0	0	8.019343087692301e-19	0
0.1514039684184952	98.1714702736875	906.4653121940756	-0	1.441213215997053	0	0.09478689634274365	-0.1395706951112384	0.03508561209252669	-0	1.428824598171681	0	-0.09478689634274365	0	9.045004197949967e-16	0	0	6.119378337317552e-22	0
0.1539701373747409	107.9521282301725	894.501850596916	-0	1.44135909521623	0	0.09478689634274365	-0.1402774220544667	0.03518816093222312	-0	1.444875565003647	0	-0.09478689634274365	0	3.261043921741455e-16	0	0	-3.228412270768159e-20	0
0.1565363063309866	116.6653407313434	880.8930409602839	-0	1.441491775999591	0	0.09478689634274365	-0.1407352694693439	0.03522846693011582	-0	1.460961868070911	0	-0.09478689634274365	0	-5.53255176173993e-16	0	0	-7.004027883119385e-19	0
0.1591024752872322	124.708495739314	866.1404030990401	-0	1.441615877698793	0	0.09478689634274365	-0.1409123679896345	0.03520190955806406	-0	1.477083162566229	0	-0.09478689634274365	0	-5.489988724798898e-16	0	0	8.100491314293578e-19	0
0.1616686442434779	131.7768166981979	850.2553576070288	-0	1.441727132007405	0	0.09478689634274365	-0.1407661613019111	0.03510009072122384	-0	1.493238505749467	0	-0.09478689634274365	0	-7.735665500995033e-16	0	0	-1.043436876788276e-19	0
0.1642348131997236	138.2017353405558	833.5180256384351	-0	1.441829716310403	0	0.09478689634274365	-0.1401826578764306	0.03489492413699396	-0	1.509427703947356	0	-0.09478689634274365	0	5.197208117643225e-16	0	0	1.08980116031897e-19	0
0.1668009821559693	143.6900871117622	815.8958045681163	-0	1.441919383728536	0	0.09478689634274365	-0.1390212717762233	0.03455139209456929	-0	1.525651386960797	0	-0.09478689634274365	0	-2.692773339412201e-16	0	0	7.757516688239928e-19	0
0.169367151112215	148.3523283802674	797.5884203847268	-0	1.441997284218506	0	0.09478689634274366	-0.1371041387096134	0.03402483294040007	-0	1.541912080529029	0	-0.09478689634274365	0	-2.699099713194794e-15	0	0	5.741234474449502e-19	0
0.1719333200684607	152.1872828696695	778.4333763189791	-0	1.442063891970461	0	0.09478689634274365	-0.1342588552094638	0.03327243954130031	-0	1.558212900663277	0	-0.09478689634274365	0	-7.118705027000391e-16	0	0	7.851431424465399e-19	0
0.1744994890247063	155.6454737778473	758.4123695096846	-0	1.442126648879122	0	0.09478689634274365	-0.1303592479838912	0.03226390136830039	-0	1.574556872585481	0	-0.09478689634274365	0	1.610363922939371e-16	0	0	-3.682089272345121e-19	0
0.177065657980952	158.6626321525673	737.4486191176555	-0	1.442185171823289	0	0.09478689634274365	-0.1253383637614204	0.03098380135402126	-0	1.590946640087858	0	-0.09478689634274365	0	-3.400349768591645e-16	0	0	-7.762459270408384e-19	0
0.1796318269371977	161.3616519390945	715.6492871683444	-0	1.442241642566574	0	0.09478689634274365	-0.1192507455098503	0.02944691233381238	-0	1.60738337292658	0	-0.09478689634274365	0	8.334150314284711e-16	0	0	-5.832564916916583e-19	0
0.1821979958934434	163.6344106883203	693.003160454881	-0	1.442294776889486	0	0.09478689634274366	-0.1122346384768012	0.02768833274851576	-0	1.623867005366764	0	-0.09478689634274366	0	-2.833144784429813e-15	0	0	-1.65326795533319e-18	0
0.184764164849689	165.5224957069688	669.6172243945155	-0	1.442345441276148	0	0.09478689634274365	-0.1045295587066664	0.02576761125360618	-0	1.640395068867828	0	-0.09478689634274365	0	4.748308037683354e-16	0	0	-2.99832656811028e-19	0
0.1873303338059347	166.9252505163151	645.4877755288903	-0	1.442392407571176	0	0.09478689634274365	-0.0964242746980109	0.02375603050001298	-0	1.656963213651723	0	-0.09478689634274365	0	-7.369000824209334e-16	0	0	3.695217905681728e-19	0
0.1898965027621804	167.8726616412188	620.6622407124082	-0	1.442436643342752	0	0.09478689634274365	-0.08824221275362402	0.02173302463074162	-0	1.673563683814591	0	-0.09478689634274365	0	2.612998621498808e-16	0	0	-1.678440478765705e-19	0
0.1924626717184261	168.2740108018912	595.1294049201127	-0	1.442477147423459	0	0.09478689634274365	-0.08026770004958952	0.01976774248296538	-0	1.690187149605472	0	-0.09478689634274365	0	7.33392102336458e-16	0	0	-3.69727826325349e-19	0
0.1950288406746718	168.1427908584321	568.9453393701407	-0	1.442514609998601	0	0.09478689634274365	-0.07272170606455808	0.01791319772258238	-0	1.70682282483054	0	-0.09478689634274365	0	-4.670767499135522e-16	0	0	2.369653082750271e-19	0
0.1975950096309175	167.4080478481514	542.1346995206595	-0	1.442548231206946	0	0.09478689634274365	-0.06575979519555773	0.0162062732394477	-0	1.723459337444821	0	-0.09478689634274365	0	-8.319628098211216e-16	0	0	4.086448491713059e-19	0
0.2001611785871631	166.0809176978096	514.7806103991664	-0	1.442578537578062	0	0.09478689634274365	-0.05947306409381796	0.01466805717229398	-0	1.740085176391363	0	-0.09478689634274365	0	-6.063764125371519e-16	0	0	1.489007494539192e-19	0
0.2027273475434088	164.1606390601428	486.8676143555754	-0	1.442606746441905	0	0.09478689634274365	-0.05391204683649768	0.01331003956349442	-0	1.756688507670004	0	-0.09478689634274365	0	7.297457005847081e-16	0	0	-2.762771465837798e-19	0
0.2052935164996545	161.7185592469189	458.27992254894	-0	1.442636969664829	0	0.09478689634274366	-0.04908824069581919	0.01213439890932017	-0	1.773257554315196	0	-0.09478689634274363	0	-2.182030696431796e-15	0	0	2.713426831431984e-19	0
0.2078596854559002	157.8643905142521	427.2875908567246	-0	1.442664608664359	0	0.09478689634274365	-0.04496001317778808	0.01113032360934129	-0	1.78978136260322	0	-0.09478689634274363	0	-1.5273744832622e-16	0	0	3.334600140168566e-19	0
0.2104258544121459	152.331786062452	391.7653377022108	-0	1.442709616777203	0	0.09478689634274365	-0.04138480244721784	0.01026185448771092	-0	1.806254145005523	0	-0.09478689634274365	0	-2.801059674749427e-16	0	0	-2.360112253625345e-19	0
0.2129920233683915	145.8372874762816	353.517037754165	-0	1.442784559630377	0	0.09478689634274363	-0.03814374267673842	0.009474422999410346	-0	1.822673706624486	0	-0.09478689634274365	0	1.507396793930632e-15	0	0	-2.040343291511991e-19	0
0.2155581923246372	137.6803618095776	316.1226602448391	-0	1.442829038921369	0	0.09478689634274365	-0.03488393917680982	0.008681146685578891	-0	1.839042251378042	0	-0.09478689634222608	0	3.58406880842591e-16	0	0	3.601290566655194e-16	0
0.2181243612808829	127.188767872569	280.6713125550425	-0	1.442792990417123	0	0.09478689634274365	-0.03139700475517257	0.007830009132084445	-0	1.855367247692896	0	-0.09478689634056088	0	7.856107522225194e-16	0	0	1.297660955771041e-15	0
0.2206905302371286	114.5263685436978	247.3031051936007	-0	1.442659623935278	0	0.09478689634274365	-0.02769187854687878	0.006919985129018431	-0	1.871676773073711	0	-0.09478689633281567	0	-7.388479346909418e-16	0	0	4.920336186033723e-15	0
0.2232566991933743	99.26114319192274	214.7843657923974	-0	1.442406254155087	0	0.09478689634274365	-0.02372092780630666	0.005936646284460139	-0	1.888009549242341	0	-0.09478689629983872	0	9.784361868947974e-17	0	0	1.714618461792613e-14	0
0.22582286814962	81.72012454588398	181.6826700014888	-0	1.442043521577438	0	0.09478689634274365	-0.0194450981685772	0.004870876573777301	-0	1.904406034242327	0	-0.09478689614753552	0	-4.321560030676626e-16	0	0	6.003817363742558e-14	0
0.2283890371058656	64.28500966798497	149.2122403403893	-0	1.441635540719012	0	0.09478689634274365	-0.01500103495200716	0.003758803231847728	-0	1.920906588625996	0	-0.09478689539512855	0	1.768103197660552e-17	0	0	2.106882444965976e-13	0
0.2309552060621113	48.63806557660673	118.786634575494	-0	1.441233547283937	0	0.09478689634274365	-0.01075159629389747	0.002693757920853879	-0	1.937538887330678	0	-0.09478689142490973	0	1.878464420611116e-16	0	0	7.314177418187267e-13	0
0.233521375018357	34.9293792888837	90.29814438517924	-0	1.440854827792113	0	0.09478689634274365	-0.007037403751762431	0.001762619557013222	-0	1.954324637192228	0	-0.09478686849309616	0	1.799003694181845e-16	0	0	2.513040258573656e-12	0
0.2360875439746027	23.19335461625839	62.92678056517532	-0	1.440553067043261	0	0.09478689634274365	-0.004129162358887584	0.001033866512569772	-0	1.971266067110413	0	-0.09478672070524012	0	9.384403951919512e-17	0	0	8.520649349159925e-12	0
0.2386537129308483	13.0562193051111	36.18948920457741	-0	1.440374901490356	0	0.09478689634274365	-0.002074183597441115	0.0005196497914524749	-0	1.988309674655438	0	-0.09478560388170758	0	6.045178834944937e-17	0	0	2.837844657848091e-11	0
0.241219881887094	4.00331188334746	10.84433823378497	-0	1.44034978407232	0	0.09478689634274366	-0.0007415214602545426	0.0001866008560719473	-0	2.005074776301433	0	-0.0947736619781966	0	-7.846178828864671e-17	0	0	9.13522457223379e-11	0
0.2437860508433397	0.03724748430725301	-0.5629561516698516	-0	1.436909867292999	0	0.09478689634274365	-5.022861534970455e-05	1.278949141965867e-05	-0	2.006536513537462	0	-0.09408634364431379	0	-5.268386287087444e-20	0	0	2.422211672119107e-10	0
0.2463522197995854	5.243187540145891e-07	-5.13049516462831e-07	-0	1.430809493997847	0	0.09478689634274365	-8.010562639713387e-06	2.111444118997162e-06	-0	1.684859161556221	0	-0.07979634863263596	0	-6.798550382622041e-25	0	0	-1.464796301855707e-09	0
0.2489183887558311	-0	-0	-0	0	0	0	-7.450956543992038e-05	1.982261513461023e-05	-0	1.918839405049438	0	-0.08936155151391596	0	0	0	0	-7.605106332212685e-11	0
0.2514845577120768	-0	-0	-0	0	0	0	-0.0002422678011933303	6.613688282534253e-05	-0	1.931662859133574	0	-0.08954301227479876	0	0	0	0	-1.877482292157145e-11	0
0.2540507266683225	-0	-0	-0	0	0	0	-0.000715291910058538	0.0002011619117108944	-0	1.940158443709082	0	-0.08955948968017795	0	0	0	0	-8.446253755584441e-12	0
0.2566168956245681	-0	-0	-0	0	0	0	-0.001971933490517332	0.0005730636506815633	-0	1.9481131490282	0	-0.08956292318022975	0	0	0	0	4.359322127686604e-12	0
0.2591830645808138	-0	-0	-0	0	0	0	-0.005115248099517042	0.001539516059033605	-0	1.956283608373336	0	-0.08957949673516474	0	0	0	0	-9.568366793432855e-11	0
0.2617492335370595	-0	-0	-0	0	0	0	-0.01249564473075984	0.003898508381742433	-0	1.963804932516132	0	-0.08957837190971341	0	0	0	0	-3.470304607668655e-10	0
0.2643154024933052	-0	-0	-0	0	0	0	-0.02903943542471989	0.009389548439711844	-0	1.971098537876339	0	-0.08957387890118805	0	0	0	0	-5.535658742553835e-10	0
0.2668815714495509	2.528517880516002e-15	-1.402532396926793e-15	-0	0	0	0	-0.06484385172791507	0.0217107911836956	-0	1.978320356974652	0	-0.08957132980505804	0	2.396703622412442e-16	0	0	-7.016730804001279e-10	0
0.2694477404057966	1.120721708332509e-13	-6.016057559806482e-14	-0	1.479429342680727	0	0.09478689634274365	-0.1402438090070762	0.04856377321180215	-0	1.985441699135114	0	-0.08957010829004913	0	8.246860263746075e-32	0	0	-8.143301513894884e-10	0
0.2720139093620422	6.245139934616974e-12	-3.24254421809005e-12	-0	1.486856097015318	0	0.09478689634274365	-0.2959246208620409	0.1058602238719607	-0	1.992417681540023	0	-0.0895695414671325	0	-4.871279311187477e-29	0	0	-9.235957562367323e-10	0
0.2745800783182879	4.879153506119597e-10	-2.450529663091046e-10	-0	1.494595156056212	0	0.09478689634274365	-0.6126802503042892	0.2262193522663105	-0	1.999213676583115	0	-0.08956927366934368	0	1.642284842499669e-27	0	0	-1.057765281523192e-09	0
0.2771462472745336	4.726730640654054e-08	-2.295541076913553e-08	-0	1.502643482637582	0	0.09478689634274365	-1.249521957936448	0.4761290695759739	-0	2.005791483240856	0	-0.08956914325266163	0	2.098050436514218e-25	0	0	-1.248654234469858e-09	0
0.2797124162307792	4.912719591524093e-06	-2.305569863770886e-06	-0	1.51100297082459	0	0.09478689634274365	-2.5148009041769	0.9896680370058978	-0	2.012119346991563	0	-0.08956907736267186	0	2.554368053344122e-23	0	0	-1.536709477505374e-09	0
0.2822785851870249	0.0004397271018963461	-0.0001993078028646515	-0	1.519678063340852	0	0.09478689634274365	-4.98850118049708	2.030854484500381	-0	2.018167091125732	0	-0.08956904326743186	0	-5.615545301088539e-22	0	0	-1.985523159071983e-09	0
0.2848447541432707	0.005109878153745278	-0.002236220739939052	-0	1.528669710268191	0	0.09478689634274365	-9.707082293515544	4.099049274589831	-0	2.023910181875989	0	-0.08956902571484907	0	-2.667450130637975e-21	0	0	-2.6956174829933e-09	0
0.2874109230995163	-0.08281271428375275	0.03501022810505662	-0	1.537963927289144	0	0.09478689634274365	-18.32850589953697	8.061678021622409	-0	2.029317526055524	0	-0.08956901787684984	0	-2.221018483889323e-19	0	0	-3.820387177363039e-09	0
0.289977092055762	-0.1329337904999314	0.05436755672655195	-0	1.547535055547193	0	0.09478689634274365	-32.90595097106203	15.17026716892049	-0	2.034358755174823	0	-0.089569017651184	0	1.38626875627545e-19	0	0	-5.470883574348191e-09	0
0.2925432610120077	-0.1616090771630998	0.06410093093858951	-0	1.557336696161545	0	0.09478689634274365	-54.36152867491243	26.49454878167332	-0	2.039002910242341	0	-0.08956902744882865	0	-4.138130100676323e-19	0	0	-6.98845093937628e-09	0
0.2951094299682533	-0.1826649684948958	0.07046047895047633	-0	1.56732784673204	0	0.09478689634274365	-80.536538259523	41.93079188794893	-0	2.043228776632878	0	-0.0895690576328224	0	1.07981345884131e-19	0	0	-3.160689980157215e-09	0
0.297675598924499	-0.2027110867381944	0.0761468270679253	-0	1.577510169061841	0	0.09478689634274365	-114.2254544913152	64.35736948229201	-0	2.047009161239792	0	-0.08956913140515955	0	-3.117879505349051e-20	0	0	3.586008704325056e-08	0
0.3002417678807447	-0.2252058952148541	0.08240177599283789	-0	1.587903005869096	0	0.09478689634274365	-177.8670506636415	111.1946066986376	-0	2.050313168886948	0	-0.08956929064343754	0	1.126926178827554e-18	0	0	3.215757841972596e-07	0
0.3028079368369904	-0.251380144432278	0.08956398887165688	-0	1.598540010771937	0	0.09478689634274363	-266.43625424192	194.6457410856144	-0	2.053084942151365	0	-0.08956979099615746	0	-2.987032718164934e-18	0	0	2.717086114966323e-06	0
0.3053741057932361	-0.2811793515139592	0.09752919821516709	-0	1.609453431462287	0	0.09478689634274366	-319.7934225948043	295.9668645665101	-0	2.055249204878827	0	-0.08957228384104554	0	5.135052735954806e-18	0	0	2.520268964033432e-05	0
0.3079402747494818	-0.3147334393730782	0.106384064883898	-0	1.620643255384901	0	0.09478689634274365	-207.2730845495211	402.0576311782572	-0	2.057841156502589	0	-0.08958469413638209	0	1.063206761069688e-18	0	0	0.001521717017631748	0
0.3105064437057274	-0.3513815524936535	0.1159626940404119	-0	1.632101622437219	0	0.09478689634274365	-50.74466480682273	528.0974533498686	-0	2.060723018727789	0	-0.08962263344525684	0	-1.783648022684626e-18	0	0	0.004788879783698429	0
0.3130726126619731	-0.3894609020650101	0.1257294147008434	-0	1.643826489827826	0	0.09478689634274365	-63.25811845124338	665.2013118602055	-0	2.063219241637188	0	-0.08969885727749331	0	9.853992744882841e-19	0	0	0.01014133001087789	0
0.3156387816182188	-0.4274882733817691	0.1352267336863278	-0	1.655822010468034	0	0.09478689634274365	-3.294773079906491	795.6004469813124	-0	2.067020093516149	0	-0.0898079699341735	0	9.529595814394807e-20	0	0	0.0182535769116003	0
0.3182049505744645	-0.4640559031612858	0.1440489994876611	-0	1.668089926422799	0	0.09478689634274365	-25.01339715783448	919.3269090011379	-0	2.071228648070963	0	-0.08995142462040458	0	8.078121268847837e-19	0	0	0.02681006833144759	0
0.3207711195307101	-0.4970014642432951	0.1515786945005274	-0	1.680632390825782	0	0.09478689634274365	-32.61572392481289	1050.507108576444	-0	2.079210996754397	0	-0.09022574938186634	0	1.440882858754746e-18	0	0	0.03564347892645971	0
0.3233372884869559	-0.5247217579362898	0.1574214497237462	-0	1.693447201724091	0	0.09478689634274365	-77.13757596987377	1148.306910831554	-0	2.084317598239785	0	-0.09040857032382527	0	3.567474027266262e-19	0	0	0.02443381891860997	0
0.3259034574432015	-0.5462973864595145	0.161411171516415	-0	1.706527430700149	0	0.09478689634274365	-69.29903579651416	1188.105663112166	-0	2.085176400847317	0	-0.09043505184609689	0	-2.707897183784143e-18	0	0	0.007286466665966533	0
0.3284696263994472	-0.561251837800677	0.163491742490148	-0	1.719865438899657	0	0.09478689634274365	-70.49336133888892	1202.51122030329	-0	2.084399625882582	0	-0.09040754745403996	0	-8.80811475546411e-19	0	0	-0.003294562739244702	0
0.3310357953556929	-0.5693628854777175	0.1636822375299808	-0	1.733450737941198	0	0.09478689634274365	-59.10667817144113	1214.637752918976	-0	2.084165123070715	0	-0.09039718803277616	0	2.301469114805005e-19	0	0	-0.007198920632165101	0
0.3336019643119386	-0.5706788434974374	0.1620719189939126	-0	1.747271264951286	0	0.09478689634274365	-61.62466151545787	1227.381988260124	-0	2.08413190763956	0	-0.09039705488766417	0	-2.768554715686571e-18	0	0	-0.00870481632802508	0
0.3361681332681842	-0.5655965196385044	0.1588339679443403	-0	1.76131357988027	0	0.09478689634274365	-54.49089370421602	1238.767899393629	-0	2.084360127733593	0	-0.09040398549412124	0	1.290061733440852e-18	0	0	-0.009108161950265755	0
0.3387343022244299	-0.554815401844556	0.1542089351396521	-0	1.775563662550546	0	0.09478689634274365	-53.37364091999037	1248.155238893984	-0	2.084515782387354	0	-0.09040969744405443	0	1.87469148242399e-18	0	0	-0.009296545044476046	0
0.3413004711806756	-0.5392291240862993	0.1484728040893447	-0	1.790006563297225	0	0.09478689634274365	-42.53476312281739	1252.197484876152	-0	2.08472128098839	0	-0.09041492327071213	0	-9.184709599849509e-19	0	0	-0.009263193178808126	0
0.3438666401369213	-0.5197326696602541	0.1418846224990998	-0	1.804627505871186	0	0.09478689634274365	-30.10605049799511	1244.715102820373	-0	2.084811643686035	0	-0.0904157946960627	0	-4.260497413661846e-19	0	0	-0.009220152415251431	0
0.346432809093167	-0.4972108985735806	0.1346890418223607	-0	1.819411028299841	0	0.09478689634274365	-2.841642244916426	1236.529532324647	-0	2.08655031317143	0	-0.09047090461026044	0	3.718436198055361e-19	0	0	-0.00517180957961573	0
0.3489989780494127	-0.4723321926359209	0.1270551369666829	-0	1.834344418687877	0	0.09478689634274365	20.84309420469941	1253.721180450568	-0	2.092210248109973	0	-0.09066418292407892	0	-3.229058312087422e-18	0	0	0.01041381562836764	0
0.3515651470056583	-0.4457804475402951	0.1191439505943022	-0	1.849417957936993	0	0.09478689634274365	17.93827839662117	1282.19545458116	-0	2.09992152148967	0	-0.09093484846050473	0	-3.358155883111881e-18	0	0	0.03431288333924215	0
0.354131315961904	-0.4184697288607517	0.1111810667111191	-0	1.864623049904097	0	0.09478689634274365	2.69710143734671	1284.821651668077	-0	2.106204361248967	0	-0.09115707017379288	0	-7.951544717018815e-20	0	0	0.04785843462583386	0
0.3566974849181497	-0.3913511981148283	0.103408938861539	-0	1.879947974639043	0	0.09478689634274365	0.9967853645220988	1262.489831561163	-0	2.11093979949083	0	-0.09132138749734287	0	-2.670365902053964e-18	0	0	0.04956570664037445	0
0.3592636538743954	-0.3651914542775447	0.09602190703965992	-0	1.895377628251641	0	0.09478689634274363	2.622541351897704	1233.243889750081	-0	2.115023796482237	0	-0.09146203816131644	0	-4.293263074488936e-18	0	0	0.04704093753623984	0
0.3618298228306411	-0.3405509290118487	0.08915173496210356	-0	1.910896324654026	0	0.09478689634274365	11.32652961832691	1209.31177391668	-0	2.119482095909585	0	-0.09161427529253109	0	1.067084208848642e-18	0	0	0.04515156679934027	0
0.3643959917868868	-0.3175547190510651	0.08280492350832387	-0	1.926493266372082	0	0.09478689634274365	20.95457439420597	1201.559753964638	-0	2.125372529512086	0	-0.09181688876469789	0	-7.208498347114416e-19	0	0	0.04594357264299537	0
0.3669621607431324	-0.2960555437050171	0.07691598573256242	-0	1.942161941501095	0	0.09478689634274365	22.19602146259173	1196.72710289584	-0	2.131915362787279	0	-0.09204466664211013	0	-6.410718661140205e-19	0	0	0.04501738218161939	0
0.3695283296993781	-0.2755998962988968	0.07134323466968227	-0	1.957904024649546	0	0.09478689634274365	20.54889962919136	1178.345031954322	-0	2.138097474807059	0	-0.09226043337692615	0	-3.310980242287926e-19	0	0	0.03960480418888831	0
0.3720944986556238	-0.2557367969715913	0.06595616899769891	-0	1.973723895764901	0	0.09478689634274365	21.03316810653067	1149.541558663312	-0	2.144113942980338	0	-0.09246989703146422	0	-9.001150409924489e-20	0	0	0.03173252234365921	0
0.3746606676118694	-0.2361204529613722	0.06066229331472654	-0	1.989628076808904	0	0.09478689634274365	20.94769618138766	1113.444893036731	-0	2.150204608027939	0	-0.09268230169906401	0	3.012545717138303e-19	0	0	0.022923739865383	0
0.3772268365681152	-0.2166049458890973	0.05542711690323859	-0	2.005622414647015	0	0.09478689634274365	26.97859987450455	1080.238739510647	-0	2.157430397065971	0	-0.09293343156738351	0	1.722386131361707e-18	0	0	0.01438203101006115	0
0.3797930055243608	-0.1975462127733281	0.05035034599633159	-0	2.02170612378388	0	0.09478689634274366	34.76066990996733	1056.339788234907	-0	2.166718885271759	0	-0.09325740733149188	0	3.82111182561689e-18	0	0	0.005708156270562845	0
0.3823591744806065	-0.1795076736110088	0.04558329057875804	-0	2.03787293585968	0	0.09478689634274363	32.71626221480789	1025.953764391237	-0	2.177211080505204	0	-0.09362723305592098	0	-3.575110515766239e-18	0	0	-0.003010768431187479	0
0.3849253434368522	-0.1637573513789492	0.04145970532191871	-0	2.054092975607495	0	0.09478689634274366	25.41818732627648	984.5911058779086	-0	2.187913252020326	0	-0.09400666068810083	0	2.351994330820776e-18	0	0	-0.008904834786966007	0
0.3874915123930979	-0.1513704788588547	0.03825198945815654	-0	2.070325558744622	0	0.09478689634274365	18.59570056859036	941.6726552796791	-0	2.198542118686532	0	-0.09438429825468944	0	-6.839048090810637e-19	0	0	-0.009031798128127889	0
0.3900576813493436	-0.1428675931811116	0.0360795915902143	-0	2.08652457868556	0	0.09478689634274365	12.18774301696278	901.2208410935417	-0	2.208808543453103	0	-0.0947502510467646	0	6.083939958085305e-19	0	0	-0.001299900369646156	0
0.3926238503055892	-0.1383332353263512	0.03494792827191563	-0	2.102649847995803	0	0.09478689634274365	21.34417590343845	912.2756918665386	-0	2.210247408043715	0	-0.0947964021135505	0	-2.235349877056115e-19	0	0	0.0004812268254977378	0
0.3951900192618349	-0.1365340488122946	0.03451329999554105	-0	2.11870349990854	0	0.09478689634274365	38.11893502373931	924.3545717466733	-0	2.210214395134419	0	-0.09478709974890945	0	-6.935626382401619e-20	0	0	1.383298505234624e-05	0
0.3977561882180806	-0.1362181957000181	0.03443475985879874	-0	2.134707430286699	0	0.09478689634274365	51.00813133154975	929.0401247815145	-0	2.210389409450366	0	-0.09478689832077838	0	-4.182394067074333e-19	0	0	1.737569057357642e-07	0
0.4003223571743263	-0.136742671141103	0.03454588030501537	-0	2.150687104047321	0	0.09478689634274365	64.39664034486766	928.6230423098881	-0	2.210576030613547	0	-0.09478689635581521	0	4.171486813516442e-19	0	0	1.439714516769138e-09	0
0.402888526130572	-0.137649655131977	0.0347317150696438	-0	2.16666482868979	0	0.09478689634274365	76.27651314426646	924.1352098907367	-0	2.210745337836247	0	-0.09478689634281603	0	-8.409115333095043e-19	0	0	9.759485026820585e-12	0
0.4054546950868176	-0.1386656504646161	0.03492816940904614	-0	2.182656686333114	0	0.09478689634274365	87.83401136605056	916.5985454084638	-0	2.210911707396401	0	-0.09478689634274401	0	2.420774508894072e-19	0	0	5.791926845060449e-14	0
0.4080208640430633	-0.1395706951112383	0.03508561209252668	-0	2.198675285045385	0	0.09478689634274365	98.17147027368787	906.4653121940809	-0	2.211063902870757	0	-0.09478689634274365	0	8.379701453080814e-19	0	0	-1.40956407417731e-15	0
0.410587032999309	-0.1402774220544659	0.03518816093222293	-0	2.214726251877351	0	0.09478689634274365	107.9521282301718	894.5018505969161	-0	2.211209782089935	0	-0.09478689634274366	0	1.225951798381441e-19	0	0	1.811746352127992e-15	0
0.4131532019555547	-0.1407352694693427	0.03522846693011551	-0	2.230812554944616	0	0.09478689634274365	116.6653407313429	880.8930409602863	-0	2.211342462873295	0	-0.09478689634274365	0	2.726800582037737e-19	0	0	8.172931116745574e-17	0
0.4157193709118003	-0.1409123679896339	0.03520190955806392	-0	2.246933849439933	0	0.09478689634274365	124.7084957393143	866.1404030990448	-0	2.211466564572497	0	-0.09478689634274365	0	-5.470601452193528e-19	0	0	3.554077784145501e-16	0
0.4182855398680461	-0.1407661613019105	0.0351000907212237	-0	2.263089192623172	0	0.09478689634274365	131.7768166981978	850.255357607031	-0	2.21157781888111	0	-0.09478689634274365	0	-4.712494092529805e-19	0	0	-2.030229692893477e-16	0
0.4208517088242917	-0.1401826578764294	0.03489492413699365	-0	2.279278390821061	0	0.09478689634274365	138.2017353405556	833.5180256384374	-0	2.211680403184107	0	-0.09478689634274365	0	-5.367028461400618e-19	0	0	-7.554837442675911e-16	0
0.4234178777805374	-0.1390212717762219	0.03455139209456896	-0	2.295502073834502	0	0.09478689634274365	143.6900871117614	815.8958045681155	-0	2.211770070602239	0	-0.09478689634274366	0	4.161304576582878e-19	0	0	2.355856395466214e-15	0
0.4259840467367831	-0.1371041387096135	0.0340248329404001	-0	2.311762767402732	0	0.09478689634274365	148.3523283802673	797.5884203847295	-0	2.21184797109221	0	-0.09478689634274365	0	-4.590048280585885e-19	0	0	5.813568460124156e-16	0
0.4285502156930288	-0.1342588552095387	0.03327243954131888	-0	2.328063587536982	0	0.09478689634274365	152.1872828696686	778.4333763189775	-0	2.211914578844165	0	-0.09478689634274365	0	-3.040493924669455e-19	0	0	6.864675589499985e-16	0
0.4311163846492745	-0.1303592479838911	0.03226390136830038	-0	2.344407559459186	0	0.09478689634274365	155.645473777846	758.4123695096822	-0	2.211977335752827	0	-0.09478689634274365	0	-5.279324656004819e-19	0	0	-5.400837347988807e-16	0
0.4336825536055201	-0.1253383637614933	0.03098380135403929	-0	2.360797326961563	0	0.09478689634274365	158.6626321525674	737.4486191176576	-0	2.212035858696993	0	-0.09478689634274365	0	2.378661120773659e-20	0	0	3.989757099849817e-16	0
0.4362487225617658	-0.1192507455098498	0.02944691233381224	-0	2.377234059800284	0	0.09478689634274365	161.3616519390936	715.649287168342	-0	2.212092329440277	0	-0.09478689634274365	0	-8.30918688381963e-19	0	0	-1.099220412950639e-19	0
0.4388148915180115	-0.1122346384768002	0.0276883327485155	-0	2.393717692240468	0	0.09478689634274365	163.6344106883199	693.0031604548823	-0	2.21214546376319	0	-0.09478689634274365	0	-1.593453431632479e-19	0	0	-7.090320301773991e-16	0
0.4413810604742572	-0.1045295587066664	0.02576761125360619	-0	2.410245755741533	0	0.09478689634274365	165.5224957069679	669.6172243945128	-0	2.212196128149852	0	-0.09478689634274365	0	-5.387494263307851e-19	0	0	-5.591744806441932e-16	0
0.4439472294305029	-0.09642427469801049	0.02375603050001288	-0	2.426813900525428	0	0.09478689634274365	166.9252505163152	645.4877755288919	-0	2.212243094444881	0	-0.09478689634274365	0	6.614512472137466e-20	0	0	7.958408155467506e-16	0
0.4465133983867485	-0.08824221275362315	0.0217330246307414	-0	2.443414370688295	0	0.09478689634274365	167.8726616412193	620.6622407124098	-0	2.212287330216456	0	-0.09478689634274365	0	5.623275271915779e-19	0	0	-7.074227834063774e-16	0
0.4490795673429943	-0.08026770004958965	0.01976774248296541	-0	2.460037836479176	0	0.09478689634274365	168.2740108018889	595.1294049201102	-0	2.212327834297164	0	-0.09478689634274365	0	6.555540414080407e-20	0	0	5.206329845571739e-16	0
0.4516457362992399	-0.0727217060645582	0.01791319772258241	-0	2.476673511704244	0	0.09478689634274365	168.1427908584327	568.9453393701459	-0	2.212365296872305	0	-0.09478689634274365	0	3.262240075288315e-19	0	0	-6.019912919768924e-16	0
0.4542119052554856	-0.06575979519555743	0.01620627323944763	-0	2.493310024318525	0	0.09478689634274365	167.4080478481505	542.1346995206604	-0	2.21239891808065	0	-0.09478689634274365	0	1.421406855046032e-19	0	0	-5.214818706613577e-17	0
0.4567780742117313	-0.0594730640938181	0.01466805717229402	-0	2.509935863265067	0	0.09478689634274365	166.0809176978099	514.780610399168	-0	2.212429224451767	0	-0.09478689634274365	0	-5.00247522096714e-21	0	0	-8.752767612340128e-16	0
0.459344243167977	-0.05391204683649709	0.01331003956349428	-0	2.526539194543708	0	0.09478689634274365	164.1606390601445	486.8676143555817	-0	2.21245743331561	0	-0.09478689634274365	0	9.119543637628782e-20	0	0	-7.968212793362611e-16	0
0.4619104121242227	-0.04908824069581896	0.01213439890932011	-0	2.5431082411889	0	0.09478689634274365	161.718559246917	458.279922548936	-0	2.212487656538533	0	-0.09478689634274365	0	3.893017871050326e-19	0	0	6.866962791289041e-16	0
0.4644765810804683	-0.04496001317778812	0.01113032360934129	-0	2.559632049476924	0	0.09478689634274363	157.8643905142498	427.2875908567207	-0	2.212515295538063	0	-0.09478689634274365	0	-5.143258799557199e-19	0	0	-4.285350373062157e-16	0
0.467042750036714	-0.04138480244721768	0.01026185448771088	-0	2.576104831879226	0	0.09478689634274365	152.3317860624535	391.7653377022167	-0	2.212560303650907	0	-0.09478689634274365	0	-3.559577452879145e-19	0	0	-8.224998637912784e-16	0
0.4696089189929596	-0.03814374267673853	0.009474422999410372	-0	2.59252439349819	0	0.09478689634274365	145.8372874762817	353.517037754166	-0	2.212635246504082	0	-0.09478689634274365	0	9.511760032881222e-20	0	0	-2.832651838789581e-16	0
0.4721750879492054	-0.03488393917680968	0.008681146685578857	-0	2.608892938251747	0	0.09478689634222609	137.6803618095781	316.1226602448401	-0	2.212679725795073	0	-0.09478689634274365	0	-3.597888430338841e-16	0	0	1.131189841639462e-16	0
0.474741256905451	-0.03139700475517228	0.007830009132084374	-0	2.625217934566601	0	0.09478689634056088	127.1887678725694	280.6713125550433	-0	2.212643677290828	0	-0.09478689634274365	0	-1.2975294612773e-15	0	0	4.856824327954174e-16	0
0.4773074258616967	-0.0276918785468785	0.006919985129018361	-0	2.641527459947415	0	0.09478689633281566	114.5263685437003	247.3031051936065	-0	2.212510310808983	0	-0.09478689634274365	0	-4.920574603724912e-15	0	0	-7.087682462680298e-16	0
0.4798735948179424	-0.02372092780630656	0.005936646284460116	-0	2.657860236116046	0	0.09478689629983873	99.26114319192283	214.7843657923985	-0	2.212256941028792	0	-0.09478689634274365	0	-1.714595615271122e-14	0	0	8.787459006993712e-16	0
0.4824397637741881	-0.01944509816857713	0.004870876573777282	-0	2.674256721116032	0	0.09478689614753552	81.72012454588406	181.6826700014898	-0	2.211894208451142	0	-0.09478689634274365	0	-6.00382527814615e-14	0	0	-3.676113169437369e-16	0
0.4850059327304338	-0.01500103495207074	0.00375880323186366	-0	2.6907572754997	0	0.09478689539512855	64.2850096679846	149.2122403403899	-0	2.211486227592717	0	-0.09478689634274365	0	-2.106882370545953e-13	0	0	-4.00795797294417e-16	0
0.4875721016866794	-0.01075159629389744	0.002693757920853872	-0	2.707389574204383	0	0.09478689142490973	48.63806557660856	118.786634575499	-0	2.211084234157641	0	-0.09478689634274365	0	-7.314176061691993e-13	0	0	-2.927768347195173e-16	0
0.4901382706429251	-0.00703740375176231	0.001762619557013191	-0	2.724175324065932	0	0.09478686849309616	34.92937928888384	90.29814438517958	-0	2.210705514665817	0	-0.09478689634274365	0	-2.513040276061047e-12	0	0	-3.254853660364158e-17	0
0.4927044395991708	-0.004129162358887634	0.001033866512569784	-0	2.741116753984117	0	0.09478672070524011	23.19335461626016	62.9267805651801	-0	2.210403753916965	0	-0.09478689634274365	0	-8.520649436523651e-12	0	0	-1.503766586612659e-16	0
0.4952706085554165	-0.002074183597441108	0.0005196497914524731	-0	2.758160361529143	0	0.09478560388170759	13.05621930510936	36.18948920457277	-0	2.21022558836406	0	-0.09478689634274365	0	-2.837844657088342e-11	0	0	7.185285903587886e-17	0
0.4978367775116622	-0.00074152146025454	0.0001866008560719467	-0	2.774925463175136	0	0.0947736619781966	4.003311883347456	10.84433823378501	-0	2.210200470946023	0	-0.09478689634274365	0	-9.135224572500155e-11	0	0	-9.455644948034779e-18	0
0.5004029464679078	-5.022861534972055e-05	1.278949141966274e-05	-0	2.776387200411171	0	0.09408634364431401	0.03724748430725429	-0.562956151669854	-0	2.206760554166702	0	-0.09478689634274365	0	-2.42221167211682e-10	0	0	-1.341401419540254e-19	0
0.5029691154241536	-8.010562639713377e-06	2.111444118997158e-06	-0	2.454709848429926	0	0.07979634863263596	5.243187540145982e-07	-5.130495164628398e-07	-0	2.200660180871551	0	-0.09478689634274365	0	1.464796301855319e-09	0	0	-3.113467086779144e-24	0
0.5055352843803992	-7.450956543992007e-05	1.982261513461015e-05	-0	2.688690091923141	0	0.08936155151391596	-0	-0	-0	0	0	0	0	7.605106332307125e-11	0	0	0	0
0.5081014533366449	-0.0002422678011933292	6.613688282534221e-05	-0	2.701513546007278	0	0.08954301227479876	-0	-0	-0	0	0	0	0	1.877482292370561e-11	0	0	0	0
0.5106676222928905	-0.0007152919100585362	0.0002011619117108938	-0	2.710009130582788	0	0.08955948968017796	-0	-0	-0	0	0	0	0	8.446253776622955e-12	0	0	0	0
0.5132337912491363	-0.001971933490517325	0.0005730636506815615	-0	2.717963835901906	0	0.08956292318022978	-0	-0	-0	0	0	0	0	-4.359322074637538e-12	0	0	0	0
