DataType=double
version=3
OpenSimVersion=4.6-2026-06-22-85aaf64
endheader
time	ground_force_r_vx	ground_force_r_vy	ground_force_r_vz	ground_force_r_px	ground_force_r_py	ground_force_r_pz	ground_force_l_vx	ground_force_l_vy	ground_force_l_vz	ground_force_l_px	ground_force_l_py	ground_force_l_pz	ground_torque_r_x	ground_torque_r_y	ground_torque_r_z	ground_torque_l_x	ground_torque_l_y	ground_torque_l_z
0	-1.330912712466812e-10	3.411758636553934e-11	-0	1.171731977252432	0	0.08966620733032135	-0	-0	-0	0	0	0	0	1.323400404873994e-17	0	0	0	0
0.003333333333333333	-1.039847978059723e-09	2.672899173609386e-10	-0	1.180506799985593	0	0.08957411127869397	-0	-0	-0	0	0	0	0	1.942416036069153e-17	0	0	0	0
0.006666666666666666	-7.921800527942967e-09	2.052145031932222e-09	-0	1.191293612470629	0	0.08956912217151798	-0	-0	-0	0	0	0	0	7.539685522562149e-18	0	0	0	0
0.009999999999999998	-5.658624830205613e-08	1.489969810929877e-08	-0	1.201455665252014	0	0.08956897421251295	-0	-0	-0	0	0	0	0	-4.646620916567629e-19	0	0	0	0
0.01333333333333333	-3.714372081211451e-07	1.002805553364365e-07	-0	1.210918838644651	0	0.0895689750415435	-0	-0	-0	0	0	0	0	-1.734035261707163e-19	0	0	0	0
0.01666666666666667	-2.21936650461979e-06	6.191697269145549e-07	-0	1.21981507911755	0	0.08956897506809293	-0	-0	-0	0	0	0	0	-3.678240573451799e-19	0	0	0	0
0.02	-1.204856978741488e-05	3.493057798143006e-06	-0	1.228350378380267	0	0.08956897507908836	4.326614461699434e-19	-2.565040047982579e-19	-0	0	0	0	0	0	0	0	-4.101063564961199e-20	0
0.02333333333333333	-5.962205386548136e-05	1.802370554661902e-05	-0	1.236664380487691	0	0.08956897507908836	7.039841833013532e-18	-4.084234282534648e-18	-0	0	0	0	0	0	0	0	-6.672847580951641e-19	0
0.02666666666666666	-0.0002718231254842768	8.581466372960763e-05	-0	1.244832000827662	0	0.08956897507908836	6.017680205545841e-16	-3.397614194595775e-16	-0	0	0	0	0	0	0	0	-5.703972298668539e-17	0
0.03	-0.001156530331360567	0.0003813940948958701	-0	1.252862111536371	0	0.08956897507908836	1.897839436021492e-13	-1.03813827116054e-13	-0	0.5953791044104382	0	-0.09478689634274365	0	0	0	0	0	0
0.03333333333333333	-0.00467470191466626	0.001611049112086569	-0	1.260674798396158	0	0.08956897507908836	1.739933173826569e-10	-9.185303836909258e-11	-0	0.6050789708813941	0	-0.09478689634274365	0	0	0	0	0	0
0.03666666666666667	-0.01826822137097926	0.006585711468341766	-0	1.268186475884642	0	0.08956897507908834	1.649938234527119e-07	-8.378680871976176e-08	-0	0.615195986595055	0	-0.09478689634274365	0	-4.336808689942018e-19	0	0	0	0
0.03999999999999999	-0.07021222687717053	0.02651739399073559	-0	1.275316747836684	0	0.08956897507908836	-3.739860447310238e-06	1.822569557578974e-06	-0	0.6257139238734482	0	-0.09478689634274365	0	0	0	0	0	0
0.04333333333333333	-0.2685440558523638	0.1064637928615933	-0	1.282008706511754	0	0.08956897507908834	-6.434243826402919e-06	3.005039967145317e-06	-0	0.6365937243523389	0	-0.09478689634274365	0	-3.469446951953614e-18	0	0	0	0
0.04666666666666667	-1.025177854068554	0.4275169314765402	-0	1.288234939357482	0	0.08956897507908836	-9.053325515518736e-06	4.051702861851094e-06	-0	0.6477661491745473	0	-0.09478689634274365	0	0	0	0	0	0
0.05	-3.874752951364633	1.702981818086859	-0	1.293991122314797	0	0.08956897507908836	-1.344271305453564e-05	5.771521152302933e-06	-0	0.6591443891535531	0	-0.09478689634274365	0	0	0	0	0	0
0.05333333333333333	-14.11630232990597	6.564472327492467	-0	1.299245037611761	0	0.08956897507908869	-2.239351978624674e-05	9.246788715169934e-06	-0	0.6706220517708141	0	-0.09478689634274365	0	2.220446049250313e-16	0	0	0	0
0.05666666666666666	-45.70475338089868	22.73598598830545	-0	1.303945390957542	0	0.08956897507908868	-4.256428669881328e-05	1.695121474009341e-05	-0	0.682132963637046	0	-0.09478689634274365	0	8.881784197001252e-16	0	0	0	0
0.06	-109.3720316615635	59.95467457085957	-0	1.307956253878614	0	0.08956897507908915	-9.179850865651092e-05	3.529766651233642e-05	-0	0.6937284129142819	0	-0.09478689634274365	0	0	0	0	0	0
0.06333333333333332	-255.9652581636586	166.873772255432	-0	1.311225742730559	0	0.08956897507909151	-0.0002202270668305894	8.177437367266842e-05	-0	0.7054664475807357	0	-0.09478689634274365	0	-1.77635683940025e-14	0	0	0	0
0.06666666666666667	-501.241730422504	483.7341728646513	-0	1.313654493150689	0	0.08956897507912205	-0.0005631106218480625	0.0002021961198390235	-0	0.7173648422977674	0	-0.09478689634274365	0	-1.4210854715202e-12	0	0	0	0
0.07000000000000001	-87.00649678222442	898.9813557715589	-0	1.31725362139291	0	0.08956897507984962	-0.001463375770077705	0.0005095885364425079	-0	0.729455771723828	0	-0.09478689634274365	0	-5.131388647328095e-10	0	0	0	0
0.07333333333333333	-174.6186331731199	1261.839626733258	-0	1.317426112832668	0	0.08956897509245165	-0.003708669765291371	0.001258592146921382	-0	0.741733361462111	0	-0.09478689634274365	0	-9.10834074829836e-09	0	0	0	0
0.07666666666666666	-21.72288830715661	1474.251855703266	-0	1.318663760177862	0	0.0895689752756792	-0.008863384304508892	0.002946820720948476	-0	0.7542410808542411	0	-0.09478689634274365	0	-1.610878264113325e-07	0	0	0	0
0.07999999999999999	-167.0907030834827	1547.813265844367	-0	1.318451505219852	0	0.08956897778429629	-0.01976590392496384	0.006459964006446575	-0	0.7670671008075965	0	-0.09478689634274365	0	-2.390176211619632e-06	0	0	0	0
0.08333333333333333	-81.92823250184664	1537.077350018677	-0	1.319470935172446	0	0.08956901089599542	-0.04096002491663483	0.01318390386571944	-0	0.7802695323495205	0	-0.09478689634274365	0	-3.239830447654413e-05	0	0	0	0
0.08666666666666667	-198.7440713638245	1502.772643551894	-0	1.319340235884175	0	0.08956938131916335	-0.07888972035716918	0.0250321530632843	-0	0.7938813432083656	0	-0.09478689634274365	0	-0.0003367193933101476	0	0	0	0
0.09	-128.7864991651705	1464.725897046719	-0	1.320479506893802	0	0.08957269848247834	-0.1411496112381936	0.04417231439921069	-0	0.807920074894689	0	-0.09478689634274365	0	-0.002720951444334929	0	0	0	0
0.09333333333333334	-207.6305171232294	1446.652545174776	-0	1.321085022241709	0	0.08959262582985333	-0.2346163780374558	0.07245126911683721	-0	0.8223911875741881	0	-0.09478689634274365	0	-0.01420287313789359	0	0	0	0
0.09666666666666668	-149.2433879824126	1437.527150099055	-0	1.324007848411938	0	0.08965923742545279	-0.3622175330521618	0.1104423573704094	-0	0.8372953567442902	0	-0.09478689634274365	0	-0.0433830436306426	0	0	0	0
0.09999999999999999	-197.5336757322055	1442.899137727997	-0	1.327257510184675	0	0.08976661276285165	-0.5198186213870467	0.156596954978057	-0	0.852632420935969	0	-0.09478689634274365	0	-0.07333846689521195	0	0	0	0
0.1033333333333333	-173.1116329281039	1472.187805770562	-0	1.3350285976177	0	0.09001392200026849	-0.6938093161175223	0.2066289613683514	-0	0.8684033938490152	0	-0.09478689634274365	0	-0.1183969791884625	0	0	0	0
0.1066666666666667	-221.3044735202961	1488.866143079382	-0	1.341026832397151	0	0.0902243377904248	-0.8626065082918574	0.2540390139645706	-0	0.8846173141421142	0	-0.09478689634274365	0	-0.1010699855784054	0	0	0	0
0.11	-166.468683869788	1447.631334599793	-0	1.343356178571952	0	0.09028713813739979	-1.000792406134377	0.2914418294913904	-0	0.9012852494846167	0	-0.09478689634274365	0	-0.05932917418281569	0	0	0	0
0.1133333333333333	-166.5574603360112	1405.655079117224	-0	1.343745241217492	0	0.09029750265311774	-1.087558125807963	0.3131739080038265	-0	0.9184095259155478	0	-0.09478689634274365	0	-0.03445695660875359	0	0	0	0
0.1166666666666667	-119.5308762853523	1368.046433925424	-0	1.344833919139991	0	0.09031980818465876	-1.111784615609372	0.3166865984038356	-0	0.935979842157484	0	-0.09478689634274365	0	-0.02475213398181353	0	0	0	0
0.12	-111.4130477078574	1325.654699533023	-0	1.345338793624237	0	0.09033293799049663	-1.075606766978714	0.3033461282172319	-0	0.9539634971383997	0	-0.09478689634274365	0	-0.01807234764083354	0	0	0	0
0.1233333333333333	-69.63163831073106	1266.880531510491	-0	1.346426650073252	0	0.09035704704874697	-0.9921161441288576	0.2774041007682886	-0	0.9723167475064269	0	-0.09478689634274365	0	-0.01528171007527579	0	0	0	0
0.1266666666666666	-58.03330629325706	1199.802160717099	-0	1.347141553065792	0	0.09037722909465	-0.8795599684166093	0.2441786129435804	-0	0.9909896553312084	0	-0.09478689634274365	0	-0.01310146289105152	0	0	0	0
0.13	-21.72004850365765	1134.315244785698	-0	1.349857511336706	0	0.09045904901581597	-0.7552941384080106	0.2084802374537937	-0	1.009930081314398	0	-0.09478689634274365	0	-0.01832536523636841	0	0	0	0
0.1333333333333333	-10.10044020748248	1090.593166662085	-0	1.355702439393721	0	0.09065760379078841	-0.6314749386704852	0.1734969228564229	-0	1.029097772109548	0	-0.09478689634274365	0	-0.03551841047164417	0	0	0	0
0.1366666666666667	-4.260536338329779	1055.348196600265	-0	1.363807675490511	0	0.0909363181725957	-0.5159516490906526	0.1412028145766802	-0	1.048461556013204	0	-0.09478689634274365	0	-0.05740648270562859	0	0	0	0
0.14	-18.22682730108986	1014.256022864808	-0	1.37055847792926	0	0.09117387532326746	-0.4130830521153343	0.1126506277264181	-0	1.068004304272889	0	-0.09478689634274366	0	-0.06574943192008487	0	0	-6.938893903907228e-18	0
0.1433333333333333	-16.70628634000416	972.8177638223158	-0	1.376391583020762	0	0.09137403006717569	-0.324671227161364	0.08824240341816236	-0	1.087711784627939	0	-0.09478689634274365	0	-0.06495167003760072	0	0	0	0
0.1466666666666667	-20.90250253497244	939.2710453115035	-0	1.381497645528194	0	0.09155071826508909	-0.2508876887379424	0.06796976354007475	-0	1.107572091306573	0	-0.09478689634274365	0	-0.06068243076180524	0	0	0	0
0.15	-17.3214461942913	912.4952101841533	-0	1.386772992916672	0	0.09173075613632355	-0.190780452330553	0.05152457440309529	-0	1.127575236186438	0	-0.09478689634274365	0	-0.05620598520073394	0	0	0	0
0.1533333333333333	-17.58746191302434	893.5955760440906	-0	1.392261589258955	0	0.09191975181552071	-0.142674423770724	0.038410422161999	-0	1.147719465260759	0	-0.09478689634274365	0	-0.05180848551761441	0	0	0	0
0.1566666666666666	-13.32679287981242	884.4333661551752	-0	1.398963583255622	0	0.0921499859067124	-0.1047754104663832	0.02811293815150905	-0	1.168007368674401	0	-0.09478689634274365	0	-0.04847543838311297	0	0	0	0
0.16	-12.78350845991736	885.5656568322485	-0	1.407005284257941	0	0.09242885974995112	-0.07538333942969958	0.0201533765935981	-0	1.188447180256079	0	-0.09478689634274365	0	-0.04485528077634715	0	0	0	0
0.1633333333333333	-15.1112586764022	882.9080250230955	-0	1.415525126447299	0	0.09272576037339729	-0.05291358741336915	0.01408901379734567	-0	1.209053087798043	0	-0.09478689634274365	0	-0.03775326150442249	0	0	0	0
0.1666666666666667	-18.92052280888213	867.0197148019505	-0	1.423587099398755	0	0.09300734636747567	-0.03596781606946412	0.009532216233007035	-0	1.229850971102017	0	-0.09478689634274365	0	-0.02737047176867313	0	0	0	0
0.17	-13.59991250033155	850.5640363500227	-0	1.432596720610724	0	0.09331976062672623	-0.02352250058029757	0.006201353303843766	-0	1.250863724931788	0	-0.09478689634274363	0	-0.01684368699530903	0	0	0	0
0.1733333333333333	-5.79567261526868	837.3339301524401	-0	1.443780958418828	0	0.09370889749573538	-0.01483012878319051	0.003889112911626653	-0	1.27208726210998	0	-0.09478689634274365	0	-0.006721771549356936	0	0	0	0
0.1766666666666667	-2.59953479078303	816.6483360464164	-0	1.456693172331754	0	0.09416183532854491	-0.009123975323001436	0.002381657846720452	-0	1.293494380312953	0	-0.09478689634274365	0	0.001241550219613641	0	0	0	0
0.18	-4.018589948134382	788.3482396842605	-0	1.470383628964335	0	0.09464549016480188	-0.005707063269618087	0.001485561826472233	-0	1.31498821372763	0	-0.09478689634274365	0	0.00195811807028845	0	0	0	0
0.1833333333333333	8.005268972106158	804.1104997922063	-0	1.474982306783215	0	0.09480144826245641	-0.00375329507839759	0.00097629250171784	-0	1.336468830789231	0	-0.09478689634274365	0	-0.0004307234187466147	0	0	0	0
0.1866666666666667	30.75082734571884	830.9805769254208	-0	1.474906907349395	0	0.09478703102173799	-0.002498269148609561	0.0006494724883764508	-0	1.357960323779033	0	-0.09478689634274366	0	-6.643363228864274e-06	0	0	-5.421010862427522e-20	0
0.19	51.40009280108643	845.0243289765588	-0	1.475197620119462	0	0.09478689668314004	-0.001613620624015307	0.0004187171006850288	-0	1.37953399869656	0	-0.09478689634274365	0	-2.496865647572122e-08	0	0	0	0
0.1933333333333333	69.80876232574407	851.3176102603824	-0	1.475461323098935	0	0.09478689634328046	-0.001011013308317029	0.0002616216029428065	-0	1.40122272188699	0	-0.09478689634274365	0	-5.46114264921016e-11	0	0	0	0
0.1966666666666667	86.17505027769326	852.1868442069078	-0	1.475697771989914	0	0.0947868963427444	-0.0006191333354113643	0.0001597025812554901	-0	1.423035098449413	0	-0.09478689634274365	0	-1.012523398458143e-13	0	0	0	0
0.2	99.68863384161497	849.2123458891392	-0	1.475896466931269	0	0.09478689634274365	-0.0003727687509673888	9.583045791780247e-05	-0	1.444968088260649	0	-0.09478689634274365	0	1.77635683940025e-15	0	0	0	0
0.2033333333333333	110.6504547571507	843.5251122103656	-0	1.476060087375768	0	0.09478689634274365	-0.0002221522310241347	5.69173805787971e-05	-0	1.467016217394411	0	-0.09478689634274365	0	0	0	0	0	0
0.2066666666666667	119.0484526828321	835.6536794782095	-0	1.476187690113565	0	0.09478689634274365	-0.0001320246428197249	3.371127695312383e-05	-0	1.489174220829929	0	-0.09478689634274365	0	0	0	0	0	0
0.21	125.2248084885253	825.9743767389206	-0	1.476283157607313	0	0.09478689634274365	-7.846197239136944e-05	1.996634403078422e-05	-0	1.511436399215389	0	-0.09478689634274365	0	0	0	0	0	0
0.2133333333333333	129.3382521978325	814.46781660369	-0	1.476348734132194	0	0.09478689634274365	-4.581078844581066e-05	1.161861432474785e-05	-0	1.533796679997593	0	-0.09478689634274365	0	0	0	0	0	0
0.2166666666666667	132.4043364830112	801.090325941056	-0	1.476399389941452	0	0.09478689634274365	-2.53479130138129e-05	6.40940275148074e-06	-0	1.556243106012482	0	-0.09478689634274365	0	0	0	0	0	0
0.22	135.5442790059831	786.2127556276114	-0	1.476450963217124	0	0.09478689634274365	-1.22643479407509e-05	3.095128780745029e-06	-0	1.578736466007024	0	-0.09478689634274365	0	0	0	0	0	0
0.2233333333333333	138.9302886430788	770.1096043938848	-0	1.476505967386768	0	0.09478689634274366	-4.647208496687818e-06	1.172545078600158e-06	-0	1.601232061615138	0	-0.09478689634274365	0	-1.77635683940025e-15	0	0	0	0
0.2266666666666667	142.165911664853	751.3325674265758	-0	1.476563008809555	0	0.09478689634274363	-1.407211773112084e-06	3.554164366256475e-07	-0	1.623715898368319	0	-0.09478689634274365	0	1.77635683940025e-15	0	0	0	0
0.23	144.9759006294568	728.8396083960718	-0	1.476622148110645	0	0.09478689634274365	-4.862432740951683e-07	1.229787957016442e-07	-0	1.646184780457403	0	-0.09478689634274365	0	0	0	0	0	0
0.2333333333333333	147.0685494440714	703.1058758879503	-0	1.476678837939852	0	0.09478689634274365	-2.316323943920082e-07	5.86493188253653e-08	-0	1.668641970866834	0	-0.09478689634274365	0	0	0	0	0	0
0.2366666666666666	148.4299743995648	674.7637895996853	-0	1.476732201106857	0	0.09478689634274365	-1.326310305404235e-07	3.360170413409523e-08	-0	1.691096052544557	0	-0.09478689634274365	0	0	0	0	0	0
0.24	148.9456959921631	644.2336216546983	-0	1.47678020323185	0	0.09478689634274365	-8.21199473340433e-08	2.080683580936058e-08	-0	1.713552236730546	0	-0.09478689634274363	0	0	0	0	1.654361225106055e-24	0
0.2433333333333333	148.5793128758551	611.9342205550632	-0	1.47682186518334	0	0.09478689634274365	-5.157709896488174e-08	1.306455994566682e-08	-0	1.736011978435064	0	-0.09478689634274365	0	0	0	0	0	0
0.2466666666666666	147.2619393191697	578.1896046516325	-0	1.476855658012121	0	0.09478689634274365	-3.281756683131705e-08	8.308818565424484e-09	-0	1.758468687813571	0	-0.09478689634274365	0	0	0	0	0	0
0.25	144.8523017040772	543.4651203038101	-0	1.476877306601745	0	0.09478689634274365	-2.135748334637529e-08	5.404622443848535e-09	-0	1.78091150896511	0	-0.09478689634274366	0	0	0	0	0	0
0.2533333333333333	141.1406563877505	508.2634464690702	-0	1.476879658717158	0	0.09478689634274365	-1.435512569650922e-08	3.631216031928625e-09	-0	1.803323711221388	0	-0.09478689634274365	0	0	0	0	0	0
0.2566666666666667	133.5762111897884	471.8710960098115	-0	1.476804873670882	0	0.09478689634274365	-9.976489209303481e-09	2.523170352122345e-09	-0	1.825686449120225	0	-0.09478689634274365	0	0	0	0	0	0
0.26	120.5480530150926	434.4556562647994	-0	1.476601696216329	0	0.09478689634274365	-7.051788892313468e-09	1.783562258355332e-09	-0	1.847985474723583	0	-0.09478689634274365	0	0	0	0	0	0
0.2633333333333333	105.1748255738173	399.43139804634	-0	1.476312426645885	0	0.09478689634274365	-4.966620782637384e-09	1.25642987993297e-09	-0	1.870213948901718	0	-0.09478689634274365	0	0	0	0	0	0
0.2666666666666667	89.420881879619	369.7784650709975	-0	1.475964216078654	0	0.09478689634274366	-3.461978413323645e-09	8.760166630419762e-10	-0	1.892373739203538	0	-0.09478689634274365	0	-1.77635683940025e-15	0	0	0	0
0.27	74.63573297174065	344.1696177699335	-0	1.475611936699767	0	0.09478689634274365	-2.367071018336076e-09	5.990422567566589e-10	-0	1.914477168828939	0	-0.09478689634274365	0	0	0	0	0	0
0.2733333333333333	62.98221434266444	319.424772191539	-0	1.475353104779222	0	0.09478689634274365	-1.561949663195989e-09	3.951894122858287e-10	-0	1.936559131607825	0	-0.09478689634274365	0	0	0	0	0	0
0.2766666666666666	54.41505820361652	295.1294139636973	-0	1.475198221193699	0	0.09478689634274365	-1.000546953073436e-09	2.529688267953231e-10	-0	1.958647454562467	0	-0.09478689634274365	0	0	0	0	0	0
0.28	47.8836491962076	272.0790080810957	-0	1.475114153374306	0	0.09478689634274365	-6.49180271569481e-10	1.639781851766034e-10	-0	1.980727396244386	0	-0.09478689634274365	0	0	0	0	0	0
0.2833333333333333	41.33142849052697	247.6294257215346	-0	1.475046237590796	0	0.09478689634274365	-4.439060168724112e-10	1.120340963218324e-10	-0	2.002754114058539	0	-0.09478689634274365	0	0	0	0	0	0
0.2866666666666666	33.28286791322415	217.7730525899465	-0	1.474957063711273	0	0.09478689634274365	-3.217642764721966e-10	8.117075765115237e-11	-0	2.024663753686484	0	-0.09478689634274365	0	0	0	0	0	0
0.29	25.71597222902023	181.5565385859736	-0	1.474928504901946	0	0.09478689634274365	-2.406140310623092e-10	6.068751606296052e-11	-0	2.046431928356024	0	-0.09478689634274365	0	0	0	0	0	0
0.2933333333333333	20.0240139815115	138.3424043868449	-0	1.475055509718378	0	0.09478689634274365	-1.776242131206503e-10	4.478132986371872e-11	-0	2.068109299928243	0	-0.09478689634274365	0	0	0	0	0	0
0.2966666666666666	14.78694529247801	89.63527810821323	-0	1.47533720983519	0	0.09478689634274365	-1.279334557453009e-10	3.222864210125793e-11	-0	2.089737857207491	0	-0.09478689634274365	0	0	0	0	0	0
0.3	8.119031066754868	39.24078449250598	-0	1.475775433373658	0	0.09478689634274365	-9.258716912609257e-11	2.331028135755386e-11	-0	2.111279549552001	0	-0.09478689634274365	0	0	0	0	0	0
0.3033333333333333	0.2092238491631198	-0.6059081442672114	-0	1.471742317447739	0	0.09478689634274365	-6.841777610252679e-11	1.722263538008156e-11	-0	2.132698144348802	0	-0.09478689634274365	0	0	0	0	0	0
0.3066666666666666	2.880570311501178e-07	-2.578832381225162e-07	-0	1.468095178270257	0	0.09478689634274365	-5.021370573156066e-11	1.2640573180609e-11	-0	2.154016616756514	0	-0.09478689634274366	0	0	0	0	0	0
0.3099999999999999	1.219981710502646e-13	-8.309880147416605e-14	-0	1.470799447382708	0	0.09478689634274365	-3.647184612205996e-11	9.182373565775826e-12	-0	2.175257601193127	0	-0.09478689634274365	0	0	0	0	0	0
0.3133333333333333	-0	-0	-0	0	0	0	-2.644183372858935e-11	6.660995978576017e-12	-0	2.196385803753076	0	-0.09478689634274365	0	0	0	0	0	0
0.3166666666666667	-0	-0	-0	0	0	0	-1.907775121184437e-11	4.812638378221755e-12	-0	2.217347406954584	0	-0.09478689634274365	0	0	0	0	0	0
0.32	-0	-0	-0	0	0	0	-1.385017214993633e-11	3.501735176481915e-12	-0	2.238123145878466	0	-0.09478689634274365	0	0	0	0	0	0
0.3233333333333333	-0	-0	-0	0	0	0	-9.997854926401751e-12	2.535406951964271e-12	-0	2.258705736445874	0	-0.09478689634274365	0	0	0	0	0	0
0.3266666666666667	-0	-0	-0	0	0	0	-1.08632555131782e-11	2.768620744895582e-12	-0	2.229968588572727	0	-0.09286264492800389	0	0	0	0	4.849064703137995e-17	0
0.33	-0	-0	-0	0	0	0	-1.903482055363697e-11	4.869218121311957e-12	-0	2.189586656761183	0	-0.09075153080122837	0	0	0	0	2.401282682613613e-17	0
0.3333333333333333	-0	-0	-0	0	0	0	-1.33091271246681e-10	3.41175863655393e-11	-0	2.171731977252431	0	-0.08966620733032134	0	0	0	0	-1.323400404550876e-17	0
0.3366666666666667	-0	-0	-0	0	0	0	-1.039847978059721e-09	2.672899173609382e-10	-0	2.180506799985592	0	-0.08957411127869397	0	0	0	0	-1.942416034776683e-17	0
0.34	-0	-0	-0	0	0	0	-7.921800527942953e-09	2.052145031932218e-09	-0	2.191293612470629	0	-0.08956912217151798	0	0	0	0	-7.539685522562149e-18	0
0.3433333333333333	-0	-0	-0	0	0	0	-5.658624830205595e-08	1.489969810929872e-08	-0	2.201455665252014	0	-0.08956897421251296	0	0	0	0	4.646604372955378e-19	0
0.3466666666666666	-0	-0	-0	0	0	0	-3.714372081211443e-07	1.002805553364363e-07	-0	2.210918838644651	0	-0.0895689750415435	0	0	0	0	1.734035261707163e-19	0
0.35	-0	-0	-0	0	0	0	-2.219366504619785e-06	6.191697269145536e-07	-0	2.219815079117549	0	-0.08956897506809294	0	0	0	0	3.677975875655782e-19	0
0.3533333333333333	4.326614461699417e-19	-2.565040047982568e-19	-0	0	0	0	-1.204856978741486e-05	3.493057798143001e-06	-0	2.228350378380267	0	-0.08956897507908836	0	4.101063564961182e-20	0	0	0	0
0.3566666666666666	7.039841833013509e-18	-4.084234282534634e-18	-0	0	0	0	-5.962205386548116e-05	1.802370554661897e-05	-0	2.23666438048769	0	-0.08956897507908836	0	6.672847580951619e-19	0	0	0	0
0.36	6.017680205545821e-16	-3.397614194595764e-16	-0	0	0	0	-0.0002718231254842758	8.581466372960732e-05	-0	2.244832000827662	0	-0.08956897507908836	0	5.703972298668521e-17	0	0	0	0
0.3633333333333333	1.897839436021483e-13	-1.038138271160535e-13	-0	1.595379104410438	0	0.09478689634274365	-0.001156530331360563	0.0003813940948958688	-0	2.252862111536371	0	-0.08956897507908836	0	0	0	0	0	0
0.3666666666666666	1.739933173826563e-10	-9.18530383690923e-11	-0	1.605078970881394	0	0.09478689634274365	-0.004674701914666242	0.001611049112086563	-0	2.260674798396157	0	-0.08956897507908836	0	0	0	0	0	0
0.37	1.64993823452713e-07	-8.378680871976233e-08	-0	1.615195986595054	0	0.09478689634274363	-0.01826822137097918	0.006585711468341738	-0	2.268186475884642	0	-0.08956897507908837	0	0	0	0	-2.168404344971009e-19	0
0.3733333333333333	-3.739860447310229e-06	1.822569557578969e-06	-0	1.625713923873448	0	0.09478689634274365	-0.07021222687717019	0.02651739399073547	-0	2.275316747836685	0	-0.08956897507908837	0	0	0	0	-8.673617379884035e-19	0
0.3766666666666666	-6.434243826402905e-06	3.00503996714531e-06	-0	1.636593724352339	0	0.09478689634274363	-0.2685440558523621	0.1064637928615926	-0	2.282008706511754	0	-0.08956897507908836	0	-1.058791184067875e-22	0	0	0	0
0.38	-9.053325515518713e-06	4.051702861851083e-06	-0	1.647766149174547	0	0.09478689634274365	-1.025177854068548	0.4275169314765375	-0	2.288234939357482	0	-0.08956897507908836	0	0	0	0	0	0
0.3833333333333333	-1.34427130545356e-05	5.771521152302917e-06	-0	1.659144389153553	0	0.09478689634274363	-3.87475295136475	1.702981818086911	-0	2.293991122314797	0	-0.08956897507908836	0	-2.117582368135751e-22	0	0	0	0
0.3866666666666667	-2.239351978624668e-05	9.246788715169911e-06	-0	1.670622051770814	0	0.09478689634274365	-14.1163023299063	6.564472327492621	-0	2.29924503761176	0	-0.08956897507908869	0	0	0	0	0	0
0.39	-4.256428669881316e-05	1.695121474009336e-05	-0	1.682132963637046	0	0.09478689634274365	-45.70475338089965	22.73598598830593	-0	2.303945390957542	0	-0.08956897507908868	0	0	0	0	0	0
0.3933333333333333	-9.179850865651059e-05	3.52976665123363e-05	-0	1.693728412914281	0	0.09478689634274365	-109.372031661565	59.95467457086039	-0	2.307956253878614	0	-0.08956897507908913	0	0	0	0	1.77635683940025e-15	0
0.3966666666666666	-0.0002202270668305886	8.177437367266813e-05	-0	1.705466447580735	0	0.09478689634274365	-255.9652581636635	166.8737722554353	-0	2.311225742730559	0	-0.08956897507909151	0	0	0	0	1.4210854715202e-14	0
0.4	-0.0005631106218480606	0.0002021961198390228	-0	1.717364842297767	0	0.09478689634274365	-501.241730422511	483.7341728646581	-0	2.313654493150688	0	-0.08956897507912205	0	0	0	0	1.4210854715202e-12	0
0.4033333333333333	-0.0014633757700777	0.0005095885364425061	-0	1.729455771723828	0	0.09478689634274365	-87.00649678222605	898.9813557715677	-0	2.31725362139291	0	-0.08956897507984961	0	0	0	0	5.131388647328095e-10	0
0.4066666666666666	-0.003708669765291357	0.001258592146921377	-0	1.741733361462111	0	0.09478689634274365	-174.618633173122	1261.839626733267	-0	2.317426112832667	0	-0.08956897509245165	0	0	0	0	9.10834074829836e-09	0
0.41	-0.008863384304508856	0.002946820720948463	-0	1.754241080854241	0	0.09478689634274365	-21.72288830715788	1474.251855703274	-0	2.318663760177861	0	-0.0895689752756792	0	0	0	0	1.610878266333771e-07	0
0.4133333333333333	-0.01976590392496375	0.00645996400644655	-0	1.767067100807596	0	0.09478689634274365	-167.090703083485	1547.813265844376	-0	2.318451505219851	0	-0.08956897778429629	0	0	0	0	2.390176213395989e-06	0
0.4166666666666666	-0.04096002491663464	0.01318390386571938	-0	1.780269532349521	0	0.09478689634274365	-81.92823250184858	1537.077350018685	-0	2.319470935172446	0	-0.08956901089599541	0	0	0	0	3.239830447832048e-05	0
0.42	-0.07888972035716876	0.02503215306328416	-0	1.793881343208365	0	0.09478689634274365	-198.7440713638263	1502.772643551897	-0	2.319340235884174	0	-0.08956938131916335	0	0	0	0	0.0003367193933101476	0
0.4233333333333333	-0.1411496112381928	0.04417231439921044	-0	1.807920074894689	0	0.09478689634274366	-128.7864991651723	1464.725897046725	-0	2.320479506893801	0	-0.08957269848247834	0	1.734723475976807e-18	0	0	0.002720951444338482	0
0.4266666666666666	-0.2346163780375725	0.07245126911687326	-0	1.822391187574188	0	0.09478689634274365	-207.6305171232317	1446.652545174782	-0	2.321085022241709	0	-0.08959262582985333	0	0	0	0	0.01420287313789004	0
0.43	-0.362217533052262	0.1104423573704399	-0	1.83729535674429	0	0.09478689634274365	-149.2433879824148	1437.527150099065	-0	2.324007848411938	0	-0.08965923742545279	0	0	0	0	0.04338304363064083	0
0.4333333333333333	-0.5198186213870434	0.156596954978056	-0	1.852632420935968	0	0.09478689634274365	-197.5336757322076	1442.899137728004	-0	2.327257510184674	0	-0.08976661276285165	0	0	0	0	0.07333846689521195	0
0.4366666666666666	-0.6938093161175948	0.206628961368373	-0	1.868403393849015	0	0.09478689634274366	-173.1116329281058	1472.187805770567	-0	2.3350285976177	0	-0.0900139220002685	0	1.387778780781446e-17	0	0	0.1183969791884625	0
0.4399999999999999	-0.8626065082919194	0.2540390139645889	-0	1.884617314142114	0	0.09478689634274365	-221.3044735202983	1488.866143079392	-0	2.34102683239715	0	-0.09022433779042484	0	0	0	0	0.1010699855783947	0
0.4433333333333333	-1.000792406134431	0.2914418294914062	-0	1.901285249484616	0	0.09478689634274365	-166.4686838697891	1447.631334599799	-0	2.343356178571951	0	-0.0902871381373998	0	0	0	0	0.05932917418281392	0
0.4466666666666667	-1.08755812580801	0.31317390800384	-0	1.918409525915547	0	0.09478689634274365	-166.5574603360122	1405.655079117231	-0	2.343745241217492	0	-0.09029750265311774	0	0	0	0	0.03445695660875536	0
0.45	-1.111784615609413	0.3166865984038473	-0	1.935979842157483	0	0.09478689634274365	-119.5308762853529	1368.04643392543	-0	2.34483391913999	0	-0.09031980818465876	0	0	0	0	0.02475213398181353	0
0.4533333333333333	-1.075606766978751	0.3033461282172423	-0	1.953963497138399	0	0.09478689634274365	-111.413047707858	1325.654699533029	-0	2.345338793624236	0	-0.09033293799049663	0	0	0	0	0.01807234764083532	0
0.4566666666666667	-0.9921161441288903	0.2774041007682978	-0	1.972316747506426	0	0.09478689634274365	-69.6316383107315	1266.880531510497	-0	2.346426650073252	0	-0.09035704704874697	0	0	0	0	0.01528171007527757	0
0.46	-0.879559968416641	0.2441786129435892	-0	1.990989655331208	0	0.09478689634274365	-58.03330629325738	1199.802160717104	-0	2.34714155306579	0	-0.09037722909464999	0	0	0	0	0.01310146289105241	0
0.4633333333333333	-0.7552941384080051	0.2084802374537922	-0	2.009930081314398	0	0.09478689634274365	-21.72004850365788	1134.315244785704	-0	2.349857511336706	0	-0.09045904901581597	0	0	0	0	0.01832536523636863	0
0.4666666666666667	-0.6314749386705181	0.1734969228564319	-0	2.029097772109548	0	0.09478689634274365	-10.10044020748273	1090.59316666209	-0	2.355702439393722	0	-0.09065760379078844	0	0	0	0	0.03551841047164406	0
0.47	-0.515951649090684	0.1412028145766888	-0	2.048461556013204	0	0.09478689634274365	-4.260536338330111	1055.348196600271	-0	2.363807675490511	0	-0.09093631817259572	0	0	0	0	0.05740648270562904	0
0.4733333333333333	-0.4130830521153306	0.1126506277264171	-0	2.068004304272889	0	0.09478689634274365	-18.22682730109029	1014.256022864813	-0	2.370558477929261	0	-0.09117387532326747	0	0	0	0	0.06574943192008553	0
0.4766666666666666	-0.3246712271613608	0.08824240341816147	-0	2.087711784627939	0	0.09478689634274366	-16.70628634000458	972.8177638223198	-0	2.376391583020761	0	-0.09137403006717569	0	3.469446951953614e-18	0	0	0.06495167003760138	0
0.48	-0.2508876887379406	0.06796976354007429	-0	2.107572091306572	0	0.09478689634274365	-20.90250253497286	939.2710453115072	-0	2.381497645528194	0	-0.09155071826508909	0	0	0	0	0.06068243076180546	0
0.4833333333333333	-0.1907804523305856	0.05152457440310407	-0	2.127575236186438	0	0.09478689634274365	-17.32144619429173	912.4952101841587	-0	2.386772992916672	0	-0.09173075613632353	0	0	0	0	0.05620598520073461	0
0.4866666666666666	-0.1426744237707225	0.0384104221619986	-0	2.147719465260759	0	0.09478689634274365	-17.58746191302474	893.5955760440954	-0	2.392261589258954	0	-0.09191975181552071	0	0	0	0	0.05180848551761486	0
0.49	-0.104775410466383	0.02811293815150899	-0	2.1680073686744	0	0.09478689634274365	-13.32679287981276	884.4333661551798	-0	2.398963583255621	0	-0.0921499859067124	0	0	0	0	0.04847543838311319	0
0.4933333333333333	-0.07538333942969912	0.02015337659359798	-0	2.188447180256079	0	0.09478689634274365	-12.78350845991776	885.5656568322531	-0	2.407005284257941	0	-0.09242885974995112	0	0	0	0	0.04485528077634782	0
0.4966666666666666	-0.05291358741336885	0.01408901379734559	-0	2.209053087798043	0	0.09478689634274365	-15.11125867640264	882.9080250231007	-0	2.415525126447299	0	-0.09272576037339729	0	0	0	0	0.03775326150442226	0
0.5	-0.03596781606946391	0.009532216233006978	-0	2.229850971102016	0	0.09478689634274365	-18.92052280888254	867.0197148019538	-0	2.423587099398754	0	-0.09300734636747565	0	0	0	0	0.02737047176867358	0
0.5033333333333333	-0.02352250058029744	0.00620135330384373	-0	2.250863724931788	0	0.09478689634274365	-13.59991250033196	850.5640363500279	-0	2.432596720610724	0	-0.09331976062672623	0	0	0	0	0.01684368699530947	0
0.5066666666666666	-0.01483012878319042	0.00388911291162663	-0	2.27208726210998	0	0.09478689634274365	-5.795672615269098	837.3339301524436	-0	2.443780958418828	0	-0.0937088974957354	0	0	0	0	0.006721771549357047	0
0.51	-0.009123975323001314	0.00238165784672042	-0	2.293494380312953	0	0.09478689634274365	-2.599534790783451	816.6483360464206	-0	2.456693172331754	0	-0.09416183532854491	0	0	0	0	-0.001241550219613641	0
0.5133333333333333	-0.005707063269618068	0.001485561826472228	-0	2.31498821372763	0	0.09478689634274365	-4.018589948134824	788.348239684265	-0	2.470383628964333	0	-0.09464549016480187	0	0	0	0	-0.001958118070288506	0
0.5166666666666666	-0.003753295078397538	0.0009762925017178265	-0	2.336468830789231	0	0.09478689634274365	8.005268972105693	804.1104997922101	-0	2.474982306783215	0	-0.09480144826245641	0	0	0	0	0.0004307234187467257	0
0.52	-0.00249826914860955	0.0006494724883764478	-0	2.357960323779033	0	0.09478689634274363	30.75082734571846	830.9805769254247	-0	2.474906907349395	0	-0.09478703102173799	0	-2.710505431213761e-20	0	0	6.643363228864274e-06	0
0.5233333333333333	-0.001613620624015313	0.0004187171006850304	-0	2.37953399869656	0	0.09478689634274365	51.40009280108602	845.0243289765625	-0	2.475197620119462	0	-0.09478689668314004	0	0	0	0	2.496865647572122e-08	0
0.5266666666666666	-0.001011013308317015	0.0002616216029428029	-0	2.401222721886989	0	0.09478689634274365	69.80876232574376	851.3176102603878	-0	2.475461323098934	0	-0.09478689634328046	0	0	0	0	5.46105383136819e-11	0
0.53	-0.0006191333354113673	0.0001597025812554909	-0	2.423035098449413	0	0.09478689634274365	86.1750502776934	852.1868442069134	-0	2.475697771989913	0	-0.0947868963427444	0	0	0	0	1.012523398458143e-13	0
0.5333333333333333	-0.0003727687509673887	9.583045791780244e-05	-0	2.444968088260649	0	0.09478689634274365	99.68863384161476	849.2123458891429	-0	2.475896466931268	0	-0.09478689634274366	0	0	0	0	1.77635683940025e-15	0
0.5366666666666666	-0.0002221522310241336	5.691738057879681e-05	-0	2.467016217394411	0	0.09478689634274365	110.6504547571506	843.525112210371	-0	2.476060087375768	0	-0.09478689634274365	0	0	0	0	0	0
0.54	-0.0001320246428197264	3.371127695312421e-05	-0	2.489174220829928	0	0.09478689634274365	119.0484526828317	835.6536794782127	-0	2.476187690113565	0	-0.09478689634274365	0	0	0	0	0	0
0.5433333333333333	-7.846197239136798e-05	1.996634403078385e-05	-0	2.511436399215389	0	0.09478689634274365	125.2248084885257	825.9743767389268	-0	2.476283157607313	0	-0.09478689634274363	0	0	0	0	-1.77635683940025e-15	0
0.5466666666666666	-4.581078844581044e-05	1.16186143247478e-05	-0	2.533796679997592	0	0.09478689634274365	129.3382521978319	814.46781660369	-0	2.476348734132193	0	-0.09478689634274365	0	0	0	0	0	0
0.55	-2.53479130138133e-05	6.40940275148084e-06	-0	2.556243106012481	0	0.09478689634274365	132.4043364830106	801.0903259410563	-0	2.476399389941451	0	-0.09478689634274365	0	0	0	0	0	0
0.5533333333333333	-1.226434794075086e-05	3.09512878074502e-06	-0	2.578736466007024	0	0.09478689634274366	135.544279005983	786.2127556276143	-0	2.476450963217124	0	-0.09478689634274365	0	2.117582368135751e-22	0	0	0	0
0.5566666666666666	-4.647208496687606e-06	1.172545078600104e-06	-0	2.601232061615138	0	0.09478689634274365	138.9302886430787	770.1096043938877	-0	2.476505967386767	0	-0.09478689634274365	0	0	0	0	0	0
0.5600000000000001	-1.407211773111956e-06	3.554164366256151e-07	-0	2.623715898368319	0	0.09478689634274365	142.1659116648532	751.3325674265828	-0	2.476563008809554	0	-0.09478689634274363	0	0	0	0	-1.77635683940025e-15	0
0.5633333333333332	-4.862432740951725e-07	1.229787957016453e-07	-0	2.646184780457402	0	0.09478689634274365	144.9759006294558	728.8396083960706	-0	2.476622148110644	0	-0.09478689634274365	0	0	0	0	0	0
0.5666666666666667	-2.316323943919792e-07	5.864931882535794e-08	-0	2.668641970866834	0	0.09478689634274365	147.0685494440713	703.1058758879531	-0	2.476678837939851	0	-0.09478689634274365	0	0	0	0	0	0
0.57	-1.326310305404231e-07	3.360170413409514e-08	-0	2.691096052544556	0	0.09478689634274365	148.4299743995649	674.763789599692	-0	2.476732201106857	0	-0.09478689634274365	0	0	0	0	0	0
0.5733333333333333	-8.211994733404222e-08	2.080683580936031e-08	-0	2.713552236730546	0	0.09478689634274365	148.9456959921625	644.2336216546998	-0	2.47678020323185	0	-0.09478689634274365	0	0	0	0	0	0
0.5766666666666667	-5.157709896488703e-08	1.306455994566816e-08	-0	2.736011978435064	0	0.09478689634274365	148.5793128758552	611.9342205550662	-0	2.476821865183339	0	-0.09478689634274365	0	0	0	0	0	0
0.58	-3.281756683131354e-08	8.308818565423596e-09	-0	2.758468687813571	0	0.09478689634274365	147.2619393191685	578.1896046516312	-0	2.47685565801212	0	-0.09478689634274365	0	0	0	0	0	0
0.5833333333333333	-2.135748334637556e-08	5.404622443848602e-09	-0	2.78091150896511	0	0.09478689634274365	144.8523017040755	543.4651203038077	-0	2.476877306601744	0	-0.09478689634274365	0	0	0	0	0	0
0.5866666666666667	-1.435512569651009e-08	3.631216031928847e-09	-0	2.803323711221388	0	0.09478689634274365	141.1406563877508	508.2634464690731	-0	2.476879658717157	0	-0.09478689634274365	0	0	0	0	0	0
0.59	-9.97648920930417e-09	2.52317035212252e-09	-0	2.825686449120225	0	0.09478689634274365	133.5762111897885	471.8710960098134	-0	2.476804873670881	0	-0.09478689634274365	0	0	0	0	0	0
0.5933333333333333	-7.051788892312998e-09	1.783562258355214e-09	-0	2.847985474723583	0	0.09478689634274365	120.5480530150938	434.4556562648054	-0	2.476601696216329	0	-0.09478689634274366	0	0	0	0	1.77635683940025e-15	0
0.5966666666666667	-4.966620782637371e-09	1.256429879932967e-09	-0	2.870213948901718	0	0.09478689634274365	105.1748255738169	399.4313980463415	-0	2.476312426645885	0	-0.09478689634274365	0	0	0	0	0	0
0.6	-3.461978413323733e-09	8.760166630419985e-10	-0	2.892373739203537	0	0.09478689634274365	89.42088187961828	369.7784650709991	-0	2.475964216078654	0	-0.09478689634274365	0	0	0	0	0	0
0.6033333333333333	-2.367071018336067e-09	5.990422567566567e-10	-0	2.914477168828939	0	0.09478689634274365	74.63573297174111	344.1696177699356	-0	2.475611936699767	0	-0.09478689634274365	0	0	0	0	0	0
0.6066666666666667	-1.561949663195979e-09	3.951894122858263e-10	-0	2.936559131607825	0	0.09478689634274365	62.98221434266405	319.4247721915403	-0	2.475353104779221	0	-0.09478689634274365	0	0	0	0	0	0
0.6099999999999999	-1.000546953073434e-09	2.529688267953226e-10	-0	2.958647454562467	0	0.09478689634274365	54.41505820361648	295.1294139636987	-0	2.475198221193699	0	-0.09478689634274365	0	0	0	0	0	0
0.6133333333333333	-6.491802715694949e-10	1.639781851766069e-10	-0	2.980727396244385	0	0.09478689634274365	47.88364919620818	272.0790080811005	-0	2.475114153374307	0	-0.09478689634274365	0	0	0	0	0	0
0.6166666666666667	-4.439060168724088e-10	1.120340963218318e-10	-0	3.002754114058538	0	0.09478689634274365	41.33142849052717	247.6294257215358	-0	2.475046237590795	0	-0.09478689634274365	0	0	0	0	0	0
0.6199999999999999	-3.21764276472196e-10	8.11707576511522e-11	-0	3.024663753686483	0	0.09478689634274365	33.28286791322365	217.7730525899476	-0	2.474957063711273	0	-0.09478689634274365	0	0	0	0	0	0
0.6233333333333333	-2.406140310623088e-10	6.068751606296041e-11	-0	3.046431928356023	0	0.09478689634274365	25.71597222901915	181.5565385859711	-0	2.474928504901944	0	-0.09478689634274366	0	0	0	0	4.440892098500626e-16	0
0.6266666666666667	-1.776242131206477e-10	4.478132986371806e-11	-0	3.068109299928243	0	0.09478689634274366	20.02401398151105	138.3424043868418	-0	2.475055509718377	0	-0.09478689634274365	0	3.231174267785264e-27	0	0	0	0
0.6299999999999999	-1.279334557453009e-10	3.222864210125793e-11	-0	3.08973785720749	0	0.09478689634274365	14.78694529247773	89.63527810821373	-0	2.475337209835189	0	-0.09478689634274366	0	0	0	0	2.220446049250313e-16	0
0.6333333333333333	-9.25871691260935e-11	2.331028135755409e-11	-0	3.111279549552	0	0.09478689634274365	8.119031066754914	39.2407844925062	-0	2.475775433373657	0	-0.09478689634274365	0	0	0	0	0	0
0.6366666666666667	-6.841777610252754e-11	1.722263538008175e-11	-0	3.132698144348801	0	0.09478689634274365	0.2092238491631209	-0.6059081442672148	-0	2.471742317447739	0	-0.09478689634274365	0	0	0	0	0	0
0.6399999999999999	-5.021370573156118e-11	1.264057318060913e-11	-0	3.154016616756514	0	0.09478689634274365	2.880570311501225e-07	-2.578832381225205e-07	-0	2.468095178270256	0	-0.09478689634274365	0	0	0	0	0	0
0.6433333333333333	-3.647184612205983e-11	9.182373565775796e-12	-0	3.175257601193127	0	0.09478689634274365	1.219981710502655e-13	-8.309880147416668e-14	-0	2.470799447382708	0	-0.09478689634274365	0	0	0	0	0	0
0.6466666666666666	-2.644183372858934e-11	6.660995978576013e-12	-0	3.196385803753076	0	0.09478689634274365	-0	-0	-0	0	0	0	0	0	0	0	0	0
0.6499999999999999	-1.907775121184433e-11	4.812638378221744e-12	-0	3.217347406954584	0	0.09478689634274365	-0	-0	-0	0	0	0	0	0	0	0	0	0
0.6533333333333333	-1.385017214993615e-11	3.50173517648187e-12	-0	3.238123145878466	0	0.09478689634274365	-0	-0	-0	0	0	0	0	0	0	0	0	0
0.6566666666666666	-9.997854926401735e-12	2.535406951964266e-12	-0	3.258705736445874	0	0.09478689634274365	-0	-0	-0	0	0	0	0	0	0	0	0	0
0.6599999999999999	-1.086325551317827e-11	2.768620744895599e-12	-0	3.229968588572727	0	0.09286264492800388	-0	-0	-0	0	0	0	0	-4.84906470315819e-17	0	0	0	0
0.6633333333333333	-1.903482055363694e-11	4.869218121311949e-12	-0	3.189586656761183	0	0.09075153080122839	-0	-0	-0	0	0	0	0	-2.401282682573224e-17	0	0	0	0
0.6666666666666666	-1.330912712466808e-10	3.411758636553925e-11	-0	3.171731977252431	0	0.08966620733032135	-0	-0	-0	0	0	0	0	1.323400404873994e-17	0	0	0	0
