DataType=double
version=3
OpenSimVersion=4.6-2026-06-22-85aaf64
endheader
time	ground_force_r_vx	ground_force_r_vy	ground_force_r_vz	ground_force_r_px	ground_force_r_py	ground_force_r_pz	ground_force_l_vx	ground_force_l_vy	ground_force_l_vz	ground_force_l_px	ground_force_l_py	ground_force_l_pz	ground_torque_r_x	ground_torque_r_y	ground_torque_r_z	ground_torque_l_x	ground_torque_l_y	ground_torque_l_z
0	-0.005924346020574597	0.001550195372137857	-0	1.17026009917448	0	0.08956901415983412	5.546656511637338e-08	-3.040519326312218e-08	-0	0.6912512091897851	0	-0.09478689634274365	0	2.569202653900494e-12	0	0	-4.097552971397123e-26	0
0.002456384886042585	-0.03587287640475788	0.009468860009235944	-0	1.177004553365433	0	0.08956897994307282	1.926011403211906e-07	-1.006536069581208e-07	-0	0.6977465360051871	0	-0.09478689634274365	0	2.364030492553959e-12	0	0	1.46550744705805e-26	0
0.00491276977208517	-0.1977520867540173	0.05268115483274902	-0	1.183924187732286	0	0.08956897567886841	9.516138422610884e-07	-4.789773672344423e-07	-0	0.7046873170487298	0	-0.09478689634274365	0	1.903487327747892e-12	0	0	6.824005856707663e-25	0
0.007369154658127755	-0.9817071515824199	0.2640862039371222	-0	1.191022807663413	0	0.08956897515180506	5.860037498443977e-06	-2.858354471359212e-06	-0	0.7119729463883394	0	-0.09478689634274365	0	1.326931782495339e-12	0	0	1.856201365499435e-23	0
0.00982553954417034	-4.320685928240816	1.174882894073381	-0	1.198289458485066	0	0.08956897508780433	3.87241761173905e-05	-1.838258005955554e-05	-0	0.7195466016513808	0	-0.09478689634274365	0	7.952178625515627e-13	0	0	1.608750998154678e-22	0
0.01228192443021293	-16.46676355031736	4.536385123911588	-0	1.20570696713624	0	0.08956897508020512	0.0002402487311162276	-0.0001113298340388764	-0	0.7273659551736791	0	-0.09478689634274363	0	4.323465041691167e-13	0	0	-2.847665150395975e-21	0
0.01473830931625551	-51.81825559977718	14.57209417332097	-0	1.213187327815087	0	0.08956897507935008	0.001290315915971839	-0.0005850942974494442	-0	0.7354021632263112	0	-0.09478689634274365	0	3.422507493791367e-13	0	0	-1.111250482687307e-20	0
0.01719469420229809	-124.2154535569928	36.25701681589873	-0	1.22064333545825	0	0.08956897507924931	0.005556986811354293	-0.002470457994214182	-0	0.7436325150446249	0	-0.09478689634274365	0	5.054531769734726e-13	0	0	-3.447470032491649e-20	0
0.01965107908834068	-216.9680506179528	67.38115798918447	-0	1.227978906896302	0	0.08956897507924932	0.01725338770560842	-0.007530807000422073	-0	0.7520440232796267	0	-0.09478689634274365	0	8.072525499621674e-13	0	0	-1.026344064118029e-19	0
0.02210746397438326	-375.4695893570607	129.0365260970372	-0	1.235079070103346	0	0.08956897507928524	0.02991934211716603	-0.01283517386409414	-0	0.7606289979838889	0	-0.09478689634274366	0	1.214314921896328e-12	0	0	4.781011562614399e-19	0
0.02456384886042585	-640.9211767329465	266.1329317444911	-0	1.241704235276523	0	0.0895689750795096	0.01578602293141692	-0.006660213192119605	-0	0.7693922825984154	0	-0.09478689634274365	0	-4.033656998963825e-13	0	0	6.298384718206225e-20	0
0.02702023374646843	-784.6335584724067	454.1146314392134	-0	1.24747860944935	0	0.08956897508180831	-0.006216571072734075	0.002579717052525675	-0	0.778350795432692	0	-0.09478689634274365	0	-9.004853302766135e-11	0	0	-1.156469446170158e-20	0
0.02947661863251102	-726.7850900749564	664.3958313288958	-0	1.251748796697809	0	0.08956897512447529	-0.0163025873863743	0.006652153147916874	-0	0.7875257858198097	0	-0.09478689634274365	0	-3.589616650116521e-09	0	0	-8.462911826060649e-20	0
0.0319330035185536	-304.4014567341576	892.076969587523	-0	1.255759020804209	0	0.08956897595753067	-0.02339772150204555	0.009385723782687188	-0	0.7969274104374058	0	-0.09478689634274365	0	-4.694053139324472e-07	0	0	-2.03836556213193e-20	0
0.03438938840459619	-248.8889634835224	1129.138743741578	-0	1.256841212183212	0	0.08956898472755806	-0.02313900894547165	0.009126090756865468	-0	0.8065559032535697	0	-0.09478689634274365	0	-6.352266491093206e-06	0	0	-1.540912445288332e-19	0
0.03684577329063878	-140.9347464235513	1339.861253618984	-0	1.257925009794971	0	0.08956903632757901	-0.01509737007866	0.005854356957320951	-0	0.8164240886167884	0	-0.09478689634274365	0	-3.287400740663508e-05	0	0	9.944377465028093e-20	0
0.03930215817668136	-128.8156084115	1504.256665863406	-0	1.258362583663789	0	0.08956926416112722	-0.007036678595807233	0.002681858447015208	-0	0.8265561873965954	0	-0.09478689634274366	0	-0.0001340134535064038	0	0	-7.329596173349425e-20	0
0.04175854306272394	-65.16153891795223	1611.100646461137	-0	1.259002778127778	0	0.08957014701768984	-0.001861325475880132	0.0006970428248725748	-0	0.8369690535239476	0	-0.09478689634274363	0	-0.0005143742230976118	0	0	3.919153819105775e-20	0
0.04421492794876652	-67.53254719216663	1665.217082760082	-0	1.259339416820617	0	0.08957313580958397	0.0002636849168646123	-9.702937872050134e-05	-0	0.8476666645228613	0	-0.09478689634274365	0	-0.001755939551613834	0	0	7.230031884133687e-22	0
0.04667131283480912	-29.78456518097633	1673.890892670984	-0	1.260053795631576	0	0.08958200238069239	0.0006836331597194238	-0.0002472705320725568	-0	0.8586452554986992	0	-0.09478689634274365	0	-0.005284168161673147	0	0	6.769424556762486e-21	0
0.0491276977208517	-35.96256262188535	1651.404331262571	-0	1.260884182934751	0	0.0896034725842435	0.0005554714127626418	-0.0001976009405253216	-0	0.8698935471211248	0	-0.09478689634274366	0	-0.01300572387960869	0	0	7.879079334719738e-21	0
0.05158408260689429	-14.95830153352588	1607.807693722452	-0	1.262385097581905	0	0.08964270804071331	0.0003719078042302171	-0.0001302251887285488	-0	0.881393366597478	0	-0.09478689634274365	0	-0.02516114012219883	0	0	-1.531039129598545e-21	0
0.05404046749293687	-21.66736132580771	1551.588156752567	-0	1.26405611178458	0	0.08969430960379282	0.0002396487250300197	-8.260465804565064e-05	-0	0.8931530427283021	0	-0.09478689634274365	0	-0.0374586584452801	0	0	6.899305405732156e-22	0
0.05649685237897945	-13.42712680025375	1493.703610265975	-0	1.266713210438346	0	0.08977724817680428	0.0001551265374874602	-5.266043946779548e-05	-0	0.9051579703637077	0	-0.09478689634274365	0	-0.05313167729818381	0	0	-4.538012792563455e-22	0
0.05895323726502204	-33.69655394333174	1449.621308668795	-0	1.270811832406835	0	0.08991861413778955	0.0001017664665982952	-3.406399941270129e-05	-0	0.9173709938350066	0	-0.09478689634274365	0	-0.06947545715210737	0	0	-1.3380597664339e-22	0
0.06140962215106462	-27.61173099819727	1400.676064212589	-0	1.275106186608692	0	0.0900620846839129	6.644203396282043e-05	-2.194394662182751e-05	-0	0.9297886390774129	0	-0.09478689634274366	0	-0.07102012629691386	0	0	6.869240627849385e-22	0
0.06386600703710721	-16.08927376818293	1347.068017045806	-0	1.279743972599529	0	0.09021685782740964	4.221873240202695e-05	-1.376320990124281e-05	-0	0.9424112572949973	0	-0.09478689634274366	0	-0.07668849585441885	0	0	9.8253909340562e-22	0
0.0663223919231498	-8.29585630088803	1307.524730512705	-0	1.286402664350379	0	0.09044279538451615	2.572321774752754e-05	-8.275342835657376e-06	-0	0.9552550923735952	0	-0.09478689634274365	0	-0.1020076221400445	0	0	1.595601081534239e-24	0
0.06877877680919238	-17.94374241796777	1279.800286506319	-0	1.294284350953713	0	0.09071603462513861	1.546488125722269e-05	-4.90259067971058e-06	-0	0.968380893292501	0	-0.09478689634274365	0	-0.129602541499475	0	0	-2.178505025626346e-23	0
0.07123516169523497	-22.38595684729737	1251.809085807978	-0	1.30255786516798	0	0.09100189353442051	9.843300287431299e-06	-3.069108960450209e-06	-0	0.9818417367997553	0	-0.09478689634274365	0	-0.1452089860217946	0	0	4.888704593938414e-23	0
0.07369154658127755	-29.07239194253842	1219.77951365531	-0	1.310740013919877	0	0.0912857292668724	6.624694643315513e-06	-2.030016604594129e-06	-0	0.9956264370156152	0	-0.09478689634274365	0	-0.1477580003592519	0	0	3.544382717153822e-23	0
0.07614793146732013	-29.36097797446411	1182.19267597897	-0	1.318920888228725	0	0.09156841217985526	4.552095295537599e-06	-1.371079225938007e-06	-0	1.009714876532096	0	-0.09478689634274365	0	-0.1410181190575725	0	0	-8.595762627855196e-24	0
0.07860431635336272	-28.69663780733807	1138.933790130706	-0	1.327186325996156	0	0.09185439070157679	3.100737301616315e-06	-9.183382445055942e-07	-0	1.024096813435589	0	-0.09478689634274365	0	-0.1281042449610384	0	0	2.553886548902186e-23	0
0.0810607012394053	-25.48420389392395	1090.718388324805	-0	1.335750281703173	0	0.09215070756865977	2.017104440879605e-06	-5.877768832041698e-07	-0	1.038761446620538	0	-0.09478689634274365	0	-0.1114943883040195	0	0	6.819759912191526e-24	0
0.08351708612544789	-24.3653506039594	1040.253369737293	-0	1.344579503486151	0	0.09245744638562492	1.214497773918878e-06	-3.484570647355852e-07	-0	1.053695639333174	0	-0.09478689634274363	0	-0.0926818687411453	0	0	-1.096394742797273e-23	0
0.08597347101149047	-23.26061439438076	989.6812058774508	-0	1.353720716600557	0	0.09277565359755585	6.654334492000579e-07	-1.881489075211507e-07	-0	1.068884543897144	0	-0.09478689634274363	0	-0.07308272106709002	0	0	-1.523651696516864e-23	0
0.08842985589753305	-23.14623172273895	939.6059292103583	-0	1.363139661730905	0	0.09310444224822709	3.305819652090068e-07	-9.220102846576475e-08	-0	1.08431096923452	0	-0.09478689634274365	0	-0.05375906240570341	0	0	1.713009679602456e-24	0
0.09088624078357564	-22.96660068537546	890.8930252132902	-0	1.372863651117315	0	0.09344449638984063	1.503559808055994e-07	-4.140838945117111e-08	-0	1.099955758026971	0	-0.09478689634274365	0	-0.03588386500865035	0	0	-5.331682859784624e-25	0
0.09334262566961823	-23.44496436583807	843.9543814002855	-0	1.382834953970363	0	0.09379408963918141	6.4064003847956e-08	-1.744139308406628e-08	-0	1.115795611084304	0	-0.09478689634274365	0	-0.02053922453065214	0	0	2.838886562295466e-25	0
0.09579901055566081	-23.70276478389398	797.7849335330477	-0	1.393238884071003	0	0.09415960115142261	2.623932705707429e-08	-7.070285864861279e-09	-0	1.131805203215243	0	-0.09478689634274365	0	-0.008701930235467205	0	0	3.521677997973017e-26	0
0.09825539544170341	-24.1693541159447	748.4519595492449	-0	1.40476345195362	0	0.09456579758913264	1.046181336739116e-08	-2.793378343600148e-09	-0	1.147960477550037	0	-0.09478689634274365	0	-0.001391443799659416	0	0	7.121135897748666e-26	0
0.100711780327746	-21.28811529201524	723.2428640702543	-0	1.412176145318034	0	0.09482536819627091	4.098728720036893e-09	-1.085654215229993e-09	-0	1.164243369002	0	-0.09478689634274365	0	-7.907282778174738e-05	0	0	1.79727200261024e-26	0
0.1031681652137886	-11.09078206159563	736.0160917112274	-0	1.411508724495239	0	0.09479479906093645	1.591560978828662e-09	-4.185394606770147e-10	-0	1.180653800091412	0	-0.09478689634274365	0	-8.936829196366194e-05	0	0	-5.458661862241926e-27	0
0.1056245500998312	0.7269566679826833	741.6831778465042	-0	1.411506271739944	0	0.09478731919027444	6.155559948250649e-10	-1.60798398655533e-10	-0	1.1971956134548	0	-0.09478689634274365	0	-9.119209130519976e-06	0	0	2.698251928586744e-27	0
0.1080809349858737	10.28943316837565	743.781302997423	-0	1.411670702165318	0	0.09478691264898428	2.381095462189413e-10	-6.181104940980907e-11	-0	1.213867937152093	0	-0.09478689634274365	0	-5.361905961904178e-07	0	0	-7.479020715132955e-28	0
0.1105373198719163	19.73804029055295	743.8463631797651	-0	1.411842557207334	0	0.09478689689286279	9.265422545174459e-11	-2.390974372993078e-11	-0	1.230666793579875	0	-0.09478689634274365	0	-2.491771876493042e-08	0	0	2.434697058291783e-28	0
0.1129937047579589	28.20501589773665	742.1711559184539	-0	1.41200000034464	0	0.09478689636059931	3.65494212046017e-11	-9.378837223702613e-12	-0	1.247585153410588	0	-0.09478689634274365	0	-1.049630064989513e-09	0	0	-7.234048497120623e-29	0
0.1154500896440015	36.3808296354707	739.2693886761555	-0	1.412151917366515	0	0.09478689634332783	1.474045519791535e-11	-3.762479680744235e-12	-0	1.264614864916317	0	-0.09478689634274365	0	-4.285620358208262e-11	0	0	-8.245804705889272e-29	0
0.1179064745300441	43.93557409631133	735.2030043026858	-0	1.412293796395609	0	0.09478689634276341	6.129187364229545e-12	-1.556682029762188e-12	-0	1.281746243924157	0	-0.09478689634274365	0	-1.757738722850926e-12	0	0	3.661022008526189e-29	0
0.1203628594160867	51.2118669576996	730.3058041624022	-0	1.412430257933699	0	0.09478689634274434	2.65160458168522e-12	-6.703196964547624e-13	-0	1.298968786383318	0	-0.09478689634274365	0	-7.36685065596018e-14	0	0	-1.288650397216301e-29	0
0.1228192443021292	58.04583415621417	724.574579464455	-0	1.412558994215436	0	0.09478689634274369	1.204834262120596e-12	-3.032653259232912e-13	-0	1.316271247082918	0	-0.09478689634274365	0	-3.886253986086274e-15	0	0	-7.807077620016406e-30	0
0.1252756291881718	64.6491563053012	718.2116435778091	-0	1.412682911842781	0	0.09478689634274363	5.801023759561765e-13	-1.454351655500903e-13	-0	1.333642117328567	0	-0.09478689634274365	0	6.584901075406778e-16	0	0	-3.680219165903905e-31	0
0.1277320140742144	70.93050394552886	711.1875250355613	-0	1.412800736469524	0	0.09478689634274365	2.976907412824364e-13	-7.436035654301418e-14	-0	1.35107097612408	0	-0.09478689634274365	0	-1.24096684180353e-16	0	0	-9.527553161671387e-31	0
0.130188398960257	77.02915971255483	703.6110466220038	-0	1.412914479351532	0	0.09478689634274365	1.639224058465719e-13	-4.080960160178562e-14	-0	1.368547301207796	0	-0.09478689634274365	0	3.430811963362699e-16	0	0	1.219413591499531e-30	0
0.1326447838462996	82.88801034573287	695.432322147795	-0	1.413023424207412	0	0.09478689634274365	9.810274022113603e-14	-2.434916859670077e-14	-0	1.386060534238819	0	-0.09478689634274365	0	1.306936397590605e-17	0	0	7.851371459649119e-31	0
0.1351011687323422	88.59931895759503	686.705110651672	-0	1.413129024352651	0	0.09478689634274365	6.470273937063043e-14	-1.60152164711712e-14	-0	0	0	0	0	-6.007018456135789e-16	0	0	-6.132971849815505e-15	0
0.1375575536183848	94.12360919737782	677.3775261185206	-0	1.41323088723932	0	0.09478689634274365	4.770066513304307e-14	-1.177810204036044e-14	-0	0	0	0	0	-3.436579229976124e-17	0	0	-4.521398001445679e-15	0
0.1400139385044274	99.50986306213511	667.4465890559856	-0	1.413329976597703	0	0.09478689634274365	4.200052221898228e-14	-1.034806922800484e-14	-0	0	0	0	0	8.347713292623879e-16	0	0	-3.981099145911775e-15	0
0.1424703233904699	104.7095581295803	656.7555603913336	-0	1.413426099410506	0	0.09478689634274365	5.479182259175232e-14	-1.347042327734833e-14	-0	0	0	0	0	-8.130218842299641e-16	0	0	-5.193546808434427e-15	0
0.1449267082765125	109.7564476333122	645.1852575403216	-0	1.413520457637627	0	0.09478689634274365	1.221243474791644e-13	-2.995239528073321e-14	-0	1.473821747559777	0	-0.09478689634274365	0	-5.192841217504213e-16	0	0	-1.189391401596589e-31	0
0.1473830931625551	114.6164494851365	632.6733607048951	-0	1.413613060660674	0	0.09478689634274365	3.90970625594924e-13	-9.563267198251183e-14	-0	1.491374471060277	0	-0.09478689634274365	0	-7.974589436387096e-17	0	0	-8.148578334895013e-31	0
0.1498394780485977	119.2922775057785	619.2219757182439	-0	1.413704406192729	0	0.09478689634274365	3.433100761578724e-13	-8.372073622873253e-14	-0	1.508896947360301	0	-0.09478689634274365	0	-8.363012458430355e-16	0	0	5.431843741286888e-31	0
0.1522958629346403	123.7318780732237	604.8237155106783	-0	1.413794118535272	0	0.09478689634274365	-3.39981157370206e-12	8.26271416287818e-13	-0	1.526374595159028	0	-0.09478689634274363	0	-3.545834439078036e-17	0	0	6.010966028561804e-29	0
0.1547522478206829	127.9172430685995	589.4941410003785	-0	1.41388236909945	0	0.09478689634274365	-5.591431311116161e-12	1.353762793406639e-12	-0	1.543793973520064	0	-0.09478689634274365	0	-1.646463456621697e-16	0	0	2.333490036926213e-29	0
0.1572086327067254	131.8008842765811	573.2325609765574	-0	1.41396891252498	0	0.09478689634274365	-6.44234119812366e-12	1.553295237516818e-12	-0	1.56114182695182	0	-0.09478689634274365	0	-4.04774757319481e-16	0	0	5.554349790394961e-30	0
0.159665017592768	135.3147268772659	556.0923140876019	-0	1.414052834122043	0	0.09478689634274365	-6.722089281484289e-12	1.61341875675983e-12	-0	1.578408883487112	0	-0.09478689634274365	0	-1.707898410427327e-16	0	0	4.717854102025306e-29	0
0.1621214024788106	138.3161335443685	538.2107720289702	-0	1.414131285650912	0	0.09478689634274365	-6.910751153907117e-12	1.650592764610952e-12	-0	1.595589886224445	0	-0.09478689634274365	0	-8.276371104387233e-16	0	0	1.287434829772477e-29	0
0.1645777873648532	140.7527940072843	519.658832365541	-0	1.414203342168999	0	0.09478689634274365	-7.440738161562368e-12	1.767905877040601e-12	-0	1.61267481849154	0	-0.09478689634274365	0	-6.197685985286061e-16	0	0	-1.766483971723032e-29	0
0.1670341722508958	142.6400528087123	500.3389444920356	-0	1.414270504254207	0	0.09478689634274365	-8.002989660465476e-12	1.891062604465561e-12	-0	1.629652288277756	0	-0.09478689634274365	0	1.197943342377966e-16	0	0	-4.591215275862944e-29	0
0.1694905571369383	143.9531922380516	480.2267263228761	-0	1.414333123803501	0	0.09478689634274365	-9.387516387576547e-12	2.205633823428625e-12	-0	1.646510250973094	0	-0.09478689634274365	0	-2.8034798860117e-17	0	0	-4.799489838898086e-30	0
0.1719469420229809	144.6038132383374	459.5637925964814	-0	1.414388331345657	0	0.09478689634274365	-1.069071079145203e-11	2.4978498848792e-12	-0	1.663216210451074	0	-0.09478689634274363	0	-7.459332991636371e-16	0	0	1.653758032247846e-28	0
0.1744033269090235	144.3773570215902	438.7028011851326	-0	1.414428656045858	0	0.09478689634274365	-1.332597681356183e-11	3.097818803952819e-12	-0	1.679728423525502	0	-0.09478689634274365	0	1.23892644036154e-16	0	0	-4.927297128404182e-29	0
0.1768597117950661	142.9578126383025	417.955666867976	-0	1.414443437412934	0	0.09478689634274365	-1.681965142822028e-11	3.893759477882554e-12	-0	1.696003486149558	0	-0.09478689634274365	0	7.288779938589794e-16	0	0	8.823744707236716e-29	0
0.1793160966811087	140.5792413082785	397.1521840846883	-0	1.414439286524476	0	0.09478689634274363	-2.207870211878843e-11	5.096262429094069e-12	-0	1.712008888762376	0	-0.09478689634274365	0	1.412318084662733e-15	0	0	-1.668248849600727e-28	0
0.1817724815671513	137.915737039175	375.6535205544022	-0	1.414440089402319	0	0.09478689634274365	-2.926173818351315e-11	6.742874917816605e-12	-0	1.727743373928181	0	-0.09478689634274365	0	-5.050213209457845e-16	0	0	1.373627944417013e-29	0
0.1842288664531939	134.9866240564328	353.3054422769972	-0	1.414449853932365	0	0.09478689634274365	-4.027428978905787e-11	9.275772381564197e-12	-0	1.743214562312652	0	-0.09478689634274365	0	7.042662376664782e-16	0	0	-4.771994593063368e-30	0
0.1866852513392365	131.30385813852	330.4367555614932	-0	1.414452844212667	0	0.09478689634274365	-5.616041787627955e-11	1.294136933336135e-11	-0	1.758438210488787	0	-0.09478689634274365	0	-9.841612845210545e-17	0	0	2.779552077594937e-28	0
0.189141636225279	126.630589836873	307.2107553014376	-0	1.414440372393008	0	0.09478689634274365	-8.071689505016789e-11	1.862638083576501e-11	-0	1.773431778757419	0	-0.09478689634274365	0	-4.350926174416216e-16	0	0	-2.070059737180755e-28	0
0.1915980211113216	120.8757724957059	283.756984111207	-0	1.414407488840869	0	0.09478689634274365	-1.167334636758966e-10	2.69957382966239e-11	-0	1.788215434296949	0	-0.09478689634274365	0	3.826923661456429e-16	0	0	-8.074283648471729e-28	0
0.1940544059973642	114.1232553182894	260.0567525177977	-0	1.414356414268998	0	0.09478689634274365	-1.73447622423455e-10	4.022223555041563e-11	-0	1.802808591543869	0	-0.09478689634274366	0	1.074248446986425e-16	0	0	-3.673855274840913e-27	0
0.1965107908834068	106.6463354796182	235.9463630454187	-0	1.41429961858955	0	0.09478689634274365	-2.586854300098547e-10	6.018508955295393e-11	-0	1.817227518573199	0	-0.09478689634274365	0	-5.678186890150682e-16	0	0	5.642238626358126e-28	0
0.1989671757694494	98.57042784041711	211.4386572178886	-0	1.414243472424044	0	0.09478689634274365	-3.917499153928165e-10	9.148088082650864e-11	-0	1.831487025086799	0	-0.09478689634274365	0	5.879420708901253e-16	0	0	1.287318192764285e-27	0
0.2014235606554919	89.90529324688175	186.6995766793219	-0	1.414187833795705	0	0.09478689634274363	-5.957727819013398e-10	1.396890636859201e-10	-0	1.845601287387971	0	-0.09478689634274365	0	1.24145159150699e-15	0	0	-4.948467382733817e-28	0
0.2038799455415345	80.67095492292222	161.8876520988515	-0	1.414133194897351	0	0.09478689634274365	-9.120419658899221e-10	2.147748777653919e-10	-0	1.859584659191448	0	-0.09478689634274365	0	-4.01218480212449e-16	0	0	5.423777676650453e-27	0
0.2063363304275771	70.90622804652334	137.1617390558666	-0	1.414081596615407	0	0.09478689634274365	-1.398402068802664e-09	3.308151212809613e-10	-0	1.873453345688205	0	-0.09478689634274365	0	2.980072804651293e-16	0	0	1.424681902601614e-27	0
0.2087927153136197	60.60749335419316	113.1050298638057	-0	1.414016877097142	0	0.09478689634274365	-2.138654114769922e-09	5.083376690592912e-10	-0	1.887223333135591	0	-0.09478689634274365	0	4.260796843994389e-16	0	0	1.104013434294245e-26	0
0.2112491001996623	49.72333197250276	90.99010203756829	-0	1.413873500051105	0	0.09478689634274366	-3.25294774830661e-09	7.769774050546898e-10	-0	1.900909405882618	0	-0.09478689634274365	0	-3.988079131383627e-16	0	0	-1.560094312867881e-26	0
0.2137054850857049	38.68375798860016	72.32393802034828	-0	1.413559598817606	0	0.09478689634274365	-4.898510078927876e-09	1.175903552668819e-09	-0	1.914524448686729	0	-0.09478689634274365	0	-2.212654576007933e-16	0	0	-1.056091609240435e-26	0
0.2161618699717475	28.06378906837709	58.943737075603	-0	1.412936753047279	0	0.09478689634274365	-7.280201641220993e-09	1.756690327693856e-09	-0	1.928076846399456	0	-0.09478689634274365	0	1.163268070059047e-16	0	0	2.210202831220158e-26	0
0.2186182548577901	17.94123414137642	49.98789602332334	-0	1.412007136188832	0	0.09478689634274363	-1.063728410991126e-08	2.580550653486577e-09	-0	1.941572126472909	0	-0.09478689634274366	0	3.166467789948033e-16	0	0	-2.290684869931325e-25	0
0.2210746397438327	8.779552820294189	39.70057724050746	-0	1.411105611665959	0	0.09478689634274365	-1.521647188417399e-08	3.712238862972207e-09	-0	1.955014021882909	0	-0.09478689634274365	0	5.307130109133577e-17	0	0	-7.411540518667193e-26	0
0.2235310246298752	2.280950259020273	25.16257068721863	-0	1.410435877457008	0	0.09478689634274365	-2.121640068798431e-08	5.206683756547279e-09	-0	1.968237809768927	0	-0.09477910055549067	0	1.24355039213158e-17	0	0	1.405327249504253e-15	0
0.2259874095159178	-0.6403083404435936	8.690577634248735	-0	1.409759682933734	0	0.09478689634274365	-2.884818174384841e-08	7.124793788536258e-09	-0	1.980512185381056	0	-0.0947341414275592	0	1.54022311667112e-18	0	0	9.846865447717841e-15	0
0.2284437944019604	0.7653723288637018	-1.80583226416479	-0	1.408328428677208	0	0.09478689634274365	-3.985359953170627e-08	9.912282358543637e-09	-0	1.985802830083899	0	-0.09441818655419518	0	-1.222896521539353e-18	0	0	6.173064788986027e-14	0
0.230900179288003	0.1039038451111038	-0.11137525107614	-0	1.406721110667806	0	0.09478689634274363	-7.220912880391421e-08	1.810012174325132e-08	-0	1.957704654193517	0	-0.0928800277242775	0	1.057067111121865e-18	0	0	2.148441232053568e-13	0
0.2333565641740455	0.0005393668355725733	-0.0005022780130867933	-0	1.40789712573567	0	0.09478689634274365	-2.911728224425538e-07	7.350662421055375e-08	-0	1.902659831151779	0	-0.09053307816903015	0	-1.528676814210966e-21	0	0	7.779733840772817e-14	0
0.2358129490600882	4.504187117810709e-06	-3.624976303564156e-06	-0	1.409919807660587	0	0.09478689634274365	-2.096818001997488e-06	5.326455811542347e-07	-0	1.886091955038251	0	-0.08971732338958167	0	2.466135214623447e-23	0	0	-5.545584140750208e-13	0
0.2382693339461307	1.904915552361041e-07	-1.348641223385327e-07	-0	1.413013232594095	0	0.09478689634274365	-1.660747164619277e-05	4.246610989374187e-06	-0	1.888488119401749	0	-0.08958842686534448	0	-8.086309663634932e-25	0	0	-1.308431264176598e-12	0
0.2407257188321733	3.87677113726484e-08	-2.466096725575514e-08	-0	1.417159033356329	0	0.09478689634274365	-0.0001263145122478825	3.253079362217484e-05	-0	1.894250970626109	0	-0.08957145035969305	0	-1.701064443790372e-26	0	0	-1.985427869591134e-12	0
0.2431821037182159	2.910209092045814e-08	-1.700905040828461e-08	-0	1.422268032832922	0	0.09478689634274365	-0.0008988099876023664	0.0002332639579264245	-0	1.900605496897047	0	-0.08956928706373639	0	-3.509471622263843e-26	0	0	-2.438752305920424e-12	0
0.2456384886042585	5.546656511637421e-08	-3.040519326312264e-08	-0	1.42816667500256	0	0.09478689634274365	-0.005924346020574582	0.001550195372137853	-0	1.907175564987256	0	-0.08956901415983412	0	-4.099963203697576e-25	0	0	-2.569202556545856e-12	0
0.2480948734903011	1.926011403211937e-07	-1.006536069581224e-07	-0	1.434662001817963	0	0.09478689634274366	-0.03587287640475777	0.009468860009235915	-0	1.913920019178209	0	-0.08956897994307282	0	-4.271848890428281e-24	0	0	-2.364030523059564e-12	0
0.2505512583763437	9.516138422611029e-07	-4.789773672344496e-07	-0	1.441602782861505	0	0.09478689634274365	-0.1977520867540165	0.05268115483274882	-0	1.920839653545062	0	-0.08956897567886841	0	8.205747864877874e-25	0	0	-1.903486124201092e-12	0
0.2530076432623862	5.860037498444044e-06	-2.858354471359244e-06	-0	1.448888412201114	0	0.09478689634274363	-0.9817071515824154	0.264086203937121	-0	1.927938273476189	0	-0.08956897515180505	0	4.71956440127158e-23	0	0	-1.326912904110354e-12	0
0.2554640281484288	3.872417611739096e-05	-1.838258005955575e-05	-0	1.456462067464156	0	0.09478689634274365	-4.320685928240793	1.174882894073375	-0	1.935204924297842	0	-0.08956897508780433	0	3.638654882689792e-24	0	0	-7.952033911476804e-13	0
0.2579204130344714	0.0002402487311162309	-0.0001113298340388779	-0	1.464281420986455	0	0.09478689634274365	-16.46676355031771	4.536385123911685	-0	1.942622432949015	0	-0.0895689750802051	0	1.166915856687039e-21	0	0	-4.320907273927245e-13	0
0.260376797920514	0.00129031591597186	-0.0005850942974494535	-0	1.472317629039086	0	0.09478689634274365	-51.81825559977806	14.57209417332121	-0	1.950102793627863	0	-0.08956897507935008	0	1.008139547952246e-20	0	0	-3.423714274938206e-13	0
0.2628331828065566	0.005556986811354382	-0.002470457994214222	-0	1.4805479808574	0	0.09478689634274365	-124.2154535569944	36.25701681589918	-0	1.957558801271025	0	-0.08956897507924931	0	2.315534922386645e-20	0	0	-5.05638177910896e-13	0
0.2652895676925991	0.01725338770560873	-0.00753080700042221	-0	1.488959489092402	0	0.09478689634274365	-216.968050617955	67.38115798918516	-0	1.964894372709078	0	-0.08956897507924931	0	-4.296276115238293e-21	0	0	-8.038544113089469e-13	0
0.2677459525786418	0.02991934211716666	-0.01283517386409441	-0	1.497544463796665	0	0.09478689634274365	-375.4695893570661	129.0365260970391	-0	1.971994535916122	0	-0.08956897507928524	0	-1.719254796713593e-19	0	0	-1.219920911246508e-12	0
0.2702023374646844	0.01578602293141724	-0.006660213192119736	-0	1.506307748411191	0	0.09478689634274365	-640.9211767329546	266.1329317444945	-0	1.978619701089299	0	-0.0895689750795096	0	4.692590478799743e-20	0	0	4.051395294040315e-13	0
0.2726587223507269	-0.00621657107273424	0.002579717052525744	-0	1.515266261245468	0	0.09478689634274365	-784.6335584724151	454.1146314392183	-0	1.984394075262126	0	-0.08956897508180831	0	-6.392120857675197e-21	0	0	9.004818012597581e-11	0
0.2751151072367695	-0.01630258738637448	0.006652153147916951	-0	1.524441251632585	0	0.09478689634274365	-726.7850900749623	664.3958313289011	-0	1.988664262510585	0	-0.08956897512447529	0	6.205135397799086e-20	0	0	3.589627156291626e-09	0
0.2775714921228121	-0.02339772150204609	0.0093857237826874	-0	1.533842876250181	0	0.09478689634274365	-304.4014567341603	892.0769695875284	-0	1.992674486616985	0	-0.08956897595753066	0	2.869346831960863e-20	0	0	4.694053168925621e-07	0
0.2800278770088547	-0.02313900894547152	0.009126090756865417	-0	1.543471369066345	0	0.09478689634274365	-248.8889634835246	1129.138743741584	-0	1.993756677995987	0	-0.08956898472755807	0	1.29405558111903e-19	0	0	6.352266487019248e-06	0
0.2824842618948973	-0.01509737007866104	0.005854356957321356	-0	1.553339554429564	0	0.09478689634274363	-140.9347464235527	1339.861253618991	-0	1.994840475607746	0	-0.08956903632757901	0	-3.139269887963501e-19	0	0	3.287400740700985e-05	0
0.2849406467809398	-0.00703667859580725	0.002681858447015214	-0	1.563471653209371	0	0.09478689634274365	-128.8156084115012	1504.256665863413	-0	1.995278049476564	0	-0.08956926416112723	0	-6.370286411789313e-21	0	0	0.0001340134535042776	0
0.2873970316669824	-0.001861325475880482	0.0006970428248727058	-0	1.573884519336723	0	0.09478689634274363	-65.16153891795314	1611.100646461143	-0	1.995918243940554	0	-0.08957014701768984	0	-1.511125676155682e-20	0	0	0.0005143742230969725	0
0.289853416553025	0.0002636849168645889	-9.702937872049271e-05	-0	1.584582130335637	0	0.09478689634274365	-67.53254719216756	1665.217082760088	-0	1.996254882633392	0	-0.08957313580958397	0	-1.570919347231218e-22	0	0	0.001755939551613696	0
0.2923098014390676	0.0006836331597197738	-0.0002472705320726834	-0	1.595560721311475	0	0.09478689634274365	-29.78456518097719	1673.89089267099	-0	1.996969261444352	0	-0.0895820023806924	0	-3.744651674130661e-21	0	0	0.005284168161673112	0
0.2947661863251102	0.0005554714127626392	-0.0001976009405253206	-0	1.6068090129339	0	0.09478689634274365	-35.96256262188614	1651.404331262577	-0	1.997799648747527	0	-0.08960347258424352	0	2.527727706774974e-21	0	0	0.01300572387960877	0
0.2972225712111528	0.0003719078042302156	-0.0001302251887285482	-0	1.618308832410253	0	0.09478689634274365	-14.95830153352659	1607.807693722458	-0	1.999300563394681	0	-0.08964270804071332	0	1.467070872885104e-21	0	0	0.02516114012219891	0
0.2996789560971954	0.0002396487250300194	-8.260465804565055e-05	-0	1.630068508541078	0	0.09478689634274366	-21.66736132580849	1551.588156752571	-0	2.000971577597356	0	-0.08969430960379282	0	-2.040607483583263e-21	0	0	0.0374586584452808	0
0.302135340983238	0.0001551265374874601	-5.266043946779545e-05	-0	1.642073436176483	0	0.09478689634274365	-13.42712680025451	1493.703610265981	-0	2.003628676251122	0	-0.08977724817680428	0	5.100115426285924e-22	0	0	0.05313167729818454	0
0.3045917258692805	0.0001017664665982949	-3.406399941270119e-05	-0	1.654286459647782	0	0.09478689634274365	-33.69655394333247	1449.6213086688	-0	2.007727298219611	0	-0.08991861413778954	0	-4.040705220635525e-22	0	0	0.06947545715210954	0
0.3070481107553231	6.644203396282021e-05	-2.194394662182745e-05	-0	1.666704104890188	0	0.09478689634274365	-27.61173099819788	1400.676064212595	-0	2.012021652421468	0	-0.0900620846839129	0	-3.870475076946279e-22	0	0	0.07102012629691534	0
0.3095044956413657	4.22187324020268e-05	-1.376320990124276e-05	-0	1.679326723107773	0	0.09478689634274365	-16.08927376818344	1347.068017045811	-0	2.016659438412305	0	-0.09021685782740964	0	-2.327373960660419e-23	0	0	0.07668849585441986	0
0.3119608805274083	2.572321774752745e-05	-8.275342835657347e-06	-0	1.692170558186371	0	0.09478689634274365	-8.295856300888493	1307.52473051271	-0	2.023318130163155	0	-0.09044279538451615	0	-1.220121599152081e-22	0	0	0.1020076221400454	0
0.3144172654134509	1.54648812572223e-05	-4.902590679710457e-06	-0	1.705296359105276	0	0.09478689634274365	-17.94374241796836	1279.800286506324	-0	2.031199816766489	0	-0.09071603462513862	0	-1.035992737896497e-22	0	0	0.129602541499476	0
0.3168736502994934	9.843300287431231e-06	-3.069108960450188e-06	-0	1.718757202612531	0	0.09478689634274365	-22.38595684729804	1251.809085807983	-0	2.039473330980756	0	-0.09100189353442052	0	2.137578327592447e-23	0	0	0.1452089860217957	0
0.319330035185536	6.624694643315493e-06	-2.030016604594123e-06	-0	1.73254190282839	0	0.09478689634274365	-29.07239194253918	1219.779513655316	-0	2.047655479732652	0	-0.0912857292668724	0	1.122651582955989e-23	0	0	0.1477580003592536	0
0.3217864200715786	4.552095295537672e-06	-1.37107922593803e-06	-0	1.746630342344871	0	0.09478689634274365	-29.3609779744647	1182.192675978974	-0	2.0558363540415	0	-0.09156841217985527	0	1.159427466129774e-23	0	0	0.1410181190575729	0
0.3242428049576212	3.100737301616333e-06	-9.183382445055995e-07	-0	1.761012279248364	0	0.09478689634274365	-28.69663780733859	1138.93379013071	-0	2.064101791808932	0	-0.0918543907015768	0	-1.751307855634348e-23	0	0	0.1281042449610386	0
0.3266991898436638	2.0171044408796e-06	-5.877768832041684e-07	-0	1.775676912433314	0	0.09478689634274365	-25.48420389392452	1090.71838832481	-0	2.072665747515948	0	-0.0921507075686598	0	-1.55004772104338e-24	0	0	0.1114943883040198	0
0.3291555747297064	1.214497773918872e-06	-3.484570647355835e-07	-0	1.790611105145949	0	0.09478689634274365	-24.36535060395995	1040.253369737298	-0	2.081494969298926	0	-0.09245744638562493	0	2.574025848030281e-25	0	0	0.09268186874114601	0
0.331611959615749	6.654334492000408e-07	-1.881489075211459e-07	-0	1.805800009709919	0	0.09478689634274363	-23.26061439438129	989.6812058774556	-0	2.090636182413332	0	-0.09277565359755584	0	3.133507887735477e-24	0	0	0.07308272106709096	0
0.3340683445017916	3.30581965209018e-07	-9.220102846576787e-08	-0	1.821226435047296	0	0.09478689634274365	-23.1462317227394	939.6059292103648	-0	2.100055127543681	0	-0.09310444224822709	0	-1.714869357321097e-24	0	0	0.05375906240570371	0
0.3365247293878341	1.503559808055991e-07	-4.140838945117102e-08	-0	1.836871223839747	0	0.09478689634274363	-22.96660068537591	890.8930252132939	-0	2.109779116930091	0	-0.09344449638984066	0	1.349665305399553e-24	0	0	0.03588386500864963	0
0.3389811142738767	6.406400384795585e-08	-1.744139308406624e-08	-0	1.85271107689708	0	0.09478689634274365	-23.44496436583851	843.9543814002909	-0	2.119750419783138	0	-0.09379408963918141	0	2.806569471892318e-25	0	0	0.02053922453065212	0
0.3414374991599193	2.6239327057074e-08	-7.0702858648612e-09	-0	1.868720669028018	0	0.09478689634274365	-23.70276478389438	797.7849335330504	-0	2.130154349883778	0	-0.09415960115142261	0	-1.468964919717148e-25	0	0	0.008701930235467595	0
0.3438938840459619	1.04618133673911e-08	-2.793378343600132e-09	-0	1.884875943362812	0	0.09478689634274365	-24.16935411594504	748.4519595492474	-0	2.141678917766395	0	-0.09456579758913262	0	-5.944030641814419e-26	0	0	0.001391443799659474	0
0.3463502689320045	4.098728720036881e-09	-1.08565421522999e-09	-0	1.901158834814775	0	0.09478689634274365	-21.28811529201562	723.242864070257	-0	2.14909161113081	0	-0.0948253681962709	0	2.074218239534999e-26	0	0	7.907282778185988e-05	0
0.348806653818047	1.591560978828659e-09	-4.185394606770139e-10	-0	1.917569265904187	0	0.09478689634274365	-11.09078206159599	736.01609171123	-0	2.148424190308013	0	-0.09479479906093646	0	-1.071200667467709e-26	0	0	8.936829196357349e-05	0
0.3512630387040896	6.155559948250636e-10	-1.607983986555327e-10	-0	1.934111079267576	0	0.09478689634274365	0.7269566679824069	741.6831778465057	-0	2.14842173755272	0	-0.09478731919027444	0	-1.411701100669716e-27	0	0	9.11920913051771e-06	0
0.3537194235901322	2.381095462189408e-10	-6.181104940980892e-11	-0	1.950783402964869	0	0.09478689634274365	10.28943316837541	743.7813029974254	-0	2.148586167978094	0	-0.09478691264898428	0	1.283964916478724e-27	0	0	5.361905962119457e-07	0
0.3561758084761748	9.265422545175677e-11	-2.390974372993392e-11	-0	1.96758225939265	0	0.09478689634274365	19.73804029055263	743.8463631797674	-0	2.148758023020109	0	-0.09478689689286281	0	-7.508462005702724e-28	0	0	2.491771893672115e-08	0
0.3586321933622174	3.654942120460163e-11	-9.378837223702597e-12	-0	1.984500619223363	0	0.09478689634274365	28.20501589773641	742.1711559184563	-0	2.148915466157416	0	-0.09478689636059931	0	1.393483405918848e-28	0	0	1.049630258580603e-09	0
0.36108857824826	1.47404551979153e-11	-3.762479680744223e-12	-0	2.001530330729092	0	0.09478689634274365	36.38082963547044	739.269388676156	-0	2.14906738317929	0	-0.09478689634332785	0	-7.258484574321133e-29	0	0	4.285688732342721e-11	0
0.3635449631343026	6.129187364229545e-12	-1.556682029762188e-12	-0	2.018661709736933	0	0.09478689634274365	43.93557409631122	735.2030043026899	-0	2.149209262208384	0	-0.09478689634276341	0	-3.661022008526189e-29	0	0	1.757620841384672e-12	0
0.3660013480203451	2.651604581684328e-12	-6.703196964545366e-13	-0	2.035884252196094	0	0.09478689634274365	51.2118669576994	730.3058041624046	-0	2.149345723746475	0	-0.09478689634274434	0	4.421197951107253e-30	0	0	7.34622139936613e-14	0
0.3684577329063877	1.204834262120594e-12	-3.032653259232908e-13	-0	2.053186712895693	0	0.09478689634274363	58.04583415621397	724.5745794644572	-0	2.14947446002821	0	-0.09478689634274368	0	2.620270824382768e-29	0	0	2.87441365059838e-15	0
0.3709141177924303	5.801023759561765e-13	-1.454351655500903e-13	-0	2.070557583141342	0	0.09478689634274365	64.64915630530066	718.2116435778094	-0	2.149598377655556	0	-0.09478689634274365	0	3.680219165903905e-31	0	0	5.669386206233847e-16	0
0.3733705026784729	2.976907412824359e-13	-7.436035654301405e-14	-0	2.087986441936856	0	0.09478689634274365	70.93050394552871	711.1875250355653	-0	2.1497162022823	0	-0.09478689634274365	0	-4.911773503467879e-32	0	0	-2.325514863418989e-17	0
0.3758268875645155	1.639224058465715e-13	-4.080960160178551e-14	-0	2.105462767020571	0	0.09478689634274366	77.0291597125547	703.6110466220057	-0	2.149829945164308	0	-0.09478689634274365	0	-3.075494859155454e-30	0	0	-3.160863601929584e-17	0
0.3782832724505581	9.810274022113589e-14	-2.434916859670074e-14	-0	2.122976000051595	0	0.09478689634274365	82.88801034573247	695.4323221477945	-0	2.149938890020187	0	-0.09478689634274363	0	-2.467445035443545e-31	0	0	-1.575956715246631e-15	0
0.3807396573366006	6.470273937062912e-14	-1.601521647117088e-14	-0	0	0	0	88.59931895759458	686.7051106516717	-0	2.150044490165427	0	-0.09478689634274366	0	6.13297184981538e-15	0	0	1.358738529017412e-15	0
0.3831960422226433	4.770066513305656e-14	-1.177810204036378e-14	-0	0	0	0	94.12360919737745	677.3775261185203	-0	2.150146353052095	0	-0.09478689634274365	0	4.521398001446959e-15	0	0	5.39429446682075e-16	0
0.3856524271086859	4.200052221897549e-14	-1.034806922800317e-14	-0	0	0	0	99.50986306213504	667.4465890559895	-0	2.150245442410479	0	-0.09478689634274365	0	3.98109914591113e-15	0	0	-4.643580358195968e-16	0
0.3881088119947284	5.479182259175216e-14	-1.347042327734829e-14	-0	0	0	0	104.7095581295799	656.7555603913354	-0	2.150341565223281	0	-0.09478689634274365	0	5.193546808434412e-15	0	0	-4.582713007879727e-16	0
0.390565196880771	1.221243474791657e-13	-2.995239528073351e-14	-0	2.210737213372553	0	0.09478689634274365	109.7564476333116	645.1852575403204	-0	2.150435923450403	0	-0.09478689634274365	0	-3.747721911088793e-31	0	0	-6.173587023279929e-16	0
0.3930215817668136	3.909706255949261e-13	-9.563267198251237e-14	-0	2.228289936873053	0	0.09478689634274365	114.6164494851366	632.6733607048993	-0	2.150528526473449	0	-0.09478689634274365	0	-3.013909126709692e-30	0	0	-2.317266659531031e-16	0
0.3954779666528562	3.433100761578782e-13	-8.372073622873396e-14	-0	2.245812413173077	0	0.09478689634274363	119.2922775057785	619.2219757182454	-0	2.150619872005505	0	-0.09478689634274365	0	2.9341284179807e-30	0	0	-5.107015669886066e-16	0
0.3979343515388988	-3.399811573702087e-12	8.262714162878246e-13	-0	2.263290060971804	0	0.09478689634274365	123.7318780732236	604.8237155106799	-0	2.150709584348048	0	-0.09478689634274365	0	-2.273358058867854e-29	0	0	3.469309047077544e-16	0
0.4003907364249414	-5.591431311116134e-12	1.353762793406633e-12	-0	2.280709439332839	0	0.09478689634274363	127.9172430685984	589.494141000377	-0	2.150797834912225	0	-0.09478689634274365	0	-7.892283835154524e-29	0	0	3.917752291032859e-16	0
0.4028471213109839	-6.442341198123648e-12	1.553295237516815e-12	-0	2.298057292764595	0	0.09478689634274365	131.8008842765812	573.2325609765616	-0	2.150884378337756	0	-0.09478689634274365	0	-4.336187168634456e-29	0	0	5.226562235711153e-16	0
0.4053035061970265	-6.722089281484268e-12	1.613418756759824e-12	-0	2.315324349299888	0	0.09478689634274365	135.3147268772658	556.0923140876038	-0	2.150968299934819	0	-0.09478689634274365	0	5.936954608985068e-30	0	0	-8.057996783461183e-16	0
0.4077598910830691	-6.910751153907046e-12	1.650592764610935e-12	-0	2.332505352037221	0	0.09478689634274365	138.3161335443692	538.210772028975	-0	2.151046751463687	0	-0.09478689634274365	0	-1.001474438399554e-29	0	0	6.762178548113125e-16	0
0.4102162759691117	-7.440738161562416e-12	1.767905877040613e-12	-0	2.349590284304315	0	0.09478689634274365	140.7527940072843	519.6588323655432	-0	2.151118807981775	0	-0.09478689634274365	0	-3.30534644355503e-29	0	0	-1.799987214827934e-16	0
0.4126726608551543	-8.002989660465475e-12	1.891062604465561e-12	-0	2.366567754090531	0	0.09478689634274365	142.6400528087111	500.3389444920331	-0	2.151185970066982	0	-0.09478689634274365	0	-6.250141566032278e-30	0	0	-4.988416767427402e-16	0
0.4151290457411968	-9.387516387576494e-12	2.205633823428612e-12	-0	2.38342571678587	0	0.09478689634274365	143.9531922380515	480.2267263228776	-0	2.151248589616277	0	-0.09478689634274363	0	5.106885983052438e-33	0	0	-1.111009004139869e-15	0
0.4175854306272394	-1.069071079145196e-11	2.497849884879184e-12	-0	2.400131676263849	0	0.09478689634274365	144.6038132383368	459.5637925964796	-0	2.151303797158432	0	-0.09478689634274365	0	6.241546166390367e-29	0	0	-7.021820852317511e-16	0
0.420041815513282	-1.33259768135618e-11	3.097818803952813e-12	-0	2.416643889338279	0	0.09478689634274365	144.3773570215918	438.7028011851374	-0	2.151344121858633	0	-0.09478689634274363	0	-2.634207250785738e-29	0	0	-2.253547280912246e-15	0
0.4224982003993246	-1.681965142822026e-11	3.893759477882549e-12	-0	2.432918951962335	0	0.09478689634274365	142.957812638303	417.9556668679774	-0	2.15135890322571	0	-0.09478689634274366	0	-1.071600067131514e-29	0	0	2.644234846674256e-15	0
0.4249545852853672	-2.20787021187885e-11	5.096262429094084e-12	-0	2.448924354575152	0	0.09478689634274365	140.5792413082765	397.1521840846854	-0	2.151354752337251	0	-0.09478689634274365	0	1.362089374934956e-28	0	0	-6.656068098692826e-16	0
0.4274109701714098	-2.926173818351321e-11	6.74287491781662e-12	-0	2.464658839740956	0	0.09478689634274365	137.9157370391746	375.6535205544033	-0	2.151355555215094	0	-0.09478689634274365	0	5.32715761765084e-29	0	0	-7.073311309463351e-16	0
0.4298673550574523	-4.027428978905767e-11	9.275772381564152e-12	-0	2.480130028125428	0	0.09478689634274365	134.9866240564339	353.3054422770019	-0	2.151365319745141	0	-0.09478689634274365	0	4.02892817378697e-28	0	0	4.745484248498649e-16	0
0.4323237399434949	-5.616041787627949e-11	1.294136933336133e-11	-0	2.495353676301563	0	0.09478689634274365	131.3038581385203	330.4367555614942	-0	2.151368310025442	0	-0.09478689634274365	0	5.893372009298576e-29	0	0	-4.066475259302083e-16	0
0.4347801248295375	-8.071689505016781e-11	1.862638083576499e-11	-0	2.510347244570195	0	0.09478689634274365	126.6305898368728	307.2107553014386	-0	2.151355838205784	0	-0.09478689634274365	0	-6.811970199730549e-28	0	0	1.99329684938353e-16	0
0.4372365097155801	-1.167334636758968e-10	2.699573829662395e-11	-0	2.525130900109724	0	0.09478689634274365	120.8757724957063	283.7569841112079	-0	2.151322954653645	0	-0.09478689634274365	0	2.408630781352996e-28	0	0	2.989276573507723e-17	0
0.4396928946016227	-1.734476224234553e-10	4.022223555041568e-11	-0	2.539724057356645	0	0.09478689634274366	114.1232553182898	260.0567525177987	-0	2.151271880081773	0	-0.09478689634274365	0	3.107289988129043e-27	0	0	3.641010203078947e-16	0
0.4421492794876653	-2.586854300098545e-10	6.018508955295388e-11	-0	2.554142984385975	0	0.09478689634274365	106.6463354796205	235.9463630454236	-0	2.151215084402326	0	-0.09478689634274363	0	7.833318487741054e-28	0	0	-8.192187993140887e-16	0
0.4446056643737079	-3.917499153928149e-10	9.148088082650828e-11	-0	2.568402490899574	0	0.09478689634274365	98.57042784041745	211.4386572178894	-0	2.151158938236819	0	-0.09478689634274363	0	1.897648389520784e-27	0	0	-1.602237153830022e-15	0
0.4470620492597505	-5.957727819013387e-10	1.396890636859198e-10	-0	2.582516753200746	0	0.09478689634274365	89.90529324687954	186.6995766793184	-0	2.151103299608481	0	-0.09478689634274366	0	-5.772789516574749e-28	0	0	7.315898209454785e-16	0
0.4495184341457931	-9.120419658899209e-10	2.147748777653917e-10	-0	2.596500125004224	0	0.09478689634274365	80.67095492292268	161.8876520988524	-0	2.151048660710126	0	-0.09478689634274365	0	6.214368566573577e-27	0	0	-1.543407448113896e-17	0
0.4519748190318356	-1.398402068802658e-09	3.308151212809597e-10	-0	2.610368811500981	0	0.09478689634274365	70.90622804652378	137.1617390558675	-0	2.150997062428182	0	-0.09478689634274365	0	-8.286286318159096e-27	0	0	-2.85305808590109e-16	0
0.4544312039178782	-2.13865411476992e-09	5.083376690592907e-10	-0	2.624138798948366	0	0.09478689634274365	60.60749335419343	113.1050298638065	-0	2.150932342909916	0	-0.09478689634274365	0	1.223615814350561e-26	0	0	2.979780077982552e-16	0
0.4568875888039208	-3.252947748306607e-09	7.769774050546889e-10	-0	2.637824871695394	0	0.09478689634274366	49.72333197250264	90.99010203756842	-0	2.150788965863879	0	-0.09478689634274363	0	6.98097063169757e-26	0	0	-8.84496240252785e-16	0
0.4593439736899634	-4.898510078927872e-09	1.175903552668818e-09	-0	2.651439914499505	0	0.09478689634274365	38.68375798860029	72.32393802034879	-0	2.150475064630382	0	-0.09478689634274365	0	-1.957698080960119e-26	0	0	-9.020710271618069e-17	0
0.461800358576006	-7.280201641220982e-09	1.756690327693853e-09	-0	2.664992312212232	0	0.09478689634274365	28.06378906837732	58.94373707560348	-0	2.149852218860054	0	-0.09478689634274365	0	1.758895224513706e-26	0	0	1.194361254973639e-16	0
0.4642567434620486	-1.063728410991127e-08	2.580550653486582e-09	-0	2.678487592285684	0	0.09478689634274366	17.9412341413764	49.98789602332356	-0	2.148922602001607	0	-0.09478689634274365	0	9.284153428222317e-26	0	0	-8.976491349264656e-17	0
0.4667131283480911	-1.521647188417403e-08	3.712238862972216e-09	-0	2.691929487695683	0	0.09478689634274365	8.779552820294153	39.70057724050766	-0	2.148021077478734	0	-0.09478689634274365	0	8.456652903109625e-27	0	0	2.111304316754416e-17	0
0.4691695132341337	-2.121640068798428e-08	5.206683756547273e-09	-0	2.705153275581702	0	0.09477910055549069	2.280950259020234	25.16257068721875	-0	2.147351343269784	0	-0.09478689634274365	0	-1.405327249237057e-15	0	0	2.553893285942737e-18	0
0.4716258981201763	-2.884818174384837e-08	7.12479378853625e-09	-0	2.717427651193831	0	0.09473414142755922	-0.6403083404436193	8.690577634248612	-0	2.146675148746509	0	-0.09478689634274365	0	-9.84686544714326e-15	0	0	3.092398372661871e-18	0
0.4740822830062189	-3.985359953170621e-08	9.912282358543622e-09	-0	2.722718295896676	0	0.09441818655419519	0.765372328863704	-1.805832264164795	-0	2.145243894489983	0	-0.09478689634274365	0	-6.173064788914018e-14	0	0	3.525268909266586e-18	0
0.4765386678922615	-7.220912880391396e-08	1.810012174325125e-08	-0	2.694620120006293	0	0.0928800277242775	0.1039038451111058	-0.111375251076142	-0	2.143636576480582	0	-0.09478689634274365	0	-2.148441232038972e-13	0	0	-5.931323576821444e-19	0
0.478995052778304	-2.911728224425532e-07	7.350662421055358e-08	-0	2.639575296964555	0	0.09053307816903015	0.0005393668355725909	-0.0005022780130868096	-0	2.144812591548446	0	-0.09478689634274365	0	-7.779733840568454e-14	0	0	2.912563728477445e-21	0
0.4814514376643466	-2.096818001997484e-06	5.326455811542336e-07	-0	2.623007420851027	0	0.08971732338958167	4.504187117810747e-06	-3.624976303564186e-06	-0	2.146835273473362	0	-0.09478689634274365	0	5.545584140920997e-13	0	0	1.398320392218526e-23	0
0.4839078225503892	-1.660747164619276e-05	4.246610989374185e-06	-0	2.625403585214525	0	0.08958842686534448	1.904915552361039e-07	-1.348641223385325e-07	-0	2.14992869840687	0	-0.09478689634274365	0	1.308431264204798e-12	0	0	1.388793819956452e-24	0
0.4863642074364318	-0.0001263145122478822	3.253079362217477e-05	-0	2.631166436438885	0	0.08957145035969306	3.876771137264856e-08	-2.466096725575525e-08	-0	2.154074499169104	0	-0.09478689634274365	0	1.985427870782632e-12	0	0	1.816891504112833e-25	0
0.4888205923224744	-0.0008988099876023633	0.0002332639579264238	-0	2.637520962709822	0	0.08956928706373639	2.910209092045866e-08	-1.700905040828492e-08	-0	2.159183498645697	0	-0.09478689634274365	0	2.438752308900969e-12	0	0	5.674277999825845e-26	0
0.491276977208517	-0.005924346020574563	0.001550195372137849	-0	2.644091030800031	0	0.08956901415983412	5.54665651163753e-08	-3.040519326312323e-08	-0	2.165082140815336	0	-0.09478689634274365	0	2.569202659805881e-12	0	0	-1.190617805848707e-25	0
