DataType=double
version=3
OpenSimVersion=4.6-2026-06-22-85aaf64
endheader
time	ground_force_r_vx	ground_force_r_vy	ground_force_r_vz	ground_force_r_px	ground_force_r_py	ground_force_r_pz	ground_force_l_vx	ground_force_l_vy	ground_force_l_vz	ground_force_l_px	ground_force_l_py	ground_force_l_pz	ground_torque_r_x	ground_torque_r_y	ground_torque_r_z	ground_torque_l_x	ground_torque_l_y	ground_torque_l_z
0	-0.05053136721388855	0.01707708395528363	-0	1.2190024914331	0	0.0896617898720746	-0	-0	-0	0	0	0	0	4.822878362619913e-09	0	0	0	0
0.00280092427885894	-0.08401797648387722	0.02916148486408494	-0	1.227014933686959	0	0.08962409359012137	-0	-0	-0	0	0	0	0	7.173194372553353e-09	0	0	0	0
0.00560184855771788	-0.1378102097856427	0.04919610215359171	-0	1.235181316536874	0	0.08960233993764063	-0	-0	-0	0	0	0	0	8.92731049902159e-09	0	0	0	0
0.008402772836576819	-0.2241375545557346	0.08241396413053639	-0	1.243315033848274	0	0.08959023522070186	-0	-0	-0	0	0	0	0	1.04328861960328e-08	0	0	0	0
0.01120369711543576	-0.3639517779642525	0.1379970630451179	-0	1.251273978680145	0	0.08958320764466499	3.165491750218499e-15	-2.120418334862971e-15	-0	0	0	0	0	1.192264175774554e-08	0	0	-3.00047138401771e-16	0
0.0140046213942947	-0.5941250093672845	0.2325125323060296	-0	1.258979048166952	0	0.08957900222131752	2.144038980794698e-14	-1.380857626682732e-14	-0	0	0	0	0	1.371844835546939e-08	0	0	-2.032268006273888e-15	0
0.01680554567315364	-0.9813442385028068	0.3968049405140182	-0	1.266374646855492	0	0.08957645071862093	5.611677564829536e-13	-3.47338300479822e-13	-0	0.7992199756943519	0	-0.09478689634274365	0	1.623311119920455e-08	0	0	1.691932224167747e-30	0
0.01960646995201258	-1.648648972832632	0.6896389027204295	-0	1.273419837604354	0	0.08957490257199348	2.594416300671423e-11	-1.543237813583198e-11	-0	0.8056625498461036	0	-0.09478689634274365	0	1.99970324713823e-08	0	0	9.905959117633988e-29	0
0.02240739423087152	-2.827030758396016	1.225582201054197	-0	1.280078353604957	0	0.08957401654253347	1.447109192351339e-09	-8.258226276644185e-10	-0	0.812502542735634	0	-0.09478689634274365	0	2.567005121791591e-08	0	0	4.277604389472447e-27	0
0.02520831850973046	-4.950290719811861	2.2291132363513	-0	1.286324087601825	0	0.08957361665746706	8.393236218588617e-08	-4.584654509970121e-08	-0	0.8197692013624697	0	-0.09478689634274365	0	3.373916937283425e-08	0	0	2.432476834641994e-25	0
0.0280092427885894	-8.802655328170847	4.126623955829592	-0	1.29214809328839	0	0.08957365089774257	4.866282865403146e-06	-2.541244324075817e-06	-0	0.8274849829742106	0	-0.09478689634274363	0	4.297002503129793e-08	0	0	-6.547016392311811e-23	0
0.03081016706744834	-15.71594967777937	7.689731389219417	-0	1.297551575513962	0	0.08957420407928551	0.0002585165766159201	-0.0001290955604807424	-0	0.8356547741530232	0	-0.09478689634274365	0	4.328006084214513e-08	0	0	4.021686705949881e-22	0
0.03361109134630728	-27.61204052379139	14.15927607299314	-0	1.30253372845529	0	0.08957564151620145	0.006941728956585601	-0.003322632275245317	-0	0.8442425326265847	0	-0.09478689634274365	0	-2.008214761846262e-08	0	0	-2.04037179047456e-20	0
0.03641201562516622	-46.17792882487799	24.98049654975931	-0	1.307111981027608	0	0.08957905069444581	-0.0624011446578434	0.02873234485181347	-0	0.8531929946297617	0	-0.09478689634274365	0	-4.176563707107783e-07	0	0	1.402796044501937e-19	0
0.03921293990402516	-71.09859456526578	40.96267874865201	-0	1.311353858372056	0	0.08958757489423941	-0.1207095833961795	0.05365616371563442	-0	0.8624517342381629	0	-0.09478689634274365	0	-2.399304836698379e-06	0	0	-8.076292139806336e-19	0
0.04201386418288411	-107.6766217321717	66.9156439432185	-0	1.31542822925126	0	0.08960743521356543	-0.1472015623306254	0.06336867102115271	-0	0.8719734330531509	0	-0.09478689634274365	0	-1.157602446431001e-05	0	0	-5.015660561628298e-19	0
0.04481478846174304	-186.3777646678885	129.2266419119496	-0	1.319491453173128	0	0.08964660600379201	-0.1610074684084904	0.06729490395342688	-0	0.8817325966418714	0	-0.09478689634274365	0	-6.415424258294548e-05	0	0	4.932833616402705e-19	0
0.04761571274060197	-303.0918521091733	255.364154325726	-0	1.325042319652332	0	0.08975923883890843	-0.1696927663016378	0.06899362727099441	-0	0.8917172012654976	0	-0.09478689634274365	0	-0.0004740730393149724	0	0	-1.392300084684199e-18	0
0.05041663701946092	-344.893389241233	447.9952763878911	-0	1.335890738846416	0	0.09007462759214109	-0.1771663445531838	0.07016518311200842	-0	0.9019335298277841	0	-0.09478689634274365	0	-0.02271820738512572	0	0	2.411175163780136e-19	0
0.05321756129831986	-68.56785370346974	719.4352145624599	-0	1.349840002858275	0	0.0904902949382205	-0.1861496109637709	0.07187272350324056	-0	0.9123941561083575	0	-0.09478689634274365	0	-0.03457546987365091	0	0	1.244742513933214e-18	0
0.0560184855771788	-281.0761516188587	1057.753249766949	-0	1.359339089507225	0	0.09084316836923891	-0.1963087841976623	0.07398760490255339	-0	0.9230974123469425	0	-0.09478689634274365	0	-0.01656935572413459	0	0	-1.356248089722808e-18	0
0.05881940985603774	-135.2988721411881	1253.476011032943	-0	1.355527755135758	0	0.09068553207343974	-0.2066656829040949	0.07612831903267316	-0	0.9340530719606854	0	-0.09478689634274365	0	0.01075828551785802	0	0	-1.681392736140962e-18	0
0.06162033413489668	-174.6839590356466	1347.806448125198	-0	1.348679261255687	0	0.09045360300403302	-0.2178699602963198	0.07849696402586898	-0	0.94528095333553	0	-0.09478689634274365	0	0.02544596113405025	0	0	7.175387727075686e-19	0
0.06442125841375562	-97.04267353625133	1415.907546647236	-0	1.347405194389567	0	0.09040074118174052	-0.2299549311855959	0.08109483787236939	-0	0.9567894010148037	0	-0.09478689634274365	0	0.02803543204579729	0	0	5.098419785632623e-19	0
0.06722218269261455	-166.6657612112131	1452.821106126002	-0	1.346571508486915	0	0.09038747391547905	-0.2431702919309974	0.08401470007631533	-0	0.9685746091738471	0	-0.09478689634274365	0	0.02782274561359578	0	0	1.705677551578997e-18	0
0.0700231069714735	-136.5690546656399	1476.221871892881	-0	1.347393978614767	0	0.09041391831555241	-0.2574551057522069	0.08724370945542452	-0	0.9806270670602986	0	-0.09478689634274365	0	0.02519647285896297	0	0	7.138021187322874e-19	0
0.07282403125033245	-184.9441543901973	1487.34600674563	-0	1.34731425584717	0	0.09042233778052026	-0.2726275497957228	0.0907287858220291	-0	0.9929331072512489	0	-0.09478689634274365	0	0.02350370225447522	0	0	-2.56244410509606e-19	0
0.07562495552919138	-157.6622766742142	1493.830101680593	-0	1.347934762981075	0	0.09044016578388998	-0.2881679120827066	0.09430950254469192	-0	1.005478562091612	0	-0.09478689634274365	0	0.02123091069905036	0	0	1.222311168285555e-19	0
0.07842587980805032	-178.0104556318876	1491.382748889594	-0	1.347719286155503	0	0.09043781665084859	-0.303422570795945	0.09778290230055389	-0	1.01825191157118	0	-0.09478689634274365	0	0.02033759574902197	0	0	1.792434805197295e-20	0
0.08122680408690927	-139.9301898566114	1493.215107200529	-0	1.349613053543895	0	0.09049675631659369	-0.3173662387183589	0.1008362685849051	-0	1.031243501290059	0	-0.09478689634274366	0	0.01494487873602151	0	0	-6.023364497792331e-18	0
0.0840277283657682	-137.8925480146281	1511.718856002841	-0	1.354613738141519	0	0.09067088642920883	-0.3286063685953626	0.1030414865176905	-0	1.044451372912662	0	-0.09478689634274365	0	-0.001118646790299888	0	0	-6.316489030514782e-19	0
0.08682865264462714	-122.78539669377	1527.869216773586	-0	1.362027362599427	0	0.09092537850128805	-0.3355167286048862	0.1039116421917685	-0	1.057878696787644	0	-0.09478689634274365	0	-0.0266779433332421	0	0	3.084250781980617e-18	0
0.08962957692348608	-131.2092021083126	1508.69851332577	-0	1.368445585600544	0	0.09114952113918369	-0.3369935525165842	0.1031515373921288	-0	1.071528517340623	0	-0.09478689634274365	0	-0.04339591380429789	0	0	3.386152924643079e-18	0
0.09243050120234503	-110.3791638663446	1454.393831058277	-0	1.374314688420425	0	0.09134834383910405	-0.3324162023353615	0.1006382902904955	-0	1.085399048478493	0	-0.09478689634274363	0	-0.04959851347976919	0	0	7.642384703877538e-18	0
0.09523142548120397	-105.7460400196563	1377.220405656441	-0	1.379343946829765	0	0.09152150337715063	-0.3221587998903631	0.09656374146333847	-0	1.099476032540427	0	-0.09478689634274365	0	-0.04783734186716027	0	0	8.468140845543736e-20	0
0.09803234976006289	-85.59961592706497	1290.263615254294	-0	1.38426638069608	0	0.09168736899823569	-0.3071709844695772	0.09126543076437957	-0	1.113740245266307	0	-0.09478689634274366	0	-0.04310717521674583	0	0	-5.199332939716433e-18	0
0.1008332740389218	-77.24245106480501	1202.415678329671	-0	1.388784259794797	0	0.09184190376806936	-0.2886620525671409	0.08511481339323096	-0	1.128171271720679	0	-0.09478689634274363	0	-0.03687774069224781	0	0	4.313050582627964e-18	0
0.1036341983177808	-61.0595167824592	1120.216026845261	-0	1.393353360472671	0	0.09199601738771251	-0.2679783512458935	0.0785041415844689	-0	1.142747452242072	0	-0.09478689634274365	0	-0.03084859867399478	0	0	8.342532145923314e-19	0
0.1064351225966397	-52.4851600646778	1044.7814442574	-0	1.397628649339786	0	0.09214182115138504	-0.2465094765698985	0.07182477859444895	-0	1.157445524776836	0	-0.09478689634274365	0	-0.02499921842956424	0	0	1.608196327095453e-18	0
0.1092360468754987	-40.06858601905932	977.6349731922712	-0	1.40196075451667	0	0.09228833046450682	-0.2254740907857665	0.06540743007861988	-0	1.172241120655797	0	-0.09478689634274365	0	-0.01982458172843225	0	0	-2.643197195304511e-19	0
0.1120369711543576	-32.68869090612692	916.7996380558809	-0	1.406006492708602	0	0.09242629909948169	-0.2057882174395087	0.05948809383831868	-0	1.187111879358995	0	-0.09478689634274365	0	-0.01508547492270296	0	0	-1.056183013707672e-18	0
0.1148378954332166	-23.47520389134842	863.2062459076749	-0	1.410112794281692	0	0.09256573413325947	-0.1880665102060289	0.05421614723346683	-0	1.202036276704445	0	-0.09478689634274365	0	-0.0109884994753642	0	0	-9.966971788070887e-19	0
0.1176388197120755	-17.82046404790308	815.5364086805779	-0	1.414144774071348	0	0.09270384284546619	-0.1725519655498932	0.04963638574176971	-0	1.216997290151157	0	-0.09478689634274365	0	-0.007385755222412436	0	0	-4.947152606546312e-20	0
0.1204397439909344	-11.77645412363636	775.2692866992094	-0	1.418495264348723	0	0.09285311266075344	-0.1592653694712472	0.04573466121440579	-0	1.231980352856953	0	-0.09478689634274366	0	-0.004264410451237836	0	0	-2.218874762925204e-18	0
0.1232406682697934	-8.559406423859768	742.5222730037419	-0	1.423200490407392	0	0.09301615214100414	-0.1479819796596392	0.04243119457862068	-0	1.246976894284075	0	-0.09478689634274365	0	-0.001450012695096152	0	0	3.215859255052699e-19	0
0.1260415925486523	-6.03941553847204	716.691561131383	-0	1.428418098601637	0	0.09319774935682736	-0.1384297741504965	0.03963742684821504	-0	1.261981234622799	0	-0.09478689634274365	0	0.001189198830028689	0	0	7.226305298359968e-19	0
0.1288425168275112	-4.994773025174852	695.1552005344133	-0	1.434034745240297	0	0.0933942806772774	-0.130354347639598	0.03727476003336761	-0	1.276990975768877	0	-0.09478689634274365	0	0.003677905561227332	0	0	-7.300733981960637e-19	0
0.1316434411063702	-3.846403593668012	677.8008176200085	-0	1.440155217514546	0	0.09360883214714412	-0.1235541820901758	0.03528254288488435	-0	1.292004410497742	0	-0.09478689634274365	0	0.005917638956842606	0	0	-3.845284702827705e-19	0
0.1344443653852291	-3.38836927152323	663.8655796919917	-0	1.446685939073717	0	0.09383851140211834	-0.1179433639575619	0.0336363247038469	-0	1.307018138185046	0	-0.09478689634274365	0	0.007666403902372569	0	0	1.040687571044878e-19	0
0.1372452896640881	-2.690989594642571	653.1458260107806	-0	1.453580883771324	0	0.09408134313768317	-0.1135436866892491	0.03234405630725942	-0	1.322026332284453	0	-0.09478689634274365	0	0.008509944968753173	0	0	-3.319949791881175e-19	0
0.140046213942947	-1.934501678469004	644.9215722553009	-0	1.460709851940655	0	0.09433290038534016	-0.1106590347422126	0.03149714435170433	-0	1.337013297671874	0	-0.09478689634274365	0	0.007809983867043646	0	0	-1.707740579715732e-19	0
0.1428471382218059	-1.614806684792145	636.9404189071012	-0	1.467903211036263	0	0.09458753987508163	-0.1095960308076907	0.03118483701865505	-0	1.351960720319846	0	-0.09478689634274365	0	0.004706480823672081	0	0	-6.760048244092873e-19	0
0.1456480625006649	-0.6659307704304733	633.457590376332	-0	1.473561145409851	0	0.09478762977376531	-0.110490103405553	0.03144238715067475	-0	1.366854073713554	0	-0.09478689634274365	0	-2.288990099942534e-05	0	0	-7.516538459577345e-19	0
0.1484489867795238	4.427150153585605	647.7842425752837	-0	1.474070953291124	0	0.09480156092187826	-0.1134083837455922	0.03228343067759101	-0	1.381684751270681	0	-0.09478689634274365	0	-0.0005855605868182569	0	0	1.38108955068394e-19	0
0.1512499110583828	10.53161202665523	657.9230015359466	-0	1.473842750652119	0	0.09478861670016681	-0.1179847068497964	0.0335913101351961	-0	1.396463920206246	0	-0.09478689634274365	0	-8.486082159072136e-05	0	0	1.201825512508008e-19	0
0.1540508353372417	15.64190343085872	662.5136249283059	-0	1.473913418362121	0	0.09478701868361883	-0.1237993907492021	0.03523677920140626	-0	1.411209392012519	0	-0.09478689634274365	0	-7.281722168240732e-06	0	0	-4.527667174428215e-19	0
0.1568517596161006	20.84858834801159	665.6974370848161	-0	1.474024498142538	0	0.09478690339291235	-0.1307218495704742	0.037183685338342	-0	1.425934764096739	0	-0.09478689634274365	0	-4.995099704461077e-07	0	0	-2.659763501658203e-19	0
0.1596526838949596	25.62504555031989	667.90965901535	-0	1.474129878989661	0	0.09478689670357257	-0.1386835278742408	0.03941485855281	-0	1.440650138739303	0	-0.09478689634274365	0	-3.0076344845765e-08	0	0	-6.417806601373942e-19	0
0.1624536081738185	30.35357475865807	669.3005462946865	-0	1.474232772412766	0	0.09478689635964474	-0.1476681775811238	0.04192786410677708	-0	1.455361561229773	0	-0.09478689634274363	0	-1.640287750024025e-09	0	0	2.843831296918929e-18	0
0.1652545324526775	34.94000533684682	670.0722264712684	-0	1.47433151840331	0	0.09478689634347359	-0.1576740786511706	0.04472475364458184	-0	1.470073429808095	0	-0.09478689634274363	0	-8.174103604346114e-11	0	0	2.844954739529482e-18	0
0.1680554567315364	39.55847044900484	670.4652140112096	-0	1.47442869627481	0	0.09478689634277257	-0.1687574561511476	0.04782413339547613	-0	1.484786802255985	0	-0.09478689634274365	0	-3.708680936652658e-12	0	0	2.600120645200048e-19	0
0.1708563810103953	44.13317473391617	670.4761855529453	-0	1.474523090530696	0	0.09478689634274477	-0.1809948081316072	0.05125047422869131	-0	1.49950163312281	0	-0.09478689634274365	0	-1.652862869199341e-13	0	0	-1.605656269752461e-18	0
0.1736573052892543	48.75842296491784	670.1422374549027	-0	1.474616168977483	0	0.09478689634274369	-0.1944831681241443	0.0550334638483219	-0	1.51421641853116	0	-0.09478689634274365	0	-8.527863428504502e-15	0	0	1.602345868808966e-18	0
0.1764582295681132	53.38656094681544	669.3843555541955	-0	1.474707231142411	0	0.09478689634274365	-0.2093352698338667	0.0592074142308916	-0	1.528929244458693	0	-0.09478689634274365	0	-1.139040891181708e-15	0	0	3.430828345895607e-20	0
0.1792591538469722	58.07212177000412	668.1580158741348	-0	1.474797234289223	0	0.09478689634274365	-0.2256807408055513	0.06381134118435797	-0	1.543637634846261	0	-0.09478689634274365	0	1.060643089765058e-17	0	0	-7.398928802950251e-19	0
0.1820600781258311	62.81669793417981	666.4318856385885	-0	1.474886245688713	0	0.09478689634274365	-0.2436734195920964	0.06889148352147144	-0	1.558338928106156	0	-0.09478689634274365	0	3.595054122955896e-16	0	0	3.734290564633105e-19	0
0.1848610024046901	67.66107299067177	664.2230568995446	-0	1.474974932467664	0	0.09478689634274365	-0.2635251473804076	0.07451089151298118	-0	1.573030035752187	0	-0.09478689634274365	0	-1.488131212408506e-16	0	0	-1.380560111717518e-18	0
0.187661926683549	72.31034120137657	660.9045463224045	-0	1.475059558166081	0	0.09478689634274365	-0.2854981702351834	0.08074741177891438	-0	1.58770761328817	0	-0.09478689634274365	0	-2.812074511259338e-16	0	0	-3.642183613322145e-19	0
0.1904628509624079	76.7032685460654	655.8141714445718	-0	1.475140631768186	0	0.09478689634274365	-0.3099207677827002	0.08769817830656826	-0	1.602367995721245	0	-0.09478689634274366	0	-9.427570558689004e-17	0	0	-5.968593917581969e-18	0
0.1932637752412668	82.04456196767718	650.6909951285614	-0	1.475235300481512	0	0.09478689634274365	-0.3371757793706057	0.09547621951394296	-0	1.617007430732509	0	-0.09478689634274363	0	-4.186650965594185e-16	0	0	2.799342113868669e-18	0
0.1960646995201258	88.86515298240249	647.5262613238184	-0	1.475347676386047	0	0.09478689634274365	-0.367563075093963	0.1041697112679438	-0	1.631623427905343	0	-0.09478689634274366	0	-4.357283001540503e-16	0	0	-7.238192627747866e-18	0
0.1988656237989847	95.74221714279359	644.5771936050018	-0	1.475456261168531	0	0.09478689634274365	-0.4007849398344874	0.1136888943880776	-0	1.646216680015934	0	-0.09478689634274365	0	-4.394650026551265e-16	0	0	3.225606107325687e-18	0
0.2016665480778437	102.2196661224598	639.7396813276557	-0	1.475558799541407	0	0.09478689634274365	-0.4341571512296653	0.1232443543896041	-0	1.660803024397595	0	-0.09478689634274365	0	-3.621647127238755e-16	0	0	2.123962645741136e-18	0
0.2044674723567026	108.4814843028993	633.0382066684567	-0	1.475659262826608	0	0.09478689634274365	-0.463654981461032	0.1316666812006481	-0	1.675404730525767	0	-0.09478689634274365	0	4.743213242284435e-16	0	0	-1.876266855919513e-18	0
0.2072683966355616	114.2569713036099	624.7849096199689	-0	1.475752700101878	0	0.09478689634274365	-0.4854219834897177	0.1378588098077076	-0	1.690043983272225	0	-0.09478689634274365	0	4.692037483134867e-16	0	0	-1.974708317911372e-18	0
0.2100693209144205	119.585572109209	615.1170551323517	-0	1.475840089916174	0	0.09478689634274365	-0.4963433918609715	0.1409508505702987	-0	1.704738411932104	0	-0.09478689634274365	0	2.950033127796923e-16	0	0	-1.25105974925526e-18	0
0.2128702451932794	124.4934154933993	604.1653024898142	-0	1.47592210157966	0	0.09478689634274365	-0.4965157999354665	0.1410080235241531	-0	1.719489767249885	0	-0.09478689634271323	0	-7.245946877625484e-16	0	0	3.300635700209449e-16	0
0.2156711694721384	128.9140256722536	591.8791974636137	-0	1.47599834637794	0	0.09478689634274365	-0.487227483168196	0.138420309077303	-0	1.734292797600422	0	-0.09478689634268488	0	4.643921232680544e-16	0	0	6.068004337203063e-16	0
0.2184720937509973	132.8559166650628	578.1925134997412	-0	1.476069949630305	0	0.09478689634274365	-0.4689433678314572	0.13331125122698	-0	1.7491412060928	0	-0.09478689634251292	0	8.060906724859479e-16	0	0	2.187189568133417e-15	0
0.2212730180298563	136.2908681278449	563.0887348908414	-0	1.476137235793632	0	0.09478689634274365	-0.4425102045912525	0.125910624346198	-0	1.764030558001472	0	-0.0947868963418803	0	-1.031502490036853e-16	0	0	7.370792610210265e-15	0
0.2240739423087152	139.1925456829159	546.57311791683	-0	1.476200496960531	0	0.09478689634274365	-0.4114202199199611	0.1172190864106628	-0	1.778947268000272	0	-0.09478689633940469	0	1.013554308680323e-16	0	0	2.520678226423891e-14	0
0.2268748665875742	141.0435031618109	528.056323951679	-0	1.476253230385832	0	0.09478689634274365	-0.3784854138417723	0.1080280299564274	-0	1.793874642234536	0	-0.0947868963296814	0	7.581393768192642e-16	0	0	8.576096629514075e-14	0
0.2296757908664331	141.5594584756438	506.8415322852255	-0	1.47629451973395	0	0.09478689634274365	-0.3450551013009919	0.09870070462235075	-0	1.808798446949179	0	-0.09478689629187705	0	-7.427427692083562e-16	0	0	2.859248160943071e-13	0
0.232476715145292	140.840769657147	482.5904693831236	-0	1.476330329788631	0	0.09478689634274365	-0.3127088085146681	0.08967790751020512	-0	1.823703603012489	0	-0.09478689614636512	0	3.257486914197055e-16	0	0	9.328446388589664e-13	0
0.2352776394241509	138.8767345747213	454.7693776281631	-0	1.476366310598947	0	0.09478689634274365	-0.2813386155650183	0.08091369389304744	-0	1.838580506071988	0	-0.09478689559218784	0	-2.778114106076085e-16	0	0	2.969713180902753e-12	0
0.2380785637030099	136.143522666776	423.7308649169852	-0	1.476415479650145	0	0.09478689634274365	-0.2502451914392475	0.07219295953006725	-0	1.853425061085086	0	-0.09478689350420796	0	-1.28559254732147e-16	0	0	9.183183694762209e-12	0
0.2408794879818688	132.7662924736044	390.34109242017	-0	1.476480258686867	0	0.09478689634274365	-0.218123392455685	0.0631252925059405	-0	1.8682457076305	0	-0.09478688568864345	0	7.451616599344348e-17	0	0	2.743555957457223e-11	0
0.2436804122607278	128.3502566562118	354.7864931395154	-0	1.47655566653328	0	0.09478689634274365	-0.1841347189093188	0.05345609733034333	-0	1.883057120481473	0	-0.09478685643393533	0	-8.596368987217326e-16	0	0	7.874830565207902e-11	0
0.2464813365395867	122.6958020826922	317.2911499233466	-0	1.476642574935706	0	0.09478689634274365	-0.1481609975906026	0.0431432141009064	-0	1.897883817558527	0	-0.09478674569189123	0	8.273407098193564e-16	0	0	2.158920809529587e-10	0
0.2492822608184457	115.6438525419445	278.4268095559515	-0	1.476739985703733	0	0.09478689634274365	-0.1118427593746445	0.03266600235431878	-0	1.912746116742145	0	-0.09478631752536336	0	-3.697522840869753e-16	0	0	5.613512589430879e-10	0
0.2520831850973046	107.0763915245612	239.1438694791655	-0	1.476842166327982	0	0.09478689634274365	-0.07909796307127717	0.02318256839864177	-0	1.927623268022417	0	-0.0947846401010526	0	-3.270093534974699e-16	0	0	1.371728705697955e-09	0
0.2548841093761636	96.7284105991271	200.4163630535346	-0	1.476930338969099	0	0.09478689634274366	-0.05251461117111016	0.0154594006266158	-0	1.942410022128802	0	-0.09477801500111994	0	-5.110076609391314e-16	0	0	3.127362712331477e-09	0
0.2576850336550225	84.39461110374255	163.3525475243545	-0	1.476968920144042	0	0.09478689634274365	-0.03239632316950388	0.009592028983651682	-0	1.95670359431871	0	-0.09475119965998752	0	-3.223379435908219e-16	0	0	6.626790193530141e-09	0
0.2604859579338814	71.02508534639335	129.4064293990289	-0	1.476949921739258	0	0.09478689634274365	-0.01860230395086413	0.005550029404951965	-0	1.968868695612451	0	-0.09464034793114283	0	-3.034373949521451e-16	0	0	1.28274660275547e-08	0
0.2632868822127403	57.51678805041185	99.43273868274575	-0	1.476869236599635	0	0.09478689634274365	-0.01055670261009218	0.003181732829943479	-0	1.972760965233809	0	-0.09421004717910769	0	2.223550565154748e-16	0	0	2.114960975630432e-08	0
0.2660878064915993	44.11423827706445	73.38857458047369	-0	1.476696338821913	0	0.09478689634274365	-0.007069345434370091	0.002158833250235802	-0	1.954965213513466	0	-0.09297184488889929	0	-1.302526837955368e-19	0	0	2.478168298839275e-08	0
0.2688887307704582	31.2970377567906	51.44128056998852	-0	1.476381299187684	0	0.09478689634274365	-0.007125079578177648	0.002210233234921165	-0	1.921179792538204	0	-0.09121289105666246	0	-2.129928818810697e-16	0	0	1.633638117363023e-08	0
0.2716896550493172	7.157632763793845	14.89610548731832	-0	1.475036596220419	0	0.09478689634274365	-0.01038988213891866	0.003280687075648594	-0	1.90448814915541	0	-0.09018651809255067	0	9.514587360145506e-18	0	0	6.534247771586279e-09	0
0.2744905793281761	0.00153042035282943	-0.002235762572327562	-0	1.466861467476144	0	0.09478689634274365	-0.01741765366337399	0.005611737805702947	-0	1.905209305086288	0	-0.08984355879484866	0	9.976584261510301e-21	0	0	1.52776181646591e-09	0
0.2772915036070351	2.515141640675562e-11	-2.243334214254956e-11	-0	1.466004951113194	0	0.09478689634274365	-0.02984603348765175	0.009837285422246596	-0	1.911589256587779	0	-0.0897236645695845	0	7.00499751416975e-29	0	0	-1.816381658971681e-09	0
0.280092427885894	-0	-0	-0	0	0	0	-0.0505313672138884	0.01707708395528357	-0	1.919233561147835	0	-0.0896617898720746	0	0	0	0	-4.822878362810321e-09	0
0.2828933521647529	-0	-0	-0	0	0	0	-0.08401797648387692	0.02916148486408483	-0	1.927246003401694	0	-0.08962409359012138	0	0	0	0	-7.173194373244299e-09	0
0.2856942764436119	-0	-0	-0	0	0	0	-0.1378102097856422	0.04919610215359153	-0	1.935412386251609	0	-0.08960233993764063	0	0	0	0	-8.927310499359038e-09	0
0.2884952007224708	-0	-0	-0	0	0	0	-0.2241375545557337	0.08241396413053607	-0	1.943546103563008	0	-0.08959023522070185	0	0	0	0	-1.043288619216461e-08	0
0.2912961250013298	3.165491750218543e-15	-2.120418334863e-15	-0	0	0	0	-0.3639517779642509	0.1379970630451174	-0	1.95150504839488	0	-0.08958320764466499	0	3.000471384017752e-16	0	0	-1.192264175728314e-08	0
0.2940970492801887	2.144038980794728e-14	-1.380857626682751e-14	-0	0	0	0	-0.5941250093672821	0.2325125323060286	-0	1.959210117881687	0	-0.08957900222131752	0	2.032268006273916e-15	0	0	-1.371844835177923e-08	0
0.2968979735590476	5.611677564829584e-13	-3.47338300479825e-13	-0	1.499451045409087	0	0.09478689634274365	-0.9813442385028021	0.3968049405140163	-0	1.966605716570227	0	-0.08957645071862094	0	-4.066341539505426e-31	0	0	-1.623311120152277e-08	0
0.2996988978379066	2.594416300671458e-11	-1.543237813583218e-11	-0	1.505893619560839	0	0.09478689634274365	-1.648648972832624	0.6896389027204262	-0	1.973650907319088	0	-0.08957490257199348	0	1.51643949243801e-28	0	0	-1.999703246913486e-08	0
0.3024998221167655	1.447109192351366e-09	-8.25822627664434e-10	-0	1.512733612450369	0	0.09478689634274365	-2.827030758396092	1.22558220105423	-0	1.980309423319692	0	-0.08957401654253347	0	1.286914228333281e-26	0	0	-2.567005119222838e-08	0
0.3053007463956244	8.393236218588772e-08	-4.584654509970206e-08	-0	1.520000271077205	0	0.09478689634274365	-4.950290719811986	2.229113236351357	-0	1.98655515731656	0	-0.08957361665746708	0	2.190884146779191e-25	0	0	-3.37391694458676e-08	0
0.3081016706744834	4.86628286540324e-06	-2.541244324075866e-06	-0	1.527716052688946	0	0.09478689634274365	-8.80265532817103	4.126623955829678	-0	1.992379163003125	0	-0.08957365089774257	0	-2.014341382690011e-23	0	0	-4.29700249888182e-08	0
0.3109025949533423	0.0002585165766159249	-0.0001290955604807448	-0	1.535885843867758	0	0.09478689634274365	-15.71594967777967	7.689731389219568	-0	1.997782645228697	0	-0.08957420407928551	0	1.427591730681688e-21	0	0	-4.328006067652313e-08	0
0.3137035192322013	0.00694172895658568	-0.003322632275245355	-0	1.54447360234132	0	0.09478689634274365	-27.61204052379189	14.15927607299339	-0	2.002764798170026	0	-0.08957564151620144	0	1.987673737116696e-20	0	0	2.008214830154188e-08	0
0.3165044435110602	-0.06240114465784557	0.02873234485181447	-0	1.553424064344497	0	0.09478689634274365	-46.17792882487855	24.98049654975961	-0	2.007343050742343	0	-0.08957905069444583	0	3.69809997607051e-19	0	0	4.176563695246247e-07	0
0.3193053677899191	-0.1207095833961789	0.05365616371563415	-0	1.562682803952898	0	0.09478689634274365	-71.09859456526661	40.96267874865249	-0	2.011584928086791	0	-0.08958757489423941	0	-6.641052757861685e-19	0	0	2.399304835688281e-06	0
0.3221062920687781	-0.1472015623306247	0.0633686710211524	-0	1.572204502767886	0	0.09478689634274365	-107.676621732173	66.91564394321929	-0	2.015659298965996	0	-0.0896074352135654	0	6.494364229864731e-19	0	0	1.157602446688259e-05	0
0.324907216347637	-0.1610074684085093	0.06729490395343478	-0	1.581963666356607	0	0.09478689634274365	-186.3777646678913	129.2266419119515	-0	2.019722522887863	0	-0.08964660600379203	0	-5.076301703671399e-21	0	0	6.415424258035857e-05	0
0.327708140626496	-0.1696927663016628	0.06899362727100457	-0	1.591948270980233	0	0.09478689634274365	-303.0918521091771	255.3641543257292	-0	2.025273389367066	0	-0.08975923883890843	0	1.33069661665664e-18	0	0	0.0004740730393177367	0
0.3305090649053549	-0.1771663445532144	0.07016518311202054	-0	1.602164599542519	0	0.09478689634274365	-344.8933892412372	447.9952763878962	-0	2.036121808561151	0	-0.09007462759214112	0	-1.485683918994719e-18	0	0	0.02271820738511384	0
0.3333099891842138	-0.1861496109637702	0.07187272350324027	-0	1.612625225823092	0	0.09478689634274365	-68.56785370347076	719.4352145624669	-0	2.050071072573011	0	-0.0904902949382205	0	5.802920191740554e-19	0	0	0.03457546987365246	0
0.3361109134630728	-0.1963087841976615	0.0739876049025531	-0	1.623328482061678	0	0.09478689634274365	-281.0761516188609	1057.753249766957	-0	2.05957015922196	0	-0.09084316836923891	0	5.504177540182764e-19	0	0	0.01656935572413925	0
0.3389118377419317	-0.2066656829040939	0.07612831903267279	-0	1.634284141675421	0	0.09478689634274365	-135.2988721411889	1253.47601103295	-0	2.055758824850493	0	-0.09068553207343975	0	6.453251616637075e-19	0	0	-0.01075828551785941	0
0.3417127620207907	-0.217869960296365	0.07849696402588527	-0	1.645512023050265	0	0.09478689634274365	-174.6839590356471	1347.806448125204	-0	2.048910330970422	0	-0.09045360300403302	0	1.032928942144631e-18	0	0	-0.02544596113405114	0
0.3445136862996496	-0.2299549311855948	0.08109483787236903	-0	1.657020470729539	0	0.09478689634274365	-97.04267353625151	1415.907546647244	-0	2.047636264104302	0	-0.09040074118174052	0	1.312546132431093e-19	0	0	-0.02803543204579622	0
0.3473146105785085	-0.2431702919309963	0.08401470007631497	-0	1.668805678888582	0	0.09478689634274365	-166.6657612112135	1452.821106126008	-0	2.04680257820165	0	-0.09038747391547908	0	-1.064580959772626e-18	0	0	-0.02782274561360084	0
0.3501155348573675	-0.2574551057522056	0.08724370945542408	-0	1.680858136775034	0	0.09478689634274365	-136.5690546656402	1476.221871892888	-0	2.047625048329502	0	-0.09041391831555241	0	1.374221400584987e-18	0	0	-0.02519647285896084	0
0.3529164591362264	-0.2726275497957212	0.09072878582202858	-0	1.693164176965984	0	0.09478689634274365	-184.9441543901979	1487.346006745637	-0	2.047545325561906	0	-0.09042233778052028	0	3.217479053841695e-19	0	0	-0.02350370225448005	0
0.3557173834150854	-0.2881679120827584	0.09430950254470885	-0	1.705709631806346	0	0.09478689634274365	-157.6622766742147	1493.830101680599	-0	2.04816583269581	0	-0.09044016578388997	0	1.481341237911751e-18	0	0	-0.02123091069904648	0
0.3585183076939443	-0.3034225707959436	0.09778290230055345	-0	1.718482981285915	0	0.09478689634274365	-178.0104556318882	1491.3827488896	-0	2.047950355870238	0	-0.09043781665084859	0	2.778163855953138e-19	0	0	-0.02033759574902266	0
0.3613192319728032	-0.3173662387184113	0.1008362685849218	-0	1.731474571004793	0	0.09478689634274365	-139.9301898566118	1493.215107200534	-0	2.04984412325863	0	-0.09049675631659371	0	4.438602985996197e-19	0	0	-0.01494487873602393	0
0.3641201562516622	-0.3286063685954139	0.1030414865177066	-0	1.744682442627397	0	0.09478689634274366	-137.8925480146286	1511.718856002846	-0	2.054844807856254	0	-0.09067088642920883	0	2.865629283956342e-18	0	0	0.001118646790300488	0
0.3669210805305211	-0.3355167286048846	0.103911642191768	-0	1.758109766502379	0	0.09478689634274365	-122.7853966937705	1527.869216773591	-0	2.062258432314162	0	-0.09092537850128807	0	-3.018747287106054e-18	0	0	0.02667794333324055	0
0.3697220048093801	-0.336993552516583	0.1031515373921284	-0	1.771759587055358	0	0.09478689634274365	-131.2092021083133	1508.698513325776	-0	2.068676655315279	0	-0.09114952113918369	0	-2.860174952223069e-18	0	0	0.0433959138042987	0
0.372522929088239	-0.33241620233536	0.100638290290495	-0	1.785630118193228	0	0.09478689634274365	-110.3791638663453	1454.393831058282	-0	2.07454575813516	0	-0.09134834383910405	0	2.298050048510291e-18	0	0	0.04959851347977082	0
0.3753238533670979	-0.3221587998904116	0.096563741463353	-0	1.799707102255163	0	0.09478689634274365	-105.7460400196568	1377.220405656445	-0	2.0795750165445	0	-0.09152150337715065	0	-1.423848496359914e-19	0	0	0.04783734186716042	0
0.3781247776459569	-0.3071709844695757	0.09126543076437914	-0	1.813971314981042	0	0.09478689634274365	-85.59961592706554	1290.2636152543	-0	2.084497450410815	0	-0.09168736899823569	0	-5.600628554925306e-19	0	0	0.04310717521674523	0
0.3809257019248158	-0.2886620525671398	0.0851148133932306	-0	1.828402341435415	0	0.09478689634274366	-77.24245106480552	1202.415678329676	-0	2.089015329509533	0	-0.09184190376806935	0	4.224908817181959e-18	0	0	0.03687774069225075	0
0.3837266262036748	-0.2679783512458923	0.07850414158446857	-0	1.842978521956808	0	0.09478689634274365	-61.05951678245961	1120.216026845265	-0	2.093584430187406	0	-0.09199601738771253	0	-3.082752421723215e-19	0	0	0.03084859867399333	0
0.3865275504825337	-0.2465094765698974	0.07182477859444863	-0	1.857676594491571	0	0.09478689634274365	-52.4851600646781	1044.781444257403	-0	2.097859719054522	0	-0.09214182115138507	0	-1.285176521472681e-19	0	0	0.02499921842956192	0
0.3893284747613927	-0.2254740907857654	0.06540743007861957	-0	1.872472190370532	0	0.09478689634274365	-40.06858601905962	977.6349731922746	-0	2.102191824231405	0	-0.09228833046450682	0	-8.868664743331652e-19	0	0	0.01982458172843247	0
0.3921293990402516	-0.2057882174395078	0.05948809383831843	-0	1.88734294907373	0	0.09478689634274365	-32.6886909061272	916.7996380558843	-0	2.106237562423336	0	-0.0924262990994817	0	1.352340586167789e-19	0	0	0.01508547492270266	0
0.3949303233191105	-0.1880665102060763	0.05421614723348047	-0	1.902267346419181	0	0.09478689634274365	-23.47520389134868	863.2062459076783	-0	2.110343863996428	0	-0.09256573413325946	0	-2.121924562370817e-19	0	0	0.01098849947536472	0
0.3977312475979695	-0.1725519655498925	0.0496363857417695	-0	1.917228359865892	0	0.09478689634274365	-17.82046404790332	815.5364086805823	-0	2.114375843786083	0	-0.09270384284546618	0	1.03592397603092e-18	0	0	0.007385755222412821	0
0.4005321718768284	-0.1592653694712465	0.04573466121440559	-0	1.932211422571688	0	0.09478689634274366	-11.77645412363655	775.2692866992129	-0	2.118726334063458	0	-0.09285311266075344	0	1.470603736913844e-18	0	0	0.004264410451237672	0
0.4033330961556874	-0.1479819796596386	0.0424311945786205	-0	1.947207963998811	0	0.09478689634274365	-8.559406423859937	742.5222730037449	-0	2.123431560122128	0	-0.09301615214100414	0	-1.161562489884457e-19	0	0	0.001450012695095998	0
0.4061340204345463	-0.138429774150496	0.0396374268482149	-0	1.962212304337534	0	0.09478689634274365	-6.039415538472191	716.6915611313849	-0	2.128649168316372	0	-0.09319774935682734	0	4.94059158902183e-19	0	0	-0.001189198830028689	0
0.4089349447134052	-0.1303543476395975	0.03727476003336747	-0	1.977222045483613	0	0.09478689634274365	-4.994773025174993	695.1552005344151	-0	2.134265814955032	0	-0.0933942806772774	0	-6.265424721843767e-19	0	0	-0.003677905561227365	0
0.4117358689922642	-0.1235541820901752	0.0352825428848842	-0	1.992235480212478	0	0.09478689634274365	-3.846403593668167	677.8008176200124	-0	2.140386287229281	0	-0.09360883214714411	0	-6.103556682199442e-19	0	0	-0.005917638956842642	0
0.4145367932711231	-0.1179433639575615	0.03363632470384677	-0	2.007249207899781	0	0.09478689634274365	-3.388369271523381	663.8655796919949	-0	2.146917008788452	0	-0.09383851140211832	0	7.508891997559662e-19	0	0	-0.007666403902372633	0
0.4173377175499821	-0.1135436866892486	0.03234405630725928	-0	2.022257401999188	0	0.09478689634274365	-2.690989594642725	653.1458260107829	-0	2.153811953486059	0	-0.09408134313768318	0	2.332522335203967e-19	0	0	-0.00850994496875322	0
0.420138641828841	-0.1106590347422122	0.0314971443517042	-0	2.037244367386609	0	0.09478689634274365	-1.934501678469177	644.9215722553038	-0	2.16094092165539	0	-0.09433290038534016	0	5.488816635679398e-19	0	0	-0.007809983867043823	0
0.4229395661076999	-0.1095960308076897	0.03118483701865477	-0	2.052191790034581	0	0.09478689634274365	-1.61480668479235	636.9404189071053	-0	2.168134280750998	0	-0.09458753987508163	0	5.360786427670265e-19	0	0	-0.004706480823672293	0
0.4257404903865589	-0.110490103405552	0.03144238715067448	-0	2.067085143428289	0	0.09478689634274365	-0.6659307704306549	633.4575903763335	-0	2.173792215124585	0	-0.09478762977376531	0	-2.268544188263394e-19	0	0	2.288990099951107e-05	0
0.4285414146654178	-0.1134083837455918	0.03228343067759089	-0	2.081915820985417	0	0.09478689634274365	4.427150153585405	647.7842425752848	-0	2.17430202300586	0	-0.09480156092187826	0	-5.410241229206597e-19	0	0	0.0005855605868182411	0
0.4313423389442768	-0.1179847068498666	0.0335913101352161	-0	2.096694989920981	0	0.09478689634274365	10.53161202665507	657.9230015359495	-0	2.174073820366854	0	-0.09478861670016682	0	7.300996124320264e-19	0	0	8.486082159098086e-05	0
0.4341432632231357	-0.1237993907492021	0.03523677920140625	-0	2.111440461727255	0	0.09478689634274365	15.64190343085852	662.5136249283081	-0	2.174144488076856	0	-0.09478701868361883	0	-8.62665716963079e-19	0	0	7.281722168149121e-06	0
0.4369441875019947	-0.1307218495704732	0.03718368533834172	-0	2.126165833811474	0	0.09478689634274365	20.8485883480114	665.6974370848181	-0	2.174255567857274	0	-0.09478690339291235	0	-7.700912243114344e-19	0	0	4.995099702545491e-07	0
0.4397451117808536	-0.1386835278742407	0.03941485855280995	-0	2.140881208454038	0	0.09478689634274365	25.62504555031982	667.9096590153537	-0	2.174360948704396	0	-0.09478689670357256	0	4.691027310578518e-19	0	0	3.007634441647011e-08	0
0.4425460360597125	-0.1476681775811227	0.04192786410677675	-0	2.155592630944509	0	0.09478689634274365	30.35357475865791	669.3005462946884	-0	2.174463842127501	0	-0.09478689635964474	0	-2.109863803682387e-19	0	0	1.64028780261402e-09	0
0.4453469603385715	-0.1576740786511699	0.04472475364458164	-0	2.17030449952283	0	0.09478689634274365	34.94000533684676	670.072226471272	-0	2.174562588118046	0	-0.09478689634347361	0	-5.089169663922457e-19	0	0	8.174167666972132e-11	0
0.4481478846174304	-0.1687574561511469	0.04782413339547591	-0	2.185017871970721	0	0.09478689634274363	39.55847044900472	670.4652140112115	-0	2.174659765989545	0	-0.09478689634277257	0	-7.769576988649041e-19	0	0	3.708992409212971e-12	0
0.4509488088962893	-0.1809948081316066	0.05125047422869113	-0	2.199732702837545	0	0.09478689634274365	44.13317473391607	670.4761855529488	-0	2.174754160245432	0	-0.09478689634274477	0	7.636247029247788e-20	0	0	1.647390514271138e-13	0
0.4537497331751483	-0.1944831681241434	0.05503346384832166	-0	2.214447488245896	0	0.09478689634274365	48.75842296491777	670.1422374549063	-0	2.174847238692219	0	-0.0947868963427437	0	-7.310120382298709e-19	0	0	9.574935769698086e-15	0
0.4565506574540072	-0.2093352698338665	0.05920741423089156	-0	2.229160314173428	0	0.09478689634274365	53.38656094681523	669.3843555541972	-0	2.174938300857146	0	-0.09478689634274365	0	1.527737263438309e-18	0	0	1.147425338525652e-15	0
0.4593515817328662	-0.2256807408055504	0.06381134118435769	-0	2.243868704560997	0	0.09478689634274365	58.07212177000395	668.1580158741367	-0	2.175028304003959	0	-0.09478689634274365	0	-1.134756777324043e-18	0	0	-1.87428630275102e-16	0
0.4621525060117251	-0.2436734195920962	0.06889148352147138	-0	2.258569997820891	0	0.09478689634274365	62.81669793417964	666.4318856385903	-0	2.175117315403448	0	-0.09478689634274365	0	3.50034407292141e-19	0	0	1.3717379474278e-16	0
0.4649534302905841	-0.2635251473804074	0.07451089151298114	-0	2.273261105466922	0	0.09478689634274365	67.66107299067166	664.2230568995484	-0	2.175206002182399	0	-0.09478689634274365	0	-5.268412933388314e-19	0	0	3.093165498921626e-17	0
0.467754354569443	-0.2854981702352526	0.08074741177893398	-0	2.287938683002905	0	0.09478689634274365	72.31034120137633	660.9045463224068	-0	2.175290627880816	0	-0.09478689634274365	0	-6.601491326040261e-19	0	0	-4.133798745088517e-16	0
0.4705552788483019	-0.3099207677826986	0.08769817830656784	-0	2.30259906543598	0	0.09478689634274365	76.70326854606569	655.8141714445757	-0	2.175371701482922	0	-0.09478689634274365	0	1.73308275993328e-18	0	0	3.889793712159758e-16	0
0.4733562031271609	-0.3371757793706054	0.09547621951394286	-0	2.317238500447245	0	0.09478689634274365	82.04456196767676	650.6909951285608	-0	2.175466370196247	0	-0.09478689634274365	0	-1.934891003941639e-18	0	0	-2.339040188421015e-17	0
0.4761571274060198	-0.3675630750939614	0.1041697112679433	-0	2.331854497620078	0	0.09478689634274365	88.86515298240221	647.5262613238199	-0	2.175578746100782	0	-0.09478689634274365	0	-3.058995977142963e-18	0	0	1.410246345249646e-16	0
0.4789580516848787	-0.4007849398345498	0.1136888943880953	-0	2.34644774973067	0	0.09478689634274365	95.74221714279332	644.5771936050011	-0	2.175687330883266	0	-0.09478689634274365	0	-2.656151313639133e-18	0	0	-2.845926895425676e-16	0
0.4817589759637377	-0.4341571512296633	0.1232443543896035	-0	2.36103409411233	0	0.09478689634274365	102.2196661224594	639.7396813276542	-0	2.175789869256143	0	-0.09478689634274365	0	2.742796109211583e-18	0	0	-5.042041915684462e-17	0
0.4845599002425967	-0.463654981461092	0.1316666812006651	-0	2.375635800240502	0	0.09478689634274365	108.4814843028993	633.0382066684587	-0	2.175890332541342	0	-0.09478689634274365	0	-8.688797689388851e-20	0	0	8.726814886031986e-16	0
0.4873608245214556	-0.4854219834897769	0.1378588098077244	-0	2.39027505298696	0	0.09478689634274365	114.2569713036098	624.7849096199704	-0	2.175983769816613	0	-0.09478689634274365	0	2.675170101347053e-18	0	0	-3.984972174487838e-17	0
0.4901617488003145	-0.4963433918609694	0.1409508505702981	-0	2.40496948164684	0	0.09478689634274365	119.585572109209	615.1170551323532	-0	2.176071159630909	0	-0.09478689634274365	0	-2.728476804755599e-18	0	0	1.343507137889161e-16	0
0.4929626730791734	-0.4965157999354627	0.141008023524152	-0	2.419720836964619	0	0.09478689634271324	124.4934154933985	604.1653024898129	-0	2.176153171294394	0	-0.09478689634274365	0	-3.218253324276129e-16	0	0	-5.888703356933172e-16	0
0.4957635973580324	-0.4872274831681935	0.1384203090773023	-0	2.434523867315157	0	0.09478689634268488	128.9140256722537	591.8791974636151	-0	2.176229416092676	0	-0.09478689634274365	0	-6.093330433466627e-16	0	0	-4.054513901422372e-16	0
0.4985645216368914	-0.4689433678314568	0.1333112512269799	-0	2.449372275807536	0	0.09478689634251292	132.8559166650629	578.1925134997426	-0	2.176301019345041	0	-0.09478689634274365	0	-2.189327206777157e-15	0	0	1.70498846902903e-16	0
0.5013654459157503	-0.4425102045912528	0.1259106243461981	-0	2.464261627716207	0	0.09478689634188028	136.290868127844	563.0887348908401	-0	2.176368305508366	0	-0.09478689634274365	0	-7.380057764026456e-15	0	0	-7.80960747883572e-16	0
0.5041663701946092	-0.4114202199200061	0.1172190864106756	-0	2.479178337715007	0	0.09478689633940469	139.1925456829158	546.5731179168316	-0	2.176431566675266	0	-0.09478689634274365	0	-2.520693919807943e-14	0	0	6.3947115601755e-16	0
0.5069672944734682	-0.3784854138417719	0.1080280299564273	-0	2.494105711949272	0	0.0947868963296814	141.0435031618104	528.0563239516802	-0	2.176484300100566	0	-0.09478689634274365	0	-8.57561650398756e-14	0	0	-4.298979218144019e-16	0
0.509768218752327	-0.3450551013009906	0.09870070462235038	-0	2.509029516663915	0	0.09478689629187706	141.559458475645	506.8415322852309	-0	2.176525589448686	0	-0.09478689634274365	0	-2.859230860803632e-13	0	0	2.630820585760831e-16	0
0.5125691430311861	-0.3127088085146651	0.08967790751020428	-0	2.523934672727224	0	0.09478689614636511	140.8407696571468	482.5904693831245	-0	2.176561399503366	0	-0.09478689634274365	0	-9.328486173206394e-13	0	0	3.561371623400597e-16	0
0.515370067310045	-0.2813386155650156	0.08091369389304667	-0	2.538811575786724	0	0.09478689559218784	138.8767345747211	454.7693776281648	-0	2.176597380313682	0	-0.09478689634274366	0	-2.969712474300667e-12	0	0	2.028291065100306e-15	0
0.5181709915889039	-0.2502451914392476	0.07219295953006727	-0	2.55365613079982	0	0.09478689350420796	136.1435226667749	423.730864916983	-0	2.17664654936488	0	-0.09478689634274365	0	-9.183185371926533e-12	0	0	7.261014316160544e-16	0
0.5209719158677628	-0.2181233924557285	0.06312529250595311	-0	2.568476777345234	0	0.09478688568864344	132.7662924736055	390.3410924201745	-0	2.176711328401602	0	-0.09478689634274365	0	-2.743556173983526e-11	0	0	-6.720583428773508e-16	0
0.5237728401466217	-0.184134718909318	0.05345609733034309	-0	2.583288190196208	0	0.09478685643393535	128.3502566562135	354.78649313952	-0	2.176786736248016	0	-0.09478689634274363	0	-7.87483022253294e-11	0	0	-1.847364360120493e-15	0
0.5265737644254808	-0.1481609975906028	0.04314321410090648	-0	2.598114887273262	0	0.09478674569189124	122.6958020826922	317.2911499233472	-0	2.176873644650442	0	-0.09478689634274365	0	-2.158920795051943e-10	0	0	-4.569274163765652e-16	0
0.5293746887043397	-0.1118427593746439	0.0326660023543186	-0	2.612977186456881	0	0.09478631752536336	115.6438525419449	278.4268095559523	-0	2.176971055418468	0	-0.09478689634274365	0	-5.613512586797616e-10	0	0	-1.353113702953385e-16	0
0.5321756129831986	-0.07909796307130998	0.02318256839865138	-0	2.627854337737152	0	0.09478464010105261	107.0763915245627	239.1438694791693	-0	2.177073236042717	0	-0.09478689634274365	0	-1.371728704483827e-09	0	0	-3.462424512001428e-16	0
0.5349765372620576	-0.05251461117113928	0.01545940062662437	-0	2.642641091843537	0	0.09477801500111996	96.72841059912507	200.4163630535317	-0	2.177161408683833	0	-0.09478689634274363	0	-3.127362711371425e-09	0	0	-1.172251793922039e-15	0
0.5377774615409165	-0.03239632316950376	0.009592028983651649	-0	2.656934664033445	0	0.09475119965998752	84.39461110374427	163.3525475243585	-0	2.177199989858777	0	-0.09478689634274365	0	-6.626790193431403e-09	0	0	-1.151509286035223e-16	0
0.5405783858197755	-0.01860230395086429	0.005550029404952013	-0	2.669099765327186	0	0.0946403479311428	71.02508534639345	129.4064293990293	-0	2.177180991453993	0	-0.09478689634274365	0	-1.28274660283626e-08	0	0	-3.750553192773753e-17	0
0.5433793100986344	-0.01055670261009231	0.003181732829943518	-0	2.672992034948544	0	0.09421004717910769	57.51678805041379	99.43273868274945	-0	2.177100306314371	0	-0.09478689634274365	0	-2.11496097564637e-08	0	0	-2.094039829222462e-16	0
0.5461802343774933	-0.007069345434370067	0.002158833250235795	-0	2.655196283228201	0	0.0929718448888993	44.11423827706463	73.38857458047423	-0	2.176927408536648	0	-0.09478689634274365	0	-2.478168298838417e-08	0	0	-3.772456122305716e-17	0
0.5489811586563522	-0.007125079578177625	0.002210233234921158	-0	2.62141086225294	0	0.09121289105666247	31.29703775679261	51.441280569992	-0	2.17661236890242	0	-0.09478689634274365	0	-1.633638117363677e-08	0	0	1.922813652394177e-16	0
0.5517820829352111	-0.01038988213891866	0.003280687075648596	-0	2.604719218870146	0	0.0901865180925507	7.157632763793843	14.89610548731838	-0	2.175267665935154	0	-0.09478689634274365	0	-6.534247771431048e-09	0	0	-4.00330098410471e-17	0
0.5545830072140701	-0.01741765366337391	0.005611737805702921	-0	2.605440374801022	0	0.08984355879484865	0.001530420352829442	-0.002235762572327572	-0	2.167092537190879	0	-0.09478689634274365	0	-1.527761816382352e-09	0	0	1.715150519917052e-21	0
0.5573839314929291	-0.02984603348765165	0.009837285422246565	-0	2.611820326302515	0	0.08972366456958451	2.51514164067559e-11	-2.24333421425498e-11	-0	2.166236020827928	0	-0.09478689634274365	0	1.816381659777014e-09	0	0	-1.925137650080057e-28	0
0.560184855771788	-0.05053136721388828	0.01707708395528354	-0	2.61946463086257	0	0.08966178987207458	-0	-0	-0	0	0	0	0	4.822878361940786e-09	0	0	0	0
