DataType=double
version=3
OpenSimVersion=4.6-2026-06-22-85aaf64
endheader
time	ground_force_r_vx	ground_force_r_vy	ground_force_r_vz	ground_force_r_px	ground_force_r_py	ground_force_r_pz	ground_force_l_vx	ground_force_l_vy	ground_force_l_vz	ground_force_l_px	ground_force_l_py	ground_force_l_pz	ground_torque_r_x	ground_torque_r_y	ground_torque_r_z	ground_torque_l_x	ground_torque_l_y	ground_torque_l_z
0	-0.003265974556917709	0.0008970051173942237	-0	1.171510614132913	0	0.08956897507908833	7.069151364914182e-15	-3.61208799065456e-15	-0	0	0	0	0	-5.649206223888386e-20	0	0	-6.700629176572853e-16	0
0.002475906842334831	-0.005560676123605134	0.001578293895326406	-0	1.181199764315229	0	0.08956897507908704	2.811947049201849e-13	-1.392210996874934e-13	-0	0.6513179617403112	0	-0.09478689634274365	0	-1.839404095918062e-19	0	0	5.851304993441905e-31	0
0.004951813684669662	-0.009327652210384415	0.002738954181060063	-0	1.190555811143442	0	0.08956897507885364	1.285118718283237e-11	-6.15522640111477e-12	-0	0.659455802233911	0	-0.09478689634274365	0	-2.492442709104532e-17	0	0	8.01320254583868e-29	0
0.007427720527004493	-0.01551923309085905	0.004715841175312181	-0	1.199595421174651	0	0.08956897508455745	7.008924294210773e-10	-3.244848222078005e-10	-0	0.6679310991572247	0	-0.09478689634274363	0	9.561698084893917e-16	0	0	-1.161613032877238e-26	0
0.009903627369339325	-0.02578984081534386	0.008107774375930724	-0	1.208327158440149	0	0.08956897508669293	4.460923977128295e-08	-1.995921303114071e-08	-0	0.6767410949988995	0	-0.09478689634274365	0	2.139733795475014e-15	0	0	-1.413175270919738e-25	0
0.01237953421167415	-0.04306063488837773	0.01399632414766331	-0	1.216755621561081	0	0.089568975084825	3.098760222908033e-06	-1.34055048251666e-06	-0	0.6858741820710036	0	-0.09478689634274363	0	2.575683631388838e-15	0	0	-6.052616543939997e-23	0
0.01485544105400899	-0.07261629812917092	0.02438672529872269	-0	1.22487487959917	0	0.08956897508304407	0.0001953558052879536	-8.17935371751123e-05	-0	0.6953082440193564	0	-0.09478689634274365	0	2.828491384438031e-15	0	0	-4.198809741875349e-22	0
0.01733134789634382	-0.1242602388403547	0.04309403592543982	-0	1.232677100818911	0	0.08956897508183324	0.0004453888430809962	-0.0001806564605323529	-0	0.7050231025059858	0	-0.09478689634274365	0	3.135101487898347e-15	0	0	3.228943776098076e-21	0
0.01980725473867865	-0.2170631590039693	0.07775407089441093	-0	1.240133419178384	0	0.08956897508105705	-0.02172292495397851	0.008537173651393363	-0	0.7150210906271004	0	-0.09478689634274365	0	3.629835101235421e-15	0	0	1.027922839264634e-19	0
0.02228316158101348	-0.389068649117867	0.1440875858672178	-0	1.247213679272301	0	0.08956897508057354	-0.03295796305379698	0.01254052117403602	-0	0.7253189468095695	0	-0.09478689634274365	0	4.479726483816007e-15	0	0	2.013946795691587e-19	0
0.02475906842334831	-0.7172580039174187	0.2749340368522821	-0	1.253902104154801	0	0.08956897508028047	-0.03894797747740551	0.01432537260774816	-0	0.7359566185815711	0	-0.09478689634274365	0	5.927577795550268e-15	0	0	-1.968418234628912e-19	0
0.02723497526568314	-1.359487214357229	0.5399317193700602	-0	1.260195775504584	0	0.08956897508010805	-0.04303802893561294	0.0152810906181148	-0	0.7469622415459617	0	-0.09478689634274365	0	8.280894483310136e-15	0	0	-4.224945273672363e-19	0
0.02971088210801797	-2.63719389990479	1.085923372513749	-0	1.266110743525787	0	0.08956897508003528	-0.0469763872245154	0.01611143737565126	-0	0.7583071345890937	0	-0.09478689634274365	0	1.212747697750843e-14	0	0	1.611036720451274e-20	0
0.0321867889503528	-5.198440427184673	2.219956531059388	-0	1.271668523299673	0	0.08956897508004882	-0.0516792974614852	0.01715411059354787	-0	0.7699540140768577	0	-0.09478689634274365	0	1.771841361840849e-14	0	0	-2.067309170667953e-19	0
0.03466269579268764	-10.30833721195562	4.568825078368665	-0	1.276879150136671	0	0.08956897508016572	-0.05771784450163217	0.01858335121701283	-0	0.781873605823147	0	-0.09478689634274365	0	2.360436774643179e-14	0	0	-3.924297817994507e-19	0
0.03713860263502247	-20.22011181829189	9.319708102613927	-0	1.281744391591043	0	0.08956897508045171	-0.06557551120732452	0.02052848762657839	-0	0.7940403404630483	0	-0.09478689634274365	0	1.306401691072743e-14	0	0	1.468508271948461e-19	0
0.0396145094773573	-38.05360953313404	18.33169192855964	-0	1.286241871164181	0	0.08956897508112095	-0.07572704435014026	0.02310601120823772	-0	0.8064312231020405	0	-0.09478689634274366	0	-1.282259827463648e-13	0	0	-1.314181328727976e-18	0
0.04209041631969213	-65.53046481875718	33.30353872082765	-0	1.290349905642735	0	0.08956897508290337	-0.08869975535999169	0.02644260098633502	-0	0.8190273886216383	0	-0.09478689634274365	0	-1.169242299360753e-12	0	0	2.815773877254297e-19	0
0.04456632316202696	-100.8317854266189	54.79091478718532	-0	1.294043358904211	0	0.08956897508854268	-0.1052291836417906	0.03071923774430153	-0	0.8318143891351369	0	-0.09478689634274365	0	-8.522067943404204e-12	0	0	-2.33755978922926e-19	0
0.04704223000436179	-160.908627660849	95.42627436804145	-0	1.297313067100002	0	0.08956897510633591	-0.1262396566429455	0.03616317304000219	-0	0.8447801108686449	0	-0.09478689634274365	0	-6.678944912084997e-11	0	0	-7.16996911504801e-19	0
0.04951813684669662	-279.935265280343	190.9591256179503	-0	1.300102466807123	0	0.08956897517436546	-0.1525172646481789	0.04295265147914074	-0	0.8579180280499842	0	-0.09478689634274363	0	-7.430887683186096e-10	0	0	1.868542702838133e-18	0
0.05199404368903145	-392.5509071045061	342.5860779455947	-0	1.302338755593585	0	0.08956897569056824	-0.1845708680631203	0.05118256064956763	-0	0.8712284309589479	0	-0.09478689634274365	0	-1.308335373897662e-08	0	0	-9.867120982010476e-19	0
0.05446995053136628	-309.2720748573076	519.5882265747153	-0	1.304625071195513	0	0.08956898119195271	-0.2230997355913653	0.06099619763455442	-0	0.8847185093928488	0	-0.09478689634274365	0	-1.084817243296522e-06	0	0	1.42688817045513e-19	0
0.05694585737370111	-94.21110791803285	709.9361002147339	-0	1.306757566353713	0	0.08956902565110646	-0.2689897842601113	0.07258955645018708	-0	0.8983897778656124	0	-0.09478689634274365	0	-1.721605965819017e-05	0	0	1.307100454310787e-18	0
0.05942176421603594	-159.1566501711646	893.4542401910347	-0	1.306965734920259	0	0.08956928881073874	-0.3213122213221312	0.08568102677947569	-0	0.9122432776560048	0	-0.09478689634274363	0	-0.0001016347735247942	0	0	5.335815148762149e-18	0
0.06189767105837077	-58.37636738926206	1046.906262642583	-0	1.308053582568184	0	0.08957075518083665	-0.3779555443388082	0.09966845930786918	-0	0.9262950034570014	0	-0.09478689634274363	0	-0.0006247737556904347	0	0	7.235651462747154e-18	0
0.06437357790070561	-116.8880031010556	1173.296962251793	-0	1.308389378516481	0	0.08957810701610036	-0.4371854468773819	0.1140743347120134	-0	0.9405605513994745	0	-0.09478689634274365	0	-0.003347766048200644	0	0	1.130979256473695e-18	0
0.06684948474304044	-75.59626295383956	1272.503148940473	-0	1.309995127823055	0	0.08960977788565329	-0.4968264762229646	0.1283465566354934	-0	0.9550444905250933	0	-0.09478689634274365	0	-0.01528380714373294	0	0	-2.533823667529711e-18	0
0.06932539158537528	-123.6610638843261	1361.3287386981	-0	1.312768621892153	0	0.08969927797574564	-0.5544194418274215	0.1418839503378647	-0	0.9697459332698921	0	-0.09478689634274365	0	-0.04629585705178486	0	0	2.012957139605572e-18	0
0.0718012984277101	-116.7082649710549	1443.704147698111	-0	1.317806717990399	0	0.0898572865747803	-0.6070792802396756	0.154002198453992	-0	0.9846611889517495	0	-0.09478689634274365	0	-0.09123161115526218	0	0	3.231767740966125e-18	0
0.07427720527004493	-206.7692247046116	1578.817654139141	-0	1.327987539375324	0	0.09021411517858074	-0.6519426471848844	0.1640365599715434	-0	0.9997863801042478	0	-0.09478689634274365	0	-0.1475176508143553	0	0	-6.883436858038749e-19	0
0.07675311211237976	-213.6182228817097	1652.272091868149	-0	1.334187487812085	0	0.09042415353666002	-0.6861563118461347	0.1713356876177016	-0	1.015117736724221	0	-0.09478689634274366	0	-0.1005535178443287	0	0	-5.965958579337014e-18	0
0.0792290189547146	-194.4983536872134	1621.261328801997	-0	1.33390517460361	0	0.09040888727684679	-0.7080267841513962	0.1755420893632373	-0	1.030651971231183	0	-0.09478689634274365	0	-0.03450164329368331	0	0	-4.339073849480189e-18	0
0.08170492579704942	-137.1588197499428	1583.643377544789	-0	1.334749632591295	0	0.09042636917121896	-0.7170189957802123	0.1766012400995942	-0	1.0463811342754	0	-0.09478689634274365	0	-0.01804345430271556	0	0	-3.681806323218159e-18	0
0.08418083263938426	-112.0296222571579	1594.280612111658	-0	1.340458024081728	0	0.09061866713462442	-0.7132652134414089	0.1746199205568388	-0	1.062293668851922	0	-0.09478689634274363	0	-0.04322059197641703	0	0	4.846616485241827e-18	0
0.08665673948171908	-111.991330628651	1635.507186896704	-0	1.349365078594726	0	0.09092613181071636	-0.6972740788083798	0.1697658879666489	-0	1.078380015521689	0	-0.09478689634274366	0	-0.08862531112722377	0	0	-1.604340198517987e-17	0
0.08913264632405392	-128.8534650832082	1648.771073302004	-0	1.356822726615474	0	0.09118610512974119	-0.6702351439175579	0.1623549787562034	-0	1.094632814205503	0	-0.09478689634274365	0	-0.1087063356181667	0	0	1.040046147038739e-18	0
0.09160855316638875	-109.0577895642171	1621.982830141849	-0	1.362881468420686	0	0.09139086284555473	-0.634382403709961	0.1529587842259922	-0	1.111041305500269	0	-0.09478689634274365	0	-0.1057192583787131	0	0	2.377634094640864e-18	0
0.09408446000872357	-94.34082127217742	1577.24713734861	-0	1.368524111712117	0	0.09158252989541334	-0.592764705004454	0.1423366109071768	-0	1.127589572094842	0	-0.09478689634274365	0	-0.09672799223620479	0	0	-1.013870740925122e-18	0
0.09656036685105841	-71.54291199464575	1519.926807319392	-0	1.374172073870629	0	0.09177308163522309	-0.5483449090208796	0.1312030596110043	-0	1.144259214027296	0	-0.09478689634274365	0	-0.0856520517567219	0	0	1.72072242080915e-18	0
0.09903627369339324	-56.04335788821497	1454.447699050471	-0	1.379683505808051	0	0.09196060662227895	-0.5034524020936809	0.1200977522974431	-0	1.161032397638208	0	-0.09478689634274365	0	-0.07319277579334837	0	0	-2.300037302030393e-18	0
0.1015121805357281	-37.54994496050143	1390.956675708636	-0	1.385710621584639	0	0.09216572933874581	-0.4597977640936486	0.109404182355183	-0	1.177891726996634	0	-0.09478689634274365	0	-0.06194930533795406	0	0	2.451344661421249e-18	0
0.1039880873780629	-28.86220714082326	1337.600368650622	-0	1.392644390949608	0	0.09240520323890435	-0.4180254580104306	0.09924371568587463	-0	1.194826141774709	0	-0.09478689634274363	0	-0.05192456879708011	0	0	4.878548334619245e-18	0
0.1064639942203977	-19.42164181901712	1297.656836967516	-0	1.401175000124485	0	0.09270100144342726	-0.3781645561112978	0.0895952800494297	-0	1.211829199433306	0	-0.09478689634274365	0	-0.04202528788270715	0	0	-2.593406870570618e-18	0
0.1089399010627326	-13.06206842017199	1265.370670013775	-0	1.411527605727144	0	0.09306224345639084	-0.3400009823203222	0.08038925917348202	-0	1.228901293668638	0	-0.09478689634274365	0	-0.03000696595475602	0	0	-2.838963213645667e-18	0
0.1114158079050674	-14.30795017519612	1223.094508022803	-0	1.422873067802405	0	0.0934610878887613	-0.303825443794518	0.0716898253132319	-0	1.246042964759699	0	-0.09478689634274365	0	-0.01509512760295503	0	0	1.542458283077967e-18	0
0.1138917147474022	-21.24779169568799	1167.769046969595	-0	1.434276958584184	0	0.09386437909135305	-0.2718414816471538	0.06403355651167851	-0	1.263235392707514	0	-0.09478689634274365	0	-0.001516436729688847	0	0	1.600359082262882e-18	0
0.1163676215897371	-26.23670702162561	1110.547143724595	-0	1.445664902432903	0	0.09426764982648971	-0.2460913828901337	0.05790860954810665	-0	1.280446909039823	0	-0.09478689634274365	0	0.005753667347392367	0	0	6.325194649837355e-19	0
0.1188435284320719	-31.83903229007385	1052.064805640619	-0	1.457255510167131	0	0.09467984088404999	-0.2281870186951925	0.0536926167598521	-0	1.297626917601983	0	-0.09478689634274365	0	0.00281759565826962	0	0	2.477857583283142e-19	0
0.1213194352744067	-23.48529317695591	1050.354105608564	-0	1.460841535817115	0	0.09480269586784422	-0.2183919684471582	0.05143498865572013	-0	1.314724973641148	0	-0.09478689634274366	0	-0.0006950005004828451	0	0	-4.758569738852295e-18	0
0.1237953421167415	-4.96729255480471	1066.112686514439	-0	1.460650962301213	0	0.0947872522664012	-0.2136020791666693	0.05036310943086829	-0	1.331734924632377	0	-0.09478689634274365	0	-2.285114546290256e-05	0	0	2.948933975783992e-19	0
0.1262712489590764	11.75419818792235	1070.218990516207	-0	1.460859905628256	0	0.09478689906484625	-0.2109524648187434	0.04976966041441912	-0	1.348675819630173	0	-0.09478689634274363	0	-2.372566685456126e-07	0	0	4.296843740339884e-18	0
0.1287471558014112	27.14899914785384	1067.28311888266	-0	1.461063894714054	0	0.09478689635553067	-0.2090487357201126	0.04931997124550098	-0	1.365577507004095	0	-0.09478689634274365	0	-1.443402531577918e-09	0	0	1.046653405265388e-18	0
0.1312230626437461	41.51211853242376	1058.790150629989	-0	1.461257737221897	0	0.09478689634278961	-0.2069562832070551	0.04879438425693507	-0	1.382468141769916	0	-0.09478689634274365	0	-6.496618520370958e-12	0	0	-1.710771849852833e-18	0
0.1336989694860809	54.78195416183978	1045.684590151476	-0	1.461441420127948	0	0.09478689634274379	-0.2041946218226757	0.04808733218374908	-0	1.399370034951604	0	-0.09478689634274366	0	-2.507567305774183e-14	0	0	-2.754118610824065e-18	0
0.1361748763284157	67.11456957869147	1028.996398743523	-0	1.461616891644514	0	0.09478689634274363	-0.2004101676158763	0.04712445528845428	-0	1.416301621274592	0	-0.09478689634274365	0	5.347698214139662e-16	0	0	-4.965696354153156e-19	0
0.1386507831707506	78.38385697344467	1009.413632015765	-0	1.461782661910537	0	0.09478689634274365	-0.1955177294718946	0.04589479607901036	-0	1.433273641029101	0	-0.09478689634274365	0	2.163622780384577e-16	0	0	1.278977464691971e-19	0
0.1411266900130854	88.74742711794067	987.6214304908361	-0	1.461940305888271	0	0.09478689634274365	-0.1895067327143526	0.04440352867253642	-0	1.450293817434232	0	-0.09478689634274363	0	-4.867559965088235e-16	0	0	2.313375189943317e-18	0
0.1436025968554202	98.17276263223761	964.039102561698	-0	1.46208917110189	0	0.09478689634274365	-0.1824208883736776	0.04266577515273273	-0	1.467365803120588	0	-0.09478689634274366	0	-6.17278935096517e-16	0	0	-2.918665524686202e-18	0
0.146078503697755	106.7517833165976	939.0851711774246	-0	1.462230010041642	0	0.09478689634274365	-0.1743293578520785	0.04070127996413296	-0	1.484492042984383	0	-0.09478689634274365	0	6.818243851813876e-16	0	0	-1.707203470320321e-18	0
0.1485544105400899	114.4267954258527	912.960337638773	-0	1.462361838691936	0	0.09478689634274365	-0.1652724030043694	0.03852125613843675	-0	1.501673852298735	0	-0.09478689634274365	0	-1.365426457894888e-16	0	0	1.270413991156274e-18	0
0.1510303173824247	121.2461322533227	885.8685712952756	-0	1.462485003710308	0	0.09478689634274365	-0.1552366533086574	0.03612315302571802	-0	1.51891323485674	0	-0.09478689634274365	0	-8.660537770333478e-16	0	0	-5.946693093028747e-19	0
0.1535062242247595	127.1407158445699	857.8801275023044	-0	1.462598428726254	0	0.09478689634274366	-0.1440197496260795	0.03345879585414562	-0	1.536216550945655	0	-0.09478689634274365	0	-2.160350974081791e-15	0	0	-4.429753400249891e-19	0
0.1559821310670944	132.2826576152354	829.0390846690079	-0	1.462704749305332	0	0.09478689634274365	-0.1314822482884082	0.03049564702910193	-0	1.553592638425389	0	-0.09478689634274365	0	2.857584783238958e-16	0	0	7.470405113768782e-19	0
0.1584580379094292	136.8578363175834	799.3374309643192	-0	1.462807302741624	0	0.09478689634274365	-0.117673185233479	0.02724647016821896	-0	1.571052448694172	0	-0.09478689634274363	0	8.080926088668664e-16	0	0	2.053113552281721e-18	0
0.160933944751764	140.9184351960644	768.8787693704299	-0	1.46290724927049	0	0.09478689634274365	-0.1029156081463019	0.02378848197024081	-0	1.588606087421195	0	-0.09478689634274363	0	1.468518607291963e-16	0	0	1.942885474215334e-18	0
0.1634098515940988	144.4122703636301	737.7324667993406	-0	1.463004177646169	0	0.09478689634274365	-0.08794413507664106	0.02029453556912877	-0	1.606256762049102	0	-0.09478689634274365	0	1.402332829517555e-16	0	0	-4.479451313506364e-19	0
0.1658857584364337	147.3267019249843	705.9768161244453	-0	1.463098313558351	0	0.09478689634274365	-0.07346603375961007	0.01692834288441224	-0	1.624003897295538	0	-0.09478689634274365	0	3.119893386356105e-17	0	0	4.162779292686946e-19	0
0.1683616652787685	149.5957353558961	673.6529456164811	-0	1.463189047631086	0	0.09478689634274365	-0.05997944209141957	0.01380272727830714	-0	1.641844453975477	0	-0.09478689634274365	0	-1.329987233781531e-16	0	0	1.942756859876418e-19	0
0.1708375721211033	151.1896905637458	640.8153571236951	-0	1.463276397107038	0	0.09478689634274365	-0.04783694354445416	0.01099625277872851	-0	1.659774919912835	0	-0.09478689634274366	0	-7.475002644095411e-16	0	0	-3.49991777337734e-19	0
0.1733134789634382	152.0618961909397	607.5108717418643	-0	1.463360056579557	0	0.09478689634274365	-0.03724688720317974	0.008554108953812645	-0	1.677791289568899	0	-0.09478689634274365	0	-4.730442061666365e-16	0	0	5.411187381486933e-20	0
0.175789385805773	152.1952896084796	573.8003846751745	-0	1.463440320928178	0	0.09478689634274365	-0.02830048448015997	0.006494838208067678	-0	1.695888979916856	0	-0.09478689634274365	0	3.576566876979526e-17	0	0	-2.148904489773633e-19	0
0.1782652926481078	151.5797321690657	539.7423857322221	-0	1.463517666107927	0	0.09478689634274365	-0.02099279948270647	0.004815321640417728	-0	1.714061886999829	0	-0.09478689634274365	0	-1.573993402207965e-17	0	0	-7.226115154085403e-20	0
0.1807411994904426	149.3498246880866	503.791775537607	-0	1.463583283362169	0	0.09478689634274365	-0.01521540320939134	0.003489091405161337	-0	1.732302860190152	0	-0.09478689634274365	0	-8.561928038786292e-16	0	0	5.967656713159818e-21	0
0.1832171063327775	145.31427692691	464.35015575059	-0	1.4636469776569	0	0.09478689634274365	-0.01078846222016238	0.002473745711200382	-0	1.750603751298945	0	-0.09478689634274365	0	2.509973217945742e-17	0	0	6.512798806893357e-20	0
0.1856930131751123	140.8176154303228	422.9132158650124	-0	1.463739866509797	0	0.09478689634274365	-0.007486181912856864	0.001716744766531552	-0	1.768956431967054	0	-0.09478689634062396	0	6.261822092246158e-16	0	0	2.551419703251709e-16	0
0.1881689200174471	136.2114947263175	381.0342514157356	-0	1.463868826007967	0	0.09478689634274365	-0.00504753188792542	0.00115775609263907	-0	1.787360175209991	0	-0.09478689633368097	0	7.346631649672254e-16	0	0	7.027062385612025e-16	0
0.190644826859782	130.9657307065422	338.7327432365063	-0	1.464030229498704	0	0.09478689634274365	-0.003257210118268769	0.0007472602715175943	-0	1.805820201674128	0	-0.09478689630234523	0	2.90652630509132e-16	0	0	1.925522848875051e-15	0
0.1931207337021168	124.5743566980653	296.0117737618212	-0	1.464222601123753	0	0.09478689634274365	-0.001945958451194938	0.0004464643446562533	-0	1.824355768807636	0	-0.09478689617757145	0	5.488008883553307e-16	0	0	4.463432217325958e-15	0
0.1955966405444517	115.1550211220777	252.9797400806461	-0	1.464381750031354	0	0.09478689634274365	-0.001002310388384551	0.0002299107442942516	-0	1.842996076803993	0	-0.09478689550626662	0	2.752125032937952e-16	0	0	1.100918151621904e-14	0
0.1980725473867865	101.0089473484013	210.841481152612	-0	1.4643891141467	0	0.09478689634274365	-0.0003564900892489226	8.171926481647659e-05	-0	1.86178238784516	0	-0.09478689045535367	0	5.787481273540581e-16	0	0	2.598638675858529e-14	0
0.2005484542291213	84.00369108637673	171.6128810883428	-0	1.464225624598797	0	0.09478689634274365	-4.770718645778755e-07	1.092478749243119e-07	-0	1.880589821453966	0	-0.09477603331184296	0	-3.399375894856566e-17	0	0	6.015175718415974e-14	0
0.2030243610714561	66.43271323881525	137.1255744712412	-0	1.463890949772534	0	0.09478689634274365	5.342214261357757e-06	-1.221689282508683e-06	-0	1.899962806344502	0	-0.09478927032816122	0	-4.113978145296397e-16	0	0	1.377960437613403e-13	0
0.205500267913791	49.60580511965519	107.8597567380859	-0	1.463368717192479	0	0.09478689634274365	1.594321887376144e-07	-3.639241341645005e-08	-0	1.922624695942071	0	-0.09497902394624046	0	3.724666520148442e-16	0	0	3.19268948385003e-13	0
0.2079761747561258	34.80122728290964	82.90092207403538	-0	1.462731019845678	0	0.09478689634274365	-1.054173889475475e-08	2.433205544669996e-09	-0	1.812506580402231	0	-0.08791484515931172	0	-1.427639455313772e-16	0	0	-2.13792845080852e-13	0
0.2104520815984606	22.46003068749348	60.90732299977498	-0	1.462050869599491	0	0.09478689634274365	-3.319827141071995e-08	7.624147379560342e-09	-0	1.856081518942208	0	-0.08955759392617671	0	-7.892479678912838e-17	0	0	-3.15285144918161e-15	0
0.2129279884407955	12.51498757866852	39.76876185775111	-0	1.46142067097986	0	0.09478689634274365	-7.946281341948763e-08	1.821571373649365e-08	-0	1.869659615534163	0	-0.08956884114702988	0	-8.322851006762948e-17	0	0	-7.738951046160134e-17	0
0.2154038952831303	4.895358634928044	18.5117695473558	-0	1.460908533701097	0	0.09478689634274365	-1.898980943472444e-07	4.346970001686914e-08	-0	1.882991009520228	0	-0.08956897278015326	0	2.718919963735246e-17	0	0	-2.668732874814414e-18	0
0.2178798021254651	-0.03675001805995102	-0.1842412622231726	-0	1.460355866864316	0	0.09478689634274366	-4.535395804520145e-07	1.037180745161117e-07	-0	1.896285093992363	0	-0.08956897501966317	0	3.721730820155096e-19	0	0	-1.310042002207293e-19	0
0.2203557089678	0.04165186645060692	-0.11903925602743	-0	1.45600021108945	0	0.09478689634274365	-1.080704335149005e-06	2.469996094233277e-07	-0	1.909550103745535	0	-0.08956897507701157	0	9.446587079994513e-20	0	0	-7.931294004241626e-21	0
0.2228316158101348	1.582516179293013e-08	-1.490597554964523e-08	-0	1.451712338532144	0	0.09478689634274365	-2.566584169629402e-06	5.863955807194553e-07	-0	1.922806327084734	0	-0.08956897507902166	0	-5.516411639835402e-26	0	0	-4.104198898617689e-22	0
0.2253075226524696	-0	-0	-0	0	0	0	-6.058038290818378e-06	1.384764883528583e-06	-0	1.936004053413225	0	-0.08956897507908691	0	0	0	0	1.074027820418138e-22	0
0.2277834294948045	-0	-0	-0	0	0	0	-1.405702196373687e-05	3.226272708398363e-06	-0	1.948907258920228	0	-0.08956897507908834	0	0	0	0	-1.581085689465223e-22	0
0.2302593363371393	-0	-0	-0	0	0	0	-3.180209187848764e-05	7.370552941222064e-06	-0	1.961328326710699	0	-0.08956897507908834	0	0	0	0	5.266146705517497e-22	0
0.2327352431794741	-0	-0	-0	0	0	0	-6.956481863105844e-05	1.636547496432909e-05	-0	1.973292481136151	0	-0.08956897507908836	0	0	0	0	-3.35343531856887e-22	0
0.2352111500218089	-0	-0	-0	0	0	0	-0.0001460907435255421	3.50363940275818e-05	-0	1.984859174611838	0	-0.08956897507908836	0	0	0	0	6.021362539283452e-22	0
0.2376870568641438	-0	-0	-0	0	0	0	-0.0002937366494506503	7.205552378805414e-05	-0	1.996096725589607	0	-0.08956897507908836	0	0	0	0	1.017756522892444e-21	0
0.2401629637064786	-0	-0	-0	0	0	0	-0.0005659672379141331	0.0001423717648827784	-0	2.007041743498214	0	-0.08956897507908836	0	0	0	0	2.045203472731124e-21	0
0.2426388705488134	-0	-0	-0	0	0	0	-0.001048563100817413	0.0002710873659268798	-0	2.017695894649798	0	-0.08956897507908836	0	0	0	0	-5.602387070216942e-21	0
0.2451147773911483	-0	-0	-0	0	0	0	-0.001876801623676078	0.0004996501617701519	-0	2.028047963650176	0	-0.08956897507908834	0	0	0	0	1.925453594084306e-20	0
0.2475906842334831	7.069151364914321e-15	-3.612087990654631e-15	-0	0	0	0	-0.003265974556917698	0.0008970051173942206	-0	2.038078008950103	0	-0.08956897507908833	0	6.700629176572985e-16	0	0	3.645312300534939e-20	0
0.2500665910758179	2.811947049201915e-13	-1.392210996874967e-13	-0	1.517885356557502	0	0.09478689634274365	-0.005560676123605114	0.0015782938953264	-0	2.047767159132419	0	-0.08956897507908705	0	4.456433291871091e-31	0	0	5.046697662712627e-20	0
0.2525424979181528	1.285118718283266e-11	-6.155226401114912e-12	-0	1.526023197051101	0	0.09478689634274365	-0.009327652210384389	0.002738954181060056	-0	2.057123205960633	0	-0.08956897507885363	0	1.552862215965e-29	0	0	2.499929054652505e-17	0
0.2550184047604876	7.008924294210923e-10	-3.244848222078075e-10	-0	1.534498493974416	0	0.09478689634274365	-0.015519233090859	0.004715841175312162	-0	2.066162815991841	0	-0.08956897508455745	0	2.499342752091999e-27	0	0	-9.56246524591976e-16	0
0.2574943116028224	4.460923977128407e-08	-1.995921303114122e-08	-0	1.54330848981609	0	0.09478689634274365	-0.02578984081534376	0.008107774375930691	-0	2.074894553257339	0	-0.08956897508669291	0	2.156156952767434e-25	0	0	-2.139160543557336e-15	0
0.2599702184451573	3.098760222908014e-06	-1.340550482516652e-06	-0	1.552441576888194	0	0.09478689634274365	-0.0430606348883775	0.01399632414766323	-0	2.083323016378271	0	-0.08956897508482499	0	2.404875951454357e-23	0	0	-2.575205080699062e-15	0
0.2624461252874921	0.0001953558052879525	-8.179353717511183e-05	-0	1.561875638836547	0	0.09478689634274365	-0.07261629812917063	0.02438672529872259	-0	2.09144227441636	0	-0.08956897508304407	0	7.251584260642958e-22	0	0	-2.828408832739999e-15	0
0.2649220321298269	0.000445388843080966	-0.0001806564605323407	-0	1.571590497323176	0	0.09478689634274366	-0.1242602388403541	0.04309403592543964	-0	2.099244495636102	0	-0.08956897508183324	0	-6.899959140648386e-21	0	0	-3.134704290996455e-15	0
0.2673979389721617	-0.02172292495397836	0.008537173651393306	-0	1.581588485444291	0	0.09478689634274365	-0.2170631590039681	0.07775407089441051	-0	2.106700813995574	0	-0.08956897508105705	0	6.777772301876448e-20	0	0	-3.62950489444561e-15	0
0.2698738458144966	-0.03295796305379682	0.01254052117403596	-0	1.59188634162676	0	0.09478689634274365	-0.3890686491178655	0.1440875858672173	-0	2.113781074089491	0	-0.08956897508057354	0	-1.500372604399527e-19	0	0	-4.477319391114429e-15	0
0.2723497526568314	-0.0389479774774053	0.01432537260774809	-0	1.602524013398762	0	0.09478689634274365	-0.7172580039174147	0.2749340368522806	-0	2.120469498971992	0	-0.08956897508028046	0	2.050297603222116e-19	0	0	-5.920456785837286e-15	0
0.2748256594991663	-0.04303802893561277	0.01528109061811474	-0	1.613529636363152	0	0.09478689634274365	-1.359487214357366	0.539931719370115	-0	2.126763170321774	0	-0.08956897508010805	0	-4.078996189152564e-19	0	0	-8.280302406866064e-15	0
0.277301566341501	-0.04697638722451515	0.01611143737565118	-0	1.624874529406285	0	0.09478689634274365	-2.637193899904898	1.085923372513794	-0	2.132678138342977	0	-0.08956897508003528	0	-2.751272608238264e-19	0	0	-1.213425419827017e-14	0
0.2797774731838359	-0.05167929746148504	0.01715411059354782	-0	1.636521408894049	0	0.09478689634274365	-5.198440427184838	2.219956531059458	-0	2.138235918116863	0	-0.08956897508004884	0	-1.755925327982005e-19	0	0	-1.782149116185486e-14	0
0.2822533800261707	-0.05771784450163198	0.01858335121701277	-0	1.648441000640337	0	0.09478689634274365	-10.30833721195586	4.56882507836877	-0	2.143446544953862	0	-0.08956897508016572	0	1.909721978733179e-19	0	0	-2.360835151217966e-14	0
0.2847292868685056	-0.06557551120732431	0.02052848762657833	-0	1.660607735280238	0	0.09478689634274365	-20.22011181829237	9.319708102614145	-0	2.148311786408234	0	-0.08956897508045172	0	7.098263044992766e-20	0	0	-1.335259486362387e-14	0
0.2872051937108404	-0.07572704435013988	0.02310601120823761	-0	1.672998617919231	0	0.09478689634274363	-38.05360953313476	18.33169192855998	-0	2.152809265981371	0	-0.08956897508112095	0	-7.425108483151902e-19	0	0	1.281475710992387e-13	0
0.2896811005531752	-0.08869975535999125	0.02644260098633489	-0	1.685594783438829	0	0.09478689634274365	-65.5304648187582	33.30353872082816	-0	2.156917300459926	0	-0.08956897508290339	0	-7.420518652708763e-19	0	0	1.16816993688789e-12	0
0.29215700739551	-0.1052291836417903	0.03071923774430143	-0	1.698381783952328	0	0.09478689634274365	-100.8317854266202	54.79091478718605	-0	2.160610753721402	0	-0.0895689750885427	0	7.269822039056542e-19	0	0	8.521043480770996e-12	0
0.2946329142378449	-0.1262396566429448	0.03616317304000199	-0	1.711347505685835	0	0.09478689634274365	-160.9086276608519	95.42627436804321	-0	2.163880461917193	0	-0.08956897510633591	0	8.648672783284443e-19	0	0	6.678937313793767e-11	0
0.2971088210801797	-0.1525172646482727	0.04295265147916717	-0	1.724485422867175	0	0.09478689634274365	-279.9352652803483	190.959125617954	-0	2.166669861624313	0	-0.08956897517436546	0	-4.598038233898575e-19	0	0	7.430862397149285e-10	0
0.2995847279225146	-0.1845708680631195	0.05118256064956739	-0	1.737795825776138	0	0.09478689634274363	-392.550907104512	342.5860779455998	-0	2.168906150410776	0	-0.08956897569056824	0	-3.334254282515749e-18	0	0	1.308335512570047e-08	0
0.3020606347648494	-0.2230997355913643	0.06099619763455412	-0	1.75128590421004	0	0.09478689634274365	-309.2720748573115	519.5882265747208	-0	2.171192466012704	0	-0.08956898119195271	0	1.336989857902672e-18	0	0	1.084817241694065e-06	0
0.3045365416071842	-0.2689897842601095	0.0725895564501866	-0	1.764957172682803	0	0.09478689634274365	-94.21110791803429	709.936100214741	-0	2.173324961170904	0	-0.08956902565110646	0	-1.471834198208947e-18	0	0	1.721605965930613e-05	0
0.307012448449519	-0.3213122213221289	0.0856810267794751	-0	1.778810672473195	0	0.09478689634274366	-159.1566501711662	893.4542401910411	-0	2.173533129737449	0	-0.08956928881073874	0	4.749465070596306e-18	0	0	0.0001016347735238111	0
0.3094883552918539	-0.3779555443388944	0.09966845930789189	-0	1.792862398274192	0	0.09478689634274365	-58.37636738926314	1046.906262642589	-0	2.174620977385374	0	-0.08957075518083665	0	-2.864036724603509e-18	0	0	0.0006247737556905075	0
0.3119642621341887	-0.4371854468773793	0.1140743347120128	-0	1.807127946216665	0	0.09478689634274365	-116.8880031010569	1173.296962251797	-0	2.174956773333672	0	-0.08957810701610036	0	1.367903615877228e-18	0	0	0.003347766048201035	0
0.3144401689765235	-0.4968264762229616	0.1283465566354926	-0	1.821611885342284	0	0.09478689634274365	-75.59626295384103	1272.503148940479	-0	2.176562522640247	0	-0.08960977788565332	0	2.895067896051561e-18	0	0	0.01528380714373163	0
0.3169160758188584	-0.5544194418274946	0.1418839503378834	-0	1.836313328087083	0	0.09478689634274365	-123.6610638843278	1361.328738698107	-0	2.179336016709344	0	-0.08969927797574566	0	-2.592738526359131e-18	0	0	0.04629585705178346	0
0.3193919826611932	-0.6070792802396729	0.1540021984539913	-0	1.85122858376894	0	0.09478689634274365	-116.7082649710566	1443.704147698115	-0	2.18437411280759	0	-0.08985728657478029	0	9.442792976684241e-19	0	0	0.09123161115526517	0
0.321867889503528	-0.65194264718488	0.1640365599715423	-0	1.866353774921438	0	0.09478689634274365	-206.7692247046138	1578.817654139148	-0	2.194554934192514	0	-0.09021411517858074	0	-3.318355183106145e-19	0	0	0.1475176508143613	0
0.3243437963458629	-0.6861563118461977	0.1713356876177173	-0	1.881685131541411	0	0.09478689634274366	-213.6182228817116	1652.272091868158	-0	2.200754882629276	0	-0.09042415353666003	0	1.584218315953347e-17	0	0	0.1005535178443267	0
0.3268197031881977	-0.7080267841513919	0.1755420893632363	-0	1.897219366048374	0	0.09478689634274363	-194.4983536872147	1621.261328802005	-0	2.200472569420801	0	-0.09040888727684677	0	-1.344584473124379e-17	0	0	0.03450164329368406	0
0.3292956100305325	-0.7170189957802078	0.1766012400995931	-0	1.91294852909259	0	0.09478689634274365	-137.1588197499436	1583.643377544796	-0	2.201317027408486	0	-0.09042636917121898	0	2.431389880330947e-18	0	0	0.01804345430271177	0
0.3317715168728674	-0.7132652134414056	0.174619920556838	-0	1.928861063669113	0	0.09478689634274363	-112.0296222571586	1594.280612111666	-0	2.207025418898919	0	-0.09061866713462442	0	-1.523906897073986e-17	0	0	0.04322059197641775	0
0.3342474237152022	-0.6972740788083753	0.1697658879666478	-0	1.94494741033888	0	0.09478689634274365	-111.991330628652	1635.507186896713	-0	2.215932473411917	0	-0.09092613181071635	0	1.762035500133414e-18	0	0	0.08862531112722821	0
0.336723330557537	-0.6702351439176093	0.1623549787562159	-0	1.961200209022693	0	0.09478689634274365	-128.8534650832093	1648.77107330201	-0	2.223390121432665	0	-0.09118610512974121	0	2.18170349542483e-19	0	0	0.1087063356181667	0
0.3391992373998718	-0.634382403709956	0.152958784225991	-0	1.97760870031746	0	0.09478689634274365	-109.0577895642181	1621.982830141855	-0	2.229448863237877	0	-0.09139086284555474	0	2.850368888833705e-18	0	0	0.1057192583787117	0
0.3416751442422067	-0.5927647050044488	0.1423366109071755	-0	1.994156966912034	0	0.09478689634274365	-94.34082127217829	1577.247137348616	-0	2.235091506529308	0	-0.09158252989541334	0	-9.272574182802606e-19	0	0	0.09672799223620711	0
0.3441510510845415	-0.5483449090209277	0.1312030596110159	-0	2.010826608844486	0	0.09478689634274365	-71.54291199464652	1519.926807319399	-0	2.240739468687819	0	-0.09177308163522309	0	3.022829398088452e-18	0	0	0.08565205175672254	0
0.3466269579268764	-0.5034524020936805	0.120097752297443	-0	2.027599792455399	0	0.09478689634274365	-56.04335788821577	1454.447699050479	-0	2.246250900625242	0	-0.09196060662227895	0	1.839562824484946e-18	0	0	0.07319277579334803	0
0.3491028647692112	-0.4597977640936963	0.1094041823551943	-0	2.044459121813824	0	0.09478689634274365	-37.54994496050202	1390.956675708642	-0	2.252278016401831	0	-0.09216572933874582	0	1.831732679930906e-18	0	0	0.06194930533795405	0
0.351578771611546	-0.418025458010426	0.09924371568587353	-0	2.0613935365919	0	0.09478689634274366	-28.86220714082382	1337.600368650626	-0	2.259211785766799	0	-0.09240520323890436	0	7.150736597843521e-18	0	0	0.0519245687970798	0
0.3540546784538808	-0.3781645561112937	0.08959528004942874	-0	2.078396594250497	0	0.09478689634274365	-19.42164181901765	1297.65683696752	-0	2.267742394941676	0	-0.09270100144342727	0	1.803464905228851e-18	0	0	0.04202528788270744	0
0.3565305852962157	-0.3400009823203202	0.08038925917348155	-0	2.095468688485829	0	0.09478689634274365	-13.06206842017258	1265.370670013782	-0	2.278095000544335	0	-0.09306224345639086	0	7.668280646911578e-19	0	0	0.03000696595475608	0
0.3590064921385505	-0.3038254437945656	0.0716898253132431	-0	2.112610359576891	0	0.09478689634274365	-14.30795017519672	1223.094508022809	-0	2.289440462619596	0	-0.0934610878887613	0	-8.439465130657878e-19	0	0	0.01509512760295499	0
0.3614823989808853	-0.2718414816471523	0.06403355651167816	-0	2.129802787524705	0	0.09478689634274365	-21.24779169568859	1167.769046969601	-0	2.300844353401375	0	-0.09386437909135303	0	3.725458176680314e-19	0	0	0.001516436729688963	0
0.3639583058232201	-0.2460913828901324	0.05790860954810634	-0	2.147014303857014	0	0.09478689634274365	-26.23670702162626	1110.547143724599	-0	2.312232297250093	0	-0.09426764982648971	0	1.455504054333539e-18	0	0	-0.005753667347392705	0
0.366434212665555	-0.2281870186951926	0.05369261675985212	-0	2.164194312419173	0	0.09478689634274365	-31.83903229007453	1052.064805640625	-0	2.323822904984322	0	-0.09467984088405	0	-1.326671389419526e-19	0	0	-0.002817595658269808	0
0.3689101195078898	-0.2183919684471571	0.05143498865571988	-0	2.181292368458339	0	0.09478689634274363	-23.48529317695639	1050.354105608566	-0	2.327408930634306	0	-0.09480269586784422	0	-4.131375415376076e-18	0	0	0.0006950005004832246	0
0.3713860263502247	-0.2136020791666683	0.05036310943086804	-0	2.198302319449568	0	0.09478689634274365	-4.967292554805394	1066.112686514443	-0	2.327218357118404	0	-0.0947872522664012	0	1.184785277369786e-18	0	0	2.285114546280381e-05	0
0.3738619331925594	-0.2109524648187421	0.04976966041441885	-0	2.215243214447364	0	0.09478689634274365	11.75419818792186	1070.21899051621	-0	2.327427300445446	0	-0.09478689906484625	0	8.338519426537166e-19	0	0	2.37256668473969e-07	0
0.3763378400348943	-0.2090487357201107	0.04931997124550053	-0	2.232144901821286	0	0.09478689634274363	27.14899914785338	1067.283118882665	-0	2.327631289531245	0	-0.09478689635553067	0	-1.596774895553688e-18	0	0	1.443402504141257e-09	0
0.3788137468772291	-0.2069562832070534	0.04879438425693465	-0	2.249035536587106	0	0.09478689634274366	41.51211853242314	1058.79015062999	-0	2.327825132039087	0	-0.09478689634278961	0	1.902387240370675e-18	0	0	6.496414261516395e-12	0
0.381289653719564	-0.2041946218226747	0.04808733218374885	-0	2.265937429768795	0	0.09478689634274365	54.78195416183929	1045.684590151476	-0	2.328008814945138	0	-0.09478689634274379	0	-2.771365136633896e-19	0	0	2.457467682617232e-14	0
0.3837655605618988	-0.2004101676158759	0.04712445528845419	-0	2.282869016091783	0	0.09478689634274363	67.11456957869086	1028.996398743524	-0	2.328184286461705	0	-0.09478689634274363	0	-3.583736705973598e-18	0	0	-7.242934926664295e-16	0
0.3862414674042337	-0.1955177294718945	0.04589479607901033	-0	2.299841035846292	0	0.09478689634274366	78.38385697344418	1009.413632015765	-0	2.328350056727727	0	-0.09478689634274365	0	2.470337196421064e-18	0	0	1.708199100922217e-16	0
0.3887173742465685	-0.1895067327143524	0.04440352867253638	-0	2.316861212251423	0	0.09478689634274365	88.74742711794062	987.6214304908424	-0	2.328507700705462	0	-0.09478689634274365	0	-1.590842370237671e-18	0	0	4.278152633830063e-16	0
0.3911932810889033	-0.1824208883737489	0.04266577515274942	-0	2.333933197937779	0	0.09478689634274365	98.17276263223732	964.0391025617008	-0	2.328656565919081	0	-0.09478689634274365	0	-2.423293671420602e-19	0	0	3.225752694674312e-16	0
0.3936691879312381	-0.1743293578520783	0.04070127996413289	-0	2.351059437801573	0	0.09478689634274365	106.751783316597	939.0851711774275	-0	2.328797404858832	0	-0.09478689634274365	0	-3.153165541223899e-19	0	0	4.461843898348741e-16	0
0.396145094773573	-0.1652724030043685	0.03852125613843656	-0	2.368241247115926	0	0.09478689634274365	114.4267954258528	912.9603376387796	-0	2.328929233509127	0	-0.09478689634274365	0	-3.990801605771796e-19	0	0	6.837781386097314e-16	0
0.3986210016159078	-0.1552366533086566	0.03612315302571784	-0	2.385480629673931	0	0.09478689634274365	121.2461322533219	885.8685712952745	-0	2.329052398527499	0	-0.09478689634274365	0	-2.111610264016567e-19	0	0	4.70237539840516e-16	0
0.4010969084582426	-0.1440197496260782	0.03345879585414534	-0	2.402783945762845	0	0.09478689634274365	127.1407158445694	857.8801275023069	-0	2.329165823543445	0	-0.09478689634274365	0	-8.233294732249888e-19	0	0	7.831012859878951e-16	0
0.4035728153005774	-0.1314822482884074	0.03049564702910176	-0	2.420160033242579	0	0.09478689634274365	132.2826576152353	829.0390846690141	-0	2.329272144122523	0	-0.09478689634274366	0	-6.567294542464157e-19	0	0	2.34979949472551e-15	0
0.4060487221429123	-0.1176731852334783	0.0272464701682188	-0	2.437619843511362	0	0.09478689634274365	136.8578363175822	799.3374309643168	-0	2.329374697558814	0	-0.09478689634274365	0	-2.721996901182105e-19	0	0	-3.284318982345933e-16	0
0.4085246289852471	-0.1029156081463013	0.02378848197024068	-0	2.455173482238386	0	0.09478689634274365	140.9184351960641	768.8787693704326	-0	2.32947464408768	0	-0.09478689634274366	0	6.444858767962229e-19	0	0	1.514080615501948e-15	0
0.4110005358275819	-0.08794413507664066	0.02029453556912868	-0	2.472824156866294	0	0.09478689634274365	144.4122703636299	737.7324667993431	-0	2.32957157246336	0	-0.09478689634274363	0	4.643210050692772e-19	0	0	-1.521411007268995e-15	0
0.4134764426699168	-0.07346603375960976	0.01692834288441216	-0	2.490571292112729	0	0.09478689634274365	147.3267019249837	705.9768161244475	-0	2.329665708375542	0	-0.09478689634274365	0	1.345076054072145e-19	0	0	2.381017880154841e-16	0
0.4159523495122516	-0.05997944209141928	0.01380272727830708	-0	2.508411848792667	0	0.09478689634274365	149.5957353558958	673.6529456164833	-0	2.329756442448276	0	-0.09478689634274365	0	-6.278119288263928e-20	0	0	-1.027642091251155e-16	0
0.4184282563545864	-0.04783694354445391	0.01099625277872845	-0	2.526342314730025	0	0.09478689634274365	151.1896905637462	640.8153571237023	-0	2.329843791924228	0	-0.09478689634274365	0	8.482014903703621e-20	0	0	-6.162714431099892e-16	0
0.4209041631969213	-0.03724688720317958	0.008554108953812607	-0	2.54435868438609	0	0.09478689634274365	152.0618961909388	607.5108717418657	-0	2.329927451396749	0	-0.09478689634274365	0	-2.754454685663283e-21	0	0	4.476412624165958e-16	0
0.4233800700392561	-0.02830048448015986	0.006494838208067654	-0	2.562456374734047	0	0.09478689634274365	152.1952896084795	573.8003846751761	-0	2.330007715745368	0	-0.09478689634274365	0	9.977182959100165e-20	0	0	7.050609181157871e-16	0
0.4258559768815909	-0.02099279948270619	0.004815321640417661	-0	2.58062928181702	0	0.09478689634274365	151.5797321690659	539.7423857322246	-0	2.330085060925118	0	-0.09478689634274365	0	9.893288425312988e-20	0	0	1.925621333995311e-16	0
0.4283318837239257	-0.01521540320939127	0.003489091405161321	-0	2.598870255007342	0	0.09478689634274366	149.3498246880847	503.7917755376022	-0	2.330150678179359	0	-0.09478689634274365	0	2.380621037133619e-19	0	0	6.285647170010964e-16	0
0.4308077905662606	-0.01078846222016233	0.002473745711200371	-0	2.617171146116136	0	0.09478689634274365	145.3142769269103	464.3501557505925	-0	2.330214372474091	0	-0.09478689634274365	0	4.893667025027078e-20	0	0	-5.891041196875883e-16	0
0.4332836974085954	-0.007486181912856916	0.001716744766531564	-0	2.635523826784244	0	0.09478689634062397	140.817615430323	422.9132158650142	-0	2.330307261326988	0	-0.09478689634274365	0	-2.549579111382665e-16	0	0	-4.493600098471644e-16	0
0.4357596042509302	-0.00504753188792541	0.001157756092639068	-0	2.653927570027181	0	0.09478689633368097	136.2114947263171	381.0342514157367	-0	2.330436220825158	0	-0.09478689634274365	0	-7.026890265131575e-16	0	0	6.29108542552305e-16	0
0.4382355110932651	-0.003257210118268758	0.0007472602715175917	-0	2.672387596491318	0	0.09478689630234524	130.965730706542	338.7327432365074	-0	2.330597624315894	0	-0.09478689634274365	0	-1.925462232684198e-15	0	0	3.32292490124816e-16	0
0.4407114179355999	-0.001945958451194937	0.0004464643446562531	-0	2.690923163624827	0	0.09478689617757145	124.5743566980658	296.011773761823	-0	2.330789995940944	0	-0.09478689634274365	0	-4.46344711889922e-15	0	0	-5.066290499174018e-16	0
0.4431873247779348	-0.001002310388384548	0.0002299107442942509	-0	2.709563471621183	0	0.09478689550626662	115.1550211220801	252.9797400806525	-0	2.330949144848545	0	-0.09478689634274365	0	-1.100917811256854e-14	0	0	-4.347666045469418e-16	0
0.4456632316202696	-0.0003564900892489386	8.171926481648029e-05	-0	2.728349782662351	0	0.09478689045535367	101.0089473484017	210.8414811526132	-0	2.330956508963891	0	-0.09478689634274365	0	-2.598639044923254e-14	0	0	-2.251037285991552e-16	0
0.4481391384626044	-4.770718645850081e-07	1.092478749259452e-07	-0	2.747157216271158	0	0.09477603331184313	84.00369108637646	171.6128810883426	-0	2.330793019415988	0	-0.09478689634274366	0	-6.015175717144055e-14	0	0	1.363899886420924e-15	0
0.4506150453049392	5.342214261357092e-06	-1.221689282508532e-06	-0	2.766530201161693	0	0.09478927032816122	66.4327132388154	137.1255744712421	-0	2.330458344589724	0	-0.09478689634274365	0	-1.377960438379314e-13	0	0	-3.294287723559427e-16	0
0.4530909521472741	1.594321887376139e-07	-3.639241341644992e-08	-0	2.789192090759263	0	0.09497902394624047	49.60580511965537	107.8597567380863	-0	2.32993611200967	0	-0.09478689634274365	0	-3.192689483865649e-13	0	0	-4.103214659216969e-16	0
0.4555668589896089	-1.054173889475478e-08	2.433205544670003e-09	-0	2.679073975219422	0	0.08791484515931176	34.80122728290974	82.90092207403603	-0	2.329298414662869	0	-0.09478689634274365	0	2.13792845080891e-13	0	0	3.123321521725301e-17	0
0.4580427658319437	-3.319827141071988e-08	7.624147379560329e-09	-0	2.722648913759399	0	0.08955759392617671	22.46003068749141	60.90732299977002	-0	2.328618264416681	0	-0.09478689634274365	0	3.15285144904545e-15	0	0	-6.664292633718885e-17	0
0.4605186726742786	-7.94628134194876e-08	1.821571373649364e-08	-0	2.736227010351354	0	0.08956884114702988	12.51498757867009	39.76876185775635	-0	2.327988065797052	0	-0.09478689634274365	0	7.738951057227571e-17	0	0	-6.489057673192208e-17	0
0.4629945795166134	-1.898980943472441e-07	4.346970001686907e-08	-0	2.749558404337419	0	0.08956897278015324	4.895358634928026	18.51176954735588	-0	2.327475928518287	0	-0.09478689634274365	0	2.668728258776934e-18	0	0	9.902972492087509e-18	0
0.4654704863589482	-4.535395804520127e-07	1.037180745161112e-07	-0	2.762852488809554	0	0.08956897501966316	-0.03675001805949907	-0.1842412622209086	-0	2.326923261681507	0	-0.09478689634274365	0	1.310021229872813e-19	0	0	-5.206364514667045e-20	0
0.4679463932012831	-1.080704335149005e-06	2.469996094233277e-07	-0	2.776117498562725	0	0.08956897507701157	0.04165186645059647	-0.1190392560273994	-0	2.32256760590664	0	-0.09478689634274365	0	7.931294004241626e-21	0	0	-8.798419568618925e-20	0
0.4704223000436179	-2.566584169629392e-06	5.86395580719453e-07	-0	2.789373721901925	0	0.08956897507902165	1.582516179293021e-08	-1.490597554964531e-08	-0	2.318279733349335	0	-0.09478689634274365	0	3.643594104976824e-22	0	0	3.753659502369409e-26	0
0.4728982068859527	-6.058038290818351e-06	1.384764883528577e-06	-0	2.802571448230416	0	0.08956897507908691	-0	-0	-0	0	0	0	0	-9.995499288685124e-23	0	0	0	0
0.4753741137282875	-1.405702196373684e-05	3.226272708398356e-06	-0	2.815474653737419	0	0.08956897507908834	-0	-0	-0	0	0	0	0	1.7972222154666e-22	0	0	0	0
0.4778500205706224	-3.180209187848756e-05	7.370552941222046e-06	-0	2.82789572152789	0	0.08956897507908834	-0	-0	-0	0	0	0	0	-6.101504214937658e-22	0	0	0	0
0.4803259274129572	-6.956481863105812e-05	1.636547496432902e-05	-0	2.839859875953342	0	0.08956897507908836	-0	-0	-0	0	0	0	0	3.680535479351127e-22	0	0	0	0
0.482801834255292	-0.0001460907435255414	3.503639402758163e-05	-0	2.85142656942903	0	0.08956897507908836	-0	-0	-0	0	0	0	0	6.502974481675393e-22	0	0	0	0
0.4852777410976269	-0.0002937366494506497	7.205552378805399e-05	-0	2.862664120406798	0	0.08956897507908836	-0	-0	-0	0	0	0	0	-1.686042530428582e-21	0	0	0	0
0.4877536479399617	-0.0005659672379141332	0.0001423717648827784	-0	2.873609138315405	0	0.08956897507908836	-0	-0	-0	0	0	0	0	8.896206860392333e-22	0	0	0	0
0.4902295547822966	-0.001048563100817412	0.0002710873659268795	-0	2.88426328946699	0	0.08956897507908836	-0	-0	-0	0	0	0	0	3.359199794650978e-21	0	0	0	0
0.4927054616246314	-0.001876801623676068	0.0004996501617701494	-0	2.894615358467366	0	0.08956897507908834	-0	-0	-0	0	0	0	0	-2.58906942648678e-20	0	0	0	0
0.4951813684669662	-0.003265974556917695	0.0008970051173942198	-0	2.904645403767294	0	0.08956897507908834	7.069151364914461e-15	-3.612087990654702e-15	-0	0	0	0	0	8.011465372118126e-21	0	0	-6.700629176573117e-16	0
