DataType=double
version=3
OpenSimVersion=4.6-2026-06-22-85aaf64
endheader
time	ground_force_r_vx	ground_force_r_vy	ground_force_r_vz	ground_force_r_px	ground_force_r_py	ground_force_r_pz	ground_force_l_vx	ground_force_l_vy	ground_force_l_vz	ground_force_l_px	ground_force_l_py	ground_force_l_pz	ground_torque_r_x	ground_torque_r_y	ground_torque_r_z	ground_torque_l_x	ground_torque_l_y	ground_torque_l_z
0	-0.001696368969675484	0.0004891657831027579	-0	1.18754591628606	0	0.08956669187644135	-0	-0	-0	0	0	0	0	-3.83481194519762e-13	0	0	0	0
0.002620373556074197	-0.003233516853967336	0.0009618046547317609	-0	1.197295574856967	0	0.08957710632839896	-0	-0	-0	0	0	0	0	2.598367451295977e-11	0	0	0	0
0.005240747112148394	-0.005980648243204934	0.001838254141482035	-0	1.206990976256016	0	0.08959536373384148	-0	-0	-0	0	0	0	0	2.645117534548532e-10	0	0	0	0
0.007861120668222591	-0.01071265876473554	0.003405045314252604	-0	1.215671372839566	0	0.08958845694030783	-0	-0	-0	0	0	0	0	4.532342729157966e-10	0	0	0	0
0.01048149422429679	-0.0187978142124564	0.006179875275958676	-0	1.224074188073397	0	0.08958145099143906	3.334505670421921e-15	-1.825345816288635e-15	-0	0	0	0	0	5.836046643668486e-10	0	0	-3.160674433365735e-16	0
0.01310186778037099	-0.03255185773612046	0.01106618963015263	-0	1.232279635370744	0	0.08957688564310903	1.218223865704185e-13	-6.494192394634785e-14	-0	0.732383375018156	0	-0.09478689634274365	0	6.832365356620297e-10	0	0	1.80597645794979e-31	0
0.01572224133644518	-0.05604342763436532	0.01969588672081713	-0	1.240260200044905	0	0.08957418287693646	5.678479451641465e-12	-2.939024459458665e-12	-0	0.7400339501732056	0	-0.09478689634274365	0	7.840272988379138e-10	0	0	2.297577285465178e-29	0
0.01834261489251938	-0.09657624013957253	0.03507849843367464	-0	1.247982214224994	0	0.08957260266777457	3.229351411473499e-10	-1.617433545873695e-10	-0	0.7480042872728935	0	-0.09478689634274363	0	9.120344130352058e-10	0	0	-7.090455991817905e-27	0
0.02096298844859358	-0.1677324936053945	0.06296119684550662	-0	1.25541439190111	0	0.08957166803964811	2.208119395211656e-08	-1.06789322886007e-08	-0	0.7563200648353386	0	-0.09478689634274365	0	1.093858497872213e-09	0	0	1.264799771924562e-25	0
0.02358336200466777	-0.2955045974025771	0.1146554133513558	-0	1.262531396703386	0	0.08957110877579996	1.704954731786901e-06	-7.952281935396536e-07	-0	0.7649927187219138	0	-0.09478689634274365	0	1.365279475384902e-09	0	0	-4.186141726749875e-24	0
0.02620373556074197	-0.5320063368430018	0.2135299157529152	-0	1.269298223320853	0	0.08957077078005156	0.0001263356610057139	-5.679159997208625e-05	-0	0.7740252338095071	0	-0.09478689634274365	0	1.790877479737981e-09	0	0	3.636058055728814e-22	0
0.02882410911681617	-0.9837538762217586	0.4089559519471171	-0	1.275684420521249	0	0.08957057578082543	0.001699834492881886	-0.0007364905733720229	-0	0.7834100531050064	0	-0.09478689634274365	0	2.474137213855336e-09	0	0	-8.958123693457054e-21	0
0.03144448267289036	-1.86536617687112	0.8038385084407411	-0	1.281688341316218	0	0.08957049521360978	-0.02340108448837661	0.009784361559126179	-0	0.7931157001708136	0	-0.09478689634274365	0	3.488040083827841e-09	0	0	2.064934476435248e-19	0
0.03406485622896456	-3.607773460850558	1.612351576477946	-0	1.287322078082173	0	0.08957052688803693	-0.03739126715207391	0.01511296871434087	-0	0.8031095222182062	0	-0.09478689634274365	0	4.583769910692496e-09	0	0	1.874830889531289e-19	0
0.03668522978503876	-7.055181129607945	3.273523565083472	-0	1.292594700577784	0	0.08957071160849292	-0.04471112836756064	0.01748883825491163	-0	0.8133826827970181	0	-0.09478689634274365	0	3.434083685177931e-09	0	0	3.075883793365077e-19	0
0.03930560334111296	-13.76677118738219	6.64411778870583	-0	1.297517465631924	0	0.08957115322826507	-0.04959710245101959	0.01878871255609077	-0	0.8239340398738316	0	-0.09478689634274365	0	-1.231546838058012e-08	0	0	-4.234053729594434e-19	0
0.04192597689718715	-26.23693817811951	13.21197716239435	-0	1.302093347934954	0	0.08957209367728412	-0.05405776961452278	0.01985164046029777	-0	0.8347598480043081	0	-0.09478689634274365	0	-9.676178607666729e-08	0	0	-2.341769015353476e-19	0
0.04454635045326134	-47.05134539370731	24.86208882018012	-0	1.306329720728441	0	0.08957423262166869	-0.05907795681791433	0.02105950271222558	-0	0.8458515092722163	0	-0.09478689634274365	0	-4.97279696274725e-07	0	0	1.702921242511784e-19	0
0.04716672400933555	-75.9032698800422	42.49315932477525	-0	1.310264667142136	0	0.08957985316320269	-0.06522874272483908	0.02261976247165286	-0	0.8571816726324547	0	-0.09478689634274365	0	-2.440110883159195e-06	0	0	2.452435617570333e-19	0
0.04978709756540974	-116.786841479715	70.15884295322141	-0	1.314052285127645	0	0.08959453680204053	-0.07293415552601977	0.02467044027838932	-0	0.8687228098986365	0	-0.09478689634274365	0	-1.183963890033303e-05	0	0	-2.360697785854915e-20	0
0.05240747112148395	-205.1104228315243	136.5979220687935	-0	1.317855369115553	0	0.08962618367562489	-0.08272181737943132	0.02736617435764045	-0	0.8804526281884293	0	-0.09478689634274363	0	-6.559680459443134e-05	0	0	5.131845987821486e-19	0
0.05502784467755814	-337.4132217789459	270.1895816523576	-0	1.322938420218408	0	0.08971983784227945	-0.09502116710339854	0.03082172652382317	-0	0.8923519677685954	0	-0.09478689634274365	0	-0.0004774095224741263	0	0	-7.399121562232243e-19	0
0.05764821823363234	-430.0858332046323	466.7298699527864	-0	1.333529541690951	0	0.09002828549527603	-0.110047330212745	0.03507250388731535	-0	0.9044156659796746	0	-0.09478689634274365	0	-0.002918439719452693	0	0	2.017375664356676e-19	0
0.06026859178970653	-102.2234574307058	741.0715853990594	-0	1.348899686168086	0	0.09047884517132308	-0.128526108259718	0.04031327170959292	-0	0.9166425022120602	0	-0.09478689634274365	0	-0.04594833121300765	0	0	3.513565493743148e-19	0
0.06288896534578073	-324.1869009436238	1107.854785529071	-0	1.361467304278783	0	0.09093674733629269	-0.1503675701940032	0.04648841127301052	-0	0.9290290393367088	0	-0.09478689634274365	0	-0.02790565318646921	0	0	-1.40622035637138e-19	0
0.06550933890185492	-178.0391639227539	1305.983485898471	-0	1.357679382356278	0	0.09077989621649049	-0.1748695373222411	0.05334097236871816	-0	0.9415916650357866	0	-0.09478689634274365	0	0.007236220310577952	0	0	1.277054141785025e-18	0
0.06812971245792912	-206.3530673465908	1391.006866895577	-0	1.349767006538597	0	0.09050814042135406	-0.2021535474755191	0.06085534737120164	-0	0.9543602353438551	0	-0.09478689634274365	0	0.0256363157333887	0	0	8.025949414406602e-19	0
0.07075008601400332	-122.4061258864941	1462.334559692721	-0	1.347854414763307	0	0.09043202324385929	-0.2319139375872059	0.06889825946999294	-0	0.9673532197869418	0	-0.09478689634274365	0	0.02960396113969067	0	0	1.476927865214092e-19	0
0.07337045957007753	-181.0077743036969	1506.653259084218	-0	1.346626954484633	0	0.09040259018287898	-0.2636677801615064	0.07730519897024751	-0	0.9805804143717329	0	-0.09478689634274365	0	0.03052790303824269	0	0	1.057575399950967e-18	0
0.07599083312615172	-138.298159591131	1530.408309886922	-0	1.346951911401525	0	0.09040997458019374	-0.2964931857855884	0.08580250638767238	-0	0.994046837855718	0	-0.09478689634274366	0	0.02896755998509745	0	0	-5.732060635817502e-18	0
0.0786112066822259	-175.5227709828665	1535.900266011173	-0	1.346536320852443	0	0.09040491804285024	-0.3293599084037471	0.09411153237883187	-0	1.007751301103237	0	-0.09478689634274365	0	0.02769696604062783	0	0	-2.624399311309962e-19	0
0.0812315802383001	-142.9563446357009	1533.260111998245	-0	1.346949820404149	0	0.09041544926976411	-0.3609201003493048	0.1018857675348874	-0	1.021689303467269	0	-0.09478689634274365	0	0.0253857887953592	0	0	1.324951682696879e-18	0
0.08385195379437431	-161.5372368109913	1523.481602745465	-0	1.34673560266751	0	0.09041341958445191	-0.3898063667734666	0.1087900533459104	-0	1.035853213586204	0	-0.09478689634274365	0	0.02390169661472407	0	0	3.267335338469493e-18	0
0.08647232735044851	-120.8784927026356	1532.797399009605	-0	1.349708498516343	0	0.09051023950884263	-0.4143880889867599	0.1144299122493773	-0	1.050234174217437	0	-0.09478689634274365	0	0.01554947200019682	0	0	-2.001090660460537e-18	0
0.0890927009065227	-118.2938189884428	1583.963465699187	-0	1.357677279827572	0	0.09078803609558572	-0.4325928379176423	0.1182823968093542	-0	1.064829158158118	0	-0.09478689634274366	0	-0.01324505758620169	0	0	-7.438566509610484e-18	0
0.09171307446259688	-122.2591736603136	1633.967430219832	-0	1.367649616286437	0	0.09113535320451924	-0.4422923250457433	0.1198069982147469	-0	1.079641991358208	0	-0.09478689634274365	0	-0.05371049389981935	0	0	3.025075450981374e-18	0
0.09433344801867109	-142.6521102873043	1623.121296503398	-0	1.374690784768095	0	0.09138294605899688	-0.4424913704848638	0.1187880183808301	-0	1.094677347996662	0	-0.09478689634274365	0	-0.06809574099985223	0	0	-1.304651772515205e-18	0
0.09695382157474529	-117.917803903079	1566.669626766216	-0	1.380305959317487	0	0.09157229640049418	-0.4332770825591441	0.1153277935450266	-0	1.109932108589441	0	-0.09478689634274365	0	-0.06554801060347215	0	0	-3.332618778246724e-19	0
0.09957419513081948	-106.9323382427228	1493.340050569273	-0	1.385364345441221	0	0.09174515278924265	-0.4161099692596819	0.1099035791080041	-0	1.125388284402624	0	-0.09478689634274365	0	-0.05810867076670356	0	0	2.37036628598898e-18	0
0.1021945686868937	-82.00873671133814	1412.281092309403	-0	1.390476237769886	0	0.0919169740645768	-0.3932137023043045	0.1031571211771532	-0	1.141022154308041	0	-0.09478689634274365	0	-0.04956028116158757	0	0	2.970068309899182e-18	0
0.1048149422429679	-69.80193294101893	1331.008069838822	-0	1.395271577911952	0	0.09208053749724181	-0.3670154277824069	0.09573458370615172	-0	1.156807216699731	0	-0.09478689634274365	0	-0.04052939479857001	0	0	3.031631361603462e-18	0
0.1074353157990421	-51.53021268333571	1254.927886604072	-0	1.400080357863692	0	0.09224300941940429	-0.3397905201166663	0.08821645299127212	-0	1.172715370239906	0	-0.09478689634274363	0	-0.03214741453906024	0	0	5.506932220545391e-18	0
0.1100556893551163	-42.2385956744098	1183.004307697296	-0	1.404570653801322	0	0.09239655239471631	-0.3132955752088882	0.08102878893677895	-0	1.188720737235452	0	-0.09478689634274365	0	-0.02427478032960898	0	0	-3.17220794623392e-20	0
0.1126760629111905	-30.13153164208037	1116.058851128367	-0	1.409126211501904	0	0.09255161487907894	-0.2886921163696569	0.07443788995061744	-0	1.204799051829063	0	-0.09478689634274365	0	-0.01734154087703114	0	0	-9.386728846726174e-19	0
0.1152964364672647	-24.11104385477218	1052.069922857882	-0	1.413573267476543	0	0.09270468652182548	-0.2662530288093162	0.06848099999005826	-0	1.220933335715144	0	-0.09478689634274365	0	-0.01119859599475192	0	0	4.782407940650607e-19	0
0.1179168100233389	-16.7513337982042	993.6371627944829	-0	1.418393930534416	0	0.09287062559139554	-0.2459260233881688	0.06311972061751174	-0	1.237110055494941	0	-0.09478689634274365	0	-0.005953847377904826	0	0	-6.928759416197491e-19	0
0.1205371835794131	-13.94698492163582	942.3001818370385	-0	1.423627238494864	0	0.09305279590699302	-0.2275894073535212	0.05830745851263502	-0	1.253319909586333	0	-0.09478689634274365	0	-0.001398716720275321	0	0	1.187821258807237e-18	0
0.1231575571354872	-6.120724740581319	907.9454323131474	-0	1.430495811581798	0	0.09329126194068127	-0.2111760869257917	0.05401821083676155	-0	1.26955380877293	0	-0.09478689634274365	0	0.002743187546662151	0	0	1.157987934957874e-18	0
0.1257779306915615	3.05215885055426	891.153953164503	-0	1.439741071793722	0	0.09361377423819041	-0.196846827284034	0.05029072739497861	-0	1.285799534138391	0	-0.09478689634274363	0	0.006822853103957745	0	0	1.114847497605262e-18	0
0.1283983042476357	5.504092029592906	871.2238006850731	-0	1.450251229541382	0	0.09398414595372677	-0.1848508835380014	0.04718785072798071	-0	1.302042398384373	0	-0.09478689634274365	0	0.009565542708498794	0	0	1.671303106998538e-18	0
0.1310186778037098	2.293323346688778	839.6864747956869	-0	1.460938197569892	0	0.09436368915273735	-0.176025331602387	0.04492979620940094	-0	1.318253215129118	0	-0.09478689634274363	0	0.00842427150869287	0	0	3.838005695184535e-18	0
0.133639051359784	-0.7782660382325964	807.0555115472645	-0	1.471350551417052	0	0.09473442045413934	-0.1710957377978223	0.04370405256729838	-0	1.334397535614747	0	-0.09478689634274363	0	0.001558101816655473	0	0	7.792972368027819e-19	0
0.1362594249158582	4.819437557020345	816.263002785711	-0	1.473368889950292	0	0.09480244924870471	-0.1699949213819165	0.04348131670343546	-0	1.350453542814467	0	-0.09478689634274365	0	-0.0006420231900997825	0	0	-1.053351836834367e-18	0
0.1388797984719324	18.54568246962899	830.40210963127	-0	1.473162070116618	0	0.09478748782450548	-0.1724100286635962	0.04416764434637196	-0	1.36641193000199	0	-0.09478689634274365	0	-3.242212180056914e-05	0	0	-3.610544507423243e-19	0
0.1415001720280066	29.50617079459583	836.7886863473857	-0	1.473317790398143	0	0.09478690640724576	-0.1774230186313324	0.04551019614200583	-0	1.382287902149798	0	-0.09478689634274365	0	-7.085494226377889e-07	0	0	-1.611531009960392e-18	0
0.1441205455840809	40.17317389770317	838.5324684668708	-0	1.473484142771477	0	0.09478689646175856	-0.1841743226312297	0.04727507260103748	-0	1.398104546255328	0	-0.09478689634274365	0	-1.047844365201242e-08	0	0	3.003521442888871e-19	0
0.1467409191401551	49.55693681557517	834.9766755821795	-0	1.473634499049744	0	0.09478689634389997	-0.192336157647675	0.04937952858776757	-0	1.413881660804976	0	-0.09478689634274365	0	-1.241471679805715e-10	0	0	-1.523641436846793e-18	0
0.1493612926962292	59.58430149338764	831.6036937171979	-0	1.473791024350247	0	0.09478689634275368	-0.2017048967337088	0.05177508806127082	-0	1.429634855131162	0	-0.09478689634274365	0	-1.297613380097306e-12	0	0	-1.168577450919313e-18	0
0.1519816662523034	68.64562210932057	833.1691677355277	-0	1.473926385355805	0	0.09478689634274373	-0.2122276749948949	0.05445256974556349	-0	1.445373856659451	0	-0.09478689634274365	0	-1.296606197606268e-14	0	0	1.414397879670825e-18	0
0.1546020398083776	76.27585552690945	837.4885236596025	-0	1.474035184350276	0	0.09478689634274363	-0.2238461243320762	0.05740084684719733	-0	1.461106480256535	0	-0.09478689634274365	0	3.436782149672023e-16	0	0	-2.684208812445956e-19	0
0.1572224133644518	83.11409524667782	840.7678498767394	-0	1.474130890900096	0	0.09478689634274365	-0.2365005547869027	0.06060711812264246	-0	1.476837458157146	0	-0.09478689634274365	0	-4.167918991323156e-16	0	0	1.455440753120042e-18	0
0.159842786920526	89.75929177834784	841.8485066507327	-0	1.474223844620962	0	0.09478689634274365	-0.2501134170083863	0.06405413960332532	-0	1.492570584428432	0	-0.09478689634274365	0	6.176104692427816e-16	0	0	1.579993485517921e-18	0
0.1624631604766002	95.89211837586102	839.106852174075	-0	1.474312415677398	0	0.09478689634274363	-0.2645925596766415	0.06772063635154399	-0	1.508307844219225	0	-0.09478689634274365	0	2.145155800326613e-15	0	0	-1.376205900842798e-18	0
0.1650835340326744	102.2108260955262	833.1197936683755	-0	1.474406358293953	0	0.09478689634274365	-0.2798248873845899	0.07158027809300639	-0	1.524050666066955	0	-0.09478689634274365	0	8.450152696920616e-16	0	0	-3.090677939539623e-19	0
0.1677039075887486	108.1180990411386	824.2209004806762	-0	1.474497132266767	0	0.09478689634274363	-0.2956955663074614	0.07560616655663728	-0	1.539799429212583	0	-0.09478689634274365	0	1.904875791708783e-15	0	0	-2.23542287835615e-19	0
0.1703242811448228	113.8319452141494	812.8367121931969	-0	1.474587814466707	0	0.09478689634274366	-0.3120431796190107	0.07975924225574436	-0	1.555554312349146	0	-0.09478689634274365	0	-7.256582616936388e-16	0	0	-9.022084301236387e-19	0
0.172944654700897	118.95798263864	799.0952259177785	-0	1.474672913026911	0	0.09478689634274366	-0.3285585903142854	0.08396121000324663	-0	1.571316170227681	0	-0.09478689634274366	0	-1.798240219395209e-15	0	0	-4.440888773043228e-18	0
0.1755650282569712	123.7215651841037	783.2495980233248	-0	1.4747559980059	0	0.09478689634274363	-0.3447894862303146	0.08809612398771099	-0	1.587086754767509	0	-0.09478689634274365	0	9.843978641074989e-16	0	0	-9.060005753533482e-19	0
0.1781854018130454	128.0791918402668	765.3748495749848	-0	1.474836936747449	0	0.09478689634274366	-0.3601666211515754	0.0920167375983245	-0	1.602869420127037	0	-0.09478689634274365	0	-2.134780190068751e-15	0	0	-1.968253717995065e-18	0
0.1808057753691196	132.1874007505072	745.7421184041225	-0	1.474918349789808	0	0.09478689634274363	-0.3737650688711084	0.0954817060180165	-0	1.618669013746328	0	-0.09478689634274365	0	1.2753310066217e-15	0	0	-7.682526382462005e-19	0
0.1834261489251938	135.945247747768	724.4099176578494	-0	1.474999275660003	0	0.09478689634274363	-0.3833662812389377	0.09791087387156892	-0	1.634499205197514	0	-0.09478689634274365	0	1.359644083057417e-15	0	0	2.101053811207771e-18	0
0.186046522481268	139.409511815748	701.5617618271866	-0	1.475081084950037	0	0.09478689634274365	-0.3864290880387358	0.09864720500475818	-0	1.650377459919787	0	-0.09478689634274366	0	2.653546991430953e-16	0	0	-4.700871698453919e-18	0
0.1886668960373422	142.4239939538957	677.2640970983944	-0	1.475161823010372	0	0.09478689634274365	-0.3813654763871024	0.09729381284950887	-0	1.666319378260903	0	-0.09478689634274365	0	5.599862714636878e-16	0	0	1.604978106760224e-18	0
0.1912872695934164	144.0962345501747	649.5566703768994	-0	1.475233983322733	0	0.09478689634274365	-0.367721341078415	0.09375123934828504	-0	1.682336188924773	0	-0.09478689634274365	0	-4.609763545836397e-16	0	0	3.288546167851831e-18	0
0.1939076431494906	144.2260169208382	616.1454944153767	-0	1.475305667573428	0	0.09478689634274365	-0.3473316113834714	0.08851148036548005	-0	1.698424822379802	0	-0.09478689634274365	0	5.034900314812258e-16	0	0	-3.31053964103619e-18	0
0.1965280167055648	144.3086207582146	579.6761517905144	-0	1.475399104218637	0	0.09478689634274365	-0.3231047885373828	0.08233243769988464	-0	1.714573572320956	0	-0.09478689634274365	0	1.600811934829801e-16	0	0	-7.210619862342154e-20	0
0.199148390261639	144.1994341305326	543.6421896402103	-0	1.475497475086628	0	0.09478689634274365	-0.2986884845633523	0.07614993510885927	-0	1.730755917110009	0	-0.09478689634274365	0	6.893657255434474e-16	0	0	-8.610401094061429e-19	0
0.2017687638177132	143.2166564990586	508.2200770909189	-0	1.475585407975143	0	0.09478689634274365	-0.2767566825512328	0.07064032017640215	-0	1.746941011186775	0	-0.09478689634274365	0	6.816806078210995e-16	0	0	1.432260967579583e-19	0
0.2043891373737874	141.4529361317438	472.9227017257598	-0	1.47566836077784	0	0.09478689634274365	-0.2576070111202399	0.06586119824990141	-0	1.76310501641452	0	-0.09478689634268087	0	-6.199447099950005e-16	0	0	3.145538916968771e-16	0
0.2070095109298616	139.065911253423	437.9027459343083	-0	1.475750314559019	0	0.09478689634274365	-0.2406873646972505	0.06165594758089264	-0	1.779231492923848	0	-0.09478689634261607	0	-4.586292022309462e-16	0	0	5.73968107565864e-16	0
0.2096298844859358	136.100698640357	403.1886932091513	-0	1.475833865743447	0	0.09478689634274366	-0.2243341109165662	0.05758325120998904	-0	1.795321789738936	0	-0.09478689634235464	0	-2.47830455815823e-15	0	0	1.548276925635647e-15	0
0.21225025804201	131.8111965314573	367.5140059115949	-0	1.475912392041156	0	0.09478689634274365	-0.2075481389523672	0.05337995128112915	-0	1.811381882282018	0	-0.09478689634141846	0	-2.08754866986661e-16	0	0	4.621449361995525e-15	0
0.2148706315980841	125.6671589726339	329.0217081847068	-0	1.475995682248022	0	0.09478689634274365	-0.1894886444752273	0.04882655768634057	-0	1.827425017191603	0	-0.09478689633815839	0	7.795453140831234e-16	0	0	1.380328352200535e-14	0
0.2174910051541583	118.1383172756384	288.1350373733576	-0	1.476108162806229	0	0.09478689634274365	-0.1694250589766464	0.04373144962088378	-0	1.843468877307435	0	-0.09478689632706255	0	-6.692517304195664e-16	0	0	3.988013758694785e-14	0
0.2201113787102325	109.0749857260422	246.3803914423498	-0	1.476240875146021	0	0.09478689634274365	-0.1477905047398338	0.03820955741616452	-0	1.859528938426783	0	-0.09478689628865671	0	1.454925082384226e-16	0	0	1.129824105545346e-13	0
0.2227317522663067	97.9767376632697	205.3110805820517	-0	1.476356081168659	0	0.09478689634274365	-0.1249839656470249	0.03236409935651934	-0	1.875620161130687	0	-0.09478689615470001	0	-5.811137800302751e-16	0	0	3.114302362024534e-13	0
0.2253521258223809	84.49866900663403	167.1609511474596	-0	1.476369950185064	0	0.09478689634274365	-0.100976915641858	0.02618437020686263	-0	1.891767950247283	0	-0.09478689567970516	0	-8.499535465537425e-16	0	0	8.289158116734671e-13	0
0.2279724993784551	69.571359514983	133.2734579806012	-0	1.476236786309211	0	0.09478689634274365	-0.07656145928089883	0.01987656913962174	-0	1.908003645155674	0	-0.09478689394312539	0	3.185119325660444e-16	0	0	2.119808397899725e-12	0
0.2305928729345293	54.63618012084691	104.3211283128986	-0	1.475947529757138	0	0.09478689634274363	-0.05396554532430353	0.01402525892170282	-0	1.924349203813897	0	-0.09478688737437271	0	4.051444251136837e-16	0	0	5.187689059565784e-12	0
0.2332132464906035	40.63110489865412	80.37126636797242	-0	1.475481609947811	0	0.09478689634274365	-0.03496340341056346	0.00909579183496126	-0	1.940819903887074	0	-0.09478686133314575	0	5.109022058598222e-17	0	0	1.215408607624357e-11	0
0.2358336200466777	28.2665114887661	60.78112259706131	-0	1.474854108164889	0	0.09478689634274365	-0.02028520546075045	0.005280984973488955	-0	1.957432021459039	0	-0.09478674831530973	0	-1.991321233558595e-16	0	0	2.763569429892285e-11	0
0.2384539936027519	17.76701172707586	43.88198876399309	-0	1.474129583227495	0	0.09478689634274365	-0.0101032449480146	0.002631250335228085	-0	1.974191645600835	0	-0.0947861800186898	0	4.336100181107544e-17	0	0	6.169102461623198e-11	0
0.2410743671588261	8.892539118773506	25.67265947709427	-0	1.473513943942707	0	0.09478689634274363	-0.003949270658972429	0.001028947398053268	-0	1.991028379256808	0	-0.09478253309545551	0	7.826450068479052e-17	0	0	1.345132554072773e-10	0
0.2436947407149003	1.832653934741586	5.918574865183097	-0	1.473157123459855	0	0.09478689634274365	-0.000676451150038043	0.0001763933558341785	-0	2.006862724007284	0	-0.09472695725062719	0	1.252675383742957e-17	0	0	2.81467222459755e-10	0
0.2463151142709745	-0.5309498083256626	-2.394562500541495	-0	1.472501915742199	0	0.09478689634274365	8.878234344330023e-05	-2.315943188760357e-05	-0	2.048906308100793	0	-0.09584653619744175	0	7.709793703083459e-19	0	0	6.959632006603676e-10	0
0.2489354878270487	0.003823658184738129	-0.01024432005879667	-0	1.468566114017596	0	0.09478689634274365	-2.688060121225876e-05	7.102656140849213e-06	-0	1.858268018601302	0	-0.08690398758087577	0	-2.09897258476588e-20	0	0	-5.70944084080602e-10	0
0.2515558613831229	1.120994859034531e-08	-1.053759430853124e-08	-0	1.465496493338017	0	0.09478689634274365	-8.996387672606155e-05	2.387218713973392e-05	-0	1.930928138041576	0	-0.08952383938545161	0	8.782921615352145e-26	0	0	-1.756129575413475e-11	0
0.2541762349391971	-0	-0	-0	0	0	0	-0.000198136189682285	5.32532022432126e-05	-0	1.943078755649893	0	-0.08956734630139451	0	0	0	0	-1.046753319175918e-12	0
0.2567966084952713	-0	-0	-0	0	0	0	-0.0004205639086817539	0.0001151593814607062	-0	1.953737134033489	0	-0.08956870195550766	0	0	0	0	-2.42154621937501e-13	0
0.2594169820513455	-0	-0	-0	0	0	0	-0.0008607286749429156	0.000241352842502196	-0	1.963918244924436	0	-0.0895686226690505	0	0	0	0	-2.907661430860036e-13	0
0.2620373556074197	-0	-0	-0	0	0	0	-0.00169636896967548	0.0004891657831027566	-0	1.973657983108319	0	-0.08956669187644135	0	0	0	0	3.834811957992354e-13	0
0.2646577291634939	-0	-0	-0	0	0	0	-0.003233516853967325	0.0009618046547317579	-0	1.983407641679226	0	-0.08957710632839896	0	0	0	0	-2.598367451754479e-11	0
0.2672781027195681	-0	-0	-0	0	0	0	-0.005980648243204917	0.001838254141482029	-0	1.993103043078275	0	-0.08959536373384147	0	0	0	0	-2.645117533355062e-10	0
0.2698984762756423	-0	-0	-0	0	0	0	-0.01071265876473551	0.003405045314252592	-0	2.001783439661825	0	-0.08958845694030784	0	0	0	0	-4.532342730534359e-10	0
0.2725188498317165	3.334505670421971e-15	-1.825345816288663e-15	-0	0	0	0	-0.01879781421245634	0.006179875275958657	-0	2.010186254895656	0	-0.08958145099143906	0	3.160674433365783e-16	0	0	-5.836046643814091e-10	0
0.2751392233877907	1.218223865704206e-13	-6.494192394634897e-14	-0	1.518495441840415	0	0.09478689634274365	-0.03255185773612034	0.01106618963015259	-0	2.018391702193003	0	-0.08957688564310903	0	7.761507125355539e-31	0	0	-6.832365359374548e-10	0
0.2777595969438649	5.678479451641577e-12	-2.939024459458723e-12	-0	1.526146016995465	0	0.09478689634274366	-0.0560434276343651	0.01969588672081705	-0	2.026372266867164	0	-0.08957418287693644	0	-6.590776289880438e-29	0	0	-7.840272978741949e-10	0
0.2803799704999391	3.229351411473563e-10	-1.617433545873727e-10	-0	1.534116354095153	0	0.09478689634274365	-0.09657624013957213	0.0350784984336745	-0	2.034094281047252	0	-0.08957260266777457	0	2.423999885287591e-27	0	0	-9.120344116806577e-10	0
0.2830003440560133	2.208119395211689e-08	-1.067893228860086e-08	-0	1.542432131657598	0	0.09478689634274363	-0.1677324936053938	0.06296119684550636	-0	2.04152645872337	0	-0.08957166803964813	0	2.504682325168576e-25	0	0	-1.093858500497184e-09	0
0.2856207176120875	1.704954731786891e-06	-7.95228193539649e-07	-0	1.551104785544173	0	0.09478689634274366	-0.2955045974025758	0.1146554133513553	-0	2.048643463525645	0	-0.08957110877579996	0	-2.900733992319203e-23	0	0	-1.365279477482856e-09	0
0.2882410911681617	0.0001263356610057275	-5.679159997209234e-05	-0	1.560137300631766	0	0.09478689634274365	-0.532006336843158	0.2135299157529779	-0	2.055410290143112	0	-0.08957077078005156	0	1.14935863746253e-23	0	0	-1.790877482632831e-09	0
0.2908614647242359	0.001699834492881865	-0.0007364905733720142	-0	1.569522119927265	0	0.09478689634274365	-0.9837538762217537	0.4089559519471151	-0	2.061796487343508	0	-0.08957057578082543	0	-1.056439874678453e-20	0	0	-2.474137206516169e-09	0
0.29348183828031	-0.02340108448837649	0.009784361559126131	-0	1.579227766993073	0	0.09478689634274365	-1.86536617687111	0.8038385084407366	-0	2.067800408138477	0	-0.08957049521360977	0	-2.167893066371597e-19	0	0	-3.488040066863931e-09	0
0.2961022118363842	-0.03739126715207373	0.0151129687143408	-0	1.589221589040465	0	0.09478689634274365	-3.607773460850633	1.61235157647798	-0	2.073434144904433	0	-0.08957052688803693	0	-1.505154972472181e-19	0	0	-4.58376991620766e-09	0
0.2987225853924584	-0.0447111283675604	0.01748883825491154	-0	1.599494749619278	0	0.09478689634274365	-7.055181129608136	3.273523565083561	-0	2.078706767400044	0	-0.08957071160849293	0	-1.185345765383244e-19	0	0	-3.434083789929873e-09	0
0.3013429589485326	-0.04959710245101936	0.01878871255609068	-0	1.610046106696091	0	0.09478689634274365	-13.76677118738251	6.644117788705985	-0	2.083629532454183	0	-0.08957115322826509	0	-2.549025622307768e-19	0	0	1.231546819342231e-08	0
0.3039633325046068	-0.05405776961452254	0.01985164046029768	-0	1.620871914826567	0	0.09478689634274365	-26.23693817811998	13.21197716239459	-0	2.088205414757213	0	-0.08957209367728412	0	4.232307043335309e-19	0	0	9.67617859413499e-08	0
0.306583706060681	-0.05907795681791405	0.02105950271222548	-0	1.631963576094476	0	0.09478689634274365	-47.05134539370804	24.8620888201805	-0	2.0924417875507	0	-0.08957423262166868	0	-2.484431519316292e-19	0	0	4.972796970971867e-07	0
0.3092040796167552	-0.06522874272483881	0.02261976247165277	-0	1.643293739454714	0	0.09478689634274365	-75.90326988004298	42.49315932477569	-0	2.096376733964394	0	-0.08957985316320269	0	3.343216277654662e-19	0	0	2.440110883309944e-06	0
0.3118244531728294	-0.07293415552601952	0.02467044027838923	-0	1.654834876720896	0	0.09478689634274365	-116.7868414797165	70.15884295322233	-0	2.100164351949904	0	-0.08959453680204053	0	-2.354099157607645e-19	0	0	1.183963889960529e-05	0
0.3144448267289036	-0.08272181737943095	0.02736617435764033	-0	1.666564695010688	0	0.09478689634274365	-205.1104228315278	136.5979220687959	-0	2.103967435937812	0	-0.08962618367562489	0	-1.873949795367948e-19	0	0	6.559680459475401e-05	0
0.3170652002849779	-0.09502116710339811	0.03082172652382303	-0	1.678464034590854	0	0.09478689634274365	-337.413221778951	270.1895816523615	-0	2.109050487040666	0	-0.08971983784227947	0	-1.398533628931288e-19	0	0	0.0004774095224702927	0
0.319685573841052	-0.1100473302127445	0.03507250388731521	-0	1.690527732801933	0	0.09478689634274365	-430.0858332046377	466.7298699527923	-0	2.11964160851321	0	-0.09002828549527604	0	-6.622120439811141e-19	0	0	0.002918439719445718	0
0.3223059473971262	-0.1285261082597173	0.04031327170959274	-0	1.70275456903432	0	0.09478689634274365	-102.2234574307072	741.0715853990662	-0	2.135011752990346	0	-0.09047884517132311	0	-1.459268728574907e-19	0	0	0.04594833121300511	0
0.3249263209532004	-0.1503675701940027	0.04648841127301036	-0	1.715141106158968	0	0.09478689634274363	-324.1869009436269	1107.854785529081	-0	2.147579371101043	0	-0.09093674733629269	0	-2.521740293623685e-18	0	0	0.02790565318646912	0
0.3275466945092746	-0.1748695373222403	0.05334097236871792	-0	1.727703731858045	0	0.09478689634274365	-178.0391639227551	1305.98348589848	-0	2.143791449178538	0	-0.0907798962164905	0	-1.244302394347743e-18	0	0	-0.007236220310582206	0
0.3301670680653488	-0.2021535474755183	0.06085534737120141	-0	1.740472302166113	0	0.09478689634274365	-206.3530673465914	1391.006866895585	-0	2.135879073360857	0	-0.09050814042135408	0	-7.698431940033785e-19	0	0	-0.0256363157333929	0
0.332787441621423	-0.2319139375872047	0.0688982594699926	-0	1.753465286609201	0	0.09478689634274365	-122.4061258864944	1462.334559692729	-0	2.133966481585566	0	-0.09043202324385931	0	-4.602968972432124e-19	0	0	-0.02960396113969192	0
0.3354078151774972	-0.2636677801615051	0.07730519897024714	-0	1.766692481193992	0	0.09478689634274365	-181.0077743036974	1506.653259084225	-0	2.132739021306892	0	-0.09040259018287897	0	-6.467160469173187e-19	0	0	-0.03052790303824281	0
0.3380281887335714	-0.2964931857856611	0.08580250638769341	-0	1.780158904677976	0	0.09478689634274365	-138.2981595911314	1530.408309886929	-0	2.133063978223785	0	-0.09040997458019374	0	-1.100028913560435e-18	0	0	-0.02896755998509711	0
0.3406485622896456	-0.329359908403745	0.09411153237883128	-0	1.793863367925497	0	0.09478689634274365	-175.522770982867	1535.90026601118	-0	2.132648387674703	0	-0.09040491804285022	0	-1.325310515398869e-19	0	0	-0.02769696604062527	0
0.3432689358457198	-0.3609201003493734	0.1018857675349068	-0	1.807801370289527	0	0.09478689634274363	-142.9563446357012	1533.260111998251	-0	2.133061887226408	0	-0.09041544926976411	0	-6.256520675505007e-18	0	0	-0.02538578879535629	0
0.345889309401794	-0.3898063667734646	0.1087900533459098	-0	1.821965280408463	0	0.09478689634274365	-161.5372368109918	1523.481602745471	-0	2.132847669489769	0	-0.09041341958445191	0	1.599423416483226e-18	0	0	-0.02390169661472353	0
0.3485096829578682	-0.4143880889867583	0.1144299122493768	-0	1.836346241039696	0	0.09478689634274365	-120.8784927026359	1532.797399009611	-0	2.135820565338603	0	-0.09051023950884264	0	3.894299890514746e-19	0	0	-0.01554947200019868	0
0.3511300565139424	-0.4325928379176407	0.1182823968093538	-0	1.850941224980376	0	0.09478689634274365	-118.2938189884433	1583.963465699193	-0	2.14378934664983	0	-0.09078803609558574	0	-1.76525773599891e-19	0	0	0.01324505758620076	0
0.3537504300700166	-0.4422923250457409	0.1198069982147463	-0	1.865754058180467	0	0.09478689634274365	-122.2591736603144	1633.967430219839	-0	2.153761683108696	0	-0.09113535320451924	0	-2.959553398577279e-19	0	0	0.05371049389981965	0
0.3563708036260908	-0.4424913704849208	0.1187880183808454	-0	1.88078941481892	0	0.09478689634274365	-142.6521102873051	1623.121296503404	-0	2.160802851590354	0	-0.0913829460589969	0	-1.974422998059973e-18	0	0	0.06809574099984968	0
0.358991177182165	-0.4332770825591418	0.115327793545026	-0	1.8960441754117	0	0.09478689634274365	-117.9178039030799	1566.669626766223	-0	2.166418026139746	0	-0.09157229640049418	0	1.385217822664692e-18	0	0	0.06554801060347365	0
0.3616115507382392	-0.4161099692596796	0.1099035791080035	-0	1.911500351224883	0	0.09478689634274365	-106.9323382427235	1493.340050569279	-0	2.17147641226348	0	-0.09174515278924267	0	2.266155230191016e-18	0	0	0.05810867076670308	0
0.3642319242943134	-0.3932137023043024	0.1031571211771526	-0	1.9271342211303	0	0.09478689634274365	-82.00873671133886	1412.281092309409	-0	2.176588304592147	0	-0.09191697406457683	0	-3.365039292570065e-18	0	0	0.0495602811615866	0
0.3668522978503876	-0.3670154277824577	0.09573458370616494	-0	1.94291928352199	0	0.09478689634274365	-69.80193294101952	1331.008069838828	-0	2.181383644734211	0	-0.09208053749724181	0	2.797603156283192e-18	0	0	0.04052939479857054	0
0.3694726714064618	-0.3397905201166628	0.0882164529912712	-0	1.958827437062165	0	0.09478689634274363	-51.53021268333622	1254.927886604078	-0	2.186192424685951	0	-0.09224300941940429	0	-2.251834137001685e-18	0	0	0.03214741453906012	0
0.372093044962536	-0.3132955752088867	0.08102878893677856	-0	1.974832804057711	0	0.09478689634274365	-42.23859567441026	1183.004307697301	-0	2.190682720623581	0	-0.09239655239471631	0	2.123441937232643e-19	0	0	0.02427478032960916	0
0.3747134185186102	-0.2886921163696553	0.07443788995061705	-0	1.990911118651322	0	0.09478689634274365	-30.13153164208074	1116.058851128372	-0	2.195238278324163	0	-0.09255161487907893	0	-6.729877867364454e-19	0	0	0.01734154087703112	0
0.3773337920746844	-0.2662530288093671	0.06848099999007135	-0	2.007045402537402	0	0.09478689634274365	-24.11104385477249	1052.069922857886	-0	2.199685334298802	0	-0.09270468652182548	0	-1.472781560699273e-18	0	0	0.01119859599475202	0
0.3799541656307586	-0.2459260233881676	0.06311972061751144	-0	2.0232221223172	0	0.09478689634274365	-16.75133379820448	993.6371627944857	-0	2.204505997356675	0	-0.09287062559139553	0	-1.412010954772042e-18	0	0	0.005953847377904864	0
0.3825745391868328	-0.2275894073535213	0.05830745851263505	-0	2.039431976408592	0	0.09478689634274365	-13.9469849216361	942.3001818370421	-0	2.209739305317123	0	-0.09305279590699302	0	-1.072702639420875e-18	0	0	0.001398716720275622	0
0.385194912742907	-0.2111760869257906	0.05401821083676124	-0	2.055665875595189	0	0.09478689634274365	-6.120724740581586	907.9454323131504	-0	2.216607878404057	0	-0.09329126194068128	0	-6.320099625378645e-19	0	0	-0.002743187546662086	0
0.3878152862989812	-0.196846827284034	0.05029072739497861	-0	2.07191160096065	0	0.09478689634274363	3.052158850554021	891.1539531645063	-0	2.22585313861598	0	-0.09361377423819041	0	-1.114847497605262e-18	0	0	-0.006822853103957852	0
0.3904356598550554	-0.1848508835380004	0.04718785072798047	-0	2.088154465206632	0	0.09478689634274365	5.504092029592655	871.2238006850765	-0	2.236363296363642	0	-0.09398414595372678	0	-9.150878958058044e-19	0	0	-0.009565542708498832	0
0.3930560334111295	-0.1760253316024456	0.0449297962094159	-0	2.104365281951377	0	0.09478689634274365	2.29332334668845	839.686474795691	-0	2.247050264392151	0	-0.09436368915273735	0	4.068693583810672e-19	0	0	-0.008424271508692877	0
0.3956764069672037	-0.1710957377978215	0.04370405256729815	-0	2.120509602437006	0	0.09478689634274365	-0.7782660382329145	807.0555115472671	-0	2.257462618239312	0	-0.09473442045413935	0	-1.643979310558502e-19	0	0	-0.001558101816655294	0
0.3982967805232779	-0.1699949213819165	0.04348131670343546	-0	2.136565609636726	0	0.09478689634274365	4.819437557020054	816.2630027857135	-0	2.259480956772551	0	-0.09480244924870472	0	1.053351836834367e-18	0	0	0.0006420231900998204	0
0.4009171540793521	-0.1724100286636645	0.04416764434638946	-0	2.152523996824248	0	0.09478689634274363	18.54568246962872	830.4021096312744	-0	2.259274136938878	0	-0.09478748782450547	0	-4.092050411404714e-18	0	0	3.242212180025368e-05	0
0.4035375276354263	-0.1774230186313308	0.04551019614200543	-0	2.168399968972058	0	0.09478689634274365	29.50617079459551	836.7886863473884	-0	2.259429857220402	0	-0.09478690640724576	0	-1.296614486710947e-22	0	0	7.085494225282887e-07	0
0.4061579011915005	-0.1841743226312295	0.04727507260103742	-0	2.184216613077586	0	0.09478689634274365	40.17317389770296	838.5324684668751	-0	2.259596209593736	0	-0.09478689646175856	0	-5.305893830616104e-19	0	0	1.047844366039684e-08	0
0.4087782747475748	-0.1923361576476749	0.04937952858776755	-0	2.199993727627235	0	0.09478689634274365	49.55693681557505	834.9766755821844	-0	2.259746565872004	0	-0.09478689634389999	0	5.699407343186178e-19	0	0	1.241479525167719e-10	0
0.4113986483036489	-0.201704896733707	0.05177508806127035	-0	2.215746921953421	0	0.09478689634274365	59.58430149338729	831.6036937172003	-0	2.259903091172506	0	-0.09478689634275368	0	1.003843707021154e-18	0	0	1.298362591131532e-12	0
0.4140190218597231	-0.2122276749948938	0.05445256974556323	-0	2.23148592348171	0	0.09478689634274365	68.6456221093201	833.1691677355283	-0	2.260038452178063	0	-0.09478689634274372	0	-7.733012878644531e-19	0	0	1.197124076005615e-14	0
0.4166393954157973	-0.2238461243320743	0.05740084684719685	-0	2.247218547078794	0	0.09478689634274365	76.27585552690907	837.488523659605	-0	2.260147251172535	0	-0.09478689634274365	0	-1.688595648323552e-18	0	0	7.611011841455554e-16	0
0.4192597689718715	-0.2365005547869024	0.06060711812264239	-0	2.262949524979405	0	0.09478689634274365	83.11409524667755	840.767849876742	-0	2.260242957722355	0	-0.09478689634274363	0	-8.470959087509518e-19	0	0	-1.46070557073725e-15	0
0.4218801425279457	-0.2501134170083851	0.064054139603325	-0	2.278682651250692	0	0.09478689634274365	89.75929177834773	841.8485066507357	-0	2.260335911443221	0	-0.09478689634274365	0	6.231486531857156e-19	0	0	-7.354919354944159e-16	0
0.4245005160840199	-0.2645925596766411	0.06772063635154389	-0	2.294419911041483	0	0.09478689634274365	95.89211837586046	839.1068521740774	-0	2.260424482499657	0	-0.09478689634274365	0	-7.614327429862749e-19	0	0	-5.678984749111773e-17	0
0.4271208896400941	-0.2798248873845886	0.07158027809300604	-0	2.310162732889214	0	0.09478689634274365	102.210826095526	833.1197936683805	-0	2.260518425116213	0	-0.09478689634274365	0	-1.072355638682377e-18	0	0	6.955786372049203e-16	0
0.4297412631961683	-0.2956955663074611	0.07560616655663722	-0	2.325911496034842	0	0.09478689634274365	108.1180990411383	824.2209004806787	-0	2.260609199089026	0	-0.09478689634274365	0	-6.694950937108256e-21	0	0	-2.697853940920708e-16	0
0.4323616367522425	-0.3120431796190103	0.07975924225574425	-0	2.341666379171405	0	0.09478689634274365	113.8319452141489	812.8367121931989	-0	2.260699881288966	0	-0.09478689634274365	0	4.417339525781922e-19	0	0	-9.648183816561678e-17	0
0.4349820103083167	-0.3285585903142839	0.08396121000324624	-0	2.35742823704994	0	0.09478689634274365	118.95798263864	799.0952259177844	-0	2.26078497984917	0	-0.09478689634274365	0	-1.73043829718213e-18	0	0	-2.230467151523032e-16	0
0.4376023838643909	-0.3447894862303141	0.0880961239877109	-0	2.373198821589769	0	0.09478689634274365	123.7215651841044	783.2495980233305	-0	2.26086806482816	0	-0.09478689634274365	0	4.455260978079016e-19	0	0	-7.658383036908756e-16	0
0.4402227574204651	-0.360166621151572	0.09201673759832364	-0	2.388981486949296	0	0.09478689634274365	128.0791918402667	765.3748495749876	-0	2.260949003569707	0	-0.09478689634274366	0	1.869023468971469e-18	0	0	2.016898723817115e-15	0
0.4428431309765393	-0.3737650688711064	0.095481706018016	-0	2.404781080568588	0	0.09478689634274366	132.1874007505068	745.7421184041244	-0	2.261030416612067	0	-0.09478689634274365	0	3.883149805058063e-18	0	0	1.465525599796516e-16	0
0.4454635045326135	-0.3833662812389356	0.0979108738715684	-0	2.420611272019774	0	0.09478689634274365	135.9452477477685	724.4099176578557	-0	2.261111342482263	0	-0.09478689634274365	0	-2.496024793878654e-18	0	0	8.085229741037722e-17	0
0.4480838780886877	-0.3864290880387334	0.0986472050047576	-0	2.436489526742046	0	0.09478689634274365	139.4095118157477	701.5617618271887	-0	2.261193151772296	0	-0.09478689634274365	0	2.067210923008738e-18	0	0	-5.600583647721811e-16	0
0.4507042516447619	-0.3813654763871624	0.09729381284952419	-0	2.452431445083163	0	0.09478689634274365	142.4239939538968	677.2640970984014	-0	2.261273889832632	0	-0.09478689634274365	0	1.693596798049977e-18	0	0	-2.398796620845613e-16	0
0.4533246252008361	-0.3677213410784131	0.09375123934828457	-0	2.468448255747032	0	0.09478689634274365	144.0962345501729	649.556670376896	-0	2.261346050144992	0	-0.09478689634274365	0	-1.776115745466365e-18	0	0	4.101704670835584e-16	0
0.4559449987569103	-0.3473316113834682	0.08851148036547923	-0	2.48453688920206	0	0.09478689634274365	144.226016920839	616.1454944153827	-0	2.261417734395687	0	-0.09478689634274365	0	3.441546630785317e-18	0	0	3.216802322802144e-16	0
0.4585653723129844	-0.3231047885373826	0.08233243769988458	-0	2.500685639143215	0	0.09478689634274365	144.3086207582136	579.6761517905152	-0	2.261511171040897	0	-0.09478689634274365	0	-1.581310401493017e-19	0	0	-3.03365603484655e-16	0
0.4611857458690587	-0.2986884845633518	0.07614993510885916	-0	2.516867983932268	0	0.09478689634274365	144.199434130531	543.6421896402074	-0	2.261609541908887	0	-0.09478689634274365	0	4.005656318606964e-19	0	0	3.542993725969565e-16	0
0.4638061194251328	-0.2767566825512314	0.07064032017640179	-0	2.533053078009035	0	0.09478689634274365	143.2166564990599	508.220077090925	-0	2.261697474797402	0	-0.09478689634274365	0	1.525146368893284e-19	0	0	-3.026332653161559e-16	0
0.4664264929812071	-0.2576070111202386	0.06586119824990108	-0	2.54921708323678	0	0.09478689634268087	141.4529361317433	472.9227017257613	-0	2.261780427600098	0	-0.09478689634274365	0	-3.141430323437633e-16	0	0	8.947811186264611e-17	0
0.4690468665372812	-0.2406873646973048	0.06165594758090654	-0	2.565343559746107	0	0.09478689634261608	139.0659112534247	437.9027459343148	-0	2.261862381381279	0	-0.09478689634274365	0	-5.724769106176342e-16	0	0	3.915536234793933e-16	0
0.4716672400933555	-0.224334110916565	0.05758325120998874	-0	2.581433856561195	0	0.09478689634235465	136.1006986403561	403.1886932091521	-0	2.261945932565707	0	-0.09478689634274365	0	-1.544637686473419e-15	0	0	-3.535237880810205e-16	0
0.4742876136494297	-0.2075481389523661	0.05337995128112887	-0	2.597493949104277	0	0.09478689634141844	131.8111965314576	367.5140059115966	-0	2.262024458863415	0	-0.09478689634274365	0	-4.622011410268251e-15	0	0	4.445177994899296e-16	0
0.4769079872055039	-0.1894886444752814	0.04882655768635451	-0	2.613537084013863	0	0.09478689633815837	125.6671589726336	329.0217081847078	-0	2.26210774907028	0	-0.09478689634274365	0	-1.380620017112666e-14	0	0	2.72753833119433e-16	0
0.479528360761578	-0.1694250589767014	0.04373144962089798	-0	2.629580944129694	0	0.09478689632706257	118.1383172756368	288.1350373733541	-0	2.262220229628488	0	-0.09478689634274365	0	-3.987715235951041e-14	0	0	2.480325494766939e-16	0
0.4821487343176523	-0.1477905047398332	0.03820955741616435	-0	2.645641005249042	0	0.09478689628865671	109.0749857260421	246.3803914423506	-0	2.26235294196828	0	-0.09478689634274365	0	-1.129831012662149e-13	0	0	-2.633739744900569e-16	0
0.4847691078737264	-0.1249839656470242	0.03236409935651916	-0	2.661732227952946	0	0.09478689615470001	97.97673766326962	205.3110805820524	-0	2.262468147990917	0	-0.09478689634274365	0	-3.114313462050886e-13	0	0	-3.954757393585759e-16	0
0.4873894814298007	-0.1009769156418576	0.02618437020686251	-0	2.677880017069543	0	0.09478689567970518	84.4986690066345	167.1609511474605	-0	2.262482017007323	0	-0.09478689634274365	0	-8.289127167969147e-13	0	0	-8.842314544085791e-16	0
0.4900098549858748	-0.07656145928089797	0.01987656913962152	-0	2.694115711977933	0	0.09478689394312539	69.57135951498073	133.2734579805971	-0	2.26234885313147	0	-0.09478689634274365	0	-2.119808422705222e-12	0	0	-1.160599849835489e-17	0
0.492630228541949	-0.05396554532430329	0.01402525892170276	-0	2.710461270636156	0	0.09478688737437273	54.63618012084673	104.3211283128986	-0	2.262059596579396	0	-0.09478689634274365	0	-5.187688121587478e-12	0	0	3.909397031398128e-16	0
0.4952506020980232	-0.03496340341056366	0.009095791834961311	-0	2.726931970709333	0	0.09478686133314575	40.63110489865187	80.3712663679686	-0	2.261593676770069	0	-0.09478689634274365	0	-1.215408630847366e-11	0	0	-1.588031298054468e-16	0
0.4978709756540974	-0.02028520546075037	0.005280984973488933	-0	2.743544088281299	0	0.09478674831530973	28.26651148876608	60.78112259706154	-0	2.260966174987148	0	-0.09478689634274365	0	-2.763569428042621e-11	0	0	-4.501525649135323e-17	0
0.5004913492101717	-0.01010324494801456	0.002631250335228074	-0	2.760303712423095	0	0.0947861800186898	17.76701172707406	43.88198876398884	-0	2.260241650049754	0	-0.09478689634274366	0	-6.169102460695902e-11	0	0	2.155328862139173e-16	0
0.5031117227662458	-0.003949270658972541	0.001028947398053297	-0	2.777140446079067	0	0.09478253309545551	8.892539118773541	25.67265947709438	-0	2.259626010764965	0	-0.09478689634274365	0	-1.345132553730627e-10	0	0	-2.904007398064238e-17	0
0.50573209632232	-0.0006764511500380404	0.0001763933558341778	-0	2.792974790829543	0	0.0947269572506272	1.832653934741583	5.918574865183125	-0	2.259269190282113	0	-0.09478689634274365	0	-2.814672224529095e-10	0	0	-1.872287372433236e-18	0
0.5083524698783942	8.878234344329995e-05	-2.31594318876035e-05	-0	2.835018374923052	0	0.09584653619744175	-0.5309498083256556	-2.394562500541507	-0	2.258613982564458	0	-0.09478689634274365	0	-6.959632006597993e-10	0	0	3.012046699078823e-18	0
0.5109728434344684	-2.688060121225724e-05	7.102656140848815e-06	-0	2.644380085423552	0	0.08690398758087534	0.003823658184739692	-0.0102443200588008	-0	2.254678180839854	0	-0.09478689634274365	0	5.70944084079429e-10	0	0	-1.086490943015718e-20	0
0.5135932169905426	-8.996387672606161e-05	2.387218713973394e-05	-0	2.717040204863836	0	0.08952383938545161	1.120994859034549e-08	-1.053759430853141e-08	-0	2.251608560160276	0	-0.09478689634274365	0	1.756129575511893e-11	0	0	5.431232030141318e-26	0
0.5162135905466168	-0.0001981361896822846	5.325320224321247e-05	-0	2.729190822472152	0	0.0895673463013945	-0	-0	-0	0	0	0	0	1.046753315812435e-12	0	0	0	0
0.518833964102691	-0.0004205639086817526	0.0001151593814607059	-0	2.739849200855748	0	0.08956870195550766	-0	-0	-0	0	0	0	0	2.421546206012844e-13	0	0	0	0
0.5214543376587653	-0.0008607286749429125	0.000241352842502195	-0	2.750030311746696	0	0.08956862266905048	-0	-0	-0	0	0	0	0	2.907661341236276e-13	0	0	0	0
0.5240747112148394	-0.001696368969675475	0.0004891657831027552	-0	2.759770049930578	0	0.08956669187644134	-0	-0	-0	0	0	0	0	-3.834812052538095e-13	0	0	0	0
