DataType=double
version=3
OpenSimVersion=4.6-2026-06-22-85aaf64
endheader
time	ground_force_r_vx	ground_force_r_vy	ground_force_r_vz	ground_force_r_px	ground_force_r_py	ground_force_r_pz	ground_force_l_vx	ground_force_l_vy	ground_force_l_vz	ground_force_l_px	ground_force_l_py	ground_force_l_pz	ground_torque_r_x	ground_torque_r_y	ground_torque_r_z	ground_torque_l_x	ground_torque_l_y	ground_torque_l_z
0	-0.09843302916535719	0.02889686788446749	-0	1.185438862615362	0	0.09478689620874683	-0	-0	-0	0	0	0	0	-2.966580704990234e-13	0	0	0	0
0.002607521691241723	-0.106343112373165	0.03226546152046119	-0	1.197119089542592	0	0.09478689559668815	-0	-0	-0	0	0	0	0	-1.615491405938302e-12	0	0	0	0
0.005215043382483445	-0.1191275403879452	0.03742668846533774	-0	1.208160311015035	0	0.09478689250838421	-0	-0	-0	0	0	0	0	-8.326700226408375e-12	0	0	0	0
0.007822565073725168	-0.1394811914145337	0.04539247524791344	-0	1.218585311202062	0	0.09478687824201293	-0	-0	-0	0	0	0	0	-4.079662595037284e-11	0	0	0	0
0.01043008676496689	-0.1713937183909493	0.05773841693555771	-0	1.228429409045221	0	0.09478681747238475	-0	-0	-0	0	0	0	0	-1.919396035014212e-10	0	0	0	0
0.01303760845620861	-0.2214261090244657	0.07710554199181871	-0	1.237728299552135	0	0.09478657672684045	-0	-0	-0	0	0	0	0	-8.761247954046256e-10	0	0	0	0
0.01564513014745034	-0.3004537785417156	0.1080005382417287	-0	1.246501273792189	0	0.09478568073913016	2.122530043316364e-14	-1.11900720569148e-14	-0	0	0	0	0	-3.909973695253815e-09	0	0	-2.011880352001874e-15	0
0.01825265183869206	-0.4285454783823858	0.1588502298337485	-0	1.254734252867815	0	0.09478253564407081	2.355712756586642e-12	-1.211055106160985e-12	-0	0.5906586356480192	0	-0.09478689634274365	0	-1.710979928294285e-08	0	0	-5.801956566639195e-30	0
0.02086017352993378	-0.6472383274123582	0.2472873747064283	-0	1.262308030384261	0	0.09477219031020678	4.206875254874935e-10	-2.106899517278936e-10	-0	0.5985314980285	0	-0.09478689634274366	0	-7.322206680998864e-08	0	0	3.338180527132572e-27	0
0.0234676952211755	-1.045421460715549	0.4118098043238807	-0	1.2688534904037	0	0.09474064295304169	1.093444351170089e-07	-5.331374707410132e-08	-0	0.6066026281390982	0	-0.09478689634274366	0	-3.037951640156153e-07	0	0	1.300411420510985e-24	0
0.02607521691241723	-1.832833836513595	0.7454298013874181	-0	1.273427441485647	0	0.09465381543308674	3.507267957564223e-05	-1.664195890878502e-05	-0	0.614861712790314	0	-0.09478689634274365	0	-1.195389145193514e-06	0	0	2.362197820682767e-23	0
0.02868273860365895	-3.550275620979715	1.494506347129284	-0	1.274192055372848	0	0.09444617341090746	0.005511447609029723	-0.002544851480765011	-0	0.6232942652546748	0	-0.09478689634274365	0	-4.304925443710499e-06	0	0	-4.491185335544602e-20	0
0.03129026029490067	-7.723901340271892	3.377006209092987	-0	1.268812541162865	0	0.09403754222880707	-0.08310895580851861	0.03736275892013573	-0	0.6318793011459736	0	-0.09478689634274365	0	-1.346742763651316e-05	0	0	1.961273772373921e-19	0
0.03389778198614239	-18.90462854160758	8.626187937999308	-0	1.256708652954109	0	0.09341475602463137	-0.1487155845014457	0.0651675092107535	-0	0.6405931796284859	0	-0.09478689634274365	0	-3.418898315724244e-05	0	0	1.465820557349327e-19	0
0.03650530367738412	-49.47554591294426	23.81227012076072	-0	1.24196105397319	0	0.09273279648590879	-0.1860622831454351	0.07960374402587739	-0	0.6494129075733099	0	-0.09478689634274365	0	-6.339480220850573e-05	0	0	1.037896477379975e-18	0
0.03911282536862584	-119.3091254251408	62.01370842423603	-0	1.231572896737803	0	0.0922420181651406	-0.2133408485943644	0.0892939173235183	-0	0.6583199864829598	0	-0.09478689634274365	0	-6.781239896056785e-05	0	0	-1.722196462583505e-18	0
0.04172034705986756	-230.0373953650317	134.7115653753374	-0	1.235720289096253	0	0.09229933074198607	-0.2376461687812199	0.09749418157642176	-0	0.6673121232550847	0	-0.09478689634274365	0	1.667572913409557e-05	0	0	1.680443981238221e-18	0
0.04432786875110928	-435.5979548040641	311.8720856830765	-0	1.255740328331098	0	0.09294740531944617	-0.2619651189114271	0.1055072905592436	-0	0.6764008300926301	0	-0.09478689634274365	0	0.0004393054489992821	0	0	-1.518432544351191e-18	0
0.046935390442351	-536.4059617048471	514.0979697623256	-0	1.263535317215152	0	0.09317507929513724	-0.2920086037385272	0.1155283947256896	-0	0.6856121336087351	0	-0.09478689634274366	0	0.001168560429961633	0	0	-4.290543581046688e-18	0
0.04954291213359273	-219.1766274991258	512.1395309496529	-0	1.258465875264663	0	0.09292428720978183	-0.3328630684702484	0.1293022005979635	-0	0.6949746760600098	0	-0.09478689634274365	0	0.004272881468135039	0	0	-1.892785349753858e-18	0
0.05215043382483445	-10.01915147260287	511.805766380426	-0	1.249217364806919	0	0.09254662931985912	-0.3864257065708401	0.1472128846758025	-0	0.7045210534820671	0	-0.09478689634274365	0	-0.001754511762005203	0	0	-7.407945807915674e-19	0
0.05475795551607618	73.78789401864447	636.0145705785937	-0	1.251360976604006	0	0.09260548164961491	-0.4541231962940006	0.1694691941002142	-0	0.714280885148657	0	-0.09478689634274365	0	0.001805887459010674	0	0	3.009518764287962e-18	0
0.0573654772073179	87.95953703586642	766.1135948890966	-0	1.254046967413474	0	0.0927008911659432	-0.5358021578872878	0.1958745997094968	-0	0.7242589145847419	0	-0.09478689634274365	0	0.006919541792835694	0	0	3.077197243500685e-19	0
0.05997299889855962	107.1519319890688	859.6481439337865	-0	1.256847568826257	0	0.09279763823042171	-0.6285685197262632	0.2253580851561409	-0	0.7344542695085571	0	-0.09478689634274365	0	0.01199308665983433	0	0	2.187695153708482e-18	0
0.06258052058980135	110.7329242625197	920.9930810144438	-0	1.259967089800325	0	0.09290793898209733	-0.7263946987654805	0.2558502545127911	-0	0.7448649503812232	0	-0.09478689634274365	0	0.01700497140361355	0	0	4.878176109470756e-18	0
0.06518804228104307	114.7803575608862	958.5166915079077	-0	1.263647501569378	0	0.09303741701356476	-0.8205968672214984	0.2844700453062911	-0	0.7554945342326946	0	-0.09478689634274365	0	0.0221023858715178	0	0	1.744358575919309e-18	0
0.06779556397228478	111.0272817710726	980.9398314641101	-0	1.267571876691097	0	0.09317695707486995	-0.9044573031036628	0.3089202048750066	-0	0.7663624400199255	0	-0.09478689634274365	0	0.02697030224853379	0	0	-2.988582601231469e-18	0
0.07040308566352652	114.652100573086	1000.142246187644	-0	1.27209911066236	0	0.09333623930967735	-0.972382009965292	0.3273247561509219	-0	0.7774899810758242	0	-0.09478689634274365	0	0.03232282124650607	0	0	-4.723664425728174e-18	0
0.07301060735476823	122.9694910302958	1019.549406158868	-0	1.27761348282578	0	0.09352958418841176	-1.01812344112447	0.3377490259449789	-0	0.7888967544679758	0	-0.09478689634274365	0	0.03842494344745397	0	0	1.343406416725152e-18	0
0.07561812904600997	127.6263188266071	1030.027517599063	-0	1.283858185463241	0	0.09374970467468687	-1.036487787702999	0.338758678675091	-0	0.8006014137915939	0	-0.09478689634274365	0	0.04326139867608639	0	0	3.347277781678297e-18	0
0.07822565073725167	124.3800134227308	1026.341792484619	-0	1.290086857697151	0	0.09397121831730938	-1.025864732921889	0.3302638252321227	-0	0.8126169241659649	0	-0.09478689634274365	0	0.04435324946117231	0	0	-5.270850527736142e-18	0
0.0808331724284934	121.607677038	1015.919285481829	-0	1.296068069730894	0	0.09418404071671418	-0.9874786064223559	0.3131125614756416	-0	0.8249528539219597	0	-0.09478689634274365	0	0.04131815114121284	0	0	-2.718069920008657e-18	0
0.08344069411973512	117.7248349797311	1001.954481674655	-0	1.30162212181552	0	0.09438248854649263	-0.9247832483687988	0.2888101880014109	-0	0.8376150730646791	0	-0.09478689634274365	0	0.03406804037596751	0	0	-4.775356368141626e-18	0
0.08604821581097685	115.4490722287081	986.6882771940775	-0	1.306641473057354	0	0.09456198704476274	-0.8433031137809461	0.2593977764254053	-0	0.8506094224885324	0	-0.09478689634274365	0	0.02287716395081812	0	0	6.289936168389047e-19	0
0.08865573750221857	113.5039926453902	971.2647382422655	-0	1.310975369007315	0	0.09471760723989499	-0.7502271878675061	0.2273421167859635	-0	0.8639344150781286	0	-0.09478689634274366	0	0.00837884022787677	0	0	-9.222418708019161e-18	0
0.09126325919346029	115.0077793462136	966.8369801934867	-0	1.313062658386758	0	0.09479193033680677	-0.6532047498534415	0.1950840679117913	-0	0.8775838330628587	0	-0.09478689634274365	0	-0.0007156873741734902	0	0	6.074728470461954e-19	0
0.09387078088470201	117.03321174287	973.7002820499036	-0	1.312948751046113	0	0.09478702344961554	-0.5600839840179951	0.1649156617987436	-0	0.8915504249145713	0	-0.09478689634274365	0	-2.101563957125173e-05	0	0	-1.523792715533355e-18	0
0.09647830257594374	116.0772028116064	979.2095015755871	-0	1.312930759972451	0	0.09478689854485396	-0.4764423749805858	0.1383521633721619	-0	0.9058235296637724	0	-0.09478689634274365	0	-4.186545965995503e-07	0	0	6.405767616687793e-19	0
0.09908582426718546	114.8460496362458	983.9858495669441	-0	1.312910930956197	0	0.09478689639329231	-0.4038260002535201	0.1156855835087599	-0	0.9203891660397948	0	-0.09478689634274365	0	-1.091548622783872e-08	0	0	-1.2853789581362e-19	0
0.1016933459584272	115.6526772297384	987.6051476232406	-0	1.312913735214936	0	0.09478689634428253	-0.342100150855612	0.0967172583972629	-0	0.93523215495038	0	-0.09478689634274365	0	-3.733624453239382e-10	0	0	8.011328448317583e-19	0
0.1043008676496689	117.0037843637315	990.3921111099982	-0	1.312920783372363	0	0.09478689634281122	-0.2903651533188187	0.08104483152370923	-0	0.9503385096415135	0	-0.09478689634274365	0	-1.824501389118045e-11	0	0	1.036833364352457e-19	0
0.1069083893409106	119.6592249404964	992.4973720208164	-0	1.312941048445954	0	0.09478689634274788	-0.2474252131212357	0.06820665371914249	-0	0.9656934232140677	0	-0.09478689634274365	0	-1.260515938302505e-12	0	0	-6.496850055797304e-19	0
0.1095159110321523	122.8537727848799	993.8674734169313	-0	1.312965200811489	0	0.094786896342744	-0.2119105709797781	0.05771896953655166	-0	0.9812828641192314	0	-0.09478689634274365	0	-1.100098774053613e-13	0	0	9.167673477030846e-19	0
0.1121234327233941	126.9143638374706	994.6458926864234	-0	1.312997088758507	0	0.09478689634274369	-0.1825721620607373	0.04915523626254933	-0	0.9970926016646645	0	-0.09478689634274365	0	-1.020956916895529e-14	0	0	-1.12293943874929e-19	0
0.1147309544146358	131.3589315788642	994.7141290033536	-0	1.313030837798067	0	0.09478689634274365	-0.1582901366933231	0.04214456917814145	-0	1.013110158977447	0	-0.09478689634274365	0	5.620010595882531e-17	0	0	7.29927917252368e-19	0
0.1173384761058775	136.3743521464126	994.2042702992262	-0	1.313068641342259	0	0.09478689634274365	-0.1381372725942392	0.03638562290047432	-0	1.029323346988471	0	-0.09478689634274365	0	1.907502363921045e-15	0	0	4.393006979239302e-19	0
0.1199459977971192	141.6103666234555	993.0155162122388	-0	1.313106194506157	0	0.09478689634274365	-0.1213296015620764	0.0316293799456585	-0	1.045721529511015	0	-0.09478689634274365	0	4.731018864193164e-16	0	0	-5.333491911648785e-19	0
0.122553519488361	147.1941886813736	991.2581804296073	-0	1.313145017977403	0	0.09478689634274365	-0.1072410057322148	0.02767949734674732	-0	1.062294496824079	0	-0.09478689634274363	0	-8.797775778301063e-16	0	0	1.646137889358896e-18	0
0.1251610411796027	152.8647307049879	988.8636670269424	-0	1.31318186226544	0	0.09478689634274365	-0.09535155405516238	0.02437595173234398	-0	1.079033518683225	0	-0.09478689634274365	0	-4.942739758851943e-17	0	0	4.196659271763323e-19	0
0.1277685628708444	158.7197772092808	985.9290028608766	-0	1.313217922240766	0	0.09478689634274365	-0.0852505351397341	0.02159374014514624	-0	1.095930183139664	0	-0.09478689634274366	0	8.010490277714672e-17	0	0	-1.2892949399614e-18	0
0.1303760845620861	164.5639584837552	982.4145457631236	-0	1.313250727302416	0	0.09478689634274365	-0.07660151365414117	0.01923225177361405	-0	1.112976504574629	0	-0.09478689634274365	0	6.36181058158124e-16	0	0	1.755248368071625e-19	0
0.1329836062533279	170.4791498239775	978.4065724998163	-0	1.313281300364587	0	0.09478689634274365	-0.06914232444105417	0.01721363459504526	-0	1.130164273060969	0	-0.09478689634274365	0	6.270991224095421e-16	0	0	9.07692958093526e-20	0
0.1355911279445696	176.3242876141259	973.8909199933864	-0	1.313307816597892	0	0.09478689634274365	-0.06266146641920739	0.01547590120670086	-0	1.147484489392677	0	-0.09478689634274365	0	-7.012456736880211e-16	0	0	3.802340593755243e-19	0
0.1381986496358113	182.1731268566051	968.9479993773182	-0	1.31333120660698	0	0.09478689634274365	-0.05699874022092391	0.01397194249996492	-0	1.164927454686134	0	-0.09478689634274365	0	-1.498163420269818e-15	0	0	7.518665511890732e-20	0
0.140806171327053	187.9295767235452	963.586109094585	-0	1.313350176750174	0	0.09478689634274365	-0.05202892981767589	0.01266489205755559	-0	1.182482293014632	0	-0.09478689634274365	0	-2.932840303706297e-16	0	0	1.244878646719997e-19	0
0.1434136930182948	193.6383759101638	957.9049519323003	-0	1.313365178316681	0	0.09478689634274365	-0.04765764963528559	0.01152644563051516	-0	1.20013770300324	0	-0.09478689634274365	0	-3.387762942369516e-16	0	0	9.463237448700453e-20	0
0.1460212147095365	199.2031129594145	951.9703573859811	-0	1.313374699258152	0	0.09478689634274365	-0.04379822259991465	0.01053081497203995	-0	1.21788340864293	0	-0.09478689634274366	0	1.162784650843408e-15	0	0	-2.436105323732116e-19	0
0.1486287364007782	204.5121409168364	945.9731176068219	-0	1.313376571765359	0	0.09478689634274365	-0.04038370924361929	0.009657891384311083	-0	1.235709334015355	0	-0.09478689634274365	0	-3.146042393670867e-16	0	0	1.111379715768985e-19	0
0.1512362580920199	209.2498847288249	940.0606539139807	-0	1.313365760461714	0	0.09478689634274365	-0.03735723690531524	0.008890625356692314	-0	1.253606891566902	0	-0.09478689634274365	0	-4.930751830354324e-17	0	0	1.403091363986841e-19	0
0.1538437797832616	213.4030346968282	934.2458632727349	-0	1.313342141472304	0	0.09478689634274365	-0.03467533304069789	0.008215859418389038	-0	1.271567716807289	0	-0.09478689634274365	0	-1.285606434332504e-15	0	0	1.277865159407304e-19	0
0.1564513014745033	216.9417925259559	928.4354862988109	-0	1.313305719580205	0	0.09478689634274365	-0.03230473551931046	0.00762339885143447	-0	1.289584390459882	0	-0.09478689634274365	0	-2.152414440873057e-16	0	0	-9.473066576144218e-20	0
0.1590588231657451	219.8632072880071	922.6128828495085	-0	1.313256684545814	0	0.09478689634274365	-0.03021745601130531	0.007104685208282138	-0	1.307649952280744	0	-0.09478689634274365	0	-1.722521974453818e-15	0	0	-1.172652258651167e-19	0
0.1616663448569868	222.10792243884	916.7405802952618	-0	1.313194446219772	0	0.09478689634274365	-0.02838572089301651	0.006651482002720835	-0	1.3257593905829	0	-0.09478689634274365	0	-8.264554555489049e-16	0	0	-1.385410534498439e-19	0
0.1642738665482285	223.7565411431426	910.7383211640182	-0	1.313120783823388	0	0.09478689634274365	-0.02678178598316121	0.006255869858157627	-0	1.343908811019171	0	-0.09478689634274365	0	-7.435353435072964e-16	0	0	-1.033818202181743e-19	0
0.1668813882394702	224.8831504644437	904.4923725059948	-0	1.31303745487701	0	0.09478689634274366	-0.02537899283749545	0.005910426127161628	-0	1.362096696955561	0	-0.09478689634274365	0	-3.837886859073061e-15	0	0	-1.293617864256862e-19	0
0.169488909930712	225.5949373981583	897.9160368729848	-0	1.312946689447305	0	0.09478689634274365	-0.02415308244715663	0.005608547140572118	-0	1.380322700668164	0	-0.09478689634274365	0	3.561836208475194e-16	0	0	1.58669786746059e-19	0
0.1720964316219537	225.9562684209518	890.8761533848806	-0	1.312850142739223	0	0.09478689634274365	-0.02308676453856231	0.005345483047264225	-0	1.39858773175481	0	-0.09478689634274365	0	-1.527960614434756e-15	0	0	2.076054440199628e-19	0
0.1747039533131954	225.9979439809779	883.2753417277503	-0	1.3127488550189	0	0.09478689634274365	-0.02216115785831634	0.005116294830991382	-0	1.416893231556632	0	-0.09478689634274365	0	2.168043685114217e-16	0	0	6.478743405464191e-20	0
0.1773114750044371	225.6837622202566	874.979779174171	-0	1.312642863859108	0	0.09478689634274365	-0.02134453414990707	0.004913313292307374	-0	1.435241094245872	0	-0.09478689634274365	0	1.442907504316244e-15	0	0	-1.433290467366728e-19	0
0.1799189966956788	224.8720735990372	866.0303031493223	-0	1.312529815098939	0	0.09478689634274365	-0.02060310784630589	0.004728453223386153	-0	1.453635133074959	0	-0.09478689634274365	0	-8.082086019803643e-16	0	0	6.592557650012269e-20	0
0.1825265183869206	223.3656956743272	856.5864452458634	-0	1.31240590301972	0	0.09478689634274365	-0.01991555649434771	0.004556546509001854	-0	1.472080910149084	0	-0.09478689634274365	0	7.295228361756674e-16	0	0	-1.050740478357882e-19	0
0.1851340400781623	222.5390629709909	844.4023945689537	-0	1.312304249152341	0	0.09478689634274365	-0.01926788118104177	0.004394303506456466	-0	1.490583394917524	0	-0.09478689634274365	0	-1.175380480350594e-15	0	0	6.099280884703479e-20	0
0.187741561769404	225.3994087205467	825.5529790853316	-0	1.312293450504092	0	0.09478689634274365	-0.01866835051904702	0.004243822360210841	-0	1.509141863087914	0	-0.09478689634274365	0	5.395264517651356e-16	0	0	8.949476296715723e-20	0
0.1903490834606457	227.4819948037486	799.2267284434271	-0	1.312303729616918	0	0.09478689634274366	-0.01813857975709195	0.004110271032495722	-0	1.527752046797033	0	-0.09478689634274365	0	-2.032006724855399e-15	0	0	1.071677822561479e-19	0
0.1929566051518875	227.3825034836442	769.6691535424462	-0	1.31229263549399	0	0.09478689634274363	-0.01774633720266409	0.004009486540123108	-0	1.54639597065788	0	-0.09478689634274365	0	1.548692786456461e-15	0	0	-3.735073563637861e-20	0
0.1955641268431292	225.6402856264824	738.1073448431163	-0	1.312264082840755	0	0.09478689634274363	-0.01757525574237235	0.003961011360707085	-0	1.565043347267507	0	-0.09478689634274365	0	4.250265156148188e-15	0	0	-6.389917697476966e-20	0
0.1981716485343709	221.9487296787179	703.7948774463719	-0	1.312217015991737	0	0.09478689634274365	-0.01768710307066845	0.003979234956008722	-0	1.583653736151412	0	-0.09478689634274365	0	6.262154249825806e-16	0	0	-8.14172482034954e-20	0
0.2007791702256126	216.4779633663399	667.4994852325466	-0	1.31215022255172	0	0.09478689634274365	-0.0181381640701594	0.004076908025699363	-0	1.602190130962219	0	-0.09478689634274365	0	1.179756545334422e-15	0	0	-3.143354949339493e-20	0
0.2033866919168544	208.7103048211077	630.4447522339307	-0	1.31204372900206	0	0.09478689634274365	-0.01898942702195007	0.004267554822793596	-0	1.620624007626835	0	-0.09478689634274365	0	1.078298058159196e-15	0	0	9.624446701278252e-20	0
0.2059942136080961	197.8661521155954	592.1332690342201	-0	1.311880156748126	0	0.09478689634274365	-0.02030309062104893	0.004565411786216062	-0	1.638928692637849	0	-0.09478689634274365	0	1.323184688826083e-15	0	0	-6.95386974387397e-20	0
0.2086017352993378	183.6755329093665	551.755621202997	-0	1.31165307834006	0	0.09478689634274365	-0.02205765521039625	0.004967048936385035	-0	1.657080893852303	0	-0.09478689634274365	0	-1.72168525879466e-15	0	0	-4.833840272962467e-20	0
0.2112092569905795	169.0710418299959	511.4672763549636	-0	1.311411272367518	0	0.09478689634274365	-0.02416505951549251	0.005455837855532978	-0	1.675053289722636	0	-0.09478689634274365	0	1.342991642760845e-15	0	0	-1.646349764805488e-19	0
0.2138167786818213	155.0629458574457	473.0280008959901	-0	1.311164954213296	0	0.09478689634274365	-0.0262984567667815	0.005964692199836553	-0	1.6928076399101	0	-0.09478689634274365	0	-8.005674905528723e-16	0	0	8.688635463935155e-20	0
0.216424300373063	141.810441617717	435.3875105399371	-0	1.31092962911454	0	0.09478689634274365	-0.02810656303482561	0.006421141917468105	-0	1.710305419160465	0	-0.09478689634274365	0	5.005417686984999e-16	0	0	9.090503261596498e-20	0
0.2190318220643047	128.8207350175136	395.4185638977656	-0	1.310724557653503	0	0.09478689634274363	-0.02949082466726253	0.006805051552398974	-0	1.727522721909302	0	-0.09478689634274365	0	1.91153452294858e-15	0	0	-2.128377781776893e-19	0
0.2216393437555464	115.4555196466373	353.0550197800824	-0	1.310534754037103	0	0.09478689634274365	-0.03053008231587437	0.007132215288521617	-0	1.744444037513749	0	-0.09478689634274365	0	-7.132334503348594e-16	0	0	-1.08126134401615e-19	0
0.2242468654467882	101.6820852935685	310.5645170097771	-0	1.310335482858183	0	0.09478689634274365	-0.03180428476113261	0.007529163834738624	-0	1.761086165617168	0	-0.09478689634274365	0	-5.842774359673547e-16	0	0	1.280114524154645e-19	0
0.2268543871380299	88.20536391592013	268.8805644197606	-0	1.310142007247949	0	0.09478689634274365	-0.03394703496493356	0.008139705483024872	-0	1.77746989103349	0	-0.09478689634274365	0	3.027203867689214e-17	0	0	3.449444634150392e-20	0
0.2294619088292716	75.39543949721499	228.313125070978	-0	1.309970782342944	0	0.09478689634274365	-0.03712024177820735	0.009004626744322636	-0	1.793609582120221	0	-0.09478689634274365	0	3.707287731623365e-16	0	0	-5.667119691365029e-20	0
0.2320694305205133	61.9597113522135	186.874532761285	-0	1.309793176441974	0	0.09478689634274365	-0.04139791421651381	0.01014508800847835	-0	1.809527031372086	0	-0.09478689634274365	0	-2.822775772999184e-16	0	0	1.421907123923117e-19	0
0.2346769522117551	46.73036384455774	141.3355150734606	-0	1.309595402526917	0	0.09478689634274365	-0.04700679592901447	0.01162016705221944	-0	1.82524947186144	0	-0.09478689634274365	0	-1.754645789681233e-17	0	0	-2.526251960728724e-19	0
0.2372844739029968	30.97918033787524	91.27113166934393	-0	1.309512637467867	0	0.09478689634274365	-0.05426927536348352	0.0135131866687903	-0	1.840802510714292	0	-0.09478689634274365	0	6.007668539833303e-17	0	0	2.231636496085623e-19	0
0.2398919955942385	14.24895913569914	36.43871729602759	-0	1.309871594631014	0	0.09478689634274365	-0.06356087482606	0.01592343950248533	-0	1.856201761816309	0	-0.09478689634274365	0	7.863138809056578e-17	0	0	4.286736944953611e-19	0
0.2424995172854802	-0.1465004288615043	-2.731432616841651	-0	1.306206042756798	0	0.09478689634274365	-0.07460584161154016	0.01880154009391642	-0	1.871438857115656	0	-0.09478689634274365	0	1.238213096055135e-19	0	0	2.292529007630105e-19	0
0.2451070389767219	0.0005177591420767484	-0.0005151555739904518	-0	1.296488436064716	0	0.09478689634274365	-0.0842015303934938	0.02141694328008282	-0	1.886416854372139	0	-0.09478689634274363	0	-1.892244889710493e-21	0	0	1.908149785029212e-18	0
0.2477145606679636	9.386610475965432e-09	-6.924904296891463e-09	-0	1.296161885983118	0	0.09478689634274365	-0.08885810688248803	0.02295525706719105	-0	1.901036696626712	0	-0.09478689634274365	0	4.842117076012351e-26	0	0	6.700184358464039e-19	0
0.2503220823592054	1.903559752988148e-12	-1.197416027770427e-12	-0	1.298961387498818	0	0.09478689634274365	-0.09008450200273463	0.02375386432057086	-0	1.915280719035915	0	-0.09478689634274365	0	4.853931106613424e-30	0	0	6.432479686629923e-19	0
0.2529296040504471	-0	-0	-0	0	0	0	-0.09072310442392742	0.02448840110901434	-0	1.9291255251635	0	-0.09478689634226935	0	0	0	0	1.224384043217346e-15	0
0.2555371257416888	-0	-0	-0	0	0	0	-0.09174669461490038	0.02541001239603925	-0	1.942513576957794	0	-0.09478689633920777	0	0	0	0	8.616354538690763e-15	0
0.2581446474329305	-0	-0	-0	0	0	0	-0.09391053914132298	0.02674658226904969	-0	1.955388442990669	0	-0.0947868963203852	0	0	0	0	5.157582010486768e-14	0
0.2607521691241723	-0	-0	-0	0	0	0	-0.09843302916535655	0.0288968678844673	-0	1.967695369987879	0	-0.09478689620874683	0	0	0	0	2.966578650692614e-13	0
0.263359690815414	-0	-0	-0	0	0	0	-0.1063431123731648	0.03226546152046113	-0	1.979375596915109	0	-0.09478689559668817	0	0	0	0	1.615490160368226e-12	0
0.2659672125066557	-0	-0	-0	0	0	0	-0.1191275403879446	0.03742668846533755	-0	1.990416818387552	0	-0.09478689250838421	0	0	0	0	8.326699544126058e-12	0
0.2685747341978975	-0	-0	-0	0	0	0	-0.139481191414533	0.04539247524791323	-0	2.00084181857458	0	-0.09478687824201291	0	0	0	0	4.079662684203939e-11	0
0.2711822558891391	-0	-0	-0	0	0	0	-0.1713937183909485	0.05773841693555744	-0	2.010685916417739	0	-0.09478681747238477	0	0	0	0	1.919396027672089e-10	0
0.2737897775803809	-0	-0	-0	0	0	0	-0.2214261090244648	0.07710554199181839	-0	2.019984806924652	0	-0.09478657672684043	0	0	0	0	8.761247977210132e-10	0
0.2763972992716226	2.122530043316393e-14	-1.119007205691495e-14	-0	0	0	0	-0.300453778541715	0.1080005382417285	-0	2.028757781164706	0	-0.09478568073913016	0	2.011880352001902e-15	0	0	3.909973695943717e-09	0
0.2790048209628643	2.355712756586688e-12	-1.211055106161008e-12	-0	1.372915143020536	0	0.09478689634274365	-0.4285454783823836	0.1588502298337477	-0	2.036990760240332	0	-0.09478253564407081	0	9.383555566308978e-30	0	0	1.710979928691295e-08	0
0.2816123426541061	4.206875254875006e-10	-2.106899517278971e-10	-0	1.380788005401017	0	0.09478689634274365	-0.6472383274123561	0.2472873747064274	-0	2.044564537756778	0	-0.09477219031020678	0	-3.228442157156336e-27	0	0	7.322206680867542e-08	0
0.2842198643453477	1.09344435117011e-07	-5.331374707410234e-08	-0	1.388859135511615	0	0.09478689634274365	-1.045421460715541	0.4118098043238778	-0	2.051109997776218	0	-0.09474064295304169	0	5.303222903511181e-25	0	0	3.037951640230941e-07	0
0.2868273860365895	3.507267957564313e-05	-1.664195890878545e-05	-0	1.397118220162831	0	0.09478689634274365	-1.832833836513581	0.7454298013874125	-0	2.055683948858165	0	-0.09465381543308674	0	1.006735772974432e-22	0	0	1.195389145178602e-06	0
0.2894349077278312	0.00551144760902986	-0.002544851480765074	-0	1.405550772627193	0	0.09478689634274365	-3.550275620979815	1.494506347129326	-0	2.056448562745365	0	-0.09444617341090748	0	3.923694332504989e-20	0	0	4.304925443722808e-06	0
0.2920424294190729	-0.08310895580852233	0.03736275892013741	-0	1.414135808518491	0	0.09478689634274365	-7.723901340271989	3.377006209093029	-0	2.051069048535383	0	-0.0940375422288071	0	1.908994202521083e-19	0	0	1.346742763629869e-05	0
0.2946499511103147	-0.148715584501456	0.06516750921075802	-0	1.422849687001003	0	0.09478689634274365	-18.90462854160801	8.626187937999505	-0	2.038965160326626	0	-0.09341475602463135	0	1.511086913358564e-19	0	0	3.418898315720601e-05	0
0.2972574728015564	-0.1860622831454525	0.0796037440258848	-0	1.431669414945827	0	0.09478689634274365	-49.47554591294525	23.81227012076119	-0	2.024217561345708	0	-0.09273279648590879	0	-1.265208696017445e-18	0	0	6.339480220685307e-05	0
0.2998649944927981	-0.2133408485943633	0.08929391732351782	-0	1.440576493855477	0	0.09478689634274365	-119.3091254251425	62.01370842423692	-0	2.01382940411032	0	-0.09224201816514062	0	-2.67571814421924e-19	0	0	6.781239895886199e-05	0
0.3024725161840398	-0.2376461687812506	0.09749418157643432	-0	1.449568630627602	0	0.09478689634274365	-230.0373953650349	134.7115653753393	-0	2.01797679646877	0	-0.09229933074198604	0	-2.941455150431252e-19	0	0	-1.667572912402234e-05	0
0.3050800378752815	-0.2619651189114625	0.1055072905592579	-0	1.458657337465148	0	0.09478689634274365	-435.5979548040709	311.8720856830814	-0	2.037996835703615	0	-0.09294740531944619	0	-1.714927128559193e-18	0	0	-0.0004393054490069579	0
0.3076875595665233	-0.2920086037385257	0.115528394725689	-0	1.467868640981252	0	0.09478689634274365	-536.4059617048537	514.097969762332	-0	2.045791824587669	0	-0.09317507929513724	0	-1.373550531101831e-18	0	0	-0.001168560429957842	0
0.310295081257765	-0.3328630684702467	0.1293022005979629	-0	1.477231183432527	0	0.09478689634274365	-219.1766274991281	512.1395309496581	-0	2.040722382637179	0	-0.09292428720978181	0	-1.626276726711554e-18	0	0	-0.004272881468137226	0
0.3129026029490067	-0.3864257065708379	0.1472128846758017	-0	1.486777560854584	0	0.09478689634274365	-10.01915147260295	511.8057663804306	-0	2.031473872179436	0	-0.09254662931985912	0	-3.238741973219291e-18	0	0	0.001754511762005124	0
0.3155101246402484	-0.4541231962940472	0.1694691941002316	-0	1.496537392521174	0	0.09478689634274365	73.78789401864503	636.0145705785988	-0	2.033617483976522	0	-0.09260548164961489	0	-3.231955949366676e-18	0	0	-0.001805887459012349	0
0.3181176463314901	-0.535802157887335	0.1958745997095141	-0	1.506515421957259	0	0.09478689634274365	87.95953703586699	766.1135948891022	-0	2.036303474785992	0	-0.0927008911659432	0	-3.424010764450588e-18	0	0	-0.006919541792838066	0
0.3207251680227319	-0.6285685197263102	0.2253580851561578	-0	1.516710776881074	0	0.09478689634274365	107.1519319890694	859.648143933792	-0	2.039104076198774	0	-0.0927976382304217	0	-1.949657861241749e-18	0	0	-0.0119930866598359	0
0.3233326897139736	-0.7263946987655258	0.255850254512807	-0	1.527121457753741	0	0.09478689634274365	110.7329242625202	920.9930810144492	-0	2.042223597172842	0	-0.09290793898209733	0	4.568571767214185e-19	0	0	-0.01700497140361221	0
0.3259402114052153	-0.8205968672215416	0.284470045306306	-0	1.537751041605211	0	0.09478689634274365	114.7803575608867	958.5166915079133	-0	2.045904008941895	0	-0.09303741701356477	0	-2.066026010021619e-18	0	0	-0.02210238587151745	0
0.328547733096457	-0.9044573031037038	0.3089202048750206	-0	1.548618947392443	0	0.09478689634274365	111.027281771073	980.9398314641153	-0	2.049828384063614	0	-0.09317695707486998	0	3.645427794019262e-19	0	0	-0.02697030224853093	0
0.3311552547876988	-0.9723820099653303	0.3273247561509348	-0	1.559746488448341	0	0.09478689634274365	114.6521005730863	1000.142246187649	-0	2.054355618034876	0	-0.09333623930967735	0	-6.632222613740477e-19	0	0	-0.03232282124650576	0
0.3337627764789405	-1.018123441124465	0.337749025944977	-0	1.571153261840493	0	0.09478689634274363	122.9694910302961	1019.549406158873	-0	2.059869990198297	0	-0.09352958418841174	0	-1.42897445602232e-17	0	0	-0.03842494344745352	0
0.3363702981701822	-1.036487787702993	0.338758678675089	-0	1.582857921164111	0	0.09478689634274363	127.6263188266073	1030.027517599068	-0	2.066114692835757	0	-0.09374970467468684	0	-1.030029024263327e-17	0	0	-0.0432613986760886	0
0.3389778198614239	-1.025864732921882	0.3302638252321206	-0	1.594873431538482	0	0.09478689634274365	124.3800134227309	1026.341792484623	-0	2.072343365069668	0	-0.09397121831730937	0	5.532864507234396e-18	0	0	-0.04435324946117489	0
0.3415853415526657	-0.9874786064223863	0.3131125614756513	-0	1.607209361294477	0	0.09478689634274365	121.6076770380002	1015.919285481834	-0	2.078324577103411	0	-0.09418404071671418	0	-4.338978876643981e-19	0	0	-0.04131815114121364	0
0.3441928632439074	-0.9247832483688281	0.2888101880014201	-0	1.619871580437197	0	0.09478689634274365	117.7248349797313	1001.954481674661	-0	2.083878629188038	0	-0.09438248854649263	0	-6.466691537302274e-18	0	0	-0.03406804037596827	0
0.3468003849351491	-0.8433031137809419	0.259397776425404	-0	1.63286592986105	0	0.09478689634274365	115.449072228708	986.6882771940798	-0	2.088897980429872	0	-0.09456198704476274	0	1.935392750386582e-18	0	0	-0.02287716395081821	0
0.3494079066263908	-0.7502271878675337	0.2273421167859719	-0	1.646190922450646	0	0.09478689634274365	113.5039926453903	971.2647382422689	-0	2.093231876379832	0	-0.094717607239895	0	-3.749561353237923e-18	0	0	-0.008378840227876	0
0.3520154283176326	-0.6532047498534375	0.1950840679117901	-0	1.659840340435376	0	0.09478689634274365	115.0077793462135	966.83698019349	-0	2.095319165759275	0	-0.09479193033680677	0	2.187150758952014e-18	0	0	0.0007156873741729424	0
0.3546229500088743	-0.5600839840179912	0.1649156617987425	-0	1.673806932287088	0	0.09478689634274365	117.0332117428698	973.7002820499068	-0	2.09520525841863	0	-0.09478702344961554	0	9.640879889643126e-19	0	0	2.101563957236295e-05	0
0.357230471700116	-0.4764423749805837	0.1383521633721613	-0	1.688080037036289	0	0.09478689634274365	116.0772028116063	979.2095015755899	-0	2.095187267344968	0	-0.09478689854485396	0	6.416164219439639e-19	0	0	4.186545974582583e-07	0
0.3598379933913577	-0.4038260002535178	0.1156855835087592	-0	1.702645673412312	0	0.09478689634274365	114.8460496362454	983.9858495669471	-0	2.095167438328715	0	-0.09478689639329232	0	-2.173834491913613e-18	0	0	1.091548875606549e-08	0
0.3624455150825995	-0.3421001508556419	0.0967172583972714	-0	1.717488662322898	0	0.09478689634274365	115.6526772297379	987.6051476232415	-0	2.095170242587453	0	-0.09478689634428253	0	2.525318773856968e-18	0	0	3.733632618601521e-10	0
0.3650530367738412	-0.2903651533188171	0.08104483152370878	-0	1.732595017014031	0	0.09478689634274365	117.0037843637315	990.392111110001	-0	2.09517729074488	0	-0.09478689634281122	0	-3.817984156068227e-20	0	0	1.824452559642075e-11	0
0.3676605584650829	-0.2474252131212345	0.06820665371914217	-0	1.747949930586585	0	0.09478689634274365	119.6592249404963	992.4973720208193	-0	2.095197555818472	0	-0.09478689634274788	0	-1.455201890812061e-18	0	0	1.259480408049989e-12	0
0.3702680801563246	-0.2119105709798124	0.05771896953656101	-0	1.763539371491749	0	0.09478689634274365	122.8537727848799	993.8674734169364	-0	2.095221708184007	0	-0.09478689634274398	0	-3.958347685348264e-20	0	0	1.078755847886947e-13	0
0.3728756018475664	-0.182572162060736	0.04915523626254898	-0	1.779349109037182	0	0.09478689634274365	126.9143638374707	994.6458926864283	-0	2.095253596131023	0	-0.09478689634274369	0	-1.269129488761411e-18	0	0	1.124509942146996e-14	0
0.3754831235388081	-0.1582901366933223	0.04214456917814125	-0	1.795366666349964	0	0.09478689634274365	131.3589315788644	994.7141290033589	-0	2.095287345170584	0	-0.09478689634274365	0	-6.971761698150863e-19	0	0	-7.380859597185905e-16	0
0.3780906452300498	-0.1381372725942389	0.03638562290047424	-0	1.811579854360988	0	0.09478689634274365	136.3743521464125	994.2042702992291	-0	2.095325148714776	0	-0.09478689634274365	0	1.114848367519789e-19	0	0	-2.025383830172679e-15	0
0.3806981669212915	-0.1213296015620756	0.03162937994565829	-0	1.827978036883532	0	0.09478689634274365	141.610366623455	993.0155162122387	-0	2.095362701878674	0	-0.09478689634274365	0	-7.493314958037403e-19	0	0	7.727883548485797e-16	0
0.3833056886125332	-0.1072410057322145	0.02767949734674724	-0	1.844551004196596	0	0.09478689634274365	147.1941886813739	991.2581804296126	-0	2.09540152534992	0	-0.09478689634274365	0	-2.637547440560219e-20	0	0	-6.018755959410584e-16	0
0.385913210303775	-0.095351554055162	0.02437595173234389	-0	1.861290026055742	0	0.09478689634274366	152.8647307049884	988.8636670269484	-0	2.095438369637957	0	-0.09478689634274365	0	1.816119973700191e-18	0	0	-3.3775479054216e-16	0
0.3885207319950167	-0.08525053513973371	0.02159374014514615	-0	1.878186690512181	0	0.09478689634274365	158.7197772092802	985.929002860876	-0	2.095474429613283	0	-0.09478689634274365	0	-2.967090650627256e-19	0	0	1.891958191018984e-16	0
0.3911282536862584	-0.07660151365414085	0.01923225177361397	-0	1.895233011947147	0	0.09478689634274365	164.5639584837544	982.414545763123	-0	2.095507234674933	0	-0.09478689634274365	0	-7.280999854875039e-20	0	0	3.150055174806863e-16	0
0.3937357753775002	-0.06914232444105387	0.01721363459504519	-0	1.912420780433486	0	0.09478689634274365	170.479149823977	978.4065724998188	-0	2.095537807737104	0	-0.09478689634274365	0	-4.073454991218471e-19	0	0	6.187911188583539e-16	0
0.3963432970687418	-0.06266146641920713	0.01547590120670079	-0	1.929740996765195	0	0.09478689634274365	176.3242876141245	973.8909199933858	-0	2.095564323970409	0	-0.09478689634274365	0	-2.199599114239314e-19	0	0	-7.133319213315906e-16	0
0.3989508187599836	-0.05699874022098837	0.01397194249998072	-0	1.947183962058651	0	0.09478689634274365	182.1731268566042	968.9479993773174	-0	2.095587713979497	0	-0.09478689634274365	0	-2.453274472285073e-19	0	0	5.551116902567436e-16	0
0.4015583404512253	-0.05202892981767569	0.01266489205755554	-0	1.964738800387149	0	0.09478689634274365	187.929576723545	963.5861090945876	-0	2.095606684122691	0	-0.09478689634274365	0	9.334559297277398e-20	0	0	-8.011869552698556e-16	0
0.404165862142467	-0.04765764963528538	0.01152644563051511	-0	1.982394210375757	0	0.09478689634274365	193.6383759101638	957.9049519323027	-0	2.095621685689198	0	-0.09478689634274365	0	1.232010831577692e-19	0	0	3.387762942369516e-16	0
0.4067733838337088	-0.04379822259991448	0.01053081497203991	-0	2.000139916015447	0	0.09478689634274365	199.2031129594146	951.970357385984	-0	2.095631206630669	0	-0.09478689634274365	0	3.304719016810336e-19	0	0	1.649102441071511e-15	0
0.4093809055249504	-0.04038370924361916	0.009657891384311052	-0	2.017965841387872	0	0.09478689634274365	204.512140916836	945.9731176068243	-0	2.095633079137877	0	-0.09478689634274365	0	1.930344506076464e-19	0	0	-1.015629678776667e-15	0
0.4119884272161922	-0.03735723690531508	0.008890625356692276	-0	2.035863398939418	0	0.09478689634274365	209.2498847288243	940.0606539139826	-0	2.095622267834231	0	-0.09478689634274365	0	-8.895171726947804e-20	0	0	-1.398807866091845e-15	0
0.4145959489074339	-0.03467533304069775	0.008215859418389005	-0	2.053824224179806	0	0.09478689634274365	213.4030346968281	934.2458632727368	-0	2.095598648844821	0	-0.09478689634274365	0	1.619960788205194e-19	0	0	-5.49691138193564e-16	0
0.4172034705986756	-0.03230473551931017	0.007623398851434401	-0	2.071840897832399	0	0.09478689634274365	216.9417925259557	928.4354862988139	-0	2.095562226952722	0	-0.09478689634274365	0	-2.074557101277571e-19	0	0	-8.792295415531795e-16	0
0.4198109922899174	-0.03021745601130534	0.007104685208282146	-0	2.089906459653261	0	0.09478689634274365	219.8632072880068	922.6128828495114	-0	2.095513191918332	0	-0.09478689634274365	0	4.122212031898047e-20	0	0	-3.485385305755184e-16	0
0.422418513981159	-0.02838572089301656	0.006651482002720845	-0	2.108015897955417	0	0.09478689634274365	222.1079224388388	916.7405802952607	-0	2.095450953592289	0	-0.09478689634274365	0	7.688777532700284e-20	0	0	1.365056899306995e-15	0
0.4250260356724008	-0.02678178598316112	0.006255869858157606	-0	2.126165318391688	0	0.09478689634274365	223.7565411431423	910.7383211640171	-0	2.095377291195905	0	-0.09478689634274365	0	-1.021697321376187e-19	0	0	1.366480464141244e-15	0
0.4276335573636425	-0.02537899283749534	0.005910426127161603	-0	2.144353204328078	0	0.09478689634274365	224.8831504644434	904.4923725059971	-0	2.095293962249527	0	-0.09478689634274365	0	-9.057959335340203e-20	0	0	3.633618166197966e-16	0
0.4302410790548842	-0.02415308244715653	0.005608547140572095	-0	2.162579208040682	0	0.09478689634274363	225.5949373981579	897.916036872987	-0	2.095203196819823	0	-0.09478689634274365	0	-1.609090628212099e-19	0	0	1.488800335347944e-16	0
0.432848600746126	-0.02308676453856212	0.005345483047264181	-0	2.180844239127327	0	0.09478689634274366	225.9562684209514	890.8761533848822	-0	2.095106650111741	0	-0.09478689634274365	0	1.353655396977934e-19	0	0	1.056434749428219e-15	0
0.4354561224373677	-0.02216115785831615	0.005116294830991338	-0	2.19914973892915	0	0.09478689634274365	225.9979439809774	883.2753417277484	-0	2.095005362391417	0	-0.09478689634274365	0	6.261309062070037e-20	0	0	1.029085872756474e-15	0
0.4380636441286094	-0.02134453414990699	0.004913313292307355	-0	2.217497601618389	0	0.09478689634274365	225.6837622202563	874.9797791741736	-0	2.094899371231626	0	-0.09478689634274365	0	-1.526554385885517e-19	0	0	-1.678670436819512e-15	0
0.4406711658198511	-0.02060310784640895	0.004728453223409805	-0	2.235891640447476	0	0.09478689634274365	224.8720735990372	866.030303149329	-0	2.094786322471456	0	-0.09478689634274365	0	1.074390963164245e-19	0	0	-9.09207504294069e-16	0
0.4432786875110928	-0.01991555649434764	0.004556546509001836	-0	2.254337417521601	0	0.09478689634274365	223.3656956743282	856.5864452458691	-0	2.094662410392238	0	-0.09478689634274365	0	2.592999700766462e-20	0	0	3.314103600890414e-16	0
0.4458862092023346	-0.01926788118104159	0.004394303506456426	-0	2.272839902290042	0	0.09478689634274365	222.5390629709901	844.4023945689556	-0	2.094560756524859	0	-0.09478689634274365	0	-3.122013085277156e-20	0	0	-5.084978365480629e-16	0
0.4484937308935762	-0.01866835051904703	0.004243822360210844	-0	2.29139837046043	0	0.09478689634274365	225.399408720546	825.5529790853337	-0	2.094549957876609	0	-0.09478689634274363	0	2.971782484886462e-20	0	0	-4.374860415505522e-15	0
0.451101252584818	-0.01813857975709189	0.004110271032495708	-0	2.310008554169551	0	0.09478689634274365	227.4819948037487	799.226728443429	-0	2.094560236989436	0	-0.09478689634274363	0	4.49184288361246e-20	0	0	-1.469999891199232e-15	0
0.4537087742760597	-0.01774633720266403	0.004009486540123094	-0	2.328652478030398	0	0.09478689634274365	227.3825034836462	769.6691535424532	-0	2.094549142866508	0	-0.09478689634274365	0	8.461418633592444e-20	0	0	1.760260618281005e-16	0
0.4563162959673014	-0.01757525574237228	0.003961011360707069	-0	2.347299854640025	0	0.09478689634274365	225.6402856264822	738.1073448431179	-0	2.094520590213273	0	-0.09478689634274365	0	-1.524487385335396e-20	0	0	-1.354640083832487e-15	0
0.4589238176585432	-0.0176871030706685	0.003979234956008734	-0	2.365910243523929	0	0.09478689634274365	221.9487296787177	703.7948774463733	-0	2.094473523364254	0	-0.09478689634274365	0	-7.786387660042467e-20	0	0	-8.619783574858492e-16	0
0.4615313393497849	-0.01813816407015934	0.004076908025699349	-0	2.384446638334736	0	0.09478689634274365	216.4779633663399	667.4994852325486	-0	2.094406729924237	0	-0.09478689634274365	0	-3.332067391143349e-20	0	0	-1.179756545334422e-15	0
0.4641388610410266	-0.01898942702195001	0.00426755482279358	-0	2.402880514999352	0	0.09478689634274365	208.7103048211068	630.4447522339281	-0	2.094300236374578	0	-0.09478689634274365	0	-5.617593002488429e-20	0	0	1.53136389062823e-15	0
0.4667463827322683	-0.02030309062104896	0.004565411786216069	-0	2.421185200010366	0	0.09478689634274365	197.8661521155936	592.1332690342165	-0	2.094136664120642	0	-0.09478689634274365	0	-6.504408107396536e-21	0	0	3.43425529948269e-16	0
0.4693539044235101	-0.02205765521039618	0.00496704893638502	-0	2.43933740122482	0	0.09478689634274365	183.6755329093665	551.7556212029987	-0	2.093909585712576	0	-0.09478689634274365	0	-1.28433494779578e-19	0	0	1.72168525879466e-15	0
0.4719614261147518	-0.02416505951549242	0.005455837855532958	-0	2.457309797095154	0	0.09478689634274365	169.0710418299958	511.4672763549649	-0	2.093667779740036	0	-0.09478689634274365	0	1.831187723335043e-19	0	0	1.233132516650805e-15	0
0.4745689478059935	-0.02629845676678141	0.005964692199836534	-0	2.475064147282618	0	0.09478689634274365	155.0629458574452	473.0280008959916	-0	2.093421461585813	0	-0.09478689634274365	0	-1.732253191791228e-19	0	0	3.290416255463351e-16	0
0.4771764694972352	-0.02810656303482534	0.006421141917468043	-0	2.492561926532983	0	0.09478689634274365	141.8104416177155	435.3875105399337	-0	2.093186136487057	0	-0.09478689634274365	0	1.741918757283546e-19	0	0	-3.155847236953126e-16	0
0.4797839911884769	-0.02949082466726241	0.006805051552398948	-0	2.509779229281819	0	0.09478689634274365	128.8207350175132	395.4185638977666	-0	2.092981065026021	0	-0.09478689634274365	0	2.025419191840543e-19	0	0	3.223352241276631e-16	0
0.4823915128797187	-0.03053008231599818	0.007132215288550543	-0	2.526700544886267	0	0.09478689634274365	115.4555196466357	353.0550197800788	-0	2.09279126140962	0	-0.09478689634274365	0	-2.042289258437768e-19	0	0	-4.488123174935955e-16	0
0.4849990345709604	-0.03180428476113246	0.007529163834738589	-0	2.543342672989686	0	0.09478689634274365	101.6820852935669	310.5645170097731	-0	2.092591990230699	0	-0.09478689634274365	0	-6.226420586296327e-20	0	0	-2.07355038418309e-16	0
0.4876065562622021	-0.03394703496493343	0.008139705483024841	-0	2.559726398406007	0	0.09478689634274365	88.20536391591943	268.880564419761	-0	2.092398514620466	0	-0.09478689634274365	0	4.564262763429253e-20	0	0	-3.082068096180897e-16	0
0.4902140779534438	-0.03712024177820721	0.009004626744322602	-0	2.575866089492739	0	0.09478689634274365	75.39543949721531	228.313125070979	-0	2.092227289715461	0	-0.09478689634274365	0	1.224184434661515e-19	0	0	-4.655474097034217e-17	0
0.4928215996446856	-0.04139791421651384	0.01014508800847836	-0	2.591783538744603	0	0.09478689634274365	61.95971135221541	186.8745327612908	-0	2.092049683814491	0	-0.09478689634274366	0	-3.230565783311745e-19	0	0	1.125622011109717e-15	0
0.4954291213359273	-0.04700679592901452	0.01162016705221946	-0	2.607505979233957	0	0.09478689634274366	46.73036384455583	141.3355150734556	-0	2.091851909899435	0	-0.09478689634274365	0	9.625348451941531e-19	0	0	3.406575086649227e-17	0
0.498036643027169	-0.0542692753634833	0.01351318666879025	-0	2.623059018086809	0	0.09478689634274365	30.97918033787508	91.27113166934402	-0	2.091769144840385	0	-0.09478689634274366	0	4.13960849607118e-19	0	0	6.518479995447806e-16	0
0.5006441647184108	-0.06356087482605952	0.0159234395024852	-0	2.638458269188826	0	0.09478689634274365	14.24895913569701	36.43871729602214	-0	2.092128102003532	0	-0.09478689634274365	0	3.687249526719121e-19	0	0	9.991252054555926e-17	0
0.5032516864096525	-0.07460584161154016	0.01880154009391643	-0	2.653695364488173	0	0.09478689634274365	-0.1465004288614737	-2.731432616841181	-0	2.088462550129315	0	-0.09478689634274365	0	-2.292529007630105e-19	0	0	-4.722463193872251e-19	0
0.5058592081008941	-0.08420153039349347	0.02141694328008273	-0	2.668673361744657	0	0.09478689634274366	0.0005177591420767403	-0.0005151555739904438	-0	2.078744943437233	0	-0.09478689634274365	0	1.818279776576799e-18	0	0	-3.151162827109339e-21	0
0.5084667297921359	-0.08885810688248715	0.02295525706719083	-0	2.683293203999229	0	0.09478689634274365	9.386610475965465e-09	-6.924904296891488e-09	-0	2.078418393355635	0	-0.09478689634274365	0	1.437560850395101e-19	0	0	-1.41131486823361e-26	0
0.5110742514833777	-0.09008450200273421	0.02375386432057076	-0	2.697537226408432	0	0.09478689634274365	1.903559752988153e-12	-1.19741602777043e-12	-0	2.081217894871335	0	-0.09478689634274365	0	-2.075810533734448e-19	0	0	1.716580649374659e-31	0
0.5136817731746193	-0.09072310442392699	0.02448840110901423	-0	2.711382032536017	0	0.09478689634226935	-0	-0	-0	0	0	0	0	-1.223529085260282e-15	0	0	0	0
0.5162892948658611	-0.09174669461489998	0.02541001239603914	-0	2.724770084330312	0	0.09478689633920777	-0	-0	-0	0	0	0	0	-8.616338162815622e-15	0	0	0	0
0.5188968165571028	-0.09391053914132254	0.02674658226904956	-0	2.737644950363187	0	0.0947868963203852	-0	-0	-0	0	0	0	0	-5.15762805793353e-14	0	0	0	0
0.5215043382483445	-0.09843302916535612	0.02889686788446717	-0	2.749951877360396	0	0.09478689620874683	-0	-0	-0	0	0	0	0	-2.966587448347228e-13	0	0	0	0
