DataType=double
version=3
OpenSimVersion=4.6-2026-06-22-85aaf64
endheader
time	ground_force_r_vx	ground_force_r_vy	ground_force_r_vz	ground_force_r_px	ground_force_r_py	ground_force_r_pz	ground_force_l_vx	ground_force_l_vy	ground_force_l_vz	ground_force_l_px	ground_force_l_py	ground_force_l_pz	ground_torque_r_x	ground_torque_r_y	ground_torque_r_z	ground_torque_l_x	ground_torque_l_y	ground_torque_l_z
0	-0.001554566959169608	0.0005552136988420333	-0	1.266219449617354	0	0.0936429669698769	-0	-0	-0	0	0	0	0	-2.948682839611749e-09	0	0	0	0
0.00253376985224922	-0.002397674493931096	0.000872085954345945	-0	1.24758011604926	0	0.09265533905356829	1.948709438138793e-14	-1.036246552223979e-14	-0	0	0	0	0	-4.236153587697198e-09	0	0	-1.84712119514988e-15	0
0.005067539704498441	-0.004643796406581108	0.00172033763430576	-0	1.223183947293728	0	0.09150899216777952	3.669431332552397e-13	-1.897800007356645e-13	-0	0.6483228746903574	0	-0.09478689634274365	0	-3.75589037017966e-09	0	0	3.752094768670238e-31	0
0.007601309556747661	-0.01116502870808278	0.004214496543228387	-0	1.203922672068976	0	0.0905956578423409	1.462560155647082e-11	-7.357765427549186e-12	-0	0.655921414712888	0	-0.09478689634274365	0	7.978698613600113e-10	0	0	8.994986479448329e-29	0
0.01013507940899688	-0.03122513587558885	0.0120196812812817	-0	1.194345191442552	0	0.09005967003915819	9.194937838339242e-10	-4.499113992390629e-10	-0	0.6637752973078501	0	-0.09478689634274365	0	1.161931381731344e-08	0	0	-3.476639357862495e-27	0
0.0126688492612461	-0.09506861907308772	0.0373613808202085	-0	1.191963988259194	0	0.08979597621313283	6.876325353788828e-08	-3.271631893162625e-08	-0	0.6718774209543856	0	-0.09478689634274365	0	3.238874170246207e-08	0	0	-3.938952982568903e-25	0
0.01520261911349532	-0.3015707921459584	0.1211624687312245	-0	1.193347117408466	0	0.08967533034545498	5.12832103158599e-06	-2.370762550380612e-06	-0	0.6802319422922585	0	-0.09478689634274365	0	7.118781274061851e-08	0	0	3.323054306928757e-24	0
0.01773638896574454	-0.9694059557505992	0.3988810620993619	-0	1.196389386887505	0	0.08962102233351124	0.0003321756821322625	-0.0001490808101497957	-0	0.6888469358769799	0	-0.09478689634274365	0	1.451928964442907e-07	0	0	5.273999857423567e-22	0
0.02027015881799376	-3.085697407715441	1.303672975045773	-0	1.200056175720798	0	0.08959633882537528	0.01334846703099453	-0.005814158559710094	-0	0.6977251768518644	0	-0.09478689634274365	0	2.907499992426709e-07	0	0	-2.128509459364614e-20	0
0.02280392867024298	-9.470946282607111	4.123678521922318	-0	1.203879710378362	0	0.08958495258659734	-0.1162094357636806	0.04913043887110305	-0	0.7068635628242795	0	-0.09478689634274366	0	5.854239253219646e-07	0	0	-2.288719873810846e-18	0
0.0253376985224922	-26.71463597286308	12.07214978356715	-0	1.20764229307629	0	0.08958005554808382	-0.3817203757109943	0.1567344727490409	-0	0.7162534293291285	0	-0.09478689634274365	0	1.187498774328943e-06	0	0	-1.534182146188913e-18	0
0.02787146837474142	-63.54022063478316	30.20469091749782	-0	1.211256933395212	0	0.08957919324507421	-0.5021537433849798	0.2004325837362735	-0	0.725885886849735	0	-0.09478689634274365	0	2.340712770760282e-06	0	0	-9.30569615801797e-19	0
0.03040523822699064	-115.7874843462401	59.04614661528478	-0	1.214738647186408	0	0.08958295187639609	-0.5632230663511097	0.2188085887475851	-0	0.7357487901469866	0	-0.09478689634274365	0	3.991309350399282e-06	0	0	-2.268349933393638e-18	0
0.03293900807923986	-195.998127214761	110.3154416661008	-0	1.218120859021748	0	0.08959236989500539	-0.5991188669578678	0.2268984273974537	-0	0.7458276313708454	0	-0.09478689634274365	0	1.693721989625776e-06	0	0	2.1313572113204e-18	0
0.03547277793148908	-333.9303351603508	221.5718939164904	-0	1.221567640153964	0	0.08961440092190172	-0.626216399321567	0.2316153386815698	-0	0.7561043608942593	0	-0.09478689634274365	0	-6.164343900276958e-05	0	0	4.608603346563524e-19	0
0.03800654778373831	-397.0824123723609	342.0380145594299	-0	1.226612706819792	0	0.08970611865324361	-0.6517338712054305	0.2358308645915095	-0	0.7665663032318993	0	-0.09478689634274365	0	-0.000599172220706162	0	0	-3.04236543349276e-18	0
0.04054031763598753	-324.1421459589337	448.3153481733319	-0	1.235396007485592	0	0.0899421183362582	-0.6765564821053699	0.2397985109485844	-0	0.7772179862103935	0	-0.09478689634274365	0	-0.01873730315181597	0	0	-2.012620757154528e-18	0
0.04307408748823674	-84.05107804822023	582.897346471134	-0	1.241491469259948	0	0.09008406430667074	-0.6978545311122389	0.242451498056384	-0	0.7880744308022956	0	-0.09478689634274365	0	-0.01710816041738242	0	0	-5.821797263752042e-18	0
0.04560785734048596	-109.0859904825552	741.658857295858	-0	1.245897735054284	0	0.09023516529106046	-0.7131685447680934	0.2428599840697708	-0	0.799170973712536	0	-0.09478689634274365	0	-0.0102205076151712	0	0	-4.775652385667675e-18	0
0.04814162719273519	-6.683322998149109	875.6388616380382	-0	1.25002879445469	0	0.09035792687062001	-0.7213703783107261	0.2406639332124848	-0	0.8105465044548316	0	-0.09478689634274365	0	-0.00326933619175328	0	0	-6.394012079811497e-18	0
0.05067539704498441	-21.40897417481058	966.0378678397104	-0	1.249563536121906	0	0.0903448599921802	-0.7222415051846151	0.2360267708283118	-0	0.8222219811651573	0	-0.09478689634274365	0	0.006025410832317456	0	0	-6.514521918626938e-18	0
0.05320916689723363	42.26606033075663	1018.721780518455	-0	1.249134026392201	0	0.09031953934481075	-0.7150998323329228	0.2289432919833128	-0	0.8342130906689607	0	-0.09478689634274365	0	0.01043295774056978	0	0	2.356676290626744e-18	0
0.05574293674948284	35.18310612361015	1053.575246809243	-0	1.248233055292459	0	0.09029230139478336	-0.7002047568752934	0.2197211468771646	-0	0.8465237155809959	0	-0.09478689634274365	0	0.01280890777831825	0	0	5.025085831849217e-18	0
0.05827670660173206	66.32864070895855	1075.354074617158	-0	1.248596565208222	0	0.09030160740933585	-0.6784775150012027	0.2088426315717926	-0	0.8591509472546572	0	-0.09478689634274365	0	0.01255395921396331	0	0	6.857561375597842e-18	0
0.06081047645398129	56.474734536642	1088.674324273539	-0	1.248909949381258	0	0.09031771153241155	-0.6516300062643383	0.1969285857652113	-0	0.8720876466390959	0	-0.09478689634274365	0	0.01173142124459585	0	0	2.393843563032741e-19	0
0.06334424630623051	69.79364121572837	1092.477304739336	-0	1.249907841954691	0	0.09035226911012578	-0.6215333570985508	0.1845938395905386	-0	0.8853231644173848	0	-0.09478689634274363	0	0.009790388808721181	0	0	1.009306718803465e-17	0
0.06587801615847973	60.71276851555612	1091.771974255533	-0	1.250724832358855	0	0.09038524229923679	-0.5894903135342073	0.1722316170400837	-0	0.8988434098779784	0	-0.09478689634274365	0	0.007995366192684296	0	0	1.273451312443624e-18	0
0.06841178601072895	66.79398615400677	1087.307551650449	-0	1.251842996314054	0	0.09042483127227348	-0.5565729588267876	0.1601359894326203	-0	0.9126328534528685	0	-0.09478689634274365	0	0.00589021870416046	0	0	3.241911514907466e-18	0
0.07094555586297817	61.30269076618562	1081.740526937615	-0	1.252727627136841	0	0.09045878115047273	-0.5236258801787712	0.1485119699106192	-0	0.9266754160286615	0	-0.09478689634274365	0	0.004271963040546541	0	0	1.992837787846571e-18	0
0.07347932571522739	65.97432507599498	1075.012371929377	-0	1.253770573271894	0	0.09049553041077289	-0.4913703935496024	0.137516988329934	-0	0.9409542952485583	0	-0.09478689634274365	0	0.002583026961197261	0	0	2.922487757285265e-18	0
0.07601309556747661	64.89690332774074	1069.163149367657	-0	1.254737504500016	0	0.09053095458797766	-0.4602938453503145	0.1272349260361308	-0	0.9554531636913586	0	-0.09478689634274365	0	0.001108629549054899	0	0	2.913838946404548e-18	0
0.07854686541972583	74.37983549954615	1068.27595487255	-0	1.256499786135266	0	0.09059156077579676	-0.430737701525234	0.1177080174760396	-0	0.970155465834059	0	-0.09478689634274365	0	-0.001841271233924684	0	0	-3.168459815700931e-18	0
0.08108063527197505	83.3795317191522	1079.734556191678	-0	1.259779309048743	0	0.09070573090487036	-0.4027993864988	0.1089109388314571	-0	0.9850467146617097	0	-0.09478689634274365	0	-0.008180792497692003	0	0	4.667076428730986e-19	0
0.08361440512422427	88.57104419714639	1099.377402253437	-0	1.264435278610488	0	0.0908690763058788	-0.3765692630462139	0.1008197395026682	-0	1.000113683226332	0	-0.09478689634274365	0	-0.01773294917223713	0	0	-1.046662225534797e-18	0
0.08614817497647349	85.24832839170995	1116.831688190941	-0	1.269346045597925	0	0.09104293063730233	-0.3521634557947886	0.09342335702479855	-0	1.015344906708039	0	-0.09478689634274365	0	-0.02679124785436945	0	0	-1.066640084145525e-18	0
0.0886819448287227	84.58988796952097	1131.246225528505	-0	1.27448207089793	0	0.09122344923056314	-0.329678436665863	0.08671213183050708	-0	1.030728564255567	0	-0.09478689634274363	0	-0.03422327578196072	0	0	4.793199968982139e-18	0
0.09121571468097192	83.17313590356447	1148.322260984499	-0	1.280049734498883	0	0.09141904911451776	-0.3091033455330037	0.08065301988444001	-0	1.046253455657983	0	-0.09478689634274365	0	-0.0404485258465019	0	0	1.699736679181895e-18	0
0.09374948453322114	78.32860766595347	1163.018019582362	-0	1.285578024710583	0	0.09161373702642622	-0.2904164546303266	0.07521330158593277	-0	1.06190875699564	0	-0.09478689634274365	0	-0.04351006134021838	0	0	1.602066562100878e-18	0
0.09628325438547038	71.11600757205136	1168.51100634858	-0	1.290393224375883	0	0.09178349141826014	-0.2735629514146827	0.07035624621254234	-0	1.077684106306809	0	-0.09478689634274365	0	-0.04193709411811026	0	0	-2.757492678476084e-19	0
0.0988170242377196	67.68894304497196	1167.514755425721	-0	1.294566748377466	0	0.09192955463338144	-0.2584964172070038	0.06605102057118749	-0	1.093568651474044	0	-0.09478689634274365	0	-0.03752027582970531	0	0	-4.898358977039256e-20	0
0.1013507940899688	65.4542229804759	1163.833957927453	-0	1.298243545228304	0	0.0920578338595729	-0.2451084178888367	0.06225307497892794	-0	1.109552244476207	0	-0.09478689634274365	0	-0.03189245160582676	0	0	2.155964654565198e-19	0
0.103884563942218	65.21534056632105	1158.2153409506	-0	1.301564809077547	0	0.09217317071800231	-0.2332794409576841	0.05891655308399292	-0	1.125625437859549	0	-0.09478689634274365	0	-0.02591124660211721	0	0	-1.046416260382102e-18	0
0.1064183337944672	65.73100317628669	1151.058310292898	-0	1.304631161179383	0	0.09227944807183643	-0.2228116554403853	0.05597642095272367	-0	1.141781873222305	0	-0.09478689634274365	0	-0.0200008096668259	0	0	-1.623668271386477e-18	0
0.1089521036467165	74.25432403944129	1150.121171916608	-0	1.308426199034065	0	0.09240974737133813	-0.2134741150451104	0.0533613774095216	-0	1.158017145150856	0	-0.09478689634274365	0	-0.01489070581174557	0	0	-1.39248018181325e-18	0
0.1114858734989657	87.08884599904908	1159.175788817079	-0	1.313949930556461	0	0.09260050529567355	-0.2049096432436517	0.05096835234626474	-0	1.174333397916521	0	-0.09478689634274365	0	-0.009923665249881766	0	0	-1.697549395540101e-18	0
0.1140196433512149	90.24739877588203	1159.105423397319	-0	1.320471984716013	0	0.09282907892483938	-0.1966726907366003	0.04867553050005199	-0	1.190736932419402	0	-0.09478689634274365	0	-0.003451946868754551	0	0	1.508723799846243e-18	0
0.1165534132034641	88.70684325055552	1136.385953361728	-0	1.327368889919639	0	0.09307180169114676	-0.1882842182164132	0.04635999332197775	-0	1.207237461534369	0	-0.09478689634274366	0	0.004089530018527414	0	0	-2.259070253556881e-18	0
0.1190871830557133	86.7868393864361	1099.023562141455	-0	1.334777392183721	0	0.09333265146911859	-0.1793862539574381	0.04393603799128334	-0	1.223844002423288	0	-0.09478689634274365	0	0.01125882774731151	0	0	5.267649312694085e-19	0
0.1216209529079626	82.11390617462129	1055.72219666643	-0	1.342559273023159	0	0.09360773091007718	-0.1699688008077753	0.04141037007181407	-0	1.240558747851142	0	-0.09478689634274365	0	0.01682804475610552	0	0	-1.564182393313046e-18	0
0.1241547227602118	77.15960120248486	1010.493359611673	-0	1.350584303099194	0	0.09389193737614097	-0.1603048164228769	0.03886069837321409	-0	1.257377115904128	0	-0.09478689634274365	0	0.01965054424551592	0	0	1.269018503622748e-19	0
0.126688492612461	72.40047463822121	965.2632720490253	-0	1.358768936531171	0	0.09418235095511143	-0.1513045142143324	0.0365216006846891	-0	1.274272394333338	0	-0.09478689634274365	0	0.0186288935871528	0	0	4.929290468205922e-19	0
0.1292222624647102	67.99311278424453	921.0829563448407	-0	1.367080150953758	0	0.09447794351902121	-0.1438834751425663	0.03461791914523723	-0	1.291209253225269	0	-0.09478689634274365	0	0.01263245058603681	0	0	4.502798106723115e-19	0
0.1317560323169595	64.27650196695389	880.7260958676475	-0	1.375117778636719	0	0.0947645694820687	-0.1387285789461363	0.03330809632939731	-0	1.308146985246431	0	-0.09478689634274365	0	0.00116612539691331	0	0	4.894069275552511e-19	0
0.1342898021692087	76.67844027951445	880.1501255525993	-0	1.376119885990319	0	0.09479451881551444	-0.1362416290945349	0.03267615731335703	-0	1.325049434818934	0	-0.09478689634274365	0	-0.0004967698406478842	0	0	-6.209456791045403e-20	0
0.1368235720214579	95.68957826822231	878.5934633042253	-0	1.37615560440239	0	0.09478703773615367	-0.1357932255338306	0.03254551514593779	-0	1.34191418791293	0	-0.09478689634274365	0	-1.131169588491573e-05	0	0	-8.363006393754383e-19	0
0.1393573418737071	109.5192599871634	872.5167144200091	-0	1.376333537426194	0	0.09478689745055756	-0.1366159828799122	0.03271315080983733	-0	1.35875299494472	0	-0.09478689634274365	0	-1.076004618372584e-07	0	0	8.272391448935314e-19	0
0.1418911117259563	122.4879489015315	863.2300819806998	-0	1.37650760063396	0	0.0947868963481614	-0.1382779826426691	0.03307127707137567	-0	1.375580828817191	0	-0.09478689634274365	0	-6.314944032143058e-10	0	0	7.919268113104329e-19	0
0.1444248815782056	133.0414203391178	851.4247679130473	-0	1.376652997851433	0	0.0947868963427643	-0.1404336489354651	0.03353581696376957	-0	1.392411543475776	0	-0.09478689634274365	0	-2.8554943875557e-12	0	0	-3.284173495019643e-19	0
0.1469586514304548	142.6160038388975	837.7246138563802	-0	1.376788060028041	0	0.09478689634274373	-0.1428038802029985	0.03404137874808572	-0	1.409256991963573	0	-0.09478689634274365	0	-1.292793820161705e-14	0	0	2.075318239450835e-19	0
0.149492421282704	150.6822002892213	822.357641554004	-0	1.376905071482831	0	0.09478689634274365	-0.1451225854501831	0.03452683745799683	-0	1.426127593583504	0	-0.09478689634274365	0	4.414703514275602e-16	0	0	5.922482161350709e-19	0
0.1520261911349532	158.0072764379504	805.9367425794253	-0	1.377013475491464	0	0.09478689634274365	-0.1472076143420443	0.03495241447510049	-0	1.443029526565605	0	-0.09478689634274365	0	7.531148285798216e-16	0	0	-6.919861361440214e-19	0
0.1545599609872024	164.3323739682785	788.572643471049	-0	1.377109143888434	0	0.09478689634274365	-0.1489076948515434	0.03528593775515748	-0	1.459967101593427	0	-0.09478689634274365	0	-7.557981524171287e-17	0	0	5.312515325794556e-19	0
0.1570937308394517	170.1415966893066	770.7185937818055	-0	1.377197984465645	0	0.09478689634274365	-0.1501394552846282	0.03551096809334379	-0	1.476941215035818	0	-0.09478689634274365	0	-1.493124371338172e-15	0	0	1.783193672770144e-20	0
0.1596275006917009	175.2426970420441	752.3990638126946	-0	1.377276868151486	0	0.09478689634274363	-0.1508643736952328	0.03562146788578547	-0	1.493951207693956	0	-0.09478689634274365	0	6.758842271056795e-16	0	0	7.04750356694648e-20	0
0.1621612705439501	179.9450882333268	733.8863499794744	-0	1.377349722177683	0	0.09478689634274365	-0.1511170464760407	0.03562812382923949	-0	1.510993484790015	0	-0.09478689634274365	0	-9.377769124360938e-17	0	0	-6.241233945155124e-19	0
0.1646950403961993	184.0775526245354	715.1306161203933	-0	1.37741388025384	0	0.09478689634274363	-0.1509705854413071	0.0355500502916011	-0	1.528063180974335	0	-0.09478689634274365	0	9.032502742637697e-16	0	0	-5.135781642726931e-19	0
0.1672288102484485	187.8332698159235	696.2636713968259	-0	1.37747203775388	0	0.09478689634274365	-0.1505159245746638	0.03540950339472498	-0	1.545154135168373	0	-0.09478689634274365	0	1.614818443728862e-15	0	0	-4.809702115277208e-19	0
0.1697625801006978	191.0600856440473	677.1997353433616	-0	1.377521945974734	0	0.09478689634274365	-0.1498005019102576	0.03521717299608138	-0	1.562260538964864	0	-0.09478689634274365	0	-1.785731469996877e-16	0	0	-5.910767547158337e-19	0
0.172296349952947	193.878718744214	657.9988557692403	-0	1.377565498728434	0	0.09478689634274365	-0.1486681238288367	0.03493357361267953	-0	1.57938114514223	0	-0.09478689634274365	0	-6.785265352871992e-16	0	0	5.407397159206712e-19	0
0.1748301198051962	196.1617338556073	638.5617383597987	-0	1.377600956655352	0	0.09478689634274365	-0.1469327116932353	0.03451280695384194	-0	1.596516462823732	0	-0.09478689634274365	0	2.639653141852458e-16	0	0	-1.489625561602724e-19	0
0.1773638896574454	197.9802748611754	618.8828422625355	-0	1.377629798286301	0	0.09478689634274365	-0.1444472209427136	0.03391960685641549	-0	1.613668304558263	0	-0.09478689634274365	0	4.556054704577172e-17	0	0	-1.217461922168747e-19	0
0.1798976595096946	199.1938637933699	598.8837818596658	-0	1.377649929498284	0	0.09478689634274365	-0.1411371652349845	0.03313622734869353	-0	1.630838234772464	0	-0.09478689634274365	0	-5.80350774194853e-16	0	0	8.144063278406901e-19	0
0.1824314293619438	199.8039904567844	578.6181729494895	-0	1.377661145752442	0	0.09478689634274365	-0.1372071694019118	0.03221167998407024	-0	1.648024189236437	0	-0.09478689634274365	0	8.518097392730363e-16	0	0	-7.006418912796764e-19	0
0.1849651992141931	199.5951167975182	558.1094873921686	-0	1.377658855573238	0	0.09478689634274365	-0.1329958778042715	0.03122669612706291	-0	1.665220300759358	0	-0.09478689634274365	0	1.010985523197119e-15	0	0	-4.955500275485909e-19	0
0.1874989690664423	198.3750066629986	537.4690612750322	-0	1.377637926714507	0	0.09478689634274365	-0.1289101738822969	0.03027763395040463	-0	1.682415506435307	0	-0.09478689634274365	0	-8.046681317620582e-16	0	0	6.503999196881374e-19	0
0.1900327389186915	196.0926752899653	516.5056384186574	-0	1.377598471120563	0	0.09478689634274365	-0.1253029066788656	0.0294471114331533	-0	1.69959736629933	0	-0.09478689634274365	0	-6.023835616237987e-16	0	0	7.714057911072085e-19	0
0.1925665087709408	192.8482608228099	494.7097984603603	-0	1.377546966379259	0	0.09478689634274365	-0.1223275750894028	0.02876857191652869	-0	1.716756575075744	0	-0.09478689634274365	0	1.501529126068727e-15	0	0	4.663763800938049e-19	0
0.19510027862319	188.9106241537036	471.0972686680562	-0	1.377499714701226	0	0.09478689634274365	-0.1199242902123791	0.02822508130766931	-0	1.733887062289398	0	-0.09478689634274365	0	-5.295907066707907e-16	0	0	-1.336848504230868e-19	0
0.1976340484754392	184.5001316206228	444.2259194374837	-0	1.37747940651267	0	0.09478689634274365	-0.1173835192872777	0.02764600543873814	-0	1.75099497161584	0	-0.09478689634274365	0	-7.018361373845982e-16	0	0	3.003268499451672e-19	0
0.2001678183276884	177.7764710179467	413.1441947505068	-0	1.37745414634115	0	0.09478689634274365	-0.1130785844114963	0.02665149035164806	-0	1.768089738428184	0	-0.09478689634274365	0	1.662772870512968e-16	0	0	-7.243523836410076e-19	0
0.2027015881799376	167.6038611235141	378.9258899344932	-0	1.377383211051626	0	0.09478689634274365	-0.1041880002099643	0.02460526677771842	-0	1.785154494676736	0	-0.09478689634274363	0	-3.982111235315358e-16	0	0	9.834950113185367e-19	0
0.2052353580321868	155.6629069835633	344.0349512142862	-0	1.377280911273287	0	0.09478689634274365	-0.08976688135808499	0.02129611769110741	-0	1.802161017183455	0	-0.09478689634274363	0	1.799607966143286e-16	0	0	1.516582055774459e-18	0
0.2077691278844361	142.8007621116433	310.3825025497783	-0	1.377142460191263	0	0.09478689634274365	-0.07221424102385476	0.0172567159215659	-0	1.819086165326361	0	-0.09478689634246845	0	-5.189342864489915e-16	0	0	4.345843512677255e-16	0
0.2103028977366853	129.1230053245169	278.9479723100589	-0	1.376947715345977	0	0.09478689634274365	-0.05422965090019695	0.01308800512481624	-0	1.835893794912221	0	-0.09478689634139259	0	-5.617052417685184e-16	0	0	1.529715398157795e-15	0
0.2128366675889345	114.9972831058393	250.625945893457	-0	1.376683012820147	0	0.09478689634274365	-0.03752342993171175	0.009172712870351518	-0	1.852525609815612	0	-0.09478689633561761	0	8.727913882326233e-16	0	0	5.307690714337688e-15	0
0.2153704374411837	100.8135826527656	225.2157580375668	-0	1.37635601001252	0	0.09478689634274365	-0.02365859309435822	0.005875666711814016	-0	1.868918751162028	0	-0.09478689630317017	0	6.00575718539874e-16	0	0	1.753784508995041e-14	0
0.2179042072934329	87.30646567038654	201.3380757219969	-0	1.376019829590531	0	0.09478689634274363	-0.01374985225915563	0.003477396668768854	-0	1.885032182778216	0	-0.09478689611387889	0	1.521173318819956e-15	0	0	5.51801953150036e-14	0
0.2204379771456822	73.64705598841884	177.4890279866497	-0	1.375661430816551	0	0.09478689634274365	-0.007516257662133048	0.001939270380895341	-0	1.900818392600443	0	-0.09478689501767032	0	3.590729251123409e-17	0	0	1.620502802981101e-13	0
0.2229717469979314	58.92364858589564	152.9649326334553	-0	1.375230477835963	0	0.09478689634274365	-0.00393734269719862	0.001039136888475241	-0	1.916175206376314	0	-0.09478688879082013	0	2.21456009875896e-16	0	0	4.443966234239943e-13	0
0.2255055168501806	44.49730094141885	128.741248735633	-0	1.374754901621935	0	0.09478689634274365	-0.002111263408237414	0.0005719089504893021	-0	1.930988945011033	0	-0.09478685696932641	0	-3.81090128432364e-16	0	0	1.127053055297258e-12	0
0.2280392867024298	31.47136003500502	105.8569033087538	-0	1.374261007070819	0	0.09478689634274365	-0.001354069322960912	0.0003775477052031785	-0	1.945185277023338	0	-0.0947867352882026	0	1.732726242828384e-16	0	0	2.645003842964506e-12	0
0.2305730565546791	20.039108951079	84.48173171602244	-0	1.373740429203978	0	0.09478689634274366	-0.001109087715627587	0.0003188582670276078	-0	1.958719802826088	0	-0.09478640875789068	0	-3.428191268696641e-16	0	0	5.787447020766506e-12	0
0.2331068264069283	10.41274303455474	64.63514619334181	-0	1.373182558601656	0	0.09478689634274365	-0.001026325817243418	0.0003042963178741625	-0	1.971603720802441	0	-0.09478564201293929	0	4.105540506217955e-18	0	0	1.20309724152682e-11	0
0.2356405962591775	-4.586822736188773	22.80869028236926	-0	1.37052013406311	0	0.09478689634274365	-0.0009795173033644259	0.0002991466824097173	-0	1.983866677488727	0	-0.09478384009867835	0	1.591541982999134e-17	0	0	2.427089988882445e-11	0
0.2381743661114267	0.005203795161926436	-0.005131749165790291	-0	1.365439685924155	0	0.09478689634274365	-0.0009431766621798328	0.0002961922517798602	-0	1.995519718588902	0	-0.09477955966857336	0	3.836884273452649e-20	0	0	4.841555426316508e-11	0
0.2407081359636759	2.713279530651308e-10	-2.025007546613022e-10	-0	1.366103422201791	0	0.09478689634274365	-0.0009213531700047268	0.0002968972491905353	-0	2.006525259108747	0	-0.09476937121784638	0	1.446743669306852e-28	0	0	9.68826416365586e-11	0
0.2432419058159251	-0	-0	-0	0	0	0	-0.0009225520144898532	0.0003044024587335611	-0	2.016716284086105	0	-0.0947451533370694	0	0	0	0	1.960452753830002e-10	0
0.2457756756681743	-0	-0	-0	0	0	0	-0.0009558345010997966	0.0003223073989024845	-0	2.025623665247869	0	-0.09468772732293369	0	0	0	0	4.017453098430447e-10	0
0.2483094455204236	-0	-0	-0	0	0	0	-0.001036084628791899	0.0003564690259074127	-0	2.032095565269523	0	-0.09455325605507083	0	0	0	0	8.240608832959066e-10	0
0.2508432153726728	-0	-0	-0	0	0	0	-0.001200919389514909	0.000421098751552395	-0	2.033660956802494	0	-0.09425131561574267	0	0	0	0	1.638409461130472e-09	0
0.253376985224922	-0	-0	-0	0	0	0	-0.001554566959169603	0.0005552136988420317	-0	2.02635040529212	0	-0.09364296696987691	0	0	0	0	2.948682839589711e-09	0
0.2559107550771713	1.948709438138828e-14	-1.036246552223997e-14	-0	0	0	0	-0.002397674493931086	0.0008720859543459413	-0	2.007711071724026	0	-0.09265533905356828	0	1.847121195149912e-15	0	0	4.236153587746184e-09	0
0.2584445249294204	3.669431332552448e-13	-1.897800007356671e-13	-0	1.408453830365124	0	0.09478689634274365	-0.004643796406581092	0.001720337634305754	-0	1.983314902968494	0	-0.09150899216777952	0	2.226060967773929e-30	0	0	3.755890370090461e-09	0
0.2609782947816697	1.462560155647099e-11	-7.357765427549273e-12	-0	1.416052370387654	0	0.09478689634274365	-0.01116502870808274	0.004214496543228374	-0	1.964053627743743	0	-0.09059565784234092	0	-6.892268323373631e-29	0	0	-7.978698615269191e-10	0
0.2635120646339189	9.19493783833935e-10	-4.499113992390681e-10	-0	1.423906252982616	0	0.09478689634274365	-0.03122513587558875	0.01201968128128166	-0	1.954476147117319	0	-0.09005967003915817	0	5.251229253722645e-27	0	0	-1.161931381692614e-08	0
0.2660458344861681	6.87632535378893e-08	-3.271631893162674e-08	-0	1.432008376629152	0	0.09478689634274365	-0.09506861907308738	0.03736138082020837	-0	1.95209494393396	0	-0.08979597621313283	0	-2.492014754624481e-25	0	0	-3.238874170079814e-08	0
0.2685796043384173	5.128321031586089e-06	-2.370762550380658e-06	-0	1.440362897967025	0	0.09478689634274365	-0.3015707921459571	0.121162468731224	-0	1.953478073083232	0	-0.08967533034545498	0	6.74961737661298e-25	0	0	-7.118781273910817e-08	0
0.2711133741906666	0.0003321756821322685	-0.0001490808101497984	-0	1.448977891551746	0	0.09478689634274365	-0.9694059557505946	0.39888106209936	-0	1.956520342562271	0	-0.08962102233351123	0	-3.322397167672313e-21	0	0	-1.451928964253461e-07	0
0.2736471440429158	0.01334846703099454	-0.005814158559710097	-0	1.457856132526631	0	0.09478689634274365	-3.085697407715424	1.303672975045765	-0	1.960187131395564	0	-0.08959633882537529	0	-3.832119931436478e-20	0	0	-2.907499992880439e-07	0
0.276180913895165	-0.1162094357636812	0.04913043887110329	-0	1.466994518499046	0	0.09478689634274365	-9.470946282607178	4.123678521922348	-0	1.964010666053128	0	-0.08958495258659734	0	-4.831403960283569e-19	0	0	-5.854239252628621e-07	0
0.2787146837474142	-0.3817203757110043	0.1567344727490451	-0	1.476384385003895	0	0.09478689634274365	-26.71463597286354	12.07214978356737	-0	1.967773248751056	0	-0.08958005554808382	0	3.278799820770605e-18	0	0	-1.187498773957355e-06	0
0.2812484535996634	-0.502153743384984	0.2004325837362752	-0	1.486016842524501	0	0.09478689634274365	-63.54022063478403	30.20469091749824	-0	1.971387889069978	0	-0.08957919324507421	0	-1.633816751423689e-18	0	0	-2.340712770889891e-06	0
0.2837822234519127	-0.5632230663511317	0.2188085887475936	-0	1.495879745821753	0	0.09478689634274363	-115.7874843462412	59.04614661528536	-0	1.974869602861175	0	-0.0895829518763961	0	-1.051002924702328e-17	0	0	-3.991309352094536e-06	0
0.2863159933041619	-0.5991188669578806	0.2268984273974586	-0	1.505958587045611	0	0.09478689634274366	-195.9981272147637	110.3154416661023	-0	1.978251814696514	0	-0.08959236989500539	0	5.65905933698278e-18	0	0	-1.693721994032626e-06	0
0.2888497631564111	-0.6262163993215628	0.2316153386815683	-0	1.516235316569025	0	0.09478689634274365	-333.9303351603555	221.5718939164935	-0	1.981698595828731	0	-0.08961440092190173	0	2.103526032569134e-18	0	0	6.164343899964849e-05	0
0.2913835330086603	-0.6517338712054518	0.2358308645915172	-0	1.526697258906666	0	0.09478689634274365	-397.0824123723655	342.038014559434	-0	1.986743662494558	0	-0.0897061186532436	0	-2.61043525995472e-18	0	0	0.0005991722207178574	0
0.2939173028609096	-0.6765564821053947	0.2397985109485933	-0	1.53734894188516	0	0.09478689634274365	-324.142145958937	448.3153481733361	-0	1.995526963160358	0	-0.08994211833625822	0	3.397944216637872e-18	0	0	0.01873730315180825	0
0.2964510727131587	-0.6978545311122351	0.2424514980563826	-0	1.548205386477062	0	0.09478689634274365	-84.05107804822113	582.8973464711387	-0	2.001622424934714	0	-0.09008406430667075	0	-1.676801366724229e-18	0	0	0.01710816041738232	0
0.298984842565408	-0.7131685447681235	0.242859984069781	-0	1.559301929387302	0	0.09478689634274365	-109.0859904825562	741.6588572958638	-0	2.006028690729051	0	-0.09023516529106046	0	-2.191118232118079e-18	0	0	0.01022050761517203	0
0.3015186124176572	-0.7213703783107575	0.2406639332124952	-0	1.570677460129598	0	0.09478689634274365	-6.683322998149196	875.6388616380445	-0	2.010159750129456	0	-0.09035792687062003	0	4.162993227229335e-18	0	0	0.003269336191753316	0
0.3040523822699064	-0.7222415051846471	0.2360267708283223	-0	1.582352936839924	0	0.09478689634274365	-21.40897417481066	966.0378678397167	-0	2.009694491796672	0	-0.09034485999218018	0	-5.319007454111535e-18	0	0	-0.006025410832317337	0
0.3065861521221557	-0.7150998323329186	0.2289432919833114	-0	1.594344046343727	0	0.09478689634274365	42.26606033075698	1018.721780518461	-0	2.009264982066967	0	-0.09031953934481077	0	2.077100765987427e-19	0	0	-0.01043295774056883	0
0.3091199219744049	-0.7002047568752896	0.2197211468771634	-0	1.606654671255762	0	0.09478689634274366	35.18310612361046	1053.575246809249	-0	2.008364010967226	0	-0.09029230139478338	0	7.717068050859296e-18	0	0	-0.01280890777831904	0
0.3116536918266541	-0.678477515001199	0.2088426315717915	-0	1.619281902929424	0	0.09478689634274365	66.32864070895903	1075.354074617163	-0	2.008727520882988	0	-0.09030160740933586	0	6.690758944420295e-18	0	0	-0.01255395921396227	0
0.3141874616789033	-0.6516300062643731	0.1969285857652218	-0	1.632218602313862	0	0.09478689634274365	56.4747345366424	1088.674324273544	-0	2.009040905056025	0	-0.09031771153241157	0	-2.37117295986184e-18	0	0	-0.01173142124459554	0
0.3167212315311525	-0.6215333570985473	0.1845938395905375	-0	1.645454120092151	0	0.09478689634274366	69.79364121572883	1092.477304739342	-0	2.010038797629458	0	-0.0903522691101258	0	1.041304698609347e-17	0	0	-0.009790388808720869	0
0.3192550013834017	-0.5894903135342038	0.1722316170400826	-0	1.658974365552745	0	0.09478689634274365	60.71276851555648	1091.771974255538	-0	2.010855788033622	0	-0.09038524229923679	0	1.981646771100033e-18	0	0	-0.007995366192684159	0
0.321788771235651	-0.5565729588268239	0.1601359894326308	-0	1.672763809127635	0	0.09478689634274365	66.79398615400713	1087.307551650454	-0	2.01197395198882	0	-0.09042483127227351	0	3.176854456850259e-18	0	0	-0.005890218704159344	0
0.3243225410879002	-0.5236258801787684	0.1485119699106184	-0	1.686806371703428	0	0.09478689634274365	61.30269076618592	1081.74052693762	-0	2.012858582811608	0	-0.09045878115047273	0	-1.401356320551998e-18	0	0	-0.004271963040546191	0
0.3268563109401494	-0.4913703935495987	0.137516988329933	-0	1.701085250923325	0	0.09478689634274365	65.97432507599532	1075.012371929382	-0	2.013901528946661	0	-0.09049553041077289	0	-3.251955245081585e-18	0	0	-0.002583026961196595	0
0.3293900807923986	-0.460293845350312	0.1272349260361301	-0	1.715584119366125	0	0.09478689634274365	64.89690332774106	1069.163149367661	-0	2.014868460174783	0	-0.09053095458797768	0	3.169609497286351e-18	0	0	-0.00110862954905234	0
0.3319238506446479	-0.4307377015252317	0.1177080174760389	-0	1.730286421508825	0	0.09478689634274365	74.37983549954645	1068.275954872554	-0	2.016630741810032	0	-0.09059156077579676	0	-2.718478143366277e-18	0	0	0.001841271233924185	0
0.3344576204968971	-0.402799386498798	0.1089109388314565	-0	1.745177670336476	0	0.09478689634274365	83.37953171915252	1079.734556191683	-0	2.019910264723511	0	-0.09070573090487036	0	-2.538842791827608e-18	0	0	0.008180792497691453	0
0.3369913903491463	-0.376569263046212	0.1008197395026677	-0	1.760244638901099	0	0.09478689634274363	88.57104419714666	1099.377402253442	-0	2.024566234285254	0	-0.09086907630587882	0	-7.928585417203734e-18	0	0	0.01773294917223624	0
0.3395251602013955	-0.3521634557947875	0.09342335702479826	-0	1.775475862382805	0	0.09478689634274365	85.24832839171015	1116.831688190946	-0	2.029477001272691	0	-0.09104293063730233	0	-8.454610971809085e-20	0	0	0.02679124785436803	0
0.3420589300536447	-0.3296784366658615	0.08671213183050669	-0	1.790859519930333	0	0.09478689634274365	84.58988796952116	1131.24622552851	-0	2.034613026572696	0	-0.09122344923056312	0	-3.737046586037035e-20	0	0	0.03422327578195953	0
0.3445926999058939	-0.3091033455330521	0.08065301988445264	-0	1.806384411332748	0	0.09478689634274365	83.1731359035646	1148.322260984503	-0	2.040180690173649	0	-0.0914190491145178	0	-8.027595407882324e-20	0	0	0.04044852584650462	0
0.3471264697581432	-0.2904164546303258	0.07521330158593253	-0	1.822039712670407	0	0.09478689634274365	78.32860766595356	1163.018019582367	-0	2.04570898038535	0	-0.09161373702642622	0	-7.307327315217831e-19	0	0	0.04351006134021909	0
0.3496602396103924	-0.2735629514146814	0.07035624621254201	-0	1.837815061981575	0	0.09478689634274365	71.11600757205142	1168.511006348585	-0	2.05052418005065	0	-0.09178349141826013	0	6.866086208812568e-19	0	0	0.04193709411810738	0
0.3521940094626416	-0.2584964172070021	0.06605102057118704	-0	1.853699607148811	0	0.09478689634274365	67.68894304497196	1167.514755425726	-0	2.054697704052233	0	-0.09192955463338144	0	-6.315347414056189e-22	0	0	0.03752027582970442	0
0.3547277793148909	-0.2451084178888354	0.06225307497892763	-0	1.869683200150973	0	0.09478689634274365	65.45422298047586	1163.833957927457	-0	2.05837450090307	0	-0.0920578338595729	0	-1.481901278706498e-18	0	0	0.03189245160582638	0
0.35726154916714	-0.2332794409576829	0.05891655308399262	-0	1.885756393534316	0	0.09478689634274365	65.21534056632107	1158.215340950605	-0	2.061695764752314	0	-0.09217317071800232	0	-1.05847063600969e-18	0	0	0.02591124660211807	0
0.3597953190193893	-0.2228116554404428	0.05597642095273812	-0	1.901912828897071	0	0.09478689634274366	65.73100317628669	1151.058310292902	-0	2.064762116854149	0	-0.09227944807183643	0	1.897200853667079e-18	0	0	0.0200008096668259	0
0.3623290888716385	-0.2134741150451095	0.05336137740952137	-0	1.918148100825622	0	0.09478689634274365	74.25432403944136	1150.121171916613	-0	2.068557154708831	0	-0.09240974737133814	0	4.71531226722357e-19	0	0	0.01489070581174606	0
0.3648628587238877	-0.2049096432436507	0.0509683523462645	-0	1.934464353591288	0	0.09478689634274365	87.08884599904921	1159.175788817084	-0	2.074080886231227	0	-0.09260050529567354	0	-1.771002620789664e-19	0	0	0.009923665249879966	0
0.3673966285761369	-0.1966726907365993	0.04867553050005176	-0	1.950867888094168	0	0.09478689634274365	90.247398775882	1159.105423397322	-0	2.08060294039078	0	-0.09282907892483939	0	-1.591090671795323e-18	0	0	0.003451946868754941	0
0.3699303984283862	-0.1882842182164124	0.04635999332197755	-0	1.967368417209136	0	0.09478689634274365	88.70684325055554	1136.385953361732	-0	2.087499845594406	0	-0.09307180169114676	0	-1.159728510115265e-18	0	0	-0.004089530018527868	0
0.3724641682806354	-0.1793862539574373	0.04393603799128314	-0	1.983974958098054	0	0.09478689634274365	86.78683938643616	1099.02356214146	-0	2.094908347858488	0	-0.09333265146911862	0	-1.33259526697394e-18	0	0	-0.0112588277473109	0
0.3749979381328846	-0.1699688008077745	0.04141037007181387	-0	2.000689703525909	0	0.09478689634274365	82.11390617462123	1055.722196666433	-0	2.102690228697925	0	-0.09360773091007718	0	-1.033930728061473e-18	0	0	-0.01682804475610462	0
0.3775317079851338	-0.1603048164228762	0.03886069837321392	-0	2.017508071578894	0	0.09478689634274365	77.15960120248464	1010.493359611675	-0	2.11071525877396	0	-0.09389193737614096	0	2.09685164613686e-20	0	0	-0.01965054424551703	0
0.380065477837383	-0.1513045142143326	0.03652160068468914	-0	2.034403350008104	0	0.09478689634274365	72.40047463822104	965.2632720490276	-0	2.118899892205937	0	-0.09418235095511143	0	-3.202511177410498e-19	0	0	-0.01862889358715287	0
0.3825992476896323	-0.1438834751425656	0.03461791914523706	-0	2.051340208900036	0	0.09478689634274365	67.99311278424447	921.0829563448439	-0	2.127211106628524	0	-0.09447794351902122	0	-3.024094438486682e-19	0	0	-0.0126324505860359	0
0.3851330175418815	-0.1387285789461356	0.03330809632939715	-0	2.068277940921197	0	0.09478689634274365	64.27650196695372	880.7260958676504	-0	2.135248734311486	0	-0.0947645694820687	0	-3.415365607316077e-19	0	0	-0.001166125396912595	0
0.3876667873941307	-0.1362416290945344	0.03267615731335691	-0	2.085180390493701	0	0.09478689634274365	76.67844027951446	880.1501255526039	-0	2.136250841665085	0	-0.09479451881551446	0	-4.559392193281733e-19	0	0	0.0004967698406476309	0
0.3902005572463799	-0.13579322553383	0.03254551514593764	-0	2.102045143587696	0	0.09478689634274365	95.68957826822235	878.5934633042295	-0	2.136286560077156	0	-0.09478703773615367	0	2.031482327504493e-19	0	0	1.131169588362768e-05	0
0.3927343270986292	-0.1366159828799116	0.03271315080983717	-0	2.118883950619487	0	0.09478689634274365	109.5192599871635	872.5167144200137	-0	2.136464493100961	0	-0.09478689745055756	0	-6.218094683767072e-19	0	0	1.0760046195514e-07	0
0.3952680969508784	-0.1382779826426685	0.03307127707137553	-0	2.135711784491957	0	0.09478689634274365	122.4879489015312	863.2300819807	-0	2.136638556308726	0	-0.09478689634816138	0	-4.713785154072471e-19	0	0	6.314914910000883e-10	0
0.3978018668031276	-0.1404336489354645	0.03353581696376944	-0	2.152542499150543	0	0.09478689634274365	133.0414203391178	851.4247679130495	-0	2.136783953526198	0	-0.09478689634276428	0	5.914063357119693e-19	0	0	2.85450677500772e-12	0
0.4003356366553767	-0.1428038802029973	0.03404137874808542	-0	2.16938794763834	0	0.09478689634274365	142.6160038388974	837.7246138563822	-0	2.136919015702807	0	-0.09478689634274373	0	-6.352545540532483e-19	0	0	1.28100567353654e-14	0
0.402869406507626	-0.1451225854501825	0.03452683745799667	-0	2.18625854925827	0	0.09478689634274365	150.6822002892217	822.3576415540088	-0	2.137036027157598	0	-0.09478689634274365	0	4.517635435235665e-19	0	0	3.005551357897708e-17	0
0.4054031763598752	-0.1472076143420444	0.03495241447510049	-0	2.203160482240371	0	0.09478689634274365	158.0072764379503	805.9367425794277	-0	2.13714443116623	0	-0.09478689634274366	0	7.495454458372022e-19	0	0	2.180503212802316e-15	0
0.4079369462121245	-0.148907694851542	0.03528593775515716	-0	2.220098057268194	0	0.09478689634274365	164.332373968279	788.5726434710541	-0	2.137240099563201	0	-0.09478689634274365	0	-1.779514892389881e-19	0	0	6.060464133740673e-16	0
0.4104707160643737	-0.1501394552846269	0.03551096809334347	-0	2.237072170710584	0	0.09478689634274365	170.1415966893058	770.7185937818051	-0	2.137328940140411	0	-0.09478689634274365	0	-5.606732862222279e-19	0	0	1.526662160713948e-15	0
0.4130044859166229	-0.1508643736952321	0.03562146788578532	-0	2.254082163368723	0	0.09478689634274365	175.242697042044	752.3990638126968	-0	2.137407823826252	0	-0.09478689634274365	0	-7.611867519876346e-19	0	0	-7.920083521314552e-17	0
0.4155382557688722	-0.15111704647604	0.03562812382923932	-0	2.271124440464781	0	0.09478689634274365	179.9450882333266	733.8863499794766	-0	2.137480677852449	0	-0.09478689634274365	0	-1.241476314958382e-19	0	0	1.693312331266408e-15	0
0.4180720256211213	-0.1509705854413063	0.03555005029160093	-0	2.2881941366491	0	0.09478689634274365	184.0775526245353	715.1306161203953	-0	2.137544835928606	0	-0.09478689634274365	0	-2.346928617386575e-19	0	0	-1.839586312847359e-16	0
0.4206057954733706	-0.1505159245746632	0.03540950339472483	-0	2.30528509084314	0	0.09478689634274365	187.8332698159234	696.2636713968279	-0	2.137602993428647	0	-0.09478689634274363	0	-2.09741504790449e-19	0	0	-4.339410171733841e-15	0
0.4231395653256198	-0.149800501910339	0.03521717299610053	-0	2.32239149463963	0	0.09478689634274365	191.0600856440461	677.1997353433595	-0	2.1376529016495	0	-0.09478689634274365	0	-8.67007641086452e-19	0	0	-1.11812298176829e-15	0
0.425673335177869	-0.1486681238288353	0.03493357361267922	-0	2.339512100816996	0	0.09478689634274365	193.8787187442128	657.9988557692382	-0	2.1376964544032	0	-0.09478689634274365	0	6.511424105616095e-19	0	0	-5.002881272291439e-16	0
0.4282071050301182	-0.1469327116932347	0.0345128069538418	-0	2.356647418498498	0	0.09478689634274365	196.1617338556072	638.5617383598006	-0	2.137731912330118	0	-0.09478689634274365	0	-4.841898504647166e-19	0	0	-1.240554833574097e-15	0
0.4307408748823675	-0.1444472209427129	0.03391960685641533	-0	2.37379926023303	0	0.09478689634274365	197.9802748611745	618.8828422625335	-0	2.137760753961067	0	-0.09478689634274365	0	2.696165590405181e-19	0	0	7.288038292155871e-16	0
0.4332746447346166	-0.1411371652349831	0.03313622734869319	-0	2.39096919044723	0	0.09478689634274365	199.1938637933687	598.8837818596639	-0	2.137780885173051	0	-0.09478689634274365	0	-5.762249038865842e-19	0	0	1.118952217952943e-15	0
0.4358084145868659	-0.137207169401912	0.03221167998407028	-0	2.408155144911203	0	0.09478689634274365	199.8039904567844	578.6181729494913	-0	2.137792101427208	0	-0.09478689634274365	0	-2.282157247577511e-20	0	0	-1.710517792410253e-15	0
0.4383421844391151	-0.1329958778042717	0.03122669612706295	-0	2.425351256434125	0	0.09478689634274365	199.5951167975161	558.1094873921659	-0	2.137789811248004	0	-0.09478689634274365	0	-1.703541265136798e-19	0	0	-1.415435809452103e-15	0
0.4408759542913643	-0.1289101738822963	0.03027763395040449	-0	2.442546462110074	0	0.09478689634274365	198.375006662999	537.4690612750341	-0	2.137768882389274	0	-0.09478689634274365	0	4.511711496636807e-19	0	0	-1.417811628894689e-15	0
0.4434097241436136	-0.1253029066788651	0.02944711143315318	-0	2.459728321974096	0	0.09478689634274365	196.0926752899636	516.5056384186543	-0	2.137729426795329	0	-0.09478689634274365	0	-4.508574952040227e-19	0	0	-3.071303790134993e-16	0
0.4459434939958627	-0.1223275750894812	0.02876857191654713	-0	2.47688753075051	0	0.09478689634274365	192.8482608228097	494.709798460361	-0	2.137677922054025	0	-0.09478689634274365	0	1.715069286025667e-19	0	0	9.567135670912883e-16	0
0.448477263848112	-0.1199242902123785	0.02822508130766917	-0	2.494018017964165	0	0.09478689634274365	188.9106241537038	471.097268668058	-0	2.137630670375993	0	-0.09478689634274365	0	-4.994675562019022e-19	0	0	7.653536391740593e-16	0
0.4510110337003612	-0.1173835192872773	0.02764600543873804	-0	2.511125927290606	0	0.09478689634274365	184.5001316206249	444.2259194374897	-0	2.137610362187436	0	-0.09478689634274365	0	-2.839509762265263e-19	0	0	-7.290111488864851e-16	0
0.4535448035526104	-0.1130785844114959	0.02665149035164797	-0	2.52822069410295	0	0.09478689634274365	177.7764710179468	413.144194750508	-0	2.137585102015916	0	-0.09478689634274365	0	-5.171448673530713e-19	0	0	-9.071038739368792e-16	0
0.4560785734048597	-0.1041880002099639	0.02460526677771832	-0	2.545285450351503	0	0.09478689634274365	167.6038611235163	378.9258899344988	-0	2.137514166726392	0	-0.09478689634274366	0	-4.17361571400477e-19	0	0	2.269924177091865e-15	0
0.4586123432571089	-0.0897668813580846	0.02129611769110731	-0	2.562291972858222	0	0.09478689634274365	155.6629069835635	344.0349512142873	-0	2.137411866948054	0	-0.09478689634274365	0	-6.737314919699662e-19	0	0	-3.138597236877165e-18	0
0.461146113109358	-0.072214241023855	0.01725671592156595	-0	2.579217121001128	0	0.09478689634246845	142.8007621116417	310.3825025497755	-0	2.137273415866029	0	-0.09478689634274365	0	-4.347734050705886e-16	0	0	6.449505983263616e-16	0
0.4636798829616073	-0.05422965090019712	0.01308800512481629	-0	2.596024750586988	0	0.09478689634139259	129.1230053245188	278.9479723100643	-0	2.137078671020743	0	-0.09478689634274365	0	-1.529752365749736e-15	0	0	7.893333286460511e-16	0
0.4662136528138565	-0.03752342993171159	0.00917271287035148	-0	2.612656565490379	0	0.09478689633561763	114.9972831058389	250.6259458934572	-0	2.136813968494914	0	-0.09478689634274365	0	-5.307118614719008e-15	0	0	-4.266684669761267e-16	0
0.4687474226661058	-0.02365859309435837	0.005875666711814054	-0	2.629049706836794	0	0.09478689630317015	100.8135826527627	225.2157580375624	-0	2.136486965687285	0	-0.09478689634274365	0	-1.753834398889805e-14	0	0	-4.831934557246563e-16	0
0.471281192518355	-0.01374985225915577	0.003477396668768889	-0	2.645163138452982	0	0.09478689611387889	87.30646567038633	201.3380757219973	-0	2.136150785265297	0	-0.09478689634274365	0	-5.518021584581503e-14	0	0	8.016871663322791e-16	0
0.4738149623706042	-0.007516257662132842	0.001939270380895288	-0	2.66094934827521	0	0.09478689501767031	73.64705598841738	177.4890279866461	-0	2.135792386491317	0	-0.09478689634274363	0	-1.620504360252226e-13	0	0	-1.243421756628325e-15	0
0.4763487322228534	-0.003937342697198622	0.001039136888475242	-0	2.67630616205108	0	0.09478688879082013	58.92364858589599	152.9649326334562	-0	2.13536143351073	0	-0.09478689634274365	0	-4.44396621625279e-13	0	0	-8.248862440529723e-17	0
0.4788825020751026	-0.002111263408237475	0.0005719089504893183	-0	2.691119900685799	0	0.09478685696932641	44.49730094141901	128.7412487356335	-0	2.1348858572967	0	-0.09478689634274365	0	-1.1270530334514e-12	0	0	-1.155890786060056e-16	0
0.4814162719273518	-0.001354069322960869	0.0003775477052031665	-0	2.705316232698105	0	0.09478673528820261	31.47136003500485	105.856903308754	-0	2.134391962745586	0	-0.09478689634274365	0	-2.645003834578509e-12	0	0	-1.206826270945315e-16	0
0.4839500417796011	-0.001109087715627587	0.000318858267027608	-0	2.718850758500855	0	0.09478640875789068	20.03910895107868	84.48173171602254	-0	2.133871384878744	0	-0.09478689634274365	0	-5.787447020317036e-12	0	0	6.256211272337631e-17	0
0.4864838116318503	-0.001026325817243431	0.0003042963178741665	-0	2.731734676477207	0	0.09478564201293929	10.41274303455531	64.63514619334619	-0	2.133313514276421	0	-0.09478689634274365	0	-1.203097240789662e-11	0	0	3.755787008010247e-17	0
0.4890175814840995	-0.0009795173033644111	0.0002991466824097127	-0	2.743997633163494	0	0.09478384009867835	-4.586822736188847	22.80869028236963	-0	2.130651089737876	0	-0.09478689634274365	0	-2.427089989051605e-11	0	0	1.77471704048893e-17	0
0.4915513513363488	-0.0009431766621798296	0.0002961922517798592	-0	2.755650674263669	0	0.09477955966857336	0.005203795161926612	-0.005131749165790464	-0	2.125570641598922	0	-0.09478689634274365	0	-4.841555426301407e-11	0	0	-1.932759738825021e-20	0
0.4940851211885979	-0.000921353170004724	0.0002968972491905344	-0	2.766656214783513	0	0.09476937121784638	2.713279530651321e-10	-2.025007546613032e-10	-0	2.126234377876557	0	-0.09478689634274365	0	-9.688264163265587e-11	0	0	-4.201043884097468e-28	0
0.4966188910408472	-0.0009225520144898506	0.0003044024587335602	-0	2.776847239760871	0	0.0947451533370694	-0	-0	-0	0	0	0	0	-1.960452753720372e-10	0	0	0	0
0.4991526608930964	-0.0009558345010997902	0.0003223073989024823	-0	2.785754620922635	0	0.09468772732293371	-0	-0	-0	0	0	0	0	-4.017453098256139e-10	0	0	0	0
0.5016864307453456	-0.001036084628791897	0.0003564690259074117	-0	2.79222652094429	0	0.09455325605507081	-0	-0	-0	0	0	0	0	-8.240608832988228e-10	0	0	0	0
0.5042202005975949	-0.001200919389514906	0.000421098751552394	-0	2.793791912477261	0	0.09425131561574267	-0	-0	-0	0	0	0	0	-1.638409461125326e-09	0	0	0	0
0.506753970449844	-0.001554566959169602	0.0005552136988420314	-0	2.786481360966887	0	0.09364296696987691	-0	-0	-0	0	0	0	0	-2.948682839582819e-09	0	0	0	0
