DataType=double
version=3
OpenSimVersion=4.6-2026-06-22-85aaf64
endheader
time	ground_force_r_vx	ground_force_r_vy	ground_force_r_vz	ground_force_r_px	ground_force_r_py	ground_force_r_pz	ground_force_l_vx	ground_force_l_vy	ground_force_l_vz	ground_force_l_px	ground_force_l_py	ground_force_l_pz	ground_torque_r_x	ground_torque_r_y	ground_torque_r_z	ground_torque_l_x	ground_torque_l_y	ground_torque_l_z
0	-0	-0	-0	0	0	0	0.8239571272081974	-0.2064336148945335	-0	0.5461850161679828	0	-0.09478689634274365	0	0	0	0	3.5021388102603e-18	0
0.002381749924238493	-0	-0	-0	0	0	0	0.6142882669202051	-0.149959935987571	-0	0.5630365588628236	0	-0.09478689634274365	0	0	0	0	-1.651194044303269e-18	0
0.004763499848476986	-0	-0	-0	0	0	0	0.417625943867299	-0.09941408187337847	-0	0.5804296590932776	0	-0.09478689634274363	0	0	0	0	-5.346375014419987e-18	0
0.007145249772715479	-0	-0	-0	0	0	0	0.4044592123389685	-0.09378382771003341	-0	0.5983935802910537	0	-0.09478689634274365	0	0	0	0	-9.871854833121396e-19	0
0.009526999696953972	-0	-0	-0	0	0	0	0.3500664280928514	-0.07913898619098311	-0	0.6169524874355045	0	-0.09478689634274365	0	0	0	0	1.051182127370394e-18	0
0.01190874962119247	-0	-0	-0	0	0	0	0.2756753643650733	-0.06085064713797021	-0	0.6360773376720834	0	-0.09478689634274365	0	0	0	0	1.522749179599483e-18	0
0.01429049954543096	-0	-0	-0	0	0	0	0.2069337610535251	-0.04464138996385422	-0	0.6557469414486684	0	-0.09478689634274365	0	0	0	0	-2.328086355452767e-20	0
0.01667224946966945	-0	-0	-0	0	0	0	0.1648952772285152	-0.03479883439460536	-0	0.675956068745548	0	-0.09478689634274365	0	0	0	0	-1.593284775619358e-18	0
0.01905399939390794	-0	-0	-0	0	0	0	0.1226940082176628	-0.0253676273913172	-0	0.696680176057617	0	-0.09478689634274365	0	0	0	0	8.633840883848164e-19	0
0.02143574931814644	-0	-0	-0	0	0	0	0.07564687736994545	-0.01535036500406836	-0	0.7178758103207803	0	-0.09478689634274365	0	0	0	0	-4.013520875340683e-19	0
0.02381749924238493	-0	-0	-0	0	0	0	0.04184542018682168	-0.00834876852376759	-0	0.7394989019497278	0	-0.09478689634274365	0	0	0	0	-2.687483249373513e-19	0
0.02619924916662342	-0	-0	-0	0	0	0	0.02826612094060334	-0.005554772714729223	-0	0.7615096748440262	0	-0.09478689634274365	0	0	0	0	2.334118449877264e-20	0
0.02858099909086191	-0	-0	-0	0	0	0	0.02198100716311071	-0.004261626791400058	-0	0.7838750328812999	0	-0.09478689634274365	0	0	0	0	-4.06669004967788e-20	0
0.03096274901510041	-0	-0	-0	0	0	0	0.0167266163679916	-0.003203837269322829	-0	0.8065612628213957	0	-0.09478689634274365	0	0	0	0	-4.334313339894826e-21	0
0.03334449893933891	-0	-0	-0	0	0	0	0.01233626871493915	-0.002337196850717959	-0	0.8295396908592106	0	-0.09478689634274365	0	0	0	0	9.5526264925545e-20	0
0.0357262488635774	-0	-0	-0	0	0	0	0.008839083388743015	-0.001658090418924747	-0	0.8527834929940922	0	-0.09478689634274365	0	0	0	0	3.117877650080494e-20	0
0.03810799878781589	-0	-0	-0	0	0	0	0.005959733786572737	-0.001107922206630481	-0	0.8762688195462141	0	-0.09478689634274365	0	0	0	0	-1.44521670891384e-21	0
0.04048974871205437	-0	-0	-0	0	0	0	0.00362367415797064	-0.0006681355965812642	-0	0.8999714193771388	0	-0.09478689634274365	0	0	0	0	2.189851132429311e-20	0
0.04287149863629287	-1.314238542265097e-11	4.446817665606832e-12	-0	1.373463605087017	0	0.08956897507908836	0.00170927503155959	-0.0003128114294825795	-0	0.9238678519586876	0	-0.09478689634274365	0	6.963115827662351e-29	0	0	-9.521100179361192e-22	0
0.04525324856053137	-1.351756090965273e-10	4.675281118313941e-11	-0	1.374429520620062	0	0.08956897507908837	0.000124027038386437	-2.254534906602482e-05	-0	0.9479324606042736	0	-0.09478689634274366	0	1.527884882169717e-27	0	0	1.883177932244038e-21	0
0.04763499848476986	-1.477367993532207e-09	5.232418709668547e-10	-0	1.375456061224082	0	0.08956897507908836	-0.00123246668982176	0.000222716156539599	-0	0.9721315886741739	0	-0.09478689634274365	0	4.624379654887096e-27	0	0	3.171984228303554e-21	0
0.05001674840900835	-1.48079467633848e-08	5.379598760475264e-09	-0	1.376573175966212	0	0.08956897507908836	-0.001514539776365651	0.0002723037747142842	-0	0.9964350103242621	0	-0.09478689629724958	0	-8.444199409829172e-27	0	0	1.839204340107265e-15	0
0.05239849833324684	-1.352855661744262e-07	5.048486071283992e-08	-0	1.377815650461256	0	0.08956897507908836	0.0002380150592391386	-4.259963044622037e-05	-0	1.020868968935684	0	-0.0947868983653761	0	-1.972656024321861e-25	0	0	1.160606499238469e-14	0
0.05478024825748534	-1.122156231100705e-06	4.306260084518268e-07	-0	1.379206651527944	0	0.08956897507908836	0.0005896834926586456	-0.0001051176493197396	-0	1.045481014838349	0	-0.09478690201389728	0	-6.578246213155227e-24	0	0	7.223572661219071e-14	0
0.05716199818172383	-8.426494568839257e-06	3.32823340766704e-06	-0	1.380755821798858	0	0.08956897507908836	0.0001423140393989044	-2.529146446004599e-05	-0	1.070262904325477	0	-0.09478706158139667	0	-1.798662483383897e-23	0	0	4.482324411421124e-13	0
0.05954374810596232	-5.7167638323642e-05	2.325777135946244e-05	-0	1.382459544779698	0	0.08956897507908836	0.0002613846035372267	-4.648455812624123e-05	-0	1.094954189486508	0	-0.09478751509068291	0	1.644052622416404e-22	0	0	2.607200682822831e-12	0
0.06192549803020082	-0.0003495731704332237	0.0001466195926091687	-0	1.384301268277345	0	0.08956897507908836	-0.008821963616577288	0.001584311535089336	-0	1.118462688030174	0	-0.09478677781732216	0	1.819606985508411e-21	0	0	1.301269562181708e-11	0
0.06430724795443932	-0.001924654246593764	0.0008333512454572464	-0	1.386252188983647	0	0.08956897507908836	-0.0229705137222674	0.00419924157870286	-0	1.139833988540332	0	-0.09478663012912311	0	1.827175515299358e-21	0	0	5.312489280924644e-11	0
0.06668899787867781	-0.00956939457105177	0.004288623340217309	-0	1.388251572882984	0	0.08956897507908836	-0.04382092793384201	0.008146345771311705	-0	1.159409401119953	0	-0.09478615912017621	0	4.48429055680346e-21	0	0	1.914378936713379e-10	0
0.0690707478029163	-0.04305717320947416	0.02015693263075015	-0	1.390122437338154	0	0.08956897507908836	-0.07931319851323468	0.01491506949288905	-0	1.177927941886659	0	-0.09478494206018943	0	-1.634892402795083e-19	0	0	6.649057074824277e-10	0
0.07145249772715478	-0.1758260480538991	0.08785056001457395	-0	1.39161223775169	0	0.08956897507908836	-0.1435864339068814	0.02723261864541902	-0	1.195880370702738	0	-0.0947822112352333	0	-6.736883104164051e-19	0	0	2.194619498101195e-09	0
0.07383424765139328	-0.6650470877388849	0.3628392879174722	-0	1.392751856211466	0	0.08956897507908836	-0.2563647031848484	0.04897182117465543	-0	1.213534835988556	0	-0.09477669279842156	0	-1.827573472498151e-18	0	0	6.653453056614469e-09	0
0.07621599757563177	-2.398443604698277	1.444433666817906	-0	1.393722164293807	0	0.08956897507908836	-0.4454419803366023	0.08563903856612236	-0	1.230989678892238	0	-0.09476662341773279	0	2.529733973085993e-18	0	0	1.813048145918352e-08	0
0.07859774749987027	-8.280022280537864	5.539275425766822	-0	1.394511036382909	0	0.08956897507908836	-0.7413163230110018	0.1433667580454096	-0	1.248312872280532	0	-0.09474986868164455	0	-5.382810580302577e-17	0	0	4.362865285604097e-08	0
0.08097949742410876	-26.10318000212025	19.70022273105909	-0	1.395006099465329	0	0.08956897507908836	-1.167644867344272	0.2270367386696391	-0	1.265529381018449	0	-0.09472436458617439	0	-2.409544833443815e-17	0	0	9.184166759526141e-08	0
0.08336124734834725	-64.67476476004313	57.23553728458733	-0	1.395128482149381	0	0.08956897507908836	-1.724397477845183	0.3369375994314289	-0	1.282666916897572	0	-0.09468882186581867	0	-3.084355089895303e-16	0	0	1.674532634263596e-07	0
0.08574299727258575	-121.352395256414	141.0046050159612	-0	1.394903964820057	0	0.08956897507908836	-2.361766338616601	0.463501595329309	-0	1.299778773331488	0	-0.09464339616193301	0	8.56909655441216e-16	0	0	2.621562361259939e-07	0
0.08812474719682424	81.27161829958554	441.1081645136703	-0	1.39619173982429	0	0.08956897507908836	-2.971425138215901	0.5854049085842723	-0	1.31695762050474	0	-0.0945900568935597	0	6.716864327780178e-17	0	0	3.503089914894375e-07	0
0.09050649712106273	77.08145911750637	928.1519778682386	-0	1.396698500865976	0	0.08956897507908836	-3.355974998767109	0.6632160918942828	-0	1.334369487301676	0	-0.09453246556649485	0	-2.317862025504801e-16	0	0	3.898756133097816e-07	0
0.09288824704530123	15.47776250965437	1461.252012288786	-0	1.397141076447405	0	0.0895689750790884	-3.250550768761969	0.6435992341670804	-0	1.352178580922031	0	-0.09447247392396503	0	-5.354427633260056e-14	0	0	3.54515236601284e-07	0
0.09526999696953972	-55.49546453806267	1965.708619171601	-0	1.397662746954687	0	0.08956897507908963	-2.526961206690204	0.5006339546527001	-0	1.370416018784599	0	-0.09440503190520554	0	-2.425462765208504e-12	0	0	2.604981207703782e-07	0
0.09765174689377822	-79.97135329671234	2380.971275413809	-0	1.398398434824444	0	0.08956897507914084	-1.382458211396294	0.2737433534398659	-0	1.388509206659373	0	-0.0943015659919311	0	-1.206507683966381e-10	0	0	1.463420733631899e-07	0
0.1000334968180167	-96.80331407349023	2666.161960649034	-0	1.399184477615023	0	0.08956897508148824	-0.2753935877183994	0.05446289240648376	-0	1.396511632902517	0	-0.09376064720329577	0	-6.163665032754023e-09	0	0	4.776519639997869e-08	0
0.1024152467422552	-75.10028170013764	2804.771624212143	-0	1.400116452616719	0	0.08956897519341252	0.000757651884185454	-0.0001496345092548601	-0	1.315240850356139	0	-0.08963218698363316	0	-3.100071180462589e-07	0	0	-9.13851807044951e-12	0
0.1047969966664937	-51.49656142820904	2803.727614050986	-0	1.401069484673401	0	0.08956898037997835	2.600679104121151e-09	-5.129639329362641e-10	-0	1.336701529992577	0	-0.08957695891576496	0	-1.432620769019601e-05	0	0	-3.788364811879974e-18	0
0.1071787465907322	-5.460373447239601	2686.821715767689	-0	1.402142409976471	0	0.08956919564606941	1.137214045726817e-15	-2.240863205523167e-16	-0	0	0	0	0	-0.0005710767412154223	0	0	-1.018590965212945e-16	0
0.1095604965149707	29.52470666379135	2488.608034245747	-0	1.403415806292884	0	0.08957616791129179	-0	-0	-0	0	0	0	0	-0.01713074427735375	0	0	0	0
0.1119422464392092	33.89574014595966	2292.28474877042	-0	1.407860676210378	0	0.08969012325254201	-0	-0	-0	0	0	0	0	-0.2593146036422769	0	0	0	0
0.1143239963634477	-95.95989636114228	2317.364743730702	-0	1.42487506750248	0	0.09025596425626752	-0	-0	-0	0	0	0	0	-1.114116972216133	0	0	0	0
0.1167057462876862	-217.5838558019245	2603.681906764339	-0	1.45107381398697	0	0.09117293079690338	-0	-0	-0	0	0	0	0	-1.375689918033848	0	0	0	0
0.1190874962119246	-152.6618629402326	2536.703332700935	-0	1.46971972578954	0	0.09181698082444208	-0	-0	-0	0	0	0	0	-1.016145796938708	0	0	0	0
0.1214692461361631	-202.528664263116	2332.882492091459	-0	1.490257387479275	0	0.09254450063299698	-0	-0	-0	0	0	0	0	-0.71134681532074	0	0	0	0
0.1238509960604016	-188.4595207415175	2039.140088428105	-0	1.5111408284351	0	0.09327864555040005	-0	-0	-0	0	0	0	0	-0.3843568445579401	0	0	0	0
0.1262327459846401	-191.2005502769746	1756.356959640104	-0	1.535621783872473	0	0.09414432223031584	-0	-0	-0	0	0	0	0	-0.1278888367776058	0	0	0	0
0.1286144959088786	-179.09581114251	1562.62014353302	-0	1.554318912093916	0	0.09480395906449844	-0	-0	-0	0	0	0	0	0.002303281712112417	0	0	0	0
0.1309962458331171	-150.0889235779096	1592.04970161344	-0	1.55410131457755	0	0.09478690466824002	-0	-0	-0	0	0	0	0	6.276874196951972e-07	0	0	0	0
0.1333779957573556	-121.6727541317829	1569.334281103668	-0	1.554342137342968	0	0.0947868963443676	-0	-0	-0	0	0	0	0	2.048567906453242e-11	0	0	0	0
0.1357597456815941	-80.82197793695882	1543.84654533554	-0	1.554691763792507	0	0.0947868963427439	-0	-0	-0	0	0	0	0	-1.175135579624382e-14	0	0	0	0
0.1381414956058326	-51.61623663066925	1489.748246469038	-0	1.554958715729724	0	0.09478689634274365	-0	-0	-0	0	0	0	0	5.127593971939296e-17	0	0	0	0
0.1405232455300711	-13.82880267905814	1441.541796248416	-0	1.555320748402419	0	0.09478689634274365	-0	-0	-0	0	0	0	0	-8.733729852097775e-17	0	0	0	0
0.1429049954543096	3.760278495190806	1379.90229767887	-0	1.555517389983931	0	0.09478689634274365	-0	-0	-0	0	0	0	0	-1.686646609432316e-17	0	0	0	0
0.1452867453785481	28.10883176484183	1330.297855018689	-0	1.555791508038018	0	0.09478689634274365	-0	-0	-0	0	0	0	0	6.959293467250654e-17	0	0	0	0
0.1476684953027866	40.0998876849545	1271.574727203008	-0	1.555952155246206	0	0.09478689634274365	-0	-0	-0	0	0	0	0	1.348962601747622e-16	0	0	0	0
0.1500502452270251	62.79675253719131	1220.205508505009	-0	1.556238079939338	0	0.09478689634274365	-0	-0	-0	0	0	0	0	2.19072449142353e-16	0	0	0	0
0.1524319951512635	76.35093189429284	1157.649785910031	-0	1.556440118535408	0	0.09478689634274365	-0	-0	-0	0	0	0	0	3.279189949284458e-16	0	0	0	0
0.1548137450755021	99.01806799022125	1096.650024920272	-0	1.556772090602628	0	0.09478689634274365	-0	-0	-0	0	0	0	0	-7.085864382517783e-16	0	0	0	0
0.1571954949997405	113.2158235477699	1025.431127433881	-0	1.557031869576438	0	0.09478689634274365	-0	-0	-0	0	0	0	0	-8.460412526976704e-16	0	0	0	0
0.159577244923979	133.5236883227912	956.1032408752689	-0	1.557408372283422	0	0.09478689634274365	-0	-0	-0	0	0	0	0	1.010843046606096e-16	0	0	0	0
0.1619589948482175	146.0735135903467	879.1161171845999	-0	1.557727637691042	0	0.09478689634274366	-0	-0	-0	0	0	0	0	-2.28278064325368e-15	0	0	0	0
0.164340744772456	161.9144874017601	803.4643642572044	-0	1.558153445143283	0	0.09478689634274365	-0	-0	-0	0	0	0	0	-5.770431852230534e-16	0	0	0	0
0.1667224946966945	169.630689058454	721.742194830822	-0	1.558527006975214	0	0.09478689634274363	-0	-0	-0	0	0	0	0	3.931502693811023e-15	0	0	0	0
0.169104244620933	175.071123634292	641.953868182747	-0	1.558931286676455	0	0.09478689634274365	-0	-0	-0	0	0	0	0	-1.350613560604879e-15	0	0	0	0
0.1714859945451715	166.9096677277871	560.4960592113464	-0	1.559127810764571	0	0.09478689634274365	-0	-0	-0	0	0	0	0	4.963927937863174e-16	0	0	0	0
0.17386774446941	155.3164662947624	481.2379355587844	-0	1.559299360139358	0	0.09478689634274365	-0	-0	-0	0	0	0	0	-5.530716713329783e-16	0	0	0	0
0.1762494943936485	139.8093428215928	397.8490104518906	-0	1.559496811326643	0	0.09478689634274365	-0	-0	-0	0	0	0	0	3.061443144797075e-16	0	0	0	0
0.178631244317887	122.0101442300956	313.0203172592474	-0	1.559793661612015	0	0.09478689634274365	-0	-0	-0	0	0	0	0	-3.605205174833559e-16	0	0	0	0
0.1810129942421255	95.40341342031839	226.8241034917917	-0	1.559950663821452	0	0.09478689634274365	-0	-0	-0	0	0	0	0	-1.18394753392439e-16	0	0	0	0
0.1833947441663639	64.77278594740292	152.9904127356501	-0	1.559709498061859	0	0.09478689634274365	-0	-0	-0	0	0	0	0	-3.735381775404868e-16	0	0	0	0
0.1857764940906025	30.29569410750717	100.8541486058963	-0	1.557902825009098	0	0.09478689634274365	-0	-0	-0	0	0	0	0	4.765430240302208e-17	0	0	0	0
0.1881582440148409	-1.585782642334738	71.99611536424872	-0	1.553840483318766	0	0.09478689634274365	-0	-0	-0	0	0	0	0	-1.000723374730342e-17	0	0	0	0
0.1905399939390794	-28.13862421268833	53.88381744851774	-0	1.548106600301409	0	0.09478689634274365	-0	-0	-0	0	0	0	0	-6.773510458805544e-17	0	0	0	0
0.192921743863318	4.335170315257244	-4.366242715731136	-0	1.543514419858263	0	0.09478689634274365	-0	-0	-0	0	0	0	0	-2.050806339272151e-17	0	0	0	0
0.1953034937875564	0.0005570294496394148	-0.0004387646524936044	-0	1.542567710135175	0	0.09478689634274365	-0	-0	-0	0	0	0	0	-1.183851667914322e-21	0	0	0	0
0.1976852437117949	7.011201763623805e-11	-4.294694859455212e-11	-0	1.542852497486198	0	0.09478689634274365	-0	-0	-0	0	0	0	0	-8.253906014224892e-29	0	0	0	0
0.2000669936360334	-0	-0	-0	0	0	0	-0	-0	-0	0	0	0	0	0	0	0	0	0
0.2024487435602719	-0	-0	-0	0	0	0	-0	-0	-0	0	0	0	0	0	0	0	0	0
0.2048304934845104	1.080290501733139e-13	-4.498497162957964e-14	-0	1.559240803581416	0	0.09478689634274363	-0	-0	-0	0	0	0	0	1.332096492970871e-30	0	0	0	0
0.2072122434087489	5.350172555358396e-12	-2.086680490790922e-12	-0	1.568125165773678	0	0.09478689634274365	-0	-0	-0	0	0	0	0	-3.559367942010604e-29	0	0	0	0
0.2095939933329874	6.798437294379079e-10	-2.518529738992902e-10	-0	1.577992906125403	0	0.09478689634274365	-0	-0	-0	0	0	0	0	-1.179319189351987e-27	0	0	0	0
0.2119757432572259	1.083463167665845e-07	-3.845729424175291e-08	-0	1.588571189522086	0	0.09478689634274365	-0	-0	-0	0	0	0	0	1.581313128889135e-26	0	0	0	0
0.2143574931814644	1.375248242848838e-05	-4.703149208975838e-06	-0	1.599708441546808	0	0.09478689634274365	-0	-0	-0	0	0	0	0	-7.654468149904279e-23	0	0	0	0
0.2167392431057029	0.001236996900522632	-0.0004092870309389458	-0	1.611311154009209	0	0.09478689634274365	-0	-0	-0	0	0	0	0	-1.604214915970308e-21	0	0	0	0
0.2191209930299414	0.07165914255689632	-0.02301666629837915	-0	1.62331568692645	0	0.09478689634274365	-0	-0	-0	0	0	0	0	-3.480459604235578e-19	0	0	0	0
0.2215027429541798	1.275154350225349	-0.3977696366438028	-0	1.635659611305596	0	0.09478689634274365	-0	-0	-0	0	0	0	0	4.164929340731959e-18	0	0	0	0
0.2238844928784183	2.757733491452409	-0.8324162488545462	-0	1.64838973997253	0	0.09478689634274365	-0	-0	-0	0	0	0	0	2.071555741659807e-17	0	0	0	0
0.2262662428026568	2.402376438994863	-0.7002697377276995	-0	1.661659713101638	0	0.09478689634274365	-0	-0	-0	0	0	0	0	9.956995016162408e-18	0	0	0	0
0.2286479927268953	1.919110294646988	-0.5412133796648769	-0	1.675546194987048	0	0.09478689634274365	-0	-0	-0	0	0	0	0	2.088677279819595e-18	0	0	0	0
0.2310297426511338	1.391858397349198	-0.3804833818279381	-0	1.69003648371423	0	0.09478689634274366	-0	-0	-0	0	0	0	0	-9.051462712209705e-18	0	0	0	0
0.2334114925753723	1.092636018577817	-0.2898673440130922	-0	1.705116502530277	0	0.09478689634274365	-0	-0	-0	0	0	0	0	4.648676518913934e-18	0	0	0	0
0.2357932424996108	0.9683537248742994	-0.2495538935076383	-0	1.720788921537634	0	0.09478689634274365	-0	-0	-0	0	0	0	0	-6.236430911531755e-18	0	0	0	0
0.2381749924238493	0.8239571272082158	-0.2064336148945382	-0	1.737059978287229	0	0.09478689634274365	-0	-0	-0	0	0	0	0	-1.795147916674646e-18	0	0	0	0
0.2405567423480878	0.6142882669202119	-0.1499599359875727	-0	1.75391152098207	0	0.09478689634274365	-0	-0	-0	0	0	0	0	-1.901594786311176e-18	0	0	0	0
0.2429384922723263	0.4176259438673078	-0.09941408187338056	-0	1.771304621212523	0	0.09478689634274365	-0	-0	-0	0	0	0	0	2.54178487301328e-18	0	0	0	0
0.2453202421965648	0.4044592123389798	-0.09378382771003604	-0	1.789268542410299	0	0.09478689634274365	-0	-0	-0	0	0	0	0	3.12287411371771e-18	0	0	0	0
0.2477019921208033	0.3500664280928616	-0.0791389861909854	-0	1.80782744955475	0	0.09478689634274365	-0	-0	-0	0	0	0	0	5.585285306151661e-19	0	0	0	0
0.2500837420450417	0.2756753643650663	-0.06085064713796868	-0	1.826952299791329	0	0.09478689634274365	-0	-0	-0	0	0	0	0	-1.209170062165928e-18	0	0	0	0
0.2524654919692803	0.2069337610535265	-0.04464138996385453	-0	1.846621903567915	0	0.09478689634274365	-0	-0	-0	0	0	0	0	-6.346791053263604e-19	0	0	0	0
0.2548472418935188	0.1648952772285191	-0.0347988343946062	-0	1.866831030864794	0	0.09478689634274365	-0	-0	-0	0	0	0	0	7.98793465221403e-20	0	0	0	0
0.2572289918177572	0.122694008217654	-0.02536762739131536	-0	1.887555138176863	0	0.09478689634274365	-0	-0	-0	0	0	0	0	-3.275119173599214e-19	0	0	0	0
0.2596107417419957	0.07564687736996308	-0.01535036500407194	-0	1.908750772440027	0	0.09478689634274365	-0	-0	-0	0	0	0	0	3.40867757705634e-19	0	0	0	0
0.2619924916662342	0.04184542018682291	-0.008348768523767836	-0	1.930373864068974	0	0.09478689634274365	-0	-0	-0	0	0	0	0	2.890962912466834e-19	0	0	0	0
0.2643742415904727	0.02826612094060256	-0.00555477271472907	-0	1.952384636963273	0	0.09478689634274365	-0	-0	-0	0	0	0	0	-1.896953471753714e-19	0	0	0	0
0.2667559915147112	0.02198100716311802	-0.004261626791401476	-0	1.974749995000546	0	0.09478689634274365	-0	-0	-0	0	0	0	0	-1.701973786783635e-19	0	0	0	0
0.2691377414389497	0.01672661636799062	-0.003203837269322641	-0	1.997436224940642	0	0.09478689634274365	-0	-0	-0	0	0	0	0	3.94377345894289e-20	0	0	0	0
0.2715194913631882	0.01233626871493958	-0.002337196850718039	-0	2.020414652978457	0	0.09478689634274365	-0	-0	-0	0	0	0	0	-1.007351323418469e-19	0	0	0	0
0.2739012412874267	0.008839083388747308	-0.001658090418925552	-0	2.043658455113338	0	0.09478689634274365	-0	-0	-0	0	0	0	0	1.640738023208478e-20	0	0	0	0
0.2762829912116652	0.005959733786576829	-0.001107922206631241	-0	2.06714378166546	0	0.09478689634274365	-0	-0	-0	0	0	0	0	4.084343658248313e-20	0	0	0	0
0.2786647411359037	0.00362367415797203	-0.0006681355965815206	-0	2.090846381496386	0	0.09478689634274366	-0	-0	-0	0	0	0	0	-3.619278522620012e-20	0	0	0	0
0.2810464910601422	0.00170927503155929	-0.0003128114294825245	-0	2.114742814077933	0	0.09478689634274365	-1.314238542265094e-11	4.446817665606821e-12	-0	2.564338567206264	0	-0.08956897507908836	0	-1.312852369895643e-20	0	0	5.446294008862334e-29	0
0.2834282409843807	0.0001240270383854791	-2.254534906585069e-05	-0	2.13880742272352	0	0.09478689634274365	-1.351756090965271e-10	4.675281118313933e-11	-0	2.565304482739307	0	-0.08956897507908836	0	-4.681452210910374e-22	0	0	1.831544547161376e-28	0
0.2858099909086191	-0.001232466689822406	0.0002227161565397158	-0	2.16300655079342	0	0.09478689634274365	-1.477367993532204e-09	5.232418709668536e-10	-0	2.566331023343328	0	-0.08956897507908836	0	2.330842414529932e-21	0	0	-1.113126645123845e-26	0
0.2881917408328576	-0.001514539776365642	0.0002723037747142824	-0	2.187309972443508	0	0.09478689629724958	-1.480794676338476e-08	5.379598760475251e-09	-0	2.567448138085458	0	-0.08956897507908836	0	-1.839214233113185e-15	0	0	-9.894629904384832e-26	0
0.2905734907570962	0.0002380150592390043	-4.259963044619634e-05	-0	2.21174393105493	0	0.09478689836537611	-1.352855661744259e-07	5.048486071283979e-08	-0	2.568690612580502	0	-0.08956897507908836	0	-1.16060654628229e-14	0	0	-4.1427429116932e-25	0
0.2929552406813346	0.000589683492658642	-0.000105117649319739	-0	2.236355976957595	0	0.09478690201389726	-1.122156231100702e-06	4.306260084518257e-07	-0	2.57008161364719	0	-0.08956897507908836	0	-7.223572488318603e-14	0	0	-5.81688430140691e-24	0
0.2953369906055731	0.0001423140393989167	-2.529146446004817e-05	-0	2.261137866444723	0	0.09478706158139667	-8.426494568839226e-06	3.328233407667028e-06	-0	2.571630783918104	0	-0.08956897507908836	0	-4.48232441226491e-13	0	0	-3.627027766298329e-24	0
0.2977187405298116	0.0002613846035372252	-4.648455812624095e-05	-0	2.285829151605755	0	0.09478751509068291	-5.716763832364184e-05	2.325777135946237e-05	-0	2.573334506898944	0	-0.08956897507908836	0	-2.607200682998314e-12	0	0	2.666239642394156e-24	0
0.3001004904540501	-0.008821963616577251	0.001584311535089329	-0	2.309337650149419	0	0.09478677781732216	-0.0003495731704332227	0.0001466195926091682	-0	2.57517623039659	0	-0.08956897507908836	0	-1.301269560537595e-11	0	0	4.235802900575534e-22	0
0.3024822403782886	-0.02297051372226722	0.004199241578702827	-0	2.330708950659578	0	0.09478663012912311	-0.001924654246593756	0.0008333512454572432	-0	2.577127151102892	0	-0.08956897507908836	0	-5.312489310108985e-11	0	0	3.226082575935844e-22	0
0.3048639903025271	-0.04382092793384164	0.008146345771311637	-0	2.350284363239199	0	0.09478615912017621	-0.009569394571051723	0.004288623340217288	-0	2.579126535002229	0	-0.08956897507908836	0	-1.914378938355568e-10	0	0	-3.768286095061435e-20	0
0.3072457402267656	-0.07931319851323432	0.01491506949288898	-0	2.368802904005905	0	0.09478494206018943	-0.04305717320947391	0.02015693263075004	-0	2.5809973994574	0	-0.08956897507908836	0	-6.649057078558579e-10	0	0	-2.013985479821193e-19	0
0.3096274901510041	-0.1435864339071697	0.02723261864547369	-0	2.386755332821985	0	0.09478221123523331	-0.1758260480538979	0.08785056001457332	-0	2.582487199870936	0	-0.08956897507908836	0	-2.19461949782206e-09	0	0	1.523116575891588e-18	0
0.3120092400752426	-0.2563647031848471	0.04897182117465519	-0	2.404409798107802	0	0.09477669279842157	-0.6650470877391051	0.3628392879175923	-0	2.583626818330712	0	-0.08956897507908836	0	-6.653453050955077e-09	0	0	-9.828121559124702e-20	0
0.3143909899994811	-0.4454419803365989	0.08563903856612169	-0	2.421864641011485	0	0.09476662341773279	-2.398443604698255	1.444433666817893	-0	2.584597126413053	0	-0.08956897507908836	0	-1.813048145921298e-08	0	0	3.63412606055265e-18	0
0.3167727399237196	-0.7413163230109958	0.1433667580454085	-0	2.439187834399778	0	0.09474986868164453	-8.280022280538153	5.539275425767014	-0	2.585385998502155	0	-0.08956897507908836	0	-4.362865286538433e-08	0	0	-1.232864163972496e-17	0
0.319154489847958	-1.16764486734444	0.2270367386696717	-0	2.456404343137696	0	0.09472436458617438	-26.10318000212103	19.70022273105968	-0	2.585881061584575	0	-0.08956897507908836	0	-9.184166762159202e-08	0	0	5.747126663784326e-17	0
0.3215362397721965	-1.724397477845319	0.3369375994314555	-0	2.473541879016817	0	0.09468882186581867	-64.67476476004447	57.23553728458852	-0	2.586003444268627	0	-0.08956897507908836	0	-1.674532634720457e-07	0	0	-3.237152840102002e-16	0
0.323917989696435	-2.361766338616706	0.4635015953293294	-0	2.490653735450734	0	0.09464339616193301	-121.3523952564172	141.0046050159648	-0	2.585778926939303	0	-0.08956897507908836	0	-2.621562361433837e-07	0	0	-7.51584028095658e-16	0
0.3262997396206735	-2.971425138216086	0.5854049085843087	-0	2.507832582623987	0	0.09459005689355973	81.27161829958663	441.1081645136797	-0	2.587066701943536	0	-0.08956897507908834	0	-3.503089914183043e-07	0	0	-8.850848122884694e-16	0
0.3286814895449121	-3.35597499876725	0.6632160918943107	-0	2.525244449420922	0	0.09453246556649486	77.08145911750614	928.1519778682522	-0	2.587573462985222	0	-0.08956897507908836	0	-3.898756133605274e-07	0	0	2.94262786237784e-16	0
0.3310632394691505	-3.250550768762074	0.6435992341671009	-0	2.543053543041277	0	0.09447247392396506	15.47776250965195	1461.252012288798	-0	2.58801603856665	0	-0.0895689750790884	0	-3.545152364772984e-07	0	0	5.346064188589631e-14	0
0.333444989393389	-2.526961206690277	0.5006339546527144	-0	2.561290980903845	0	0.09440503190520555	-55.49546453806669	1965.708619171619	-0	2.588537709073933	0	-0.08956897507908963	0	-2.604981207708699e-07	0	0	2.425846174816462e-12	0
0.3358267393176275	-1.38245821139634	0.2737433534398752	-0	2.579384168778621	0	0.09430156599193111	-79.9713532967176	2380.971275413824	-0	2.58927339694369	0	-0.08956897507914086	0	-1.463420733599186e-07	0	0	1.206494380076269e-10	0
0.338208489241866	-0.2753935877184043	0.05446289240648472	-0	2.587386595021764	0	0.09376064720329577	-96.80331407349676	2666.161960649056	-0	2.59005943973427	0	-0.08956897508148824	0	-4.776519640860089e-08	0	0	6.163663942375924e-09	0
0.3405902391661045	0.0007576518841854471	-0.0001496345092548587	-0	2.506115812475384	0	0.08963218698363316	-75.10028170014533	2804.771624212158	-0	2.590991414735964	0	-0.0895689751934125	0	9.138518068981497e-12	0	0	3.100071197021721e-07	0
0.342971989090343	2.600679104121137e-09	-5.129639329362611e-10	-0	2.527576492111824	0	0.089576958915765	-51.49656142821706	2803.727614051009	-0	2.591944446792647	0	-0.08956898037997833	0	3.788364707820914e-18	0	0	1.432620769092219e-05	0
0.3453537390145814	1.137214045726811e-15	-2.240863205523156e-16	-0	0	0	0	-5.460373447246588	2686.821715767701	-0	2.593017372095717	0	-0.08956919564606941	0	1.01859096521294e-16	0	0	0.0005710767412154637	0
0.34773548893882	-0	-0	-0	0	0	0	29.52470666378463	2488.608034245758	-0	2.594290768412129	0	-0.0895761679112918	0	0	0	0	0.01713074427735532	0
0.3501172388630585	-0	-0	-0	0	0	0	33.89574014595284	2292.28474877043	-0	2.598735638329624	0	-0.08969012325254201	0	0	0	0	0.2593146036422821	0
0.352498988787297	-0	-0	-0	0	0	0	-95.95989636115317	2317.364743730717	-0	2.615750029621727	0	-0.09025596425626754	0	0	0	0	1.114116972216155	0
0.3548807387115355	-0	-0	-0	0	0	0	-217.5838558019341	2603.681906764349	-0	2.641948776106216	0	-0.09117293079690339	0	0	0	0	1.375689918033862	0
0.3572624886357739	-0	-0	-0	0	0	0	-152.6618629402382	2536.703332700951	-0	2.660594687908786	0	-0.0918169808244421	0	0	0	0	1.016145796938716	0
0.3596442385600124	-0	-0	-0	0	0	0	-202.528664263121	2332.882492091475	-0	2.681132349598522	0	-0.09254450063299698	0	0	0	0	0.711346815320746	0
0.3620259884842509	-0	-0	-0	0	0	0	-188.4595207415214	2039.140088428119	-0	2.702015790554346	0	-0.09327864555040007	0	0	0	0	0.3843568445579393	0
0.3644077384084894	-0	-0	-0	0	0	0	-191.2005502769775	1756.356959640117	-0	2.726496745991718	0	-0.09414432223031584	0	0	0	0	0.1278888367776073	0
0.366789488332728	-0	-0	-0	0	0	0	-179.0958111425124	1562.620143533026	-0	2.745193874213161	0	-0.09480395906449844	0	0	0	0	-0.00230328171211138	0
0.3691712382569664	-0	-0	-0	0	0	0	-150.0889235779124	1592.04970161345	-0	2.744976276696796	0	-0.09478690466824004	0	0	0	0	-6.276874220311539e-07	0
0.3715529881812049	-0	-0	-0	0	0	0	-121.6727541317855	1569.334281103678	-0	2.745217099462214	0	-0.0947868963443676	0	0	0	0	-2.048526697860819e-11	0
0.3739347381054434	-0	-0	-0	0	0	0	-80.82197793696088	1543.846545335546	-0	2.745566725911753	0	-0.09478689634274388	0	0	0	0	1.206865210999963e-14	0
0.3763164880296819	-0	-0	-0	0	0	0	-51.61623663067137	1489.748246469048	-0	2.74583367784897	0	-0.09478689634274363	0	0	0	0	6.899469799926281e-16	0
0.3786982379539203	-0	-0	-0	0	0	0	-13.82880267906018	1441.541796248422	-0	2.746195710521665	0	-0.09478689634274365	0	0	0	0	-2.87600580424309e-17	0
0.3810799878781589	-0	-0	-0	0	0	0	3.760278495188915	1379.902297678872	-0	2.746392352103176	0	-0.09478689634274365	0	0	0	0	1.339469608519571e-17	0
0.3834617378023973	-0	-0	-0	0	0	0	28.10883176484011	1330.297855018694	-0	2.746666470157264	0	-0.09478689634274365	0	0	0	0	-7.619327232822501e-17	0
0.3858434877266358	-0	-0	-0	0	0	0	40.09988768495288	1271.574727203017	-0	2.746827117365452	0	-0.09478689634274365	0	0	0	0	-3.835031486030069e-17	0
0.3882252376508744	-0	-0	-0	0	0	0	62.79675253718884	1220.205508505008	-0	2.747113042058583	0	-0.09478689634274365	0	0	0	0	-3.331360942993277e-16	0
0.3906069875751128	-0	-0	-0	0	0	0	76.35093189429101	1157.649785910029	-0	2.747315080654653	0	-0.09478689634274365	0	0	0	0	-8.311588985735936e-18	0
0.3929887374993514	-0	-0	-0	0	0	0	99.01806799021919	1096.65002492027	-0	2.747647052721874	0	-0.09478689634274365	0	0	0	0	7.924309116912195e-16	0
0.3953704874235898	-0	-0	-0	0	0	0	113.2158235477693	1025.431127433892	-0	2.747906831695685	0	-0.09478689634274365	0	0	0	0	6.2704721488229e-16	0
0.3977522373478283	-0	-0	-0	0	0	0	133.5236883227911	956.1032408752787	-0	2.748283334402668	0	-0.09478689634274365	0	0	0	0	-1.600250377864268e-16	0
0.4001339872720668	-0	-0	-0	0	0	0	146.0735135903448	879.1161171845961	-0	2.748602599810288	0	-0.09478689634274365	0	0	0	0	8.866833835646303e-16	0
0.4025157371963053	-0	-0	-0	0	0	0	161.9144874017609	803.4643642572141	-0	2.749028407262529	0	-0.09478689634274363	0	0	0	0	-1.762450236451225e-15	0
0.4048974871205438	-0	-0	-0	0	0	0	169.6306890584512	721.7421948308164	-0	2.749401969094459	0	-0.09478689634274365	0	0	0	0	8.635706096712649e-16	0
0.4072792370447823	-0	-0	-0	0	0	0	175.0711236342936	641.9538681827562	-0	2.749806248795701	0	-0.09478689634274365	0	0	0	0	3.069484624644751e-16	0
0.4096609869690208	-0	-0	-0	0	0	0	166.9096677277869	560.4960592113496	-0	2.750002772883816	0	-0.09478689634274365	0	0	0	0	-6.732149931637689e-16	0
0.4120427368932593	-0	-0	-0	0	0	0	155.3164662947629	481.2379355587873	-0	2.750174322258603	0	-0.09478689634274365	0	0	0	0	-7.517593030607349e-16	0
0.4144244868174978	-0	-0	-0	0	0	0	139.8093428215925	397.8490104518932	-0	2.750371773445889	0	-0.09478689634274365	0	0	0	0	-6.597887132346104e-16	0
0.4168062367417362	-0	-0	-0	0	0	0	122.0101442300992	313.0203172592582	-0	2.750668623731262	0	-0.09478689634274365	0	0	0	0	5.210730256093357e-16	0
0.4191879866659748	-0	-0	-0	0	0	0	95.40341342031368	226.8241034917821	-0	2.750825625940697	0	-0.09478689634274366	0	0	0	0	1.45001872317007e-15	0
0.4215697365902132	-0	-0	-0	0	0	0	64.77278594740372	152.9904127356527	-0	2.750584460181106	0	-0.09478689634274365	0	0	0	0	3.105300216018017e-16	0
0.4239514865144517	-0	-0	-0	0	0	0	30.29569410750339	100.8541486058857	-0	2.748777787128343	0	-0.09478689634274365	0	0	0	0	-1.998223631850578e-16	0
0.4263332364386903	-0	-0	-0	0	0	0	-1.585782642334767	71.99611536425002	-0	2.744715445438012	0	-0.09478689634274365	0	0	0	0	-1.275447615047065e-17	0
0.4287149863629287	-0	-0	-0	0	0	0	-28.13862421269386	53.88381744852771	-0	2.738981562420656	0	-0.09478689634274366	0	0	0	0	-2.815933198744444e-16	0
0.4310967362871673	-0	-0	-0	0	0	0	4.335170315258834	-4.366242715732736	-0	2.734389381977508	0	-0.09478689634274365	0	0	0	0	3.672156067685247e-18	0
0.4334784862114057	-0	-0	-0	0	0	0	0.0005570294496394165	-0.0004387646524936057	-0	2.733442672254421	0	-0.09478689634274365	0	0	0	0	2.982580095826222e-21	0
0.4358602361356442	-0	-0	-0	0	0	0	7.011201763623859e-11	-4.294694859455243e-11	-0	2.733727459605443	0	-0.09478689634274365	0	0	0	0	-1.623885195903675e-28	0
0.4382419860598827	-0	-0	-0	0	0	0	-0	-0	-0	0	0	0	0	0	0	0	0	0
0.4406237359841212	-0	-0	-0	0	0	0	-0	-0	-0	0	0	0	0	0	0	0	0	0
0.4430054859083596	-0	-0	-0	0	0	0	1.080290501733149e-13	-4.498497162958005e-14	-0	2.750115765700663	0	-0.09478689634274365	0	0	0	0	1.772665685479083e-32	0
0.4453872358325982	-0	-0	-0	0	0	0	5.350172555358435e-12	-2.086680490790937e-12	-0	2.759000127892923	0	-0.09478689634274365	0	0	0	0	-4.958175384759025e-29	0
0.4477689857568367	-0	-0	-0	0	0	0	6.798437294379134e-10	-2.518529738992922e-10	-0	2.768867868244649	0	-0.09478689634274365	0	0	0	0	3.630411078200262e-27	0
0.4501507356810752	-0	-0	-0	0	0	0	1.083463167665855e-07	-3.845729424175326e-08	-0	2.779446151641332	0	-0.09478689634274365	0	0	0	0	1.725237096605883e-25	0
0.4525324856053137	-0	-0	-0	0	0	0	1.375248242848855e-05	-4.703149208975896e-06	-0	2.790583403666054	0	-0.09478689634274365	0	0	0	0	4.044351772373923e-23	0
0.4549142355295521	-0	-0	-0	0	0	0	0.001236996900522643	-0.0004092870309389496	-0	2.802186116128455	0	-0.09478689634274365	0	0	0	0	6.744527172852246e-21	0
0.4572959854537907	-0	-0	-0	0	0	0	0.07165914255689719	-0.02301666629837942	-0	2.814190649045696	0	-0.09478689634274365	0	0	0	0	-4.64375188914497e-20	0
0.4596777353780291	-0	-0	-0	0	0	0	1.275154350225366	-0.3977696366438081	-0	2.826534573424842	0	-0.09478689634274365	0	0	0	0	-5.446870018194477e-19	0
0.4620594853022676	-0	-0	-0	0	0	0	2.757733491452455	-0.8324162488545601	-0	2.839264702091776	0	-0.09478689634274365	0	0	0	0	2.717378824812837e-17	0
0.4644412352265061	-0	-0	-0	0	0	0	2.402376438994915	-0.7002697377277147	-0	2.852534675220883	0	-0.09478689634274365	0	0	0	0	2.285155433211464e-18	0
0.4668229851507446	-0	-0	-0	0	0	0	1.919110294647024	-0.5412133796648873	-0	2.866421157106295	0	-0.09478689634274365	0	0	0	0	7.914654263278106e-18	0
0.4692047350749831	-0	-0	-0	0	0	0	1.39185839734922	-0.3804833818279444	-0	2.880911445833476	0	-0.09478689634274365	0	0	0	0	-7.366698902858348e-18	0
0.4715864849992216	-0	-0	-0	0	0	0	1.092636018577843	-0.289867344013099	-0	2.895991464649522	0	-0.09478689634274365	0	0	0	0	1.011924228227555e-18	0
0.4739682349234601	-0	-0	-0	0	0	0	0.9683537248742669	-0.2495538935076299	-0	2.91166388365688	0	-0.09478689634274365	0	0	0	0	3.731697998910325e-18	0
0.4763499848476986	-0	-0	-0	0	0	0	0.8239571272082469	-0.206433614894546	-0	2.927934940406475	0	-0.09478689634274365	0	0	0	0	6.272785729226989e-18	0
