DataType=double
version=3
OpenSimVersion=4.6-2026-06-22-85aaf64
endheader
time	ground_force_r_vx	ground_force_r_vy	ground_force_r_vz	ground_force_r_px	ground_force_r_py	ground_force_r_pz	ground_force_l_vx	ground_force_l_vy	ground_force_l_vz	ground_force_l_px	ground_force_l_py	ground_force_l_pz	ground_torque_r_x	ground_torque_r_y	ground_torque_r_z	ground_torque_l_x	ground_torque_l_y	ground_torque_l_z
0	-0.0001491102107391965	3.838166860283096e-05	-0	1.144158981090518	0	0.08956897181771803	2.198954814858256e-06	-1.430768955047053e-06	-0	0.7412699567488029	0	-0.09478689634274366	0	1.896207097798622e-15	0	0	1.77389667777293e-23	0
0.002760661586791291	-0.0002852425576451459	7.441689809386279e-05	-0	1.156847666306595	0	0.08956897490320302	4.689778850556943e-05	-2.9166691997793e-05	-0	0.7470596431768212	0	-0.09478689634274365	0	1.33746353360848e-16	0	0	2.835837770205405e-22	0
0.005521323173582582	-0.0005122843029045769	0.0001358232734416391	-0	1.169406596501445	0	0.08956897503364208	-0.002408767620386997	0.001434729106697317	-0	0.7531172086970819	0	-0.09478689634274365	0	3.466790790688896e-17	0	0	-8.177919228817938e-21	0
0.008281984760373872	-0.0008739485819618694	0.0002360101959027628	-0	1.18180840045469	0	0.08956897502811423	-0.003450832479612115	0.001971876005420016	-0	0.7594386161682725	0	-0.09478689634274365	0	1.855264640655218e-17	0	0	-8.620951898877211e-22	0
0.01104264634716516	-0.001436911600992013	0.0003960017906909022	-0	1.194010440005785	0	0.08956897486322507	-0.004022106671937076	0.002210819802384477	-0	0.7659953589278149	0	-0.09478689634274365	0	-1.624674007655658e-16	0	0	1.47429232725064e-21	0
0.01380330793395645	-0.002311543492921234	0.0006511971819113371	-0	1.205964076096336	0	0.08956897223451835	-0.004530949307774288	0.002403734276533727	-0	0.7727523658925821	0	-0.09478689634274365	0	-8.679261478748978e-15	0	0	-1.979981867453215e-20	0
0.01656396952074774	-0.003691658043591621	0.001064653542703928	-0	1.217618034688951	0	0.08956889107286804	-0.005177306450644445	0.002660012425245131	-0	0.7796738527129036	0	-0.09478689634274363	0	-6.100952650269384e-13	0	0	2.578530992636059e-20	0
0.01932463110753904	-0.005932172651183583	0.001753534268292396	-0	1.228962952912562	0	0.08956984495396887	-0.006103269274770002	0.003046788497589167	-0	0.7867292249241693	0	-0.09478689634274365	0	1.271875716580527e-11	0	0	3.583640355528769e-20	0
0.02208529269433033	-0.009701144630169736	0.002941991752765907	-0	1.239967836068504	0	0.08957173758496814	-0.007400462681185034	0.003600094635580306	-0	0.7938996980184182	0	-0.09478689634274366	0	7.541960372712888e-11	0	0	-1.017493110658355e-19	0
0.02484595428112162	-0.01628577261261349	0.005069935032152896	-0	1.25050760333367	0	0.08957122505059673	-0.009160453113219192	0.004354384685199215	-0	0.8011753730909044	0	-0.09478689634274365	0	1.107262467477745e-10	0	0	-2.054244681222844e-21	0
0.02760661586791291	-0.02827140565399226	0.009037374157658483	-0	1.260642480412372	0	0.08957054929145786	-0.011522705418331	0.005364799147763306	-0	0.808557485452693	0	-0.09478689634274366	0	1.377259786772623e-10	0	0	-2.675043905271316e-19	0
0.0303672774547042	-0.05101516065749921	0.01674575827397057	-0	1.270381046135604	0	0.08957005583429842	-0.01465442214989741	0.006696762520558927	-0	0.8160497094113529	0	-0.09478689634274366	0	1.679284345751142e-10	0	0	-1.520682137406955e-19	0
0.03312793904149549	-0.09605548844728933	0.03237386876005798	-0	1.279723025852247	0	0.08956973721785072	-0.01875836746268742	0.008430666132131087	-0	0.8236501943625467	0	-0.09478689634274365	0	2.120028435783177e-10	0	0	5.047959419099861e-20	0
0.03588860062828678	-0.1891675321761376	0.06544726615529244	-0	1.288669574293838	0	0.08956953898890066	-0.02405208832870848	0.01065184901937388	-0	0.8313572407297042	0	-0.09478689634274365	0	2.84515940731919e-10	0	0	-2.113766830567972e-19	0
0.03864926221507808	-0.3898550422895271	0.1384061635181963	-0	1.297227805546191	0	0.08956941800948252	-0.03077083658036754	0.01345192737414274	-0	0.839168569099234	0	-0.09478689634274365	0	4.104537212913777e-10	0	0	-7.341047516933171e-20	0
0.04140992380186937	-0.839581829943018	0.3056944616286634	-0	1.305408493755131	0	0.08956934715715612	-0.03916324094875667	0.01692731817202965	-0	0.8470828611766623	0	-0.09478689634274365	0	6.371992676806384e-10	0	0	-2.139054807857499e-19	0
0.04417058538866066	-1.881454565038242	0.7021232220095881	-0	1.313225474779269	0	0.08956931208709992	-0.04966086001873623	0.02124959269936838	-0	0.8550980810603441	0	-0.09478689634274363	0	1.051361223661501e-09	0	0	1.087523285616252e-18	0
0.04693124697545194	-4.352101199446629	1.663519453431675	-0	1.320694632764456	0	0.08956930739507674	-0.06290167198958378	0.02667376247956285	-0	0.8632092542229135	0	-0.09478689634274365	0	1.77648712038521e-09	0	0	-3.605933531172964e-19	0
0.04969190856224324	-10.24577223907481	4.011622269626977	-0	1.327819486331368	0	0.08956933917018609	-0.07972200186033634	0.03353923055587404	-0	0.8714032348045011	0	-0.09478689634274365	0	2.67247549948638e-09	0	0	-2.73366014559599e-19	0
0.05245257014903452	-23.95298568668355	9.620968753176665	-0	1.334600256161673	0	0.08956943247883699	-0.1012784496223536	0.04232051207763826	-0	0.8796644651089383	0	-0.09478689634274365	0	8.801809045806968e-10	0	0	-7.498392346087546e-19	0
0.05521323173582582	-53.15986343059002	22.02399760778003	-0	1.340990746998294	0	0.08956968054854168	-0.1293573633244671	0.05375732860328186	-0	0.8879735228567721	0	-0.09478689634274365	0	-2.970255921308879e-08	0	0	5.717361902746493e-19	0
0.05797389332261711	-103.8235129918647	44.88179251288104	-0	1.346951869239588	0	0.0895704628288969	-0.16668415689531	0.06898125933016157	-0	0.8963097837611534	0	-0.09478689634274365	0	-3.249828384757679e-07	0	0	-3.546116053055046e-19	0
0.0607345549094084	-188.8637677481142	87.24584129306467	-0	1.352419077741598	0	0.08957336701903626	-0.217322335926944	0.08967416904461255	-0	0.9046547754127547	0	-0.09478689634274363	0	-3.604307608712086e-06	0	0	2.840027347937199e-18	0
0.06349521649619969	-423.900115584916	224.5724200004945	-0	1.357538017424467	0	0.08958523953642969	-0.2870394172416588	0.118224753220874	-0	0.9129914441380585	0	-0.09478689634274365	0	-7.031826485135065e-05	0	0	3.184852367688676e-19	0
0.06625587808299098	-752.5298075579069	543.3440841929394	-0	1.365849016116618	0	0.08972522271740466	-0.3821773752439472	0.1571889055729386	-0	0.9213273840838504	0	-0.09478689634274365	0	-0.002833999725778451	0	0	-1.451396044193356e-18	0
0.06901653966978227	-866.8503379715579	1351.101854854464	-0	1.405213982677646	0	0.09096476404438045	-0.5100211868194294	0.2092895500712502	-0	0.9296915779581051	0	-0.09478689634274365	0	-0.3039770675907008	0	0	-1.041645152542295e-18	0
0.07177720125657357	-931.4908737420062	3002.589369202593	-0	1.426605966028958	0	0.09168201950893465	-0.671407558756552	0.2740556279436167	-0	0.9381677083335822	0	-0.09478689634274365	0	-0.0529688332507487	0	0	-6.776594637370483e-19	0
0.07453786284336486	-839.5844799753725	3386.753848328011	-0	1.396717051478252	0	0.09062688848178238	-0.8509554936073135	0.343519955323154	-0	0.946879857566466	0	-0.09478689634274365	0	0.0941891749230129	0	0	5.156582189636096e-18	0
0.07729852443015615	-308.4076929291508	3859.009312604197	-0	1.397381851022704	0	0.09061989324571705	-1.013894153431898	0.4014104609855044	-0	0.9560102159181449	0	-0.09478689634274365	0	0.1406656763429442	0	0	2.794981029360234e-18	0
0.08005918601694745	-677.1190824789446	3936.177723326962	-0	1.397144940300519	0	0.09065187805483055	-1.108981095083409	0.4271369785989494	-0	0.9657167378203422	0	-0.09478689634274365	0	0.1310759906777028	0	0	5.093971546487738e-19	0
0.08281984760373873	-233.703401045622	3773.197977362382	-0	1.402032888817945	0	0.09078786232929546	-1.104962364923039	0.412143552712243	-0	0.9760782338524746	0	-0.09478689634274365	0	0.07881346625918306	0	0	-1.671945445489381e-18	0
0.08558050919053002	-487.439349366668	3360.757484585931	-0	1.404236315081072	0	0.09089999555558838	-1.007330574447865	0.3634534567247326	-0	0.9871312702623107	0	-0.09478689634274366	0	0.03400922943198444	0	0	-8.985445113013298e-18	0
0.08834117077732132	-121.6899816022076	2940.232715391779	-0	1.414606727104086	0	0.09122092995603076	-0.8531091188054201	0.2982346719770835	-0	0.9988380734499678	0	-0.09478689634274365	0	-0.03794520418047172	0	0	6.163503065650798e-18	0
0.09110183236411261	-371.0540219063167	2474.616693889574	-0	1.424888556533208	0	0.0916245675970588	-0.6877139195727622	0.2337128468110771	-0	1.011136781786821	0	-0.09478689634274365	0	-0.08026435914920692	0	0	1.094730699932321e-18	0
0.0938624939509039	-146.1902521843396	2105.514328674149	-0	1.443845878338687	0	0.09225370731616102	-0.5414478810548995	0.1795890531940778	-0	1.023934302077519	0	-0.09478689634274366	0	-0.1041802744523995	0	0	-5.751329598943888e-18	0
0.09662315553769518	-357.8304683024557	1749.28056667989	-0	1.461141359787202	0	0.0929129378200816	-0.4282900628448601	0.1392260959659956	-0	1.037130228555956	0	-0.09478689634274365	0	-0.07772706066855073	0	0	-2.316359479192586e-18	0
0.09938381712448648	-214.7398383191472	1500.327187576286	-0	1.48405513818695	0	0.09369078687715302	-0.3474149226250086	0.1111366040894849	-0	1.050619478946813	0	-0.09478689634274365	0	-0.03974762409109463	0	0	2.621438835275916e-18	0
0.1021444787112778	-341.9793141806384	1259.381750843119	-0	1.502863745129695	0	0.09440297110203806	-0.2927926576535127	0.0925005234299159	-0	1.064303889316746	0	-0.09478689634274366	0	-0.007725076054905499	0	0	-2.394728180592011e-18	0
0.104905140298069	-249.2658473225823	1173.247758652547	-0	1.515375530113699	0	0.0948173400920939	-0.2545255192166832	0.0795945750697809	-0	1.078129529516259	0	-0.09478689634274365	0	8.713830528990793e-05	0	0	-1.426339553415564e-18	0
0.1076658018848603	-300.5688150945529	1120.828039480578	-0	1.513995360448202	0	0.09478838045108891	-0.2259150422235432	0.07000330270175847	-0	1.092069139914242	0	-0.09478689634274365	0	-2.219580370400877e-05	0	0	-7.379136563644434e-19	0
0.1104264634716516	-226.6619284888624	1091.993546761854	-0	1.514822470340522	0	0.0947869343547549	-0.2027506918541425	0.06226212951599244	-0	1.106128821226229	0	-0.09478689634274365	0	-1.229380046834738e-06	0	0	-1.341450088276473e-20	0
0.1131871250584429	-238.2073045702939	1006.964005141722	-0	1.51457653095436	0	0.0947868979194792	-0.183144016076609	0.05572133320019812	-0	1.120319858806007	0	-0.09478689634274365	0	-7.047279709312359e-08	0	0	-3.973960198695969e-19	0
0.1159477866452342	-184.6489984817006	963.2650848574149	-0	1.515277226326951	0	0.09478689640257879	-0.166968989313519	0.05033639936538294	-0	1.13463692335745	0	-0.09478689634274363	0	-3.489162190860301e-09	0	0	3.696987595150038e-18	0
0.1187084482320255	-181.6781127778091	887.3619914062739	-0	1.515234486184695	0	0.09478689634622564	-0.154015272975725	0.04602305167075937	-0	1.149070284153542	0	-0.09478689634274366	0	-2.319010842280412e-10	0	0	-2.247179641010558e-18	0
0.1214691098188168	-145.570669268794	858.1636461365811	-0	1.515818037636194	0	0.09478689634292183	-0.1436884968318821	0.04257001619191558	-0	1.163615131414286	0	-0.09478689634274365	0	-1.41841718659321e-11	0	0	4.313576678255321e-19	0
0.1242297714056081	-140.7379851085115	808.2599379908017	-0	1.515881046111348	0	0.09478689634275575	-0.1355258259692587	0.03981457919824901	-0	1.178269281094106	0	-0.09478689634274365	0	-1.072660137715597e-12	0	0	-6.031871746762586e-19	0
0.1269904329923994	-116.08761042632	789.1972101003755	-0	1.516354396766216	0	0.09478689634274438	-0.1292720909635129	0.03766745483913748	-0	1.193027012463449	0	-0.09478689634274365	0	-7.526782411741578e-14	0	0	-2.900123818130279e-19	0
0.1297510945791907	-109.8848136688843	751.8789642526456	-0	1.516480087016668	0	0.0947868963427437	-0.1247523970874294	0.03606523906724891	-0	1.207881099544507	0	-0.09478689634274365	0	-5.913177522144223e-15	0	0	7.988234255626209e-19	0
0.132511756165982	-91.13621019380417	737.1626609201062	-0	1.51688427979945	0	0.09478689634274365	-0.121826556782402	0.03495542441175721	-0	1.222823681722498	0	-0.09478689634274365	0	-1.11143200521988e-15	0	0	5.785387340970984e-19	0
0.1352724177527733	-84.77043259524436	708.752188352146	-0	1.517039589283856	0	0.09478689634274365	-0.1203925582098323	0.03429747172327518	-0	1.23784754474435	0	-0.09478689634274365	0	1.013055413620341e-15	0	0	6.576566389828933e-19	0
0.1380330793395645	-69.74552522479419	696.3496554146192	-0	1.517391198039319	0	0.09478689634274365	-0.1203608513584487	0.03405435641994112	-0	1.252948060663704	0	-0.09478689634274365	0	-1.21247125877423e-16	0	0	-3.724170653130374e-19	0
0.1407937409263558	-63.51546099200891	673.6978459253262	-0	1.517558949274184	0	0.09478689634274365	-0.1216688068353624	0.03419831267520972	-0	1.26812187760996	0	-0.09478689634274365	0	-3.268802495772607e-16	0	0	5.646767154084843e-19	0
0.1435544025131471	-50.97172510332414	662.3652948308575	-0	1.517869625562069	0	0.09478689634274365	-0.1242504329398015	0.03470258187260358	-0	1.283367063745327	0	-0.09478689634274365	0	-1.78212585577751e-16	0	0	-6.298469435249252e-19	0
0.1463150640999384	-44.95598999478795	643.4596698899073	-0	1.518040830604341	0	0.09478689634274365	-0.1280524842252096	0.03554532117388048	-0	1.298682440981109	0	-0.09478689634274365	0	-3.45627464553029e-16	0	0	4.535500803800215e-19	0
0.1490757256867297	-34.22213846478168	632.3502647268984	-0	1.518317624290962	0	0.09478689634274365	-0.1330299180266444	0.03670838936362973	-0	1.314067619788356	0	-0.09478689634274365	0	-8.373554642054884e-17	0	0	4.176858480960424e-19	0
0.151836387273521	-28.40665652486313	615.666056885092	-0	1.51848798465006	0	0.09478689634274365	-0.1391390343828508	0.03817478986882178	-0	1.329522715074477	0	-0.09478689634274365	0	-1.426744379596617e-16	0	0	1.314928678980222e-19	0
0.1545970488603123	-19.03621618985593	604.2761842631089	-0	1.518737178709419	0	0.09478689634274365	-0.146334593635508	0.03992764921330352	-0	1.345048622338317	0	-0.09478689634274365	0	7.186512711596182e-17	0	0	4.075975205131435e-19	0
0.1573577104471036	-13.37649725348569	588.8131060807434	-0	1.518905444219794	0	0.09478689634274365	-0.1545539787086174	0.04194602920750889	-0	1.360646602239116	0	-0.09478689634274363	0	8.11701685881688e-18	0	0	2.371110890083206e-18	0
0.1601183720338949	-5.06301832975641	576.8304277412514	-0	1.519132477157408	0	0.09478689634274365	-0.1637002088161597	0.04420055513233589	-0	1.376318255207897	0	-0.09478689634274365	0	2.581465215009135e-17	0	0	-5.426522818557549e-19	0
0.1628790336206861	0.4352198362206647	561.7768669500745	-0	1.519297867566748	0	0.09478689634274365	-0.1736423287036342	0.0466536674921089	-0	1.392065344587741	0	-0.09478689634274365	0	-2.473733385763221e-18	0	0	-5.885523146787417e-19	0
0.1656396952074775	7.823504376206637	548.7545071437061	-0	1.519505754314896	0	0.09478689634274365	-0.184233692222096	0.04926470450078326	-0	1.407889518566517	0	-0.09478689634274365	0	-1.39885934102285e-17	0	0	-1.545814806771922e-18	0
0.1684003567942687	13.06025537660234	533.2777633560939	-0	1.519666815369627	0	0.09478689634274365	-0.1952994908530193	0.05198657582102492	-0	1.423792183777276	0	-0.09478689634274365	0	-3.828275646352414e-17	0	0	-4.29951859455785e-20	0
0.17116101838106	19.57438124113233	518.7972583336668	-0	1.519858109899196	0	0.09478689634274365	-0.2066515953154568	0.05476987516945062	-0	1.439774100967549	0	-0.09478689634274365	0	4.667661426617557e-17	0	0	1.49596811000066e-18	0
0.1739216799678513	24.42410165346152	502.322344639645	-0	1.520014006459097	0	0.09478689634274365	-0.2181504493288691	0.05757866378956961	-0	1.455835715864328	0	-0.09478689634274365	0	-4.970861085378251e-17	0	0	3.764870453444579e-19	0
0.1766823415546426	30.05298601922236	486.1872779978972	-0	1.520190694696004	0	0.09478689634274365	-0.2299816898695747	0.06046137843130295	-0	1.471976244457219	0	-0.09478689634274365	0	-9.4082158567297e-17	0	0	-1.480295291524984e-18	0
0.1794430031414339	34.33978836590005	468.4029294014704	-0	1.520340046488773	0	0.09478689634274365	-0.2424794752909643	0.06350425124983956	-0	1.488193362010155	0	-0.09478689634274365	0	-4.837457600339636e-17	0	0	-3.169118493321298e-20	0
0.1822036647282252	38.98371129170899	450.5161439837707	-0	1.520502459511741	0	0.09478689634274365	-0.2560288541021585	0.06680729256938182	-0	1.504481821603194	0	-0.09478689634274365	0	6.480414955129062e-17	0	0	-1.210121581077183e-18	0
0.1849643263150165	42.50113754523433	431.2203717890546	-0	1.520643490177481	0	0.09478689634274365	-0.2708543018747052	0.07042279854288094	-0	1.520838125700481	0	-0.09478689634274365	0	1.155686170103271e-16	0	0	-1.469889744298808e-18	0
0.1877249879018078	46.06575527535571	411.4758688729949	-0	1.520792576312995	0	0.09478689634274365	-0.2868051533996555	0.07429872963242518	-0	1.537265241020275	0	-0.09478689634274365	0	-1.356266431597798e-16	0	0	-3.528791483986293e-19	0
0.1904856494885991	48.70316565741297	390.3689057913044	-0	1.520926951871922	0	0.09478689634274365	-0.3032932537476782	0.07826951529145174	-0	1.553770006784159	0	-0.09478689634274365	0	5.192633485837413e-17	0	0	-1.609721484939784e-18	0
0.1932463110753904	51.2630297727082	368.4882285493879	-0	1.521069988930094	0	0.09478689634274365	-0.3193732280549123	0.08209176150058059	-0	1.570359860073155	0	-0.09478689634274365	0	-6.80580331610914e-17	0	0	-7.804363697834029e-19	0
0.1960069726621816	53.01208917027784	345.3168938682666	-0	1.521203928781295	0	0.09478689634274366	-0.3343115509098579	0.08559104338353163	-0	1.58703864694755	0	-0.09478689634274363	0	-1.042544388361544e-15	0	0	3.928739892423285e-18	0
0.198767634248973	54.31359789067808	321.2963977267058	-0	1.521339752058122	0	0.09478689634274365	-0.3477420936772742	0.08869223018638164	-0	1.603804455085792	0	-0.09478689634274365	0	5.388540661565519e-17	0	0	1.439978491721352e-18	0
0.2015282958357642	54.67998692033508	296.1885674201881	-0	1.521464798533513	0	0.09478689634274365	-0.3592043586667699	0.09129347407246931	-0	1.620654058034958	0	-0.09478689634274365	0	-1.91603560108177e-16	0	0	8.029757350147075e-20	0
0.2042889574225555	54.35707564823034	270.3200173179404	-0	1.521587287916273	0	0.09478689634274365	-0.3673706642582385	0.09306215822322507	-0	1.63758883246337	0	-0.09478689634274365	0	2.619261789388933e-16	0	0	9.486547974559696e-19	0
0.2070496190093468	52.85527604457847	243.3574723615851	-0	1.52169330162238	0	0.09478689634274365	-0.3712892915250135	0.09377049635081612	-0	1.654611129034354	0	-0.09478689634274365	0	3.080850635721771e-16	0	0	-3.119164845676355e-18	0
0.2098102805961381	50.13905176877063	215.1328103898594	-0	1.521783871481102	0	0.09478689634274365	-0.3728313174406623	0.09392190567752023	-0	1.671707445441293	0	-0.09478689634274365	0	4.555503738486851e-17	0	0	2.920381687691017e-18	0
0.2125709421829294	46.27847371547804	185.8915964566984	-0	1.521861103236972	0	0.09478689634274365	-0.3745965177931389	0.09418938050580716	-0	1.688854973164734	0	-0.09478689634274365	0	3.109425458088049e-16	0	0	-1.680619058242846e-18	0
0.2153316037697207	41.49228110268858	156.2772330954212	-0	1.521929688155518	0	0.09478689634274365	-0.3782441810665416	0.09498568206489134	-0	1.706028199106764	0	-0.09478689634274365	0	-1.274033526832727e-16	0	0	-1.839153611941062e-19	0
0.218092265356512	36.19033423100798	127.3081629563143	-0	1.522001537760566	0	0.09478689634274365	-0.3847208165842285	0.09653709795321018	-0	1.723205140550237	0	-0.09478689634274363	0	-8.213663715466115e-17	0	0	4.696641651313789e-18	0
0.2208529269433033	30.96987871070931	100.4737524273859	-0	1.52209703896274	0	0.09478689634274365	-0.3930006213364793	0.09856392449753308	-0	1.740378970464041	0	-0.09478689634274366	0	-1.222656993611128e-16	0	0	-7.79165398825786e-18	0
0.2236135885300946	25.6567597577213	76.06540756238566	-0	1.522206544130542	0	0.09478689634274365	-0.4016115656327521	0.1006804994120181	-0	1.757550680597012	0	-0.09478689634274366	0	1.841026634085044e-17	0	0	-7.824764138914813e-18	0
0.2263742501168858	20.16069704159811	53.9278110377354	-0	1.52233857620232	0	0.09478689634274365	-0.4095930578666812	0.102645219523548	-0	1.774725446221668	0	-0.09478689634274365	0	-6.732660626088339e-17	0	0	9.193781725563217e-19	0
0.2291349117036771	7.507798621857658	20.98759517153453	-0	1.522022584637985	0	0.09478689634274365	-0.4160516079358809	0.1042366408278066	-0	1.791907846681897	0	-0.09478689634274365	0	4.086264524473148e-17	0	0	3.131126087430291e-18	0
0.2318955732904684	0.004623878617372419	-0.01901747745183677	-0	1.517822070285755	0	0.09478689634274365	-0.4204055451940387	0.1053157758014032	-0	1.809100286526467	0	-0.09478689634270356	0	-1.31347938683943e-21	0	0	3.174718025663137e-16	0
0.2346562348772597	6.820519378571776e-10	-7.019276910764294e-10	-0	1.514200614342516	0	0.09478689634274365	-0.4219207326297774	0.1056986287537202	-0	1.826304760877853	0	-0.09478689634259253	0	-3.69784637749308e-27	0	0	1.147102253177239e-15	0
0.237416896464051	-0	-0	-0	0	0	0	-0.4171697906825857	0.1045045081760263	-0	1.843538221631901	0	-0.09478689634216787	0	0	0	0	4.090998953414728e-15	0
0.2401775580508423	-0	-0	-0	0	0	0	-0.40108027664969	0.1004416652955281	-0	1.86082954115445	0	-0.09478689634056589	0	0	0	0	1.411846660042878e-14	0
0.2429382196376336	-0	-0	-0	0	0	0	-0.3679941126782852	0.0920882168478467	-0	1.87822641526716	0	-0.09478689633432824	0	0	0	0	4.765685161181667e-14	0
0.2456988812244249	-0	-0	-0	0	0	0	-0.3159327206212543	0.07897011091186454	-0	1.895780989248482	0	-0.09478689630832814	0	0	0	0	1.597984637002931e-13	0
0.2484595428112162	-0	-0	-0	0	0	0	-0.2508242232424484	0.06261599414181365	-0	1.913529888417422	0	-0.09478689619393137	0	0	0	0	5.231519140083184e-13	0
0.2512202043980075	-0	-0	-0	0	0	0	-0.1822291515964858	0.04543981901727449	-0	1.931495669350775	0	-0.09478689565765906	0	0	0	0	1.658825640381225e-12	0
0.2539808659847988	-0	-0	-0	0	0	0	-0.1198269921765121	0.02985441263402642	-0	1.949680610180966	0	-0.09478689296663001	0	0	0	0	5.048436874510022e-12	0
0.25674152757159	-0	-0	-0	0	0	0	-0.06995875781105837	0.01742248542526496	-0	1.968079295190794	0	-0.09478687829163933	0	0	0	0	1.462340866388542e-11	0
0.2595021891583814	-0	-0	-0	0	0	0	-0.0343740522496799	0.008560333302094865	-0	1.986682373679342	0	-0.09478678651225987	0	0	0	0	4.003050878562279e-11	0
0.2622628507451726	-0	-0	-0	0	0	0	-0.01172993207880057	0.002922496702035872	-0	2.005468644070695	0	-0.09478598031956854	0	0	0	0	1.028030024389312e-10	0
0.2650235123319639	1.472835131192276e-16	-1.153708722937547e-16	-0	0	0	0	0.0001409976842406555	-3.516219642237452e-05	-0	2.028546203708575	0	-0.09499206100664294	0	1.396054709102735e-17	0	0	2.554622841806349e-10	0
0.2677841739187552	1.1515255999416e-14	-8.639560326918457e-15	-0	0	0	0	2.438329932722669e-05	-6.073005660396325e-06	-0	2.107054682848159	0	-0.09779939124942157	0	1.091495376776801e-15	0	0	8.542257592736518e-10	0
0.2705448355055465	3.571817180416139e-12	-2.557711544834445e-12	-0	1.558772663899441	0	0.09478689634274365	-3.256466951700662e-05	8.238749515001941e-06	-0	1.945355173085588	0	-0.08951101806478781	0	-1.733877002914597e-29	0	0	-1.2051154106018e-11	0
0.2733054970923378	2.637466001416851e-09	-1.799663510317594e-09	-0	1.563959973518235	0	0.09478689634274365	-7.263703241864614e-05	1.850541931345562e-05	-0	1.959543158251758	0	-0.08956870610563916	0	2.37826155508547e-26	0	0	-1.001832203633511e-13	0
0.2760661586791291	2.198954814857885e-06	-1.430768955046812e-06	-0	1.569468432786193	0	0.09478689634274365	-0.0001491102107391963	3.83816686028309e-05	-0	1.972357457127907	0	-0.08956897181771803	0	1.321570458845962e-23	0	0	-1.896207270708638e-15	0
0.2788268202659204	4.689778850557145e-05	-2.916669199779426e-05	-0	1.575258119214211	0	0.09478689634274365	-0.000285242557645145	7.441689809386256e-05	-0	1.985046142343985	0	-0.08956897490320302	0	-2.598337195009863e-22	0	0	-1.337451242781837e-16	0
0.2815874818527117	-0.002408767620386988	0.001434729106697311	-0	1.581315684734472	0	0.09478689634274365	-0.0005122843029045752	0.0001358232734416387	-0	1.997605072538835	0	-0.08956897503364208	0	1.228712213834927e-20	0	0	-3.466454312604952e-17	0
0.284348143439503	-0.003450832479612099	0.001971876005420007	-0	1.587637092205662	0	0.09478689634274365	-0.0008739485819618669	0.0002360101959027622	-0	2.01000687649208	0	-0.08956897502811423	0	-1.532646066131938e-20	0	0	-1.855968435038595e-17	0
0.2871088050262943	-0.004022106671937063	0.002210819802384469	-0	1.594193834965205	0	0.09478689634274365	-0.001436911600992009	0.0003960017906909013	-0	2.022208916043176	0	-0.08956897486322507	0	-1.586411975054584e-20	0	0	1.624723170960758e-16	0
0.2898694666130855	-0.004530949307774274	0.002403734276533719	-0	1.600950841929972	0	0.09478689634274365	-0.002311543492921227	0.000651197181911335	-0	2.034162552133726	0	-0.08956897223451833	0	5.409991251236947e-21	0	0	8.679276285446409e-15	0
0.2926301281998768	-0.005177306450644427	0.002660012425245122	-0	1.607872328750294	0	0.09478689634274365	-0.003691658043591609	0.001064653542703924	-0	2.045816510726341	0	-0.08956889107286804	0	-5.413756101777576e-20	0	0	6.100952838313665e-13	0
0.2953907897866681	-0.006103269274769983	0.003046788497589157	-0	1.614927700961559	0	0.09478689634274365	-0.005932172651183562	0.00175353426829239	-0	2.057161428949952	0	-0.08956984495396889	0	2.479338246013828e-20	0	0	-1.271875733514766e-11	0
0.2981514513734594	-0.00740046268118501	0.003600094635580294	-0	1.622098174055808	0	0.09478689634274365	-0.009701144630169717	0.002941991752765901	-0	2.068166312105894	0	-0.08957173758496814	0	-5.234062779224832e-20	0	0	-7.541960375264821e-11	0
0.3009121129602507	-0.009160453113219155	0.004354384685199199	-0	1.629373849128294	0	0.09478689634274365	-0.01628577261261345	0.005069935032152884	-0	2.078706079371059	0	-0.08957122505059673	0	1.849105631934816e-20	0	0	-1.107262467049105e-10	0
0.303672774547042	-0.01152270541833096	0.005364799147763288	-0	1.636755961490083	0	0.09478689634274366	-0.02827140565399215	0.009037374157658444	-0	2.088840956449762	0	-0.08957054929145784	0	1.195121478645188e-19	0	0	-1.377259780044889e-10	0
0.3064334361338333	-0.01465442214989735	0.006696762520558903	-0	1.644248185448743	0	0.09478689634274365	-0.05101516065749896	0.0167457582739705	-0	2.098579522172993	0	-0.08957005583429842	0	1.079783775022032e-19	0	0	-1.679284347519033e-10	0
0.3091940977206246	-0.01875836746277034	0.008430666132168354	-0	1.651848670399936	0	0.09478689634274365	-0.09605548844728898	0.03237386876005786	-0	2.107921501889638	0	-0.08956973721785073	0	-5.209047495848129e-20	0	0	-2.120028450606328e-10	0
0.3119547593074159	-0.02405208832870839	0.01065184901937384	-0	1.659555716767094	0	0.09478689634274363	-0.1891675321761368	0.06544726615529216	-0	2.116868050331229	0	-0.08956953898890067	0	-4.327874078523482e-19	0	0	-2.845159441199625e-10	0
0.3147154208942072	-0.03077083658036742	0.01345192737414269	-0	1.667367045136624	0	0.09478689634274363	-0.3898550422895253	0.1384061635181956	-0	2.12542628158358	0	-0.08956941800948252	0	-5.879518727643259e-19	0	0	-4.104537267507906e-10	0
0.3174760824809985	-0.03916324094875649	0.01692731817202957	-0	1.675281337214052	0	0.09478689634274365	-0.8395818299430128	0.3056944616286615	-0	2.133606969792522	0	-0.08956934715715612	0	2.683772428291222e-20	0	0	-6.371992721482517e-10	0
0.3202367440677897	-0.04966086001873599	0.02124959269936828	-0	1.683296557097734	0	0.09478689634274366	-1.881454565038231	0.7021232220095838	-0	2.141423950816659	0	-0.08956931208709992	0	6.895417933545775e-19	0	0	-1.051361216421908e-09	0
0.322997405654581	-0.06290167198958346	0.02667376247956272	-0	1.691407730260304	0	0.09478689634274363	-4.352101199446734	1.663519453431715	-0	2.148893108801845	0	-0.08956930739507674	0	-1.276989603240881e-18	0	0	-1.776487126316708e-09	0
0.3257580672413724	-0.07972200186033604	0.03353923055587392	-0	1.699601710841891	0	0.09478689634274365	-10.24577223907504	4.01162226962707	-0	2.156017962368758	0	-0.08956933917018609	0	-4.321018875289545e-20	0	0	-2.672475503556811e-09	0
0.3285187288281636	-0.1012784496223532	0.04232051207763808	-0	1.707862941146328	0	0.09478689634274365	-23.9529856866841	9.620968753176886	-0	2.162798732199064	0	-0.08956943247883699	0	-5.492173260785051e-19	0	0	-8.801810598080006e-10	0
0.3312793904149549	-0.1293573633244665	0.05375732860328159	-0	1.716171998894162	0	0.09478689634274365	-53.15986343059093	22.02399760778041	-0	2.169189223035684	0	-0.08956968054854168	0	-3.663065137578251e-19	0	0	2.970255946235351e-08	0
0.3340400520017462	-0.1666841568953093	0.06898125933016126	-0	1.724508259798543	0	0.09478689634274365	-103.823512991866	44.88179251288159	-0	2.175150345276978	0	-0.08957046282889689	0	1.341064055270961e-18	0	0	3.249828398142801e-07	0
0.3368007135885375	-0.2173223359269429	0.0896741690446121	-0	1.732853251450145	0	0.09478689634274365	-188.8637677481169	87.24584129306595	-0	2.180617553778988	0	-0.08957336701903626	0	8.17022507761873e-19	0	0	3.604307606903994e-06	0
0.3395613751753288	-0.2870394172416573	0.1182247532208734	-0	1.741189920175449	0	0.09478689634274365	-423.9001155849234	224.5724200004984	-0	2.185736493461857	0	-0.0895852395364297	0	1.654419663162045e-18	0	0	7.031826484936186e-05	0
0.3423220367621201	-0.3821773752439451	0.1571889055729377	-0	1.74952586012124	0	0.09478689634274365	-752.5298075579152	543.3440841929453	-0	2.194047492154008	0	-0.08972522271740466	0	-2.528140509817503e-18	0	0	0.002833999725772774	0
0.3450826983489114	-0.5100211868194264	0.209289550071249	-0	1.757890053995495	0	0.09478689634274365	-866.8503379715698	1351.101854854479	-0	2.233412458715036	0	-0.09096476404438046	0	1.402889381064146e-18	0	0	0.3039770675906971	0
0.3478433599357026	-0.6714075587566022	0.2740556279436372	-0	1.766366184370971	0	0.09478689634274365	-931.4908737420136	3002.589369202613	-0	2.254804442066348	0	-0.09168201950893463	0	-2.799875804885322e-18	0	0	0.05296883325075204	0
0.3506040215224939	-0.8509554936073082	0.3435199553231518	-0	1.775078333603856	0	0.09478689634274365	-839.584479975375	3386.753848328031	-0	2.224915527515642	0	-0.09062688848178239	0	3.195511887633003e-18	0	0	-0.09418917492302384	0
0.3533646831092853	-1.013894153431937	0.40141046098552	-0	1.784208691955535	0	0.09478689634274363	-308.4076929291503	3859.009312604213	-0	2.225580327060093	0	-0.09061989324571704	0	-1.797719834971641e-17	0	0	-0.1406656763429378	0
0.3561253446960765	-1.108981095083402	0.4271369785989466	-0	1.793915213857733	0	0.09478689634274365	-677.119082478946	3936.177723326978	-0	2.22534341633791	0	-0.09065187805483052	0	-7.078576526959665e-19	0	0	-0.1310759906776798	0
0.3588860062828678	-1.104962364923067	0.4121435527122533	-0	1.804276709889865	0	0.09478689634274365	-233.7034010456223	3773.197977362396	-0	2.230231364855335	0	-0.09078786232929545	0	-4.242869227456353e-18	0	0	-0.07881346625917462	0
0.3616466678696591	-1.007330574447889	0.3634534567247413	-0	1.815329746299701	0	0.09478689634274365	-487.4393493666694	3360.757484585942	-0	2.232434791118462	0	-0.09089999555558839	0	5.993759128141634e-18	0	0	-0.03400922943198539	0
0.3644073294564504	-0.8531091188054422	0.2982346719770912	-0	1.827036549487358	0	0.09478689634274365	-121.6899816022083	2940.232715391789	-0	2.242805203141476	0	-0.09122092995603076	0	6.336761336374324e-18	0	0	0.03794520418047249	0
0.3671679910432417	-0.6877139195727826	0.2337128468110841	-0	1.839335257824211	0	0.09478689634274365	-371.0540219063186	2474.616693889583	-0	2.253087032570598	0	-0.09162456759705878	0	6.209307459343762e-18	0	0	0.08026435914921783	0
0.369928652630033	-0.5414478810549201	0.1795890531940846	-0	1.85213277811491	0	0.09478689634274365	-146.1902521843408	2105.514328674156	-0	2.272044354376077	0	-0.09225370731616102	0	-1.16738770918519e-18	0	0	0.1041802744523995	0
0.3726893142168243	-0.4282900628448804	0.1392260959660022	-0	1.865328704593346	0	0.09478689634274365	-357.8304683024579	1749.280566679898	-0	2.289339835824592	0	-0.09291293782008159	0	-9.030618367785353e-19	0	0	0.07772706066855395	0
0.3754499758036156	-0.3474149226250304	0.1111366040894918	-0	1.878817954984203	0	0.09478689634274365	-214.7398383191488	1500.327187576293	-0	2.312253614224339	0	-0.093690786877153	0	-8.748711472707215e-19	0	0	0.0397476240910977	0
0.3782106373904068	-0.2927926576535109	0.09250052342991534	-0	1.892502365354136	0	0.09478689634274365	-341.9793141806391	1259.38175084312	-0	2.331062221167086	0	-0.09440297110203807	0	1.636127014045954e-18	0	0	0.007725076054909152	0
0.3809712989771982	-0.2545255192167096	0.07959457506978916	-0	1.906328005553649	0	0.09478689634274365	-249.2658473225832	1173.247758652548	-0	2.343574006151088	0	-0.09481734009209389	0	-7.232874339292697e-19	0	0	-8.713830528827726e-05	0
0.3837319605639894	-0.2259150422235725	0.07000330270176755	-0	1.920267615951632	0	0.09478689634274365	-300.5688150945541	1120.828039480581	-0	2.342193836485593	0	-0.09478838045108889	0	7.427886899231993e-19	0	0	2.219580371043417e-05	0
0.3864926221507807	-0.2027506918541411	0.06226212951599201	-0	1.934327297263619	0	0.09478689634274365	-226.6619284888637	1091.993546761857	-0	2.343020946377912	0	-0.0947869343547549	0	-5.294268486117617e-19	0	0	1.229380048114116e-06	0
0.389253283737572	-0.183144016076608	0.05572133320019781	-0	1.948518334843397	0	0.09478689634274365	-238.2073045702946	1006.964005141723	-0	2.342775006991749	0	-0.0947868979194792	0	1.999105285341554e-19	0	0	7.047279724454172e-08	0
0.3920139453243633	-0.1669689893135182	0.05033639936538269	-0	1.96283539939484	0	0.09478689634274365	-184.6489984817011	963.2650848574157	-0	2.343475702364341	0	-0.09478689640257879	0	3.300885227491274e-19	0	0	3.489160742744884e-09	0
0.3947746069111546	-0.1540152729757242	0.04602305167075914	-0	1.977268760190932	0	0.09478689634274365	-181.6781127778101	887.3619914062767	-0	2.343432962222086	0	-0.09478689634622563	0	-6.960419722137053e-19	0	0	2.319016858770868e-10	0
0.3975352684979459	-0.1436884968318814	0.04257001619191535	-0	1.991813607451676	0	0.09478689634274365	-145.5706692687951	858.1636461365854	-0	2.344016513673584	0	-0.09478689634292183	0	4.975354724467436e-19	0	0	1.418476940810878e-11	0
0.4002959300847372	-0.135525825969258	0.0398145791982488	-0	2.006467757131497	0	0.09478689634274365	-140.7379851085119	808.2599379908017	-0	2.344079522148739	0	-0.09478689634275575	0	7.51057541499902e-19	0	0	1.074023909423112e-12	0
0.4030565916715285	-0.1292720909635123	0.0376674548391373	-0	2.021225488500839	0	0.09478689634274365	-116.087610426321	789.1972101003798	-0	2.344552872803606	0	-0.09478689634274438	0	5.530013680230329e-19	0	0	7.641260178711917e-14	0
0.4058172532583197	-0.1247523970874288	0.03606523906724873	-0	2.036079575581897	0	0.09478689634274365	-109.8848136688849	751.8789642526473	-0	2.344678563054059	0	-0.09478689634274369	0	3.027476437891973e-19	0	0	8.566144424558464e-15	0
0.4085779148451111	-0.1218265567824014	0.03495542441175704	-0	2.051022157759889	0	0.09478689634274365	-91.13621019380508	737.1626609201106	-0	2.345082755836839	0	-0.09478689634274366	0	5.230323352547197e-19	0	0	-1.096388711471198e-15	0
0.4113385764319024	-0.1203925582098317	0.03429747172327501	-0	2.06604602078174	0	0.09478689634274365	-84.77043259524525	708.7521883521504	-0	2.345238065321246	0	-0.09478689634274365	0	4.439144303689249e-19	0	0	-6.09104330801773e-16	0
0.4140992380186936	-0.1203608513584478	0.03405435641994085	-0	2.081146536701095	0	0.09478689634274365	-69.7455252247951	696.349655414624	-0	2.345589674076709	0	-0.09478689634274366	0	-6.060911994710364e-19	0	0	-9.015397840498033e-16	0
0.4168598996054849	-0.1216688068353618	0.03419831267520956	-0	2.09632035364735	0	0.09478689634274365	-63.51546099200934	673.6978459253282	-0	2.345757425311574	0	-0.09478689634274365	0	-7.209787707693859e-19	0	0	-1.151752488663679e-16	0
0.4196205611922762	-0.1242504329398005	0.03470258187260331	-0	2.111565539782717	0	0.09478689634274365	-50.97172510332445	662.3652948308571	-0	2.346068101599458	0	-0.09478689634274365	0	4.899207618826645e-19	0	0	-3.606384598985475e-16	0
0.4223812227790675	-0.1280524842252085	0.03554532117388019	-0	2.126880917018499	0	0.09478689634274365	-44.95598999478857	643.4596698899094	-0	2.346239306641731	0	-0.09478689634274365	0	1.875465114263501e-19	0	0	-3.027205998309597e-16	0
0.4251418843658588	-0.1330299180266439	0.03670838936362959	-0	2.142266095825746	0	0.09478689634274365	-34.22213846478233	632.3502647269033	-0	2.346516100328351	0	-0.09478689634274365	0	7.990038406421374e-19	0	0	-1.499936746762858e-16	0
0.4279025459526501	-0.1391390343829239	0.03817478986884183	-0	2.157721191111866	0	0.09478689634274365	-28.40665652486353	615.6660568850908	-0	2.34668646068745	0	-0.09478689634274365	0	-6.537149449584008e-19	0	0	-5.523368063675426e-17	0
0.4306632075394414	-0.1463345936355069	0.03992764921330323	-0	2.173247098375708	0	0.09478689634274365	-19.03621618985643	604.2761842631103	-0	2.346935654746809	0	-0.09478689634274365	0	-6.626423215417659e-19	0	0	7.8537272808232e-17	0
0.4334238691262327	-0.1545539787086167	0.0419460292075087	-0	2.188845078276506	0	0.09478689634274365	-13.3764972534863	588.8131060807444	-0	2.347103920257184	0	-0.09478689634274365	0	7.60208881253916e-19	0	0	2.440391681374263e-17	0
0.436184530713024	-0.1637002088161594	0.04420055513233583	-0	2.204516731245286	0	0.09478689634274365	-5.063018329756858	576.8304277412532	-0	2.347330953194798	0	-0.09478689634274365	0	2.548557333898508e-19	0	0	9.627435565419001e-18	0
0.4389451922998152	-0.1736423287036333	0.04665366749210865	-0	2.220263820625132	0	0.09478689634274365	0.4352198362203831	561.7768669500733	-0	2.347496343604139	0	-0.09478689634274365	0	1.344767525871475e-18	0	0	-3.295271151569884e-18	0
0.4417058538866065	-0.1842336922221715	0.04926470450080343	-0	2.236087994603908	0	0.09478689634274365	7.82350437620625	548.7545071437077	-0	2.347704230352286	0	-0.09478689634274365	0	8.677781777065175e-19	0	0	-5.44782436218539e-17	0
0.4444665154733978	-0.1952994908530184	0.05198657582102469	-0	2.251990659814667	0	0.09478689634274365	13.06025537660233	533.2777633560935	-0	2.347865291407016	0	-0.09478689634274365	0	-1.716535852287128e-18	0	0	8.458441814387303e-17	0
0.4472271770601891	-0.2066515953154559	0.05476987516945037	-0	2.267972577004939	0	0.09478689634274365	19.574381241132	518.7972583336718	-0	2.348056585936586	0	-0.09478689634274365	0	-7.397528988079263e-19	0	0	5.85033801104384e-17	0
0.4499878386469804	-0.2181504493288679	0.05757866378956929	-0	2.284034191901719	0	0.09478689634274365	24.42410165346121	502.3223446396439	-0	2.348212482496487	0	-0.09478689634274365	0	9.880730102173652e-19	0	0	-1.523917314146055e-16	0
0.4527485002337717	-0.2299816898695742	0.06046137843130283	-0	2.300174720494609	0	0.09478689634274365	30.05298601922197	486.1872779978988	-0	2.348389170733394	0	-0.09478689634274365	0	-1.611044054832263e-18	0	0	-8.909077674766463e-17	0
0.455509161820563	-0.2424794752909632	0.06350425124983929	-0	2.316391838047545	0	0.09478689634274365	34.33978836589991	468.4029294014749	-0	2.348538522526163	0	-0.09478689634274365	0	6.727877767395846e-19	0	0	-9.897725681114653e-17	0
0.4582698234073543	-0.2560288541021571	0.06680729256938146	-0	2.332680297640584	0	0.09478689634274365	38.98371129170867	450.5161439837723	-0	2.348700935549131	0	-0.09478689634274365	0	1.50586231472447e-18	0	0	5.511102810677764e-17	0
0.4610304849941456	-0.2708543018747029	0.07042279854288036	-0	2.349036601737871	0	0.09478689634274365	42.50113754523375	431.2203717890532	-0	2.348841966214871	0	-0.09478689634274365	0	-8.324826434284242e-19	0	0	3.978794847159308e-16	0
0.4637911465809369	-0.2868051533996528	0.07429872963242452	-0	2.365463717057664	0	0.09478689634274365	46.06575527535525	411.4758688729964	-0	2.348991052350385	0	-0.09478689634274365	0	-6.17684931204062e-19	0	0	-3.358992218467574e-16	0
0.4665518081677281	-0.3032932537476765	0.07826951529145129	-0	2.381968482821549	0	0.09478689634274365	48.70316565741294	390.3689057913057	-0	2.349125427909311	0	-0.09478689634274365	0	-1.170578058556409e-19	0	0	-8.139670142128271e-17	0
0.4693124697545195	-0.3193732280549095	0.08209176150057985	-0	2.398558336110545	0	0.09478689634274365	51.26302977270869	368.4882285493927	-0	2.349268464967484	0	-0.09478689634274365	0	-4.203649485920116e-19	0	0	3.54377251446233e-16	0
0.4720731313413107	-0.3343115509098562	0.0855910433835312	-0	2.41523712298494	0	0.09478689634274365	53.01208917027752	345.3168938682679	-0	2.349402404818685	0	-0.09478689634274365	0	2.453432533963272e-18	0	0	1.973568446997989e-16	0
0.474833792928102	-0.3477420936772714	0.08869223018638095	-0	2.432002931123182	0	0.09478689634274365	54.31359789067757	321.2963977267066	-0	2.349538228095512	0	-0.09478689634274365	0	-2.525661190710405e-18	0	0	3.038264149521157e-16	0
0.4775944545148934	-0.3592043586667691	0.09129347407246916	-0	2.448852534072348	0	0.09478689634274365	54.67998692033506	296.1885674201896	-0	2.349663274570902	0	-0.09478689634274365	0	9.061548764639857e-19	0	0	-2.672208330233399e-16	0
0.4803551161016846	-0.3673706642583056	0.09306215822324204	-0	2.46578730850076	0	0.09478689634274365	54.35707564823014	270.3200173179414	-0	2.349785763953663	0	-0.09478689634274365	0	-8.059477271658286e-19	0	0	-2.535417315949492e-16	0
0.4831157776884759	-0.3712892915250116	0.09377049635081565	-0	2.482809605071744	0	0.09478689634274365	52.85527604457769	243.3574723615826	-0	2.34989177765977	0	-0.09478689634274365	0	-2.307298635845407e-18	0	0	4.28424498782329e-16	0
0.4858764392752672	-0.3728313174406601	0.09392190567751967	-0	2.499905921478683	0	0.09478689634274365	50.13905176877062	215.1328103898603	-0	2.349982347518492	0	-0.09478689634274366	0	1.716139828488979e-18	0	0	8.649410972314584e-16	0
0.4886371008620585	-0.3745965177931365	0.09418938050580659	-0	2.517053449202125	0	0.09478689634274366	46.27847371547874	185.891596456702	-0	2.350059579274362	0	-0.09478689634274365	0	2.669416252938605e-18	0	0	-2.476847881519115e-16	0
0.4913977624488498	-0.378244181066538	0.09498568206489044	-0	2.534226675144154	0	0.09478689634274365	41.4922811026893	156.2772330954245	-0	2.350128164192908	0	-0.09478689634274365	0	-1.82271629288584e-18	0	0	2.053962936216204e-16	0
0.4941584240356411	-0.3847208165842244	0.09653709795320915	-0	2.551403616587627	0	0.09478689634274365	36.19033423100698	127.3081629563117	-0	2.350200013797955	0	-0.09478689634274365	0	-1.475097588505275e-19	0	0	1.535292404372903e-16	0
0.4969190856224324	-0.3930006213364754	0.09856392449753208	-0	2.568577446501432	0	0.09478689634274365	30.96987871070925	100.473752427386	-0	2.35029551500013	0	-0.09478689634274363	0	3.455134196725545e-18	0	0	-4.738069455878298e-16	0
0.4996797472092237	-0.4016115656328151	0.1006804994120339	-0	2.585749156634403	0	0.09478689634274363	25.6567597577211	76.06540756238573	-0	2.350405020167932	0	-0.09478689634274365	0	-3.969430934168652e-18	0	0	-1.173643256390584e-16	0
0.5024404087960149	-0.4095930578666793	0.1026452195235475	-0	2.602923922259059	0	0.09478689634274365	20.16069704159811	53.9278110377354	-0	2.35053705223971	0	-0.09478689634274365	0	2.270216416112771e-18	0	0	6.732660626088339e-17	0
0.5052010703828063	-0.4160516079359449	0.1042366408278227	-0	2.620106322719287	0	0.09478689634274365	7.507798621857695	20.98759517153464	-0	2.350221060675374	0	-0.09478689634274365	0	-2.627174788618299e-18	0	0	5.332836210034386e-17	0
0.5079617319695975	-0.4204055451940363	0.1053157758014026	-0	2.637298762563857	0	0.09478689634270354	0.004623878617373343	-0.01901747745184049	-0	2.346020546323145	0	-0.09478689634274365	0	-3.205769814045257e-16	0	0	1.045946632511005e-20	0
0.5107223935563888	-0.4219207326298397	0.1056986287537359	-0	2.654503236915243	0	0.09478689634259252	6.82051937857182e-10	-7.019276910764337e-10	-0	2.342399090379905	0	-0.09478689634274365	0	-1.154295526197176e-15	0	0	-1.38553595916003e-27	0
0.5134830551431802	-0.4171697906826454	0.1045045081760412	-0	2.671736697669291	0	0.09478689634216786	-0	-0	-0	0	0	0	0	-4.09562741102303e-15	0	0	0	0
0.5162437167299714	-0.4010802766497477	0.1004416652955426	-0	2.68902801719184	0	0.09478689634056589	-0	-0	-0	0	0	0	0	-1.412105496360877e-14	0	0	0	0
0.5190043783167627	-0.3679941126782851	0.09208821684784667	-0	2.70642489130455	0	0.09478689633432823	-0	-0	-0	0	0	0	0	-4.766554312159735e-14	0	0	0	0
0.5217650399035541	-0.3159327206212512	0.07897011091186379	-0	2.723979465285872	0	0.09478689630832815	-0	-0	-0	0	0	0	0	-1.597955102914869e-13	0	0	0	0
0.5245257014903453	-0.250824223242447	0.06261599414181331	-0	2.741728364454811	0	0.09478689619393137	-0	-0	-0	0	0	0	0	-5.231516182673784e-13	0	0	0	0
0.5272863630771365	-0.1822291515964849	0.04543981901727427	-0	2.759694145388165	0	0.09478689565765908	-0	-0	-0	0	0	0	0	-1.658823193809971e-12	0	0	0	0
0.5300470246639279	-0.1198269921765115	0.02985441263402626	-0	2.777879086218357	0	0.09478689296663001	-0	-0	-0	0	0	0	0	-5.04843666907819e-12	0	0	0	0
0.5328076862507192	-0.06995875781105802	0.01742248542526488	-0	2.796277771228184	0	0.09478687829163933	-0	-0	-0	0	0	0	0	-1.462340858994397e-11	0	0	0	0
0.5355683478375104	-0.03437405224967911	0.008560333302094667	-0	2.814880849716733	0	0.09478678651225987	-0	-0	-0	0	0	0	0	-4.003050873839434e-11	0	0	0	0
0.5383290094243017	-0.01172993207880051	0.002922496702035859	-0	2.833667120108085	0	0.09478598031956853	-0	-0	-0	0	0	0	0	-1.028030027116381e-10	0	0	0	0
0.5410896710110931	0.0001409976842407692	-3.516219642240289e-05	-0	2.856744679745961	0	0.09499206100664277	1.472835131192308e-16	-1.153708722937572e-16	-0	0	0	0	0	-2.554622841806459e-10	0	0	-1.396054709102765e-17	0
0.5438503325978843	2.438329932722658e-05	-6.073005660396296e-06	-0	2.935253158885549	0	0.09779939124942158	1.151525599941593e-14	-8.639560326918405e-15	-0	0	0	0	0	-8.542257592737354e-10	0	0	-1.091495376776795e-15	0
0.5466109941846756	-3.256466951700659e-05	8.238749515001934e-06	-0	2.773553649122976	0	0.08951101806478781	3.571817180416122e-12	-2.557711544834431e-12	-0	2.386971139936831	0	-0.09478689634274365	0	1.205115410594986e-11	0	0	-1.329136565244757e-29	0
0.549371655771467	-7.263703241864591e-05	1.850541931345557e-05	-0	2.787741634289149	0	0.08956870610563916	2.637466001416831e-09	-1.79966351031758e-09	-0	2.392158449555625	0	-0.09478689634274365	0	1.001832200561423e-13	0	0	-5.164487308131626e-27	0
0.5521323173582582	-0.0001491102107391956	3.838166860283072e-05	-0	2.800555933165298	0	0.08956897181771803	2.198954814857876e-06	-1.430768955046806e-06	-0	2.397666908823583	0	-0.09478689634274365	0	1.896207789438687e-15	0	0	3.592935996132327e-24	0
