DataType=double
version=3
OpenSimVersion=4.6-2026-06-22-85aaf64
endheader
time	ground_force_r_vx	ground_force_r_vy	ground_force_r_vz	ground_force_r_px	ground_force_r_py	ground_force_r_pz	ground_force_l_vx	ground_force_l_vy	ground_force_l_vz	ground_force_l_px	ground_force_l_py	ground_force_l_pz	ground_torque_r_x	ground_torque_r_y	ground_torque_r_z	ground_torque_l_x	ground_torque_l_y	ground_torque_l_z
0	-0.004233111674969272	0.001128675705886323	-0	1.177685939543842	0	0.08956897507699428	1.301130754138164e-13	-8.565382968504055e-14	-0	0.7767439221412903	0	-0.09478689634274365	0	-3.965823397166163e-18	0	0	7.484586686576307e-31	0
0.002632534947247619	-0.007908497365607151	0.002162479532023878	-0	1.188608371220666	0	0.08956897506485043	2.388907539199147e-14	-1.559678533671676e-14	-0	0	0	0	0	-1.807402949656672e-16	0	0	-2.264371312904684e-15	0
0.005265069894495238	-0.01386680954750322	0.003887563919489442	-0	1.199478048256467	0	0.08956897484659521	2.604238101760461e-15	-1.683384568912584e-15	-0	0	0	0	0	-8.103717537470601e-15	0	0	-2.468476470033923e-16	0
0.007897604841742857	-0.02296184579570067	0.006596445522324417	-0	1.210296072535277	0	0.08956897035132314	2.907236280462298e-16	-1.855371913652414e-16	-0	0	0	0	0	-3.447956775991172e-13	0	0	-2.755679039600434e-17	0
0.01053013978899048	-0.03636016371243603	0.01069829299430992	-0	1.221027369008885	0	0.08956893622254981	5.893398612303549e-17	-3.700432456075505e-17	-0	0	0	0	0	-5.176535564448041e-12	0	0	-5.586169633708857e-18	0
0.0131626747362381	-0.05591270643348277	0.01684425689797133	-0	1.231626419869802	0	0.08956903291432815	2.905992708499824e-17	-1.788126847585635e-17	-0	0	0	0	0	1.315931103032994e-11	0	0	-2.754500296333416e-18	0
0.01579520968348571	-0.08492058612667425	0.02619795269535322	-0	1.242016804802396	0	0.08956911179333087	3.692842967119916e-17	-2.218011144874296e-17	-0	0	0	0	0	5.131828480853004e-11	0	0	-3.500331235344254e-18	0
0.01842774463073333	-0.1292318983321794	0.04085047878521472	-0	1.252130447516343	0	0.08956909043544295	1.203964289688772e-16	-7.033814119984663e-17	-0	0	0	0	0	7.002425117456913e-11	0	0	-1.141200383270947e-17	0
0.02106027957798095	-0.1989695761854531	0.0645072870278698	-0	1.261917607722004	0	0.08956906055795769	8.778451396935397e-16	-4.975804216918635e-16	-0	0	0	0	0	8.252585758553746e-11	0	0	-8.320821626111287e-17	0
0.02369281452522857	-0.3121331026694855	0.103913485789641	-0	1.271342481727791	0	0.08956903710305923	1.237829465203101e-14	-6.795822787423859e-15	-0	0	0	0	0	9.364217876098233e-11	0	0	-1.173300132082002e-15	0
0.02632534947247619	-0.5016841625732055	0.1716675607786702	-0	1.280391033834796	0	0.08956902043978335	3.04651891186607e-13	-1.618226164586066e-13	-0	0.8410664858737664	0	-0.09478689634274365	0	1.057596499394368e-10	0	0	2.569909169379429e-31	0
0.02895788441972381	-0.8295088122265316	0.2919227989435557	-0	1.289058185875938	0	0.08956900932207941	1.184074842998015e-11	-6.081478126515284e-12	-0	0.8492523686711108	0	-0.09478689634274365	0	1.222635952054839e-10	0	0	-5.229950372103376e-29	0
0.03159041936697143	-1.414837934989766	0.5121700681142439	-0	1.297347638941593	0	0.08956900212234606	6.581485594757118e-10	-3.268177883076016e-10	-0	0.8577579910328006	0	-0.09478689634274365	0	1.476319140297963e-10	0	0	-2.256345401285919e-27	0
0.03422295431421905	-2.491360054117749	0.927493372918301	-0	1.305265073720318	0	0.08956899765254758	4.17419519233477e-08	-2.005014574127211e-08	-0	0.8665552829270082	0	-0.09478689634274363	0	1.890827406504809e-10	0	0	-7.22368928185786e-25	0
0.03685548926146667	-4.519212567795901	1.729826345064932	-0	1.312814512798204	0	0.08956899522791521	-3.565110851436407e-07	1.65862020325965e-07	-0	0.8755938480313246	0	-0.09478689634274366	0	2.573117815369856e-10	0	0	-6.331126585218664e-24	0
0.03948802420871429	-8.396090883038806	3.304413810288789	-0	1.319999931956987	0	0.08956899457003989	-4.204105846350848e-06	1.898042207521449e-06	-0	0.884816944468797	0	-0.09478689634274365	0	3.639764064400468e-10	0	0	-1.046180402068053e-24	0
0.0421205591559619	-15.7910330478546	6.397700042877015	-0	1.326814502243304	0	0.08956899614443743	-6.019948770168933e-06	2.643191206409931e-06	-0	0.894169727078612	0	-0.09478689634274366	0	4.787024092599892e-10	0	0	-7.588867211291608e-23	0
0.04475309410320952	-29.47693861712865	12.32839650632527	-0	1.333252120810413	0	0.08956900152066223	-7.252245567460785e-06	3.103608379743932e-06	-0	0.903605547560409	0	-0.09478689634274365	0	2.785856818063016e-10	0	0	-3.041708462481414e-24	0
0.04738562905045714	-52.8921452395472	22.96109254299983	-0	1.339283696028286	0	0.0895690156476647	-8.538859426573944e-06	3.569121285927923e-06	-0	0.9130873346138697	0	-0.09478689634274365	0	-2.279340489557889e-09	0	0	9.870033212674073e-24	0
0.05001816399770476	-87.47505407462613	39.76177477089069	-0	1.344878392769437	0	0.08956905562996774	-1.031468781926512e-05	4.219024397620679e-06	-0	0.9225862646639157	0	-0.09478689634274365	0	-1.985285052629271e-08	0	0	3.981156886149869e-23	0
0.05265069894495238	-138.0053802383603	66.62179613800768	-0	1.34997133765766	0	0.08956917774391328	-1.302987832828787e-05	5.222299011120467e-06	-0	0.932102031552297	0	-0.09478689634274365	0	-1.378124608759625e-07	0	0	1.208378477907669e-23	0
0.0552832338922	-254.0813527681239	134.5245963869999	-0	1.354513211097107	0	0.08956952372567914	-1.734727875037227e-05	6.818722248116841e-06	-0	0.9416384403424506	0	-0.09478689634274363	0	-1.17477023066823e-06	0	0	3.069364901280336e-22	0
0.05791576883944762	-463.9737769389424	293.9788375597263	-0	1.3584127857298	0	0.08957123351369617	-2.43547132800032e-05	9.394824031564797e-06	-0	0.9512037261393089	0	-0.09478689634274365	0	-1.788044949628749e-05	0	0	1.016443282020952e-22	0
0.06054830378669523	-603.1935876220294	554.8374627652594	-0	1.362064343704	0	0.0895926134311672	-3.592988712654653e-05	1.360837349405272e-05	-0	0.9608107407600041	0	-0.09478689634274365	0	-0.0005430482812700479	0	0	-4.232877008119512e-24	0
0.06318083873394285	-130.3893280221093	908.2480020980227	-0	1.372817383448038	0	0.08981807879855754	-5.564281665593106e-05	2.070339254035222e-05	-0	0.9704641726584612	0	-0.09478689634274366	0	-0.06938227656851685	0	0	-1.124925953106389e-21	0
0.06581337368119047	-302.2090381266417	1433.137026261953	-0	1.390224619823051	0	0.09041598247977169	-9.011008006968895e-05	3.296460700875063e-05	-0	0.9801544789563846	0	-0.09478689634274365	0	-0.1666133818998561	0	0	2.082466074757991e-22	0
0.06844590862843809	-452.2059431444621	2109.708566632386	-0	1.404293019804771	0	0.09090512969003213	-0.0001509008693615721	5.427654767715387e-05	-0	0.9899317269952531	0	-0.09478689634274365	0	-0.087842046174178	0	0	6.297795895859679e-22	0
0.07107844357568571	-324.1069136934895	2295.200345126307	-0	1.394626403796365	0	0.09055303503408879	-0.0002586110943118323	9.133769266279696e-05	-0	0.9998841635738424	0	-0.09478689634274365	0	0.04992976925527318	0	0	7.795878288796206e-22	0
0.07371097852293333	-145.649029001782	2255.592254476809	-0	1.388310893838289	0	0.0903175659499585	-0.0004498106757749644	0.000155812481533377	-0	1.010049548138207	0	-0.09478689634274365	0	0.07173894290874312	0	0	1.224926350222962e-22	0
0.07634351347018097	-137.3607619821785	2096.082696374178	-0	1.386746476890986	0	0.09026906036012053	-0.0007880209835284819	0.000267625784583765	-0	1.020429346774187	0	-0.09478689634274365	0	0.0612193256698291	0	0	-1.876129519012603e-21	0
0.07897604841742857	-119.1106750805305	1865.047881312751	-0	1.387657163816074	0	0.09030484324576854	-0.001384254736219963	0.0004612140323878584	-0	1.030997040831723	0	-0.09478689634274365	0	0.04352726541494572	0	0	-1.033410394661824e-20	0
0.08160858336467619	-167.3739463218288	1631.867971743807	-0	1.38908641137129	0	0.09037002788907247	-0.002429675713944334	0.00079533232971841	-0	1.041725187225346	0	-0.09478689634274365	0	0.02744393190441261	0	0	1.212002817960928e-20	0
0.08424111831192381	-175.8263421456623	1440.849573742891	-0	1.391569870885609	0	0.09046376331009569	-0.004244608211062633	0.001367550980930986	-0	1.052589562087872	0	-0.09478689634274363	0	0.01420670374533972	0	0	3.828962016075601e-20	0
0.08687365325917143	-201.390767517513	1344.820382149255	-0	1.398704989484467	0	0.090720998758699	-0.00734996523134713	0.002335169045194371	-0	1.063578653693521	0	-0.09478689634274365	0	-0.00868143843953066	0	0	-1.920906743693693e-21	0
0.08950618820641905	-222.4854784015742	1398.287597066166	-0	1.415699999707223	0	0.09131357600877042	-0.01254948336797075	0.003937048702238806	-0	1.074710336875476	0	-0.09478689634274365	0	-0.07479081195646294	0	0	2.619192120509726e-20	0
0.09213872315366665	-312.0919083524489	1521.783945756123	-0	1.431528288761154	0	0.09187486575666388	-0.02099488562707198	0.006507992629335189	-0	1.086016107796315	0	-0.09478689634274365	0	-0.1344389671487747	0	0	2.177757857335509e-20	0
0.09477125810091427	-355.1977444217546	1602.295092411997	-0	1.44069338598315	0	0.09219424925131284	-0.03416875286789656	0.01046609681837227	-0	1.097535786027002	0	-0.09478689634274363	0	-0.1317443831365425	0	0	5.725042409132934e-19	0
0.09740379304816189	-366.6264516364757	1641.413591061862	-0	1.446199731575569	0	0.0923816005465697	-0.05371522086722415	0.01625486848319293	-0	1.109304126110682	0	-0.09478689634274365	0	-0.1044150389801452	0	0	3.454743958371904e-19	0
0.1000363279954095	-357.5339373622267	1660.996281627195	-0	1.450487496585018	0	0.09252351776063086	-0.08104814989808599	0.02422579412219688	-0	1.12134771041319	0	-0.09478689634274365	0	-0.07578746721855119	0	0	3.039403033509249e-19	0
0.1026688629426571	-340.2013735370373	1652.337357404628	-0	1.45399396269216	0	0.09263791940763669	-0.116670699560867	0.03444378920743712	-0	1.133690126514867	0	-0.09478689634274365	0	-0.04966894370275565	0	0	-7.163907641664452e-19	0
0.1053013978899048	-302.9158185478261	1610.475400199613	-0	1.457792622767676	0	0.09276012264708078	-0.1595301550976677	0.04652426935092537	-0	1.146344996853803	0	-0.09478689634274365	0	-0.02808833608214601	0	0	-2.951778587708004e-19	0
0.1079339328371524	-269.303068259135	1534.943013468145	-0	1.462111967606646	0	0.0929029436697642	-0.2065743941208003	0.05953657631349793	-0	1.159322125924925	0	-0.09478689634274363	0	-0.01103359003433362	0	0	3.898857986464377e-18	0
0.1105664677844	-238.9004717221551	1442.509661236146	-0	1.466921035396456	0	0.09306451707024287	-0.2535022124041073	0.07225036233411743	-0	1.172619422276074	0	-0.09478689634274365	0	0.001710575884128414	0	0	-1.223036402189664e-18	0
0.1131990027316476	-216.9244894821839	1343.054577490437	-0	1.471770541801315	0	0.09323000017425441	-0.2956383697948452	0.08339369167754428	-0	1.186228291656514	0	-0.09478689634274365	0	0.01067123976837234	0	0	-9.562037457520076e-19	0
0.1158315376788952	-195.2639311723143	1242.898998294859	-0	1.476689067683839	0	0.09339820727082457	-0.3293346519581104	0.0920332678088979	-0	1.20012880915058	0	-0.09478689634274363	0	0.01634241823859519	0	0	6.245812218750342e-18	0
0.1184640726261428	-176.9433028056932	1147.668452745468	-0	1.481641652947165	0	0.09356858236819966	-0.3527268959845596	0.09775452207190974	-0	1.214296313242356	0	-0.09478689634274363	0	0.01936388705857755	0	0	2.786211434481497e-18	0
0.1210966075733905	-157.6198563193583	1062.118457623863	-0	1.487051374650249	0	0.09375460564795854	-0.3660708757418563	0.100718207704828	-0	1.228700575836005	0	-0.09478689634274365	0	0.0203886698326143	0	0	2.180798809557669e-18	0
0.1237291425206381	-138.3674189103339	994.5361292166647	-0	1.493488315609878	0	0.09397650740127053	-0.3713983769142007	0.1015513850081763	-0	1.243307187451555	0	-0.09478689634274365	0	0.01981372406320421	0	0	5.949480603685401e-19	0
0.1263616774678857	-118.1054691727997	951.0377988597047	-0	1.501628710316002	0	0.09425786042409569	-0.3718455208915789	0.1011573757836341	-0	1.258075055083668	0	-0.09478689634274366	0	0.01682991987644092	0	0	-5.9804578697787e-18	0
0.1289942124151333	-105.8339249975642	909.7052518171033	-0	1.510856297116335	0	0.09458212483787748	-0.3706762561880396	0.100434770174877	-0	1.272962787975747	0	-0.09478689634274365	0	0.00846073708977458	0	0	1.44861802088012e-18	0
0.1316267473623809	-94.20511189356388	879.8130285253144	-0	1.517449049351481	0	0.09481233861552825	-0.3700329372652259	0.09993956001185629	-0	1.287938749877407	0	-0.09478689634274365	0	-0.001320239659665919	0	0	2.425119234834656e-18	0
0.1342592823096286	-74.71064378342925	886.4816537933909	-0	1.51718608113002	0	0.09479058627437909	-0.3712621216048311	0.1000012653952489	-0	1.302977824678762	0	-0.09478689634274365	0	-0.0002360859467863214	0	0	3.267732318082959e-19	0
0.1368918172568762	-54.02241530133588	884.3941048384739	-0	1.517426975742306	0	0.09478698977895637	-0.3740570130240014	0.1004898846505528	-0	1.318074604299349	0	-0.09478689634274365	0	-7.267456677752921e-06	0	0	-3.080614837405008e-18	0
0.1395243522041238	-38.49236284876314	878.445680756608	-0	1.517687258943224	0	0.09478689776633023	-0.3776747776761247	0.1011716660478082	-0	1.33323106894373	0	-0.09478689634274365	0	-1.330093125348873e-07	0	0	-5.197684123362373e-19	0
0.1421568871513714	-23.04233628866071	870.1541317740523	-0	1.517946023767065	0	0.09478689635866704	-0.3819106455002247	0.1019905859152836	-0	1.348450024713173	0	-0.09478689634274365	0	-1.768772517686322e-09	0	0	2.216044292612527e-18	0
0.1447894220986191	-10.18922106919632	859.9045794670717	-0	1.518166084310525	0	0.09478689634289399	-0.3867057438150766	0.1029341966220574	-0	1.363732927789184	0	-0.09478689634274365	0	-1.964624538686379e-11	0	0	3.071816302147704e-18	0
0.1474219570458667	2.118065335874078	848.7147367888368	-0	1.518377615911884	0	0.0947868963427449	-0.3920091158424879	0.1039932636825291	-0	1.379080284770513	0	-0.09478689634274365	0	-1.927155639213342e-13	0	0	3.072225044898929e-18	0
0.1500544919931143	12.83989687104462	836.3313108042303	-0	1.518565292529848	0	0.09478689634274365	-0.3977638977722617	0.1051571065515053	-0	1.39449225269966	0	-0.09478689634274365	0	-1.799724967858458e-15	0	0	-2.184654821112186e-18	0
0.1526870269403619	23.13080856249281	823.4105921509994	-0	1.51874639039058	0	0.09478689634274365	-0.4038774360537937	0.1064051667435189	-0	1.409968276764938	0	-0.09478689634274365	0	3.270539219951575e-16	0	0	-2.334506957908726e-18	0
0.1553195618876095	31.34963597967628	807.3505065676073	-0	1.518896900359454	0	0.09478689634274366	-0.4102094615709493	0.1077040981086433	-0	1.425507766275901	0	-0.09478689634274365	0	-4.033943234914241e-16	0	0	1.507007602754803e-18	0
0.1579520968348571	37.6678472542182	786.4351053390446	-0	1.519021461364606	0	0.09478689634274365	-0.4165249917045319	0.108995229056523	-0	1.441110137001642	0	-0.09478689634274365	0	-1.306208791286956e-16	0	0	2.913443670534145e-18	0
0.1605846317821047	43.92676739946013	766.3983807477845	-0	1.519146124849495	0	0.09478689634274365	-0.4225535300343867	0.1102109458873937	-0	1.45677502964904	0	-0.09478689634274365	0	1.650506681226533e-16	0	0	2.655576659451881e-18	0
0.1632171667293524	50.84820670583102	753.8145812453116	-0	1.519275383927436	0	0.09478689634274365	-0.4279661546752641	0.111266976693574	-0	1.472502893858417	0	-0.09478689634274365	0	-1.301398488511229e-16	0	0	-2.014873574536e-18	0
0.1658497016766	56.45622841523733	743.8401698531203	-0	1.519378520302507	0	0.09478689634274365	-0.4324119402822018	0.1120726897652021	-0	1.488295116247395	0	-0.09478689634274365	0	-2.199209448468496e-16	0	0	-1.869757966336844e-18	0
0.1684822366238476	61.78453425326954	731.3993146221538	-0	1.519479492228122	0	0.09478689634274365	-0.4359011047776796	0.1126313401626988	-0	1.50415291993289	0	-0.09478689634274365	0	-1.765756262257327e-16	0	0	-1.964015615522118e-18	0
0.1711147715710952	66.4646359216612	713.5962867170069	-0	1.519577473836818	0	0.09478689634274365	-0.4387362624279128	0.1130244952720057	-0	1.52007595799072	0	-0.09478689634274365	0	-3.61315011841312e-16	0	0	-2.598512401882152e-18	0
0.1737473065183429	70.47048327160205	688.0821639024647	-0	1.519678388670578	0	0.09478689634274365	-0.4417338475742685	0.1134706669754444	-0	1.53605864459019	0	-0.09478689634274365	0	1.217411663678159e-16	0	0	3.24839037878616e-18	0
0.1763798414655905	74.77634792921248	657.6588627913319	-0	1.519798904208415	0	0.09478689634274365	-0.4455439696445644	0.1141376603136319	-0	1.552094211918706	0	-0.09478689634274365	0	-1.215955885362531e-16	0	0	-1.036983875179542e-18	0
0.1790123764128381	78.96013745782732	626.1430560826764	-0	1.51992620849224	0	0.09478689634274365	-0.4494906377426872	0.1148362422057373	-0	1.568182550112061	0	-0.09478689634274365	0	3.189558396049747e-17	0	0	4.952662808415208e-19	0
0.1816449113600857	82.43263294783665	593.7592198493019	-0	1.520049324858531	0	0.09478689634274365	-0.452382983939786	0.1152492902592363	-0	1.58432797501851	0	-0.09478689634274365	0	-2.781067196829764e-16	0	0	3.102800238057805e-18	0
0.1842774463073333	85.47086436336458	560.5449455633817	-0	1.52017520254179	0	0.09478689634274365	-0.4526391813374199	0.1149713183922476	-0	1.600539977390312	0	-0.09478689634274365	0	8.135519644270851e-16	0	0	2.75245233520075e-18	0
0.1869099812545809	87.74000334098926	526.311975452796	-0	1.520298701145213	0	0.09478689634274365	-0.4488693725532338	0.1136585906370257	-0	1.616828799682975	0	-0.09478689634274365	0	7.883531572195695e-16	0	0	-1.084899205777766e-18	0
0.1895425162018285	89.22801435594307	490.9068763353839	-0	1.520421960856948	0	0.09478689634274365	-0.4411461940230623	0.1113567630071111	-0	1.633197919241308	0	-0.09478689634274365	0	-1.394025666985593e-16	0	0	2.562999474392139e-19	0
0.1921750511490762	89.79065002077458	454.322285866768	-0	1.520543827906194	0	0.09478689634274365	-0.429872026979249	0.1081899021353765	-0	1.649647099945416	0	-0.09478689634274365	0	-4.534963312728178e-16	0	0	-7.93015382448462e-19	0
0.1948075860963238	89.36790566475817	416.6791110220067	-0	1.520664786927091	0	0.09478689634274365	-0.4152841864908733	0.1042282020620696	-0	1.66617375896404	0	-0.09478689634274365	0	-6.716036159001548e-16	0	0	1.793106149801554e-18	0
0.1974401210435714	87.92332955734842	378.2301310191252	-0	1.520785484269621	0	0.09478689634274363	-0.3981205730608914	0.0996685246238575	-0	1.682773656654591	0	-0.09478689634274363	0	1.155806401142723e-15	0	0	5.212432536066152e-18	0
0.2000726559908191	85.45693349266301	339.3488237839862	-0	1.520906870718421	0	0.09478689634274366	-0.3807662399945392	0.0951247012118641	-0	1.699430716433417	0	-0.09478689634274365	0	-1.479649315635569e-15	0	0	3.403549355611397e-18	0
0.2027051909380667	81.47183051935536	299.9695541056705	-0	1.521015739286731	0	0.09478689634274365	-0.3651129174325776	0.09107036266657911	-0	1.716124525576027	0	-0.09478689634274366	0	-3.700672638920392e-16	0	0	-7.386406390639729e-18	0
0.2053377258853143	75.54347795958783	260.1024484811094	-0	1.521096196595342	0	0.09478689634274365	-0.3507116333266274	0.08737309865893063	-0	1.732842041923005	0	-0.09478689634274365	0	1.458212116143027e-16	0	0	1.62070878765539e-18	0
0.2079702608325619	68.40081981201347	221.347504102408	-0	1.521156174217139	0	0.09478689634274365	-0.3370854240483717	0.08390116609094048	-0	1.749574124867744	0	-0.09478689634274363	0	-2.850928294693731e-17	0	0	4.679877024088134e-18	0
0.2106027957798095	60.66346483300858	185.7055630499771	-0	1.521188768562521	0	0.09478689634274365	-0.322450437514617	0.08019399198655421	-0	1.76632452704415	0	-0.09478689634274365	0	-3.265125153327652e-16	0	0	2.775418773878916e-19	0
0.2132353307270571	52.45737040955876	153.8654414284748	-0	1.521170709923627	0	0.09478689634274365	-0.3047765672959267	0.07573435636015745	-0	1.783105471689809	0	-0.09478689634268499	0	-6.375601516302521e-17	0	0	3.712372707428976e-16	0
0.2158678656743047	44.15071043251324	126.1065246865026	-0	1.521091186361349	0	0.09478689634274365	-0.2836924634927729	0.07043489968430025	-0	1.799930170781644	0	-0.09478689634262361	0	3.91222221901105e-16	0	0	6.856755317521224e-16	0
0.2185004006215523	35.97550201869081	102.2926109767668	-0	1.520935314222404	0	0.09478689634274365	-0.2595371942924739	0.06438629172108389	-0	1.816808851535225	0	-0.09478689634218361	0	-1.172244452722873e-16	0	0	2.771615128628188e-15	0
0.2211329355688	28.1404318797821	81.92981937275746	-0	1.520696574762342	0	0.09478689634274365	-0.234073015867642	0.05803485199375327	-0	1.833739979944456	0	-0.0947868963403987	0	1.360043956662999e-16	0	0	9.913875281241139e-15	0
0.2237654705160476	10.16030218935377	42.00091959050419	-0	1.519631621468671	0	0.09478689634274365	-0.2084582443120697	0.05166745922623892	-0	1.850717834438906	0	-0.09478689633318975	0	1.727436955472681e-17	0	0	3.388571423281673e-14	0
0.2263980054632952	0.01085826340095369	-0.01909847691561779	-0	1.512831154772645	0	0.09478689634274365	-0.1818626671180516	0.04506676386706261	-0	1.867747228513821	0	-0.09478689630277135	0	-5.344909085428672e-20	0	0	1.161081977661177e-13	0
0.2290305404105429	5.256223416976625e-11	-5.013438552087348e-11	-0	1.510454897898253	0	0.09478689634274365	-0.1540584832015051	0.03816963984185075	-0	1.884840395824081	0	-0.09478689617241191	0	-2.388593859978533e-29	0	0	3.922757437475972e-13	0
0.2316630753577905	-0	-0	-0	0	0	0	-0.125789046552323	0.03115863418956121	-0	1.902014970372127	0	-0.09478689559902843	0	0	0	0	1.302528048363923e-12	0
0.2342956103050381	-0	-0	-0	0	0	0	-0.09758223108061057	0.02416328822624661	-0	1.919292493883318	0	-0.09478689298430325	0	0	0	0	4.229325173494042e-12	0
0.2369281452522857	-0	-0	-0	0	0	0	-0.06981043346458751	0.017275934397662	-0	1.936710963491081	0	-0.09478688022234184	0	0	0	0	1.341558581497922e-11	0
0.2395606801995333	-0	-0	-0	0	0	0	-0.04416640487836634	0.010920236901797	-0	1.954313208082097	0	-0.09478681081128736	0	0	0	0	4.13926130945477e-11	0
0.242193215146781	-0	-0	-0	0	0	0	-0.02335294258549118	0.005768977657702411	-0	1.972122208593206	0	-0.0947863683450518	0	0	0	0	1.227847897878638e-10	0
0.2448257500940285	-0	-0	-0	0	0	0	-0.00880419124416248	0.00217356420288633	-0	1.990092047242704	0	-0.09478248185113743	0	0	0	0	3.450465901592568e-10	0
0.2474582850412762	2.658558340580452e-15	-1.874964833838602e-15	-0	0	0	0	-0.0002700940455983557	6.670776731507934e-05	-0	1.999260990103036	0	-0.09435316898434581	0	2.519964938497359e-16	0	0	8.300252803173262e-10	0
0.2500908199885238	9.517264362762729e-15	-6.617690581042063e-15	-0	0	0	0	-3.949485412634632e-05	9.859414066027994e-06	-0	1.838568722176297	0	-0.08639606817474194	0	9.021119506196789e-16	0	0	-1.3200923652074e-09	0
0.2527233549357714	4.232769524544991e-14	-2.905363245115477e-14	-0	1.546179348445456	0	0.09478689634274365	-0.0001707981316159083	4.259114697522358e-05	-0	1.921741089739825	0	-0.08956600281860898	0	-2.148019463865911e-31	0	0	-2.649432447016145e-12	0
0.255355889883019	1.501936805788714e-13	-1.018501781568341e-13	-0	1.551121746241196	0	0.09478689634274365	-0.0004263931591681623	0.0001072087874337231	-0	1.933624880350676	0	-0.0895689713655711	0	1.541274878549699e-30	0	0	-6.081433171866718e-15	0
0.2579884248302666	3.099329103755694e-13	-2.078438984760799e-13	-0	1.55615691495528	0	0.09478689634274365	-0.0009865914117954096	0.0002516512271183419	-0	1.945168365992187	0	-0.08956897505790433	0	-1.05267683348277e-30	0	0	-4.985887938199406e-17	0
0.2606209597775143	3.017916133015236e-13	-2.00380557310455e-13	-0	1.561284204589148	0	0.09478689634274365	-0.002118079563210207	0.0005513166481004383	-0	1.956413874639806	0	-0.08956897507728806	0	7.280117478457628e-31	0	0	-3.473414588006528e-18	0
0.2632534947247619	1.301130754138191e-13	-8.565382968504231e-14	-0	1.566504406315576	0	0.09478689634274365	-0.004233111674969261	0.00112867570588632	-0	1.967446423718128	0	-0.08956897507699428	0	4.474767792555354e-31	0	0	3.999994566533293e-18	0
0.2658860296720095	2.38890753919919e-14	-1.559678533671704e-14	-0	0	0	0	-0.007908497365607127	0.002162479532023871	-0	1.978368855394951	0	-0.08956897506485043	0	2.264371312904724e-15	0	0	1.807471742733947e-16	0
0.2685185646192571	2.604238101760448e-15	-1.683384568912576e-15	-0	0	0	0	-0.01386680954750317	0.003887563919489429	-0	1.989238532430752	0	-0.08956897484659521	0	2.468476470033911e-16	0	0	8.103731296075453e-15	0
0.2711510995665047	2.907236280462283e-16	-1.855371913652405e-16	-0	0	0	0	-0.0229618457957006	0.006596445522324395	-0	2.000056556709563	0	-0.08956897035132314	0	2.75567903960042e-17	0	0	3.447960089914882e-13	0
0.2737836345137524	5.893398612306887e-17	-3.700432456077601e-17	-0	0	0	0	-0.0363601637124359	0.01069829299430988	-0	2.010787853183171	0	-0.08956893622254981	0	5.586169633712021e-18	0	0	5.176535663742143e-12	0
0.276416169461	2.905992708499808e-17	-1.788126847585625e-17	-0	0	0	0	-0.05591270643348254	0.01684425689797127	-0	2.021386904044088	0	-0.08956903291432815	0	2.754500296333401e-18	0	0	-1.315931133718111e-11	0
0.2790487044082476	3.692842967119907e-17	-2.21801114487429e-17	-0	0	0	0	-0.08492058612667379	0.02619795269535307	-0	2.031777288976681	0	-0.08956911179333087	0	3.500331235344245e-18	0	0	-5.131828455483452e-11	0
0.2816812393554952	1.203964289688768e-16	-7.033814119984638e-17	-0	0	0	0	-0.129231898332179	0.04085047878521461	-0	2.041890931690628	0	-0.08956909043544296	0	1.141200383270943e-17	0	0	-7.002425285790823e-11	0
0.2843137743027428	8.77845139693538e-16	-4.975804216918625e-16	-0	0	0	0	-0.1989695761854526	0.06450728702786961	-0	2.05167809189629	0	-0.08956906055795769	0	8.320821626111271e-17	0	0	-8.252585742038424e-11	0
0.2869463092499905	1.237829465203096e-14	-6.795822787423831e-15	-0	0	0	0	-0.3121331026694843	0.1039134857896406	-0	2.061102965902077	0	-0.08956903710305923	0	1.173300132081997e-15	0	0	-9.364217843070324e-11	0
0.2895788441972381	3.046518911866062e-13	-1.618226164586062e-13	-0	1.630826970048052	0	0.09478689634274365	-0.5016841625732033	0.1716675607786694	-0	2.070151518009081	0	-0.08956902043978335	0	5.806072783205387e-31	0	0	-1.057596453452885e-10	0
0.2922113791444857	1.184074842998014e-11	-6.081478126515278e-12	-0	1.639012852845396	0	0.09478689634274365	-0.8295088122265282	0.2919227989435544	-0	2.078818670050223	0	-0.08956900932207941	0	1.018838773947382e-29	0	0	-1.222636061257165e-10	0
0.2948439140917333	6.581485594757102e-10	-3.268177883076008e-10	-0	1.647518475207086	0	0.09478689634274365	-1.414837934989758	0.512170068114241	-0	2.087108123115879	0	-0.08956900212234606	0	-5.82898886717359e-27	0	0	-1.476319196954695e-10	0
0.297476449038981	4.174195192334759e-08	-2.005014574127206e-08	-0	1.656315767101294	0	0.09478689634274365	-2.491360054117857	0.927493372918341	-0	2.095025557894603	0	-0.08956899765254758	0	5.293509863579434e-26	0	0	-1.890827631646633e-10	0
0.3001089839862285	-3.565110851436399e-07	1.658620203259645e-07	-0	1.66535433220561	0	0.09478689634274363	-4.519212567795976	1.729826345064961	-0	2.102574996972491	0	-0.08956899522791521	0	-4.442329161486919e-24	0	0	-2.57311747160572e-10	0
0.3027415189334762	-4.20410584635084e-06	1.898042207521445e-06	-0	1.674577428643083	0	0.09478689634274365	-8.396090883038919	3.304413810288834	-0	2.109760416131273	0	-0.08956899457003989	0	-7.736673249845524e-24	0	0	-3.639763752039708e-10	0
0.3053740538807238	-6.019948770168919e-06	2.643191206409925e-06	-0	1.683930211252898	0	0.09478689634274365	-15.79103304785496	6.397700042877162	-0	2.116574986417589	0	-0.08956899614443743	0	-2.170746537646369e-23	0	0	-4.787024484734457e-10	0
0.3080065888279714	-7.252245567460768e-06	3.103608379743925e-06	-0	1.693366031734695	0	0.09478689634274365	-29.47693861712916	12.32839650632549	-0	2.123012604984699	0	-0.08956900152066223	0	-1.452399884134574e-23	0	0	-2.785859556289445e-10	0
0.310639123775219	-8.538859426573922e-06	3.569121285927915e-06	-0	1.702847818788156	0	0.09478689634274365	-52.89214523954801	22.96109254300018	-0	2.129044180202572	0	-0.08956901564766469	0	2.02341064957444e-23	0	0	2.279341501634977e-09	0
0.3132716587224667	-1.03146878192651e-05	4.21902439762067e-06	-0	1.712346748838202	0	0.09478689634274365	-87.47505407462721	39.76177477089118	-0	2.134638876943723	0	-0.08956905562996774	0	-9.707429153080213e-24	0	0	1.985285060092488e-08	0
0.3159041936697143	-1.302987832828784e-05	5.222299011120456e-06	-0	1.721862515726583	0	0.09478689634274365	-138.0053802383621	66.62179613800853	-0	2.139731821831946	0	-0.08956917774391328	0	-4.018891646520013e-23	0	0	1.378124611377543e-07	0
0.3185367286169619	-1.734727875037223e-05	6.818722248116827e-06	-0	1.731398924516736	0	0.09478689634274365	-254.0813527681285	134.5245963870023	-0	2.144273695271393	0	-0.08956952372567914	0	1.039925751009232e-24	0	0	1.174770230908273e-06	0
0.3211692635642095	-2.435471328000314e-05	9.394824031564773e-06	-0	1.740964210313595	0	0.09478689634274365	-463.9737769389485	293.9788375597302	-0	2.148173269904085	0	-0.08957123351369617	0	1.492433392637242e-22	0	0	1.788044949861113e-05	0
0.3238017985114571	-3.592988712654646e-05	1.360837349405269e-05	-0	1.750571224934289	0	0.09478689634274365	-603.1935876220356	554.8374627652652	-0	2.151824827878285	0	-0.0895926134311672	0	1.387020016848551e-22	0	0	0.0005430482812671488	0
0.3264343334587048	-5.564281665593094e-05	2.070339254035218e-05	-0	1.760224656832747	0	0.09478689634274365	-130.3893280221113	908.2480020980283	-0	2.162577867622324	0	-0.08981807879855754	0	-1.972628156884516e-22	0	0	0.06938227656851756	0
0.3290668684059523	-9.01100800696887e-05	3.296460700875055e-05	-0	1.769914963130671	0	0.09478689634274365	-302.2090381266457	1433.137026261965	-0	2.179985103997337	0	-0.09041598247977171	0	3.858401546033902e-22	0	0	0.1666133818998503	0
0.3316994033532	-0.0001509008693615716	5.427654767715371e-05	-0	1.779692211169539	0	0.09478689634274365	-452.2059431444656	2109.708566632399	-0	2.194053503979056	0	-0.09090512969003213	0	6.146041979446577e-22	0	0	0.0878420461741877	0
0.3343319383004476	-0.0002586110943118316	9.133769266279672e-05	-0	1.789644647748128	0	0.09478689634274365	-324.1069136934908	2295.20034512632	-0	2.18438688797065	0	-0.09055303503408879	0	1.837446417897705e-22	0	0	-0.04992976925527274	0
0.3369644732476952	-0.0004498106757749631	0.0001558124815333765	-0	1.799810032312493	0	0.09478689634274365	-145.6490290017817	2255.592254476817	-0	2.178071378012576	0	-0.09031756594995848	0	1.663166751801322e-22	0	0	-0.07173894290873631	0
0.3395970081949429	-0.0007880209835284796	0.0002676257845837642	-0	1.810189830948473	0	0.09478689634274365	-137.3607619821784	2096.082696374187	-0	2.176506961065272	0	-0.09026906036012051	0	2.903430246395435e-21	0	0	-0.06121932566982483	0
0.3422295431421905	-0.001384254736219959	0.0004612140323878569	-0	1.82075752500601	0	0.09478689634274365	-119.1106750805305	1865.047881312757	-0	2.17741764799036	0	-0.09030484324576854	0	1.23887054013839e-20	0	0	-0.043527265414947	0
0.3448620780894381	-0.002429675713944328	0.0007953323297184078	-0	1.831485671399631	0	0.09478689634274366	-167.3739463218292	1631.867971743813	-0	2.178846895545575	0	-0.09037002788907247	0	2.840579137170937e-20	0	0	-0.02744393190441225	0
0.3474946130366857	-0.00424460821106262	0.001367550980930982	-0	1.842350046262157	0	0.09478689634274365	-175.8263421456629	1440.849573742896	-0	2.181330355059895	0	-0.0904637633100957	0	-1.997936560179874e-20	0	0	-0.0142067037453409	0
0.3501271479839333	-0.007349965231347105	0.002335169045194364	-0	1.853339137867807	0	0.09478689634274365	-201.3907675175138	1344.82038214926	-0	2.188465473658753	0	-0.09072099875869902	0	2.944398851108746e-21	0	0	0.008681438439526724	0
0.3527596829311809	-0.0125494833679707	0.003937048702238791	-0	1.864470821049763	0	0.09478689634274365	-222.4854784015752	1398.28759706617	-0	2.205460483881509	0	-0.09131357600877041	0	8.787273711410709e-20	0	0	0.07479081195646757	0
0.3553922178784286	-0.0209948856270719	0.006507992629335167	-0	1.8757765919706	0	0.09478689634274365	-312.0919083524507	1521.783945756129	-0	2.22128877293544	0	-0.0918748657566639	0	1.109604470289553e-20	0	0	0.1344389671487667	0
0.3580247528256761	-0.03416875286789645	0.01046609681837224	-0	1.887296270201288	0	0.09478689634274365	-355.1977444217569	1602.295092412003	-0	2.230453870157436	0	-0.09219424925131284	0	-2.134361583413349e-19	0	0	0.1317443831365389	0
0.3606572877729238	-0.05371522086722397	0.01625486848319287	-0	1.899064610284968	0	0.09478689634274365	-366.6264516364777	1641.413591061867	-0	2.235960215749855	0	-0.09238160054656971	0	1.107842374396271e-19	0	0	0.1044150389801463	0
0.3632898227201714	-0.08104814989808563	0.02422579412219678	-0	1.911108194587475	0	0.09478689634274366	-357.5339373622285	1660.9962816272	-0	2.240247980759303	0	-0.09252351776063084	0	1.314054948133375e-18	0	0	0.07578746721855807	0
0.365922357667419	-0.1166706995608667	0.03444378920743703	-0	1.923450610689152	0	0.09478689634274365	-340.2013735370393	1652.337357404635	-0	2.243754446866447	0	-0.09263791940763669	0	-4.825613556354626e-20	0	0	0.04966894370275254	0
0.3685548926146667	-0.1595301550976671	0.04652426935092518	-0	1.936105481028089	0	0.09478689634274365	-302.9158185478281	1610.475400199621	-0	2.247553106941962	0	-0.09276012264708075	0	5.006075352876246e-19	0	0	0.02808833608215278	0
0.3711874275619143	-0.2065743941207994	0.05953657631349767	-0	1.949082610099211	0	0.09478689634274365	-269.3030682591362	1534.943013468149	-0	2.251872451780931	0	-0.09290294366976419	0	1.516435618534645e-18	0	0	0.01103359003433486	0
0.3738199625091619	-0.2535022124041061	0.07225036233411709	-0	1.96237990645036	0	0.09478689634274365	-238.9004717221564	1442.509661236151	-0	2.256681519570742	0	-0.09306451707024284	0	-1.720432577343941e-18	0	0	-0.001710575884120926	0
0.3764524974564095	-0.2956383697948438	0.08339369167754387	-0	1.975988775830801	0	0.09478689634274365	-216.924489482185	1343.054577490441	-0	2.2615310259756	0	-0.0932300001742544	0	-5.403383062706936e-19	0	0	-0.01067123976837144	0
0.3790850324036571	-0.3293346519581088	0.09203326780889744	-0	1.989889293324866	0	0.09478689634274363	-195.2639311723151	1242.898998294862	-0	2.266449551858124	0	-0.09339820727082457	0	-6.180308723875756e-18	0	0	-0.01634241823859402	0
0.3817175673509047	-0.352726895984632	0.09775452207192979	-0	2.004056797416641	0	0.09478689634274365	-176.9433028056943	1147.668452745473	-0	2.271402137121451	0	-0.09356858236819965	0	8.383644790295331e-19	0	0	-0.01936388705857223	0
0.3843501022981524	-0.3660708757418545	0.1007182077048275	-0	2.01846106001029	0	0.09478689634274365	-157.6198563193593	1062.118457623867	-0	2.276811858824535	0	-0.09375460564795854	0	2.916197184167773e-18	0	0	-0.0203886698326143	0
0.3869826372454	-0.371398376914198	0.1015513850081756	-0	2.033067671625842	0	0.09478689634274365	-138.3674189103343	994.5361292166652	-0	2.283248799784164	0	-0.09397650740127053	0	-3.466593073966722e-21	0	0	-0.01981372406320429	0
0.3896151721926476	-0.3718455208915771	0.1011573757836336	-0	2.047835539257954	0	0.09478689634274365	-118.1054691728003	951.037798859708	-0	2.291389194490288	0	-0.09425786042409567	0	-1.021833276622655e-18	0	0	-0.01682991987643826	0
0.3922477071398952	-0.3706762561880378	0.1004347701748765	-0	2.062723272150033	0	0.09478689634274365	-105.8339249975648	909.7052518171063	-0	2.300616781290621	0	-0.09458212483787748	0	-3.290515931061906e-18	0	0	-0.008460737089773756	0
0.3948802420871428	-0.3700329372652833	0.09993956001187176	-0	2.077699234051692	0	0.09478689634274365	-94.20511189356422	879.8130285253152	-0	2.307209533525766	0	-0.09481233861552825	0	-1.889391195297134e-18	0	0	0.001320239659667333	0
0.3975127770343905	-0.3712621216048292	0.1000012653952484	-0	2.092738308853048	0	0.09478689634274363	-74.7106437834298	886.4816537933935	-0	2.306946565304306	0	-0.09479058627437909	0	-5.643803920417283e-18	0	0	0.0002360859467870769	0
0.4001453119816381	-0.3740570130240006	0.1004898846505527	-0	2.107835088473634	0	0.09478689634274365	-54.02241530133648	884.394104838478	-0	2.307187459916592	0	-0.09478698977895636	0	-2.871826616536764e-18	0	0	7.2674566778837e-06	0
0.4027778469288857	-0.3776747776761241	0.1011716660478081	-0	2.122991553118016	0	0.09478689634274365	-38.49236284876362	878.4456807566088	-0	2.307447743117509	0	-0.09478689776633023	0	-1.848107470265559e-18	0	0	1.330093122633026e-07	0
0.4054103818761333	-0.3819106455002229	0.101990585915283	-0	2.138210508887459	0	0.09478689634274366	-23.04233628866115	870.1541317740565	-0	2.307706507941351	0	-0.09478689635866702	0	4.596461029570482e-18	0	0	1.768772824761496e-09	0
0.408042916823381	-0.3867057438151353	0.102934196622073	-0	2.153493411963469	0	0.09478689634274365	-10.18922106919678	859.9045794670739	-0	2.30792656848481	0	-0.094786896342894	0	-2.831828996257469e-18	0	0	1.964607654636063e-11	0
0.4106754517706286	-0.392009115842486	0.1039932636825286	-0	2.1688407689448	0	0.09478689634274363	2.118065335873771	848.7147367888416	-0	2.30813810008617	0	-0.0947868963427449	0	-7.000013950904439e-18	0	0	1.927031478635994e-13	0
0.4133079867178762	-0.3977638977723182	0.1051571065515203	-0	2.184252736873946	0	0.09478689634274365	12.83989687104423	836.3313108042325	-0	2.308325776704134	0	-0.09478689634274366	0	1.799433905558814e-18	0	0	1.909447495076949e-15	0
0.4159405216651237	-0.4038774360537914	0.1064051667435183	-0	2.199728760939224	0	0.09478689634274366	23.13080856249252	823.410592151004	-0	2.308506874564867	0	-0.09478689634274365	0	8.991388260667416e-18	0	0	-1.776683777741806e-16	0
0.4185730566123714	-0.4102094615709486	0.1077040981086431	-0	2.215268250450187	0	0.09478689634274365	31.34963597967608	807.3505065676126	-0	2.308657384533739	0	-0.09478689634274363	0	1.15660901349428e-18	0	0	-5.656869277631268e-16	0
0.421205591559619	-0.4165249917045312	0.1089952290565228	-0	2.230870621175927	0	0.09478689634274365	37.66784725421773	786.4351053390471	-0	2.308781945538891	0	-0.09478689634274365	0	3.334738517054914e-18	0	0	8.844904069076671e-17	0
0.4238381265068666	-0.4225535300343861	0.1102109458873936	-0	2.246535513823325	0	0.09478689634274365	43.92676739945966	766.3983807477864	-0	2.30890660902378	0	-0.09478689634274365	0	1.915441361853551e-18	0	0	-2.072225065605822e-16	0
0.4264706614541143	-0.427966154675324	0.1112669766935895	-0	2.262263378032702	0	0.09478689634274365	50.84820670583074	753.8145812453131	-0	2.309035868101722	0	-0.09478689634274366	0	-1.855682663333751e-18	0	0	3.264197930091401e-16	0
0.4291031964013619	-0.4324119402821994	0.1120726897652015	-0	2.278055600421681	0	0.09478689634274366	56.45622841523711	743.8401698531222	-0	2.309139004476792	0	-0.09478689634274365	0	8.922635063978564e-18	0	0	-2.305190009407232e-16	0
0.4317357313486095	-0.4359011047777357	0.1126313401627133	-0	2.293913404107176	0	0.09478689634274365	61.78453425326948	731.3993146221596	-0	2.309239976402408	0	-0.09478689634274365	0	-2.236008110143952e-18	0	0	1.176348930999155e-16	0
0.4343682662958571	-0.4387362624279121	0.1130244952720055	-0	2.309836442165006	0	0.09478689634274365	66.46463592166047	713.596286717005	-0	2.309337958011104	0	-0.09478689634274365	0	-3.35392905205962e-18	0	0	5.390987433720592e-17	0
0.4370008012431048	-0.4417338475742661	0.1134706669754438	-0	2.325819128764476	0	0.09478689634274365	70.47048327160189	688.0821639024664	-0	2.309438872844864	0	-0.09478689634274366	0	-5.192702676625135e-19	0	0	1.138235440943679e-15	0
0.4396333361903524	-0.4455439696445621	0.1141376603136313	-0	2.341854696092992	0	0.09478689634274365	74.77634792921246	657.6588627913375	-0	2.309559388382701	0	-0.09478689634274365	0	2.088939820019562e-18	0	0	-3.372288045952638e-16	0
0.4422658711376	-0.4494906377426832	0.1148362422057363	-0	2.357943034286347	0	0.09478689634274365	78.96013745782683	626.143056082675	-0	2.309686692666526	0	-0.09478689634274365	0	2.299357325156689e-18	0	0	3.552866041701819e-16	0
0.4448984060848476	-0.4523829839397834	0.1152492902592357	-0	2.374088459192795	0	0.09478689634274365	82.43263294783657	593.7592198493035	-0	2.309809809032816	0	-0.09478689634274365	0	-6.03917365706882e-19	0	0	1.896956199942507e-16	0
0.4475309410320952	-0.4526391813374195	0.1149713183922475	-0	2.390300461564598	0	0.09478689634274365	85.47086436336329	560.5449455633787	-0	2.309935686716075	0	-0.09478689634274365	0	-3.212926812746196e-18	0	0	-8.221860134892375e-16	0
0.4501634759793428	-0.4488693725532293	0.1136585906370245	-0	2.406589283857261	0	0.09478689634274365	87.74000334098871	526.3119754527974	-0	2.310059185319499	0	-0.09478689634274365	0	-1.842681403393073e-18	0	0	-3.075767564609893e-17	0
0.4527960109265904	-0.4411461940230599	0.1113567630071105	-0	2.422958403415593	0	0.09478689634274365	89.22801435594232	490.9068763353811	-0	2.310182445031232	0	-0.09478689634274365	0	2.472820163684432e-18	0	0	-1.974729373684554e-16	0
0.4554285458738381	-0.4298720269792467	0.1081899021353759	-0	2.439407584119701	0	0.09478689634274365	89.79065002077343	454.3222858667656	-0	2.31030431208048	0	-0.09478689634274365	0	1.678071610048556e-19	0	0	-2.959643046749169e-16	0
0.4580610808210857	-0.4152841864908712	0.1042282020620691	-0	2.455934243138325	0	0.09478689634274365	89.36790566475662	416.6791110220033	-0	2.310425271101376	0	-0.09478689634274365	0	1.166251200094816e-18	0	0	-4.904421519283e-16	0
0.4606936157683333	-0.3981205730608914	0.09966852462385747	-0	2.472534140828877	0	0.09478689634274365	87.9233295573485	378.2301310191264	-0	2.310545968443907	0	-0.09478689634274366	0	1.989764465082018e-18	0	0	9.141429273213318e-16	0
0.4633261507155809	-0.380766239994536	0.09512470121186331	-0	2.489191200607703	0	0.09478689634274366	85.45693349266254	339.3488237839863	-0	2.310667354892706	0	-0.09478689634274365	0	7.273380454784858e-18	0	0	2.515242874799501e-16	0
0.4659586856628286	-0.365112917432576	0.09107036266657872	-0	2.505885009750313	0	0.09478689634274365	81.47183051935529	299.9695541056713	-0	2.310776223461017	0	-0.09478689634274365	0	7.077861252092749e-19	0	0	-1.476978623652949e-16	0
0.4685912206100762	-0.3507116333266845	0.08737309865894487	-0	2.52260252609729	0	0.09478689634274365	75.54347795958674	260.1024484811065	-0	2.310856680769627	0	-0.09478689634274365	0	3.619461793930345e-19	0	0	5.18373052639049e-17	0
0.4712237555573238	-0.3370854240483702	0.08390116609094012	-0	2.53933460904203	0	0.09478689634274366	68.400819812013	221.347504102408	-0	2.310916658391425	0	-0.09478689634274365	0	3.0644622806037e-18	0	0	-1.366255549099161e-17	0
0.4738562905045715	-0.3224504375146152	0.08019399198655376	-0	2.556085011218436	0	0.09478689634274365	60.66346483300958	185.7055630499819	-0	2.310949252736807	0	-0.09478689634274366	0	-4.422756212860514e-19	0	0	4.234931982736363e-16	0
0.476488825451819	-0.3047765672959267	0.07573435636015743	-0	2.572865955864094	0	0.09478689634268499	52.45737040955863	153.8654414284753	-0	2.310931194097912	0	-0.09478689634274365	0	-3.695601065766107e-16	0	0	-2.982728309358218e-16	0
0.4791213603990666	-0.2836924634927698	0.07043489968429946	-0	2.58969065495593	0	0.09478689634262359	44.15071043251461	126.1065246865069	-0	2.310851670535635	0	-0.09478689634274365	0	-6.876892657873523e-16	0	0	1.351769534183815e-16	0
0.4817538953463142	-0.2595371942924726	0.06438629172108357	-0	2.606569335709511	0	0.09478689634218361	35.97550201868913	102.2926109767629	-0	2.31069579839669	0	-0.09478689634274365	0	-2.771204269274439e-15	0	0	1.548296574609317e-16	0
0.4843864302935619	-0.2340730158676422	0.05803485199375332	-0	2.623500464118742	0	0.0947868963403987	28.14043187978242	81.9298193727584	-0	2.310457058936628	0	-0.09478689634274365	0	-9.912806461919679e-15	0	0	-1.338458834007618e-16	0
0.4870189652408095	-0.2084582443120688	0.0516674592262387	-0	2.640478318613192	0	0.09478689633318976	10.16030218935461	42.00091959050783	-0	2.309392105642957	0	-0.09478689634274365	0	-3.388374224248198e-14	0	0	2.127607349239061e-17	0
0.4896515001880571	-0.1818626671180509	0.04506676386706243	-0	2.657507712688106	0	0.09478689630277135	0.01085826340095345	-0.01909847691561732	-0	2.302591638946931	0	-0.09478689634274365	0	-1.161072113136389e-13	0	0	1.846754544372154e-20	0
0.4922840351353047	-0.1540584832015054	0.03816963984185081	-0	2.674600879998366	0	0.09478689617241191	5.256223416976647e-11	-5.013438552087368e-11	-0	2.300215382072539	0	-0.09478689634274366	0	-3.922763520924842e-13	0	0	5.772633967496079e-28	0
0.4949165700825524	-0.1257890465523224	0.03115863418956106	-0	2.691775454546413	0	0.09478689559902843	-0	-0	-0	0	0	0	0	-1.302527785374504e-12	0	0	0	0
0.4975491050298	-0.09758223108061008	0.0241632882262465	-0	2.709052978057604	0	0.09478689298430325	-0	-0	-0	0	0	0	0	-4.229324376093763e-12	0	0	0	0
0.5001816399770476	-0.06981043346458782	0.01727593439766207	-0	2.726471447665366	0	0.09478688022234184	-0	-0	-0	0	0	0	0	-1.341558549840794e-11	0	0	0	0
0.5028141749242953	-0.04416640487836616	0.01092023690179695	-0	2.744073692256383	0	0.09478681081128736	-0	-0	-0	0	0	0	0	-4.139261371528089e-11	0	0	0	0
0.5054467098715428	-0.02335294258549065	0.005768977657702281	-0	2.761882692767492	0	0.0947863683450518	-0	-0	-0	0	0	0	0	-1.22784789900718e-10	0	0	0	0
0.5080792448187904	-0.008804191244162445	0.002173564202886322	-0	2.77985253141699	0	0.09478248185113744	-0	-0	-0	0	0	0	0	-3.450465900728956e-10	0	0	0	0
0.5107117797660381	-0.0002700940455983546	6.670776731507907e-05	-0	2.789021474277322	0	0.09435316898434581	2.658558340580499e-15	-1.874964833838634e-15	-0	0	0	0	0	-8.300252803179802e-10	0	0	-2.519964938497403e-16	0
0.5133443147132857	-3.949485412634617e-05	9.859414066027954e-06	-0	2.628329206350584	0	0.08639606817474195	9.517264362762894e-15	-6.617690581042178e-15	-0	0	0	0	0	1.320092365207611e-09	0	0	-9.021119506196946e-16	0
0.5159768496605333	-0.0001707981316159082	4.259114697522354e-05	-0	2.71150157391411	0	0.08956600281860899	4.232769524545039e-14	-2.905363245115511e-14	-0	2.335939832619742	0	-0.09478689634274365	0	2.649432451760956e-12	0	0	-2.674065208044933e-31	0
0.5186093846077809	-0.0004263931591681603	0.0001072087874337226	-0	2.723385364524963	0	0.0895689713655711	1.501936805788735e-13	-1.018501781568355e-13	-0	2.340882230415481	0	-0.09478689634274365	0	6.081434555147731e-15	0	0	-1.052655776153686e-31	0
0.5212419195550285	-0.0009865914117954055	0.0002516512271183408	-0	2.734928850166474	0	0.08956897505790432	3.099329103755743e-13	-2.078438984760832e-13	-0	2.345917399129566	0	-0.09478689634274366	0	4.98420845750307e-17	0	0	2.543190004877793e-30	0
0.5238744545022762	-0.002118079563210202	0.000551316648100437	-0	2.746174358814091	0	0.08956897507728807	3.01791613301529e-13	-2.003805573104586e-13	-0	2.351044688763433	0	-0.09478689634274365	0	3.497462558693908e-18	0	0	1.402607516192624e-31	0
0.5265069894495238	-0.004233111674969247	0.001128675705886316	-0	2.757206907892414	0	0.08956897507699428	1.301130754138215e-13	-8.565382968504387e-14	-0	2.356264890489862	0	-0.09478689634274365	0	-3.972702705188564e-18	0	0	-3.274398527449534e-31	0
