DataType=double
version=3
OpenSimVersion=4.6-2026-06-22-85aaf64
endheader
time	ground_force_r_vx	ground_force_r_vy	ground_force_r_vz	ground_force_r_px	ground_force_r_py	ground_force_r_pz	ground_force_l_vx	ground_force_l_vy	ground_force_l_vz	ground_force_l_px	ground_force_l_py	ground_force_l_pz	ground_torque_r_x	ground_torque_r_y	ground_torque_r_z	ground_torque_l_x	ground_torque_l_y	ground_torque_l_z
0	-0.006330105520668384	0.001750687305317706	-0	1.16968363535421	0	0.08956897507908831	1.283640494167035e-14	-7.607542983387429e-15	-0	0	0	0	0	-1.103345256453453e-19	0	0	-1.21672298461959e-15	0
0.002617368862180675	-0.01005186944962006	0.002833820975496261	-0	1.180980063062939	0	0.08956897507908834	1.239360734854972e-13	-7.236565434213603e-14	-0	0.7364047884588225	0	-0.09478689634274365	0	1.526394899266126e-19	0	0	4.994320301792837e-31	0
0.00523473772436135	-0.01557143746782206	0.004494229561487633	-0	1.191906786664772	0	0.08956897507908816	1.587165138951917e-12	-9.105985445400394e-13	-0	0.7428577699740213	0	-0.09478689634274365	0	-1.127459463264902e-19	0	0	5.559011601384033e-30	0
0.007852106586542024	-0.02362316234154583	0.007002862956620083	-0	1.202467203749725	0	0.08956897507907771	2.463630662982559e-11	-1.384186708716705e-11	-0	0.7494836031407929	0	-0.09478689634274365	0	-1.555773179801398e-18	0	0	1.542064956157549e-29	0
0.0104694754487227	-0.03525083009757957	0.01075379482242729	-0	1.212690340624395	0	0.08956897507724081	4.31258776706137e-10	-2.364312314999218e-10	-0	0.7563258478678654	0	-0.09478689634274365	0	-3.867205143540673e-16	0	0	-1.198861074900502e-27	0
0.01308684431090338	-0.05200729407533211	0.01633931796470187	-0	1.222600588450109	0	0.08956897476889931	8.186202615099343e-09	-4.364155914126813e-09	-0	0.7634284179097761	0	-0.09478689634274365	0	-9.959306124008663e-14	0	0	-3.595141675562393e-26	0
0.01570421317308405	-0.07647655301012095	0.02474668879535877	-0	1.232205288780942	0	0.08956898037594532	1.773092012386339e-07	-9.16742156120778e-08	-0	0.7708248663045868	0	-0.09478689634274365	0	2.529940291414638e-12	0	0	-4.774502172601518e-25	0
0.01832158203526473	-0.1131448666782946	0.03769978363866062	-0	1.24149794147902	0	0.08956898333023799	4.566223800924611e-06	-2.285574459382324e-06	-0	0.7785367513207844	0	-0.09478689634274365	0	5.829785553830371e-12	0	0	-4.202912901719273e-24	0
0.0209389508974454	-0.1706724593159384	0.05857119144052796	-0	1.250436224984748	0	0.08956898160030893	0.0001364278676423908	-6.605156950811113e-05	-0	0.786567222099454	0	-0.09478689634274365	0	6.936064511937607e-12	0	0	-2.332046702299991e-22	0
0.02355631975962608	-0.2655931233730454	0.093957977658957	-0	1.25897025207171	0	0.08956897969489247	0.002080299160614566	-0.0009736603206915978	-0	0.7949148598339681	0	-0.09478689634274365	0	7.619907284789683e-12	0	0	9.017934669280462e-21	0
0.02617368862180675	-0.4285948718761978	0.1564993577857582	-0	1.267062450719116	0	0.08956897834821125	-0.01631637480888066	0.007372055607932934	-0	0.8036015033625441	0	-0.09478689634274365	0	8.544619943205766e-12	0	0	4.571764854451383e-20	0
0.02879105748398742	-0.7185004180367184	0.271186921027783	-0	1.274695958870941	0	0.08956897749793856	-0.030302243952967	0.0131941559904987	-0	0.8126539829807224	0	-0.09478689634274365	0	1.002784347005923e-11	0	0	-1.024702745252547e-19	0
0.0314084263461681	-1.249677962964675	0.4881459427023646	-0	1.281879467105543	0	0.08956897698919009	-0.03676640138251198	0.01541825794568685	-0	0.8220755592519712	0	-0.09478689634274365	0	1.236591077496062e-11	0	0	6.84995673815198e-21	0
0.03402579520834878	-2.248640666831451	0.9098416199497019	-0	1.288630909969251	0	0.08956897671812569	-0.04054478680301503	0.01638506294240386	-0	0.8318536445929846	0	-0.09478689634274365	0	1.59383195749883e-11	0	0	-1.132157765866874e-19	0
0.03664316407052946	-4.170413854913997	1.748771441509426	-0	1.294972900449607	0	0.08956897662201446	-0.04363545014336139	0.01702354980457322	-0	0.8419531661918686	0	-0.09478689634274365	0	2.110852265123728e-11	0	0	-3.438106864135971e-19	0
0.03926053293271013	-7.921970296677321	3.443761489411124	-0	1.300923585889374	0	0.08956897668939845	-0.04708267496858198	0.01777691815972145	-0	0.8523366980097584	0	-0.09478689634274365	0	2.713956812670969e-11	0	0	5.691493315725985e-21	0
0.0418779017948908	-15.24543591447809	6.878773816571245	-0	1.306482462484339	0	0.08956897698212112	-0.05161910474889498	0.01890890391286148	-0	0.8629747561115235	0	-0.09478689634274365	0	2.4037606964404e-11	0	0	3.147344004974575e-19	0
0.04449527065707147	-29.10507291558271	13.67002749748271	-0	1.311643437754072	0	0.08956897771088355	-0.057855695471391	0.02061347983031472	-0	0.8738383428324666	0	-0.09478689634274365	0	-5.489228407867523e-11	0	0	1.068302507164338e-19	0
0.04711263951925215	-53.04349521887081	26.10129301939621	-0	1.316374211474937	0	0.0895689796089483	-0.06634696308967283	0.02305490047469243	-0	0.8848920762782937	0	-0.09478689634274363	0	-6.497950634770018e-10	0	0	1.018733167102998e-18	0
0.04973000838143283	-88.09172903513526	45.90348887398972	-0	1.320648698030628	0	0.08956898547440008	-0.0777652371515222	0.02643236682943265	-0	0.8961014703906029	0	-0.09478689634274365	0	-4.865533409840914e-09	0	0	8.149600287267891e-20	0
0.0523473772436135	-144.5461142955038	81.31800658785916	-0	1.324408361134961	0	0.08956900560592802	-0.09299524573735697	0.03101286863640985	-0	0.9074321084677848	0	-0.09478689634274365	0	-3.966436755545562e-08	0	0	1.916127323217848e-19	0
0.05496474610579418	-283.9225403842634	181.1138640200141	-0	1.327614579238862	0	0.08956907777659913	-0.1130810975745507	0.03711422033603318	-0	0.918852153950255	0	-0.09478689634274365	0	-4.717275372772439e-07	0	0	7.555354362421997e-19	0
0.05758211496797485	-491.6575968108103	398.9045110736345	-0	1.330204020360224	0	0.08956961388661971	-0.1388411248880107	0.04496742105232525	-0	0.9303501790167199	0	-0.09478689634274366	0	-1.027723830196032e-05	0	0	-2.43494944431395e-18	0
0.06019948383015553	-411.3318010032377	731.9430456437461	-0	1.333164148993245	0	0.08957799962250572	-0.1711199865364024	0.05480107549676317	-0	0.9419308952519039	0	-0.09478689634274365	0	-0.002313381103464109	0	0	-1.660184926679586e-18	0
0.06281685269233619	48.85523258637564	1121.017603024929	-0	1.339130281181374	0	0.08967918933101332	-0.2118824061337914	0.0671875845511498	-0	0.9536048533122071	0	-0.09478689634274365	0	-0.04172621015943908	0	0	8.911044610474798e-20	0
0.06543422155451688	-319.4742800318451	1572.984988474904	-0	1.348618783521456	0	0.09003043344362396	-0.2620824728780271	0.08238473103802413	-0	0.9653710873598632	0	-0.09478689634274365	0	-0.1568259413485738	0	0	1.177325840286141e-18	0
0.06805159041669756	-443.9996750354734	2339.193893769102	-0	1.369709197329462	0	0.09075446262040612	-0.3197194099422775	0.0996380894308298	-0	0.977275198400642	0	-0.09478689634274365	0	-0.2237333573916324	0	0	-1.580360428332096e-18	0
0.07066895927887823	-568.4769970480752	2729.306433266511	-0	1.365941374077537	0	0.09062936405649082	-0.3803588469847469	0.1173295670283679	-0	0.9893980378443701	0	-0.09478689634274365	0	0.008129211621559071	0	0	-1.423614421873209e-18	0
0.07328632814105891	-242.9454429358101	2800.43990841717	-0	1.362904295145622	0	0.09049307099748641	-0.437659608164616	0.1332517309611685	-0	1.001837724823963	0	-0.09478689634274365	0	0.06659261732216584	0	0	-3.023456404847827e-18	0
0.07590369700323958	-330.9353314446038	2729.29070408574	-0	1.364224123002936	0	0.0905538407410665	-0.4841794768821368	0.1450718299698242	-0	1.014671771158243	0	-0.09478689634274365	0	0.04932333497988244	0	0	-2.863108899109525e-18	0
0.07852106586542025	-161.7701644546827	2570.787807242562	-0	1.368413945386033	0	0.09068226741473703	-0.5138975744071484	0.1513049406346048	-0	1.027919551569442	0	-0.09478689634274365	0	0.01737030505901381	0	0	-2.245976052252631e-18	0
0.08113843472760093	-218.4890548834345	2345.333591312385	-0	1.37127644581073	0	0.09079328052572862	-0.5248808638407912	0.1518702221602811	-0	1.041574134705455	0	-0.09478689634274365	0	-0.002781273766956941	0	0	-1.167714151328762e-18	0
0.0837558035897816	-85.77183335505794	2122.895198009251	-0	1.376134751367362	0	0.09094327313098516	-0.5187234714253691	0.1477073323448462	-0	1.055590109923479	0	-0.09478689634274365	0	-0.02253749409360149	0	0	3.450682976976731e-18	0
0.08637317245196229	-125.6597342707491	1900.557453026623	-0	1.379663230497065	0	0.09107502956815428	-0.4997394508876605	0.1403642324391623	-0	1.069911292623439	0	-0.09478689634274365	0	-0.03076024951442759	0	0	8.23404333852136e-19	0
0.08899054131414295	-37.40379829817729	1710.757309109866	-0	1.385371921037499	0	0.09125697308252616	-0.4716174299325323	0.1309765753469392	-0	1.084482711652288	0	-0.09478689634274365	0	-0.04022439332963393	0	0	2.570415000793631e-18	0
0.09160791017632362	-68.60738393787199	1526.031966681885	-0	1.390045635950274	0	0.09142768763001076	-0.4379017364744738	0.1205134870270986	-0	1.099255808306224	0	-0.09478689634274365	0	-0.04170388660440257	0	0	-3.629519736302818e-19	0
0.09422527903850431	-14.39255099827923	1367.223929397544	-0	1.39680484957893	0	0.09165037250924313	-0.4014080429117612	0.1096687707874133	-0	1.114195273325831	0	-0.09478689634274365	0	-0.0435379614619273	0	0	1.197324470394893e-18	0
0.09684264790068497	-33.9022835919418	1216.28705473649	-0	1.403144151180179	0	0.09187759115641625	-0.3644917877743866	0.09899772742321815	-0	1.129271045162568	0	-0.09478689634274365	0	-0.04074662040368149	0	0	1.878172047286402e-18	0
0.09946001676286566	-6.589898474693194	1096.231432506932	-0	1.412686545082159	0	0.09220355015202435	-0.328677644590133	0.08883778083694892	-0	1.14446159015223	0	-0.09478689634274365	0	-0.03959553503881616	0	0	2.375794100095238e-19	0
0.1020773856250463	-28.09744536756306	997.286414939677	-0	1.423669232343907	0	0.09259609437503737	-0.2951585982510412	0.07945285452431639	-0	1.159747868936001	0	-0.09478689634274365	0	-0.03595938397111259	0	0	5.0614847798448e-19	0
0.104694754487227	-32.07945367698004	939.7057645287002	-0	1.438263236826719	0	0.09311018740789945	-0.2650689675386978	0.07111587974333085	-0	1.175107526756965	0	-0.09478689634274365	0	-0.03085734206035271	0	0	-9.298799220230999e-19	0
0.1073121233494077	-65.68292266284956	895.5237499655952	-0	1.45226071362414	0	0.09361431192033218	-0.2393233726647276	0.06404709844040246	-0	1.190514525332135	0	-0.09478689634274365	0	-0.02081600817409215	0	0	-1.299964590712801e-18	0
0.1099294922115883	-78.83681860345347	857.8798104226457	-0	1.46575183800282	0	0.09409374348620592	-0.2190029113040272	0.05852391047808689	-0	1.205929388033424	0	-0.09478689634274366	0	-0.009730341744831292	0	0	-2.499525007203623e-18	0
0.112546861073769	-96.33460742347496	814.7444529849005	-0	1.478088429204606	0	0.0945357328303211	-0.2047185608919151	0.05469282794652985	-0	1.221308501006368	0	-0.09478689634274365	0	-0.001825260534880504	0	0	-1.092991062872154e-18	0
0.1151642299359497	-99.81587873000865	794.0688713814002	-0	1.48611069251345	0	0.0948194177074473	-0.1960956242041809	0.05242653998357932	-0	1.236618195170041	0	-0.09478689634274366	0	-4.457671303242271e-05	0	0	-3.127079700370564e-18	0
0.1177815987981304	-99.78329774430088	806.2074468728327	-0	1.485766596469645	0	0.09480334983563182	-0.1925215945315656	0.05153743045048893	-0	1.251835625194608	0	-0.09478689634274365	0	-0.0001844167108592445	0	0	-1.031250849740252e-19	0
0.1203989676603111	-90.31031980172007	810.1693780737647	-0	1.485566530846686	0	0.09478860147917213	-0.1924663499470399	0.05158261694525534	-0	1.266970603977869	0	-0.09478689634274365	0	-3.712873786268906e-05	0	0	-6.504193014706406e-19	0
0.1230163365224917	-83.17677594241256	805.2501655643598	-0	1.485693888533506	0	0.09478701838937965	-0.1945797470711911	0.05217498208541686	-0	1.282046082608208	0	-0.09478689634274365	0	-3.999500473199724e-06	0	0	7.97084120537576e-19	0
0.1256337053846724	-73.15829893334018	804.5589830749761	-0	1.485906028867133	0	0.09478690322549263	-0.1983249694143808	0.05316989472158083	-0	1.297084470167265	0	-0.09478689634274365	0	-3.102141983727585e-07	0	0	1.66360708503312e-18	0
0.1282510742468531	-66.47288307998139	802.6924804833808	-0	1.486074321391981	0	0.09478689668566538	-0.2033298865901548	0.0544703910991326	-0	1.312104696965993	0	-0.09478689634274365	0	-2.005722507969906e-08	0	0	-8.90198804273844e-19	0
0.1308684431090338	-57.77950756697503	800.1583695402679	-0	1.486268564677492	0	0.09478689635813807	-0.2093745684905327	0.05602273680594225	-0	1.327120338562165	0	-0.09478689634274365	0	-1.126343838937554e-09	0	0	3.698215742401786e-19	0
0.1334858119712144	-50.14199437626392	794.8852815629439	-0	1.486444584545219	0	0.09478689634339835	-0.2162865293020635	0.0577866716937742	-0	1.342142292394437	0	-0.09478689634274365	0	-5.810299734256596e-11	0	0	-1.226615501017513e-18	0
0.1361031808333951	-41.32116349379204	789.575332626766	-0	1.486636527975734	0	0.09478689634276992	-0.2240836817406632	0.05977343774731243	-0	1.35717529664403	0	-0.09478689634274365	0	-2.779133496851414e-12	0	0	-1.169621210151426e-18	0
0.1387205496955758	-33.43468567609153	782.4938509169517	-0	1.486812790320403	0	0.09478689634274468	-0.2328296177097344	0.0620056781325584	-0	1.372221863365769	0	-0.09478689634274365	0	-1.256008531156632e-13	0	0	1.152547289833584e-18	0
0.1413379185577565	-24.85809509740769	775.1113875576755	-0	1.486998155744155	0	0.09478689634274369	-0.2425906270864573	0.06450394563111758	-0	1.38728187447862	0	-0.09478689634274365	0	-5.246107178821121e-15	0	0	5.053597659689341e-19	0
0.1439552874199372	-16.92441144958902	766.6153007687573	-0	1.487172450164794	0	0.09478689634274366	-0.2534363597905196	0.06728905662126936	-0	1.40235467743352	0	-0.09478689634274365	0	2.580544097995184e-16	0	0	1.691139779078819e-18	0
0.1465726562821178	-8.544006086986499	758.4097437508517	-0	1.487352640734523	0	0.09478689634274365	-0.2654390684063588	0.07038135901020745	-0	1.417438780293908	0	-0.09478689634274365	0	-3.367736934961679e-17	0	0	5.835367035233817e-19	0
0.1491900251442985	-1.048833508114511	748.7534497606749	-0	1.487517806485319	0	0.09478689634274365	-0.2786617776037412	0.07379837842456945	-0	1.432532679650349	0	-0.09478689634274365	0	1.102858884536978e-18	0	0	-9.705753640614462e-19	0
0.1518073940064791	6.289731656076119	737.3731706750009	-0	1.48767983499034	0	0.09478689634274366	-0.2931351110032777	0.07754843786352683	-0	1.447635050011887	0	-0.09478689634274365	0	-4.461045871380692e-17	0	0	1.869319611612745e-20	0
0.1544247628686598	14.41970948271095	726.924789384812	-0	1.487853855969185	0	0.09478689634274365	-0.3089050832779379	0.0816443454109007	-0	1.462744566091862	0	-0.09478689634274365	0	4.023700479078658e-17	0	0	1.004593134922362e-18	0
0.1570421317308405	24.62607201039903	721.4114524844744	-0	1.488058065265414	0	0.09478689634274365	-0.3260557851975652	0.086108835998166	-0	1.47785992997407	0	-0.09478689634274365	0	-9.681408817876219e-17	0	0	6.519326709543525e-19	0
0.1596595005930212	34.36293819726568	717.1560896167611	-0	1.48824975405858	0	0.09478689634274365	-0.3446228227815041	0.09095072085064088	-0	1.49298037894241	0	-0.09478689634274365	0	-1.563207297375006e-17	0	0	1.635114662386259e-18	0
0.1622768694552019	43.37103929028819	710.8252061980314	-0	1.488427373716527	0	0.09478689634274365	-0.364637210062906	0.0961771480937455	-0	1.508105718209202	0	-0.09478689634274365	0	3.928924887354847e-16	0	0	-3.101538922921554e-18	0
0.1648942383173825	51.80762534906437	702.3215701980913	-0	1.488594969215747	0	0.09478689634274365	-0.3862161741310871	0.1018198787675816	-0	1.523235278953574	0	-0.09478689634274365	0	2.488777771010443e-16	0	0	-2.679269845771257e-18	0
0.1675116071795632	59.85846747435593	692.2972237197329	-0	1.488755963478239	0	0.09478689634274365	-0.4096956005086067	0.1079715266241127	-0	1.538366329184203	0	-0.09478689634274365	0	5.891189851905551e-17	0	0	-1.584781017083838e-18	0
0.1701289760417439	67.32424776930108	680.5885941746493	-0	1.488907984138398	0	0.09478689634274365	-0.4353555076502024	0.1147080320421993	-0	1.553495905948451	0	-0.09478689634274365	0	-7.839665396116057e-18	0	0	-2.704442010447828e-18	0
0.1727463449039246	74.4494428345089	667.4278774252039	-0	1.489055781183464	0	0.09478689634274365	-0.4628407822735449	0.1219306210888864	-0	1.568624529501779	0	-0.09478689634274365	0	2.045519267723951e-16	0	0	-3.08193448261384e-19	0
0.1753637137661052	81.02932014974647	652.6868196853085	-0	1.489196755134771	0	0.09478689634274365	-0.490820773684705	0.1292742634381955	-0	1.583757061778888	0	-0.09478689634274365	0	-1.876660656577491e-16	0	0	2.868970458639908e-18	0
0.1779810826282859	87.23026883687177	636.513072100995	-0	1.489334489779251	0	0.09478689634274365	-0.5150189963938212	0.1355777097680868	-0	1.598914693794269	0	-0.09478689634274365	0	-1.992640961053086e-17	0	0	-1.454053789403542e-18	0
0.1805984514904666	92.85144896938084	618.7447803200124	-0	1.489466560845857	0	0.09478689634274365	-0.5304225107440307	0.1395027888544696	-0	1.614124188940457	0	-0.09478689634274365	0	4.274666874813135e-16	0	0	3.379590479955025e-18	0
0.1832158203526472	97.99521459969543	599.3871747374117	-0	1.489595961183986	0	0.09478689634274365	-0.5351390906492708	0.1405859204062342	-0	1.629402266085358	0	-0.09478689634274365	0	-8.611333358932012e-16	0	0	-5.463993611825579e-19	0
0.1858331892148279	102.5400390519128	578.426080438609	-0	1.489721538089754	0	0.09478689634274365	-0.5300315954180568	0.1391059657155804	-0	1.644754326982317	0	-0.09478689634274365	0	-3.965347377647647e-16	0	0	3.007934854508473e-18	0
0.1884505580770086	106.5233311555971	556.0158522057375	-0	1.489844772577172	0	0.09478689634274365	-0.521327961515401	0.1367629330597385	-0	1.660156116703498	0	-0.09478689634274365	0	1.762686336584567e-16	0	0	-1.6029431855046e-18	0
0.1910679269391893	109.8231436488353	532.2215544169917	-0	1.489964193584145	0	0.09478689634274365	-0.5159914396216778	0.1354197849763796	-0	1.675569445038378	0	-0.09478689634274365	0	7.730984873617625e-16	0	0	-3.11050666897852e-19	0
0.1936852958013699	112.4639840414124	507.2618983640856	-0	1.490080732377883	0	0.09478689634274365	-0.5139577500082797	0.1350157785648664	-0	1.69096905747064	0	-0.09478689634274365	0	3.058539108409191e-16	0	0	9.708999779228016e-19	0
0.1963026646635506	113.37588191778	479.7405079559416	-0	1.490178385979332	0	0.09478689634274365	-0.5129867832410153	0.1349184009125883	-0	1.706345019880456	0	-0.09478689634271394	0	1.277203296372364e-16	0	0	2.860976684427037e-16	0
0.1989200335257313	112.0776950169546	447.8314920670284	-0	1.490257705720478	0	0.09478689634274366	-0.5119963620951811	0.1348317412435009	-0	1.721696961332542	0	-0.09478689634263079	0	-1.967871932804325e-15	0	0	1.045002338985951e-15	0
0.201537402387912	109.9811740499351	412.7175327596481	-0	1.490351414276701	0	0.09478689634274365	-0.5098257011451905	0.1344409499231164	-0	1.737026140652148	0	-0.09478689634239564	0	-1.577338167960659e-16	0	0	3.032962284048165e-15	0
0.2041547712500927	107.7249544091744	376.261255418451	-0	1.490471083307988	0	0.09478689634274365	-0.5051899086547909	0.1334025660712316	-0	1.752337475947741	0	-0.09478689634164936	0	-4.62061440601538e-17	0	0	8.914425382564031e-15	0
0.2067721401122734	104.7374151176046	338.5629321133318	-0	1.490608184325911	0	0.09478689634274365	-0.4965319343993819	0.1312986561077257	-0	1.76763762915946	0	-0.09478689633936584	0	6.553503374228224e-16	0	0	2.545413021353381e-14	0
0.209389508974454	100.8085087616943	299.6142067125388	-0	1.490766914434246	0	0.09478689634274365	-0.4818937217525858	0.1276016299231295	-0	1.782937854440571	0	-0.09478689633239588	0	1.36163121164143e-17	0	0	7.1118416210874e-14	0
0.2120068778366347	95.65967111132548	259.9392728138849	-0	1.490945329339211	0	0.09478689634274365	-0.4578145007816374	0.1213707183332849	-0	1.798254852257207	0	-0.09478689631128695	0	2.499364985769203e-16	0	0	1.928713341439412e-13	0
0.2146242466988154	88.93331002176969	220.5485890952616	-0	1.491128989472532	0	0.09478689634274366	-0.4158528466136923	0.1103163556745228	-0	1.813636038049407	0	-0.09478689624536374	0	-6.5397702637709e-16	0	0	5.124313824213414e-13	0
0.217241615560996	80.10158745130943	182.5727875945851	-0	1.491277432663553	0	0.09478689634274365	-0.3515180452102614	0.09323757993910818	-0	1.82914271167115	0	-0.09478689602795375	0	3.704522622177822e-16	0	0	1.335665626808886e-12	0
0.2198589844231767	68.74968524568865	147.5555926691785	-0	1.491308122411195	0	0.09478689634274365	-0.2724249577641996	0.0722150960595551	-0	1.84482251998987	0	-0.09478689526514165	0	4.385797826316291e-16	0	0	3.395979777980289e-12	0
0.2224763532853574	56.09917350645078	116.8585408031378	-0	1.491189372647051	0	0.09478689634274365	-0.1912207615001255	0.05065147330265563	-0	1.860705526213156	0	-0.09478689239331808	0	-1.54585703955194e-17	0	0	8.362130771143363e-12	0
0.2250937221475381	43.71003690993381	91.0681599136809	-0	1.490932507231863	0	0.09478689634274365	-0.120733405230139	0.03196139399421529	-0	1.876791314308144	0	-0.09478688074059982	0	-4.335202472996683e-17	0	0	1.983514431211557e-11	0
0.2277110910097187	32.18464156566114	69.76357303394899	-0	1.490525737409397	0	0.09478689634274365	-0.06801686803986437	0.01800162491825777	-0	1.893065695848869	0	-0.09478682934470149	0	6.457228347733729e-17	0	0	4.515062027794848e-11	0
0.2303284598718994	21.86538627991874	51.70505516733814	-0	1.489992150432651	0	0.09478689634274365	-0.03318514599288108	0.008784381548500222	-0	1.909499856433294	0	-0.0947865739976909	0	-1.832305000634879e-16	0	0	9.846683721105831e-11	0
0.2329458287340801	13.09220375950462	35.94997420991562	-0	1.489365065397365	0	0.09478689634274365	-0.0125453450361794	0.003322683343794105	-0	1.926045494258061	0	-0.0947849537148138	0	-5.631737629201323e-17	0	0	2.054594038517339e-10	0
0.2355631975962608	6.065802409945165	21.58540016491461	-0	1.488652021286418	0	0.09478689634274366	-0.001457748688803347	0.0003864223380145945	-0	1.94201897025524	0	-0.09474990747544913	0	-7.418415467377232e-17	0	0	4.077588317590945e-10	0
0.2381805664584414	0.2713555918380461	3.182852655669699	-0	1.487264682339243	0	0.09478689634274365	0.0002777888138902234	-7.366381482704461e-05	-0	1.968654110221441	0	-0.09520475169687195	0	-5.514747192546163e-20	0	0	8.482560079477238e-10	0
0.2407979353206221	0.1393126531138413	-0.2143120015046542	-0	1.482670154462371	0	0.09478689634274365	-2.365094720804614e-05	6.355042989139755e-06	-0	1.746427401052676	0	-0.08460882797623828	0	-6.40547294458201e-19	0	0	-1.365578279989606e-09	0
0.2434153041828028	1.009228022573866e-05	-9.667685982113133e-06	-0	1.481677634291795	0	0.09478689634274365	-9.443555718907679e-05	2.524131533990406e-05	-0	1.869337208727301	0	-0.08951467997293559	0	9.517123129502872e-23	0	0	-2.600230399413892e-11	0
0.2460326730449834	1.147938662071032e-10	-9.091384592254426e-11	-0	1.483285675696531	0	0.09478689634274365	-0.0001920288626462561	5.135316006440055e-05	-0	1.882683704724352	0	-0.08956791828675578	0	3.106750261483823e-28	0	0	-8.224953201980229e-13	0
0.2486500419071641	1.516403414661242e-14	-1.04236447302515e-14	-0	0	0	0	-0.0003770609867184614	0.0001009305819267974	-0	1.894836205106692	0	-0.08956895407183074	0	1.437351732792777e-15	0	0	-2.400105649537852e-14	0
0.2512674107693448	-0	-0	-0	0	0	0	-0.0007164704241473755	0.0001920669744137782	-0	1.90700157594821	0	-0.08956897471535399	0	0	0	0	-5.117523878278006e-16	0
0.2538847796315255	-0	-0	-0	0	0	0	-0.001308807387696955	0.0003517506859697218	-0	1.919191205368178	0	-0.0895689750744996	0	0	0	0	-5.212376313500901e-18	0
0.2565021484937062	-0	-0	-0	0	0	0	-0.00229524325284812	0.0006200672773225203	-0	1.931310284185417	0	-0.08956897507904275	0	0	0	0	3.986433934021987e-21	0
0.2591195173558868	2.74256280429473e-15	-1.647253395408486e-15	-0	0	0	0	-0.003876087797084435	0.001056950045965709	-0	1.943242522018836	0	-0.08956897507908773	0	2.599590162441489e-16	0	0	4.93669498441543e-21	0
0.2617368862180675	1.283640494167021e-14	-7.607542983387347e-15	-0	0	0	0	-0.006330105520668408	0.001750687305317713	-0	1.954894294008269	0	-0.08956897507908831	0	1.216722984619576e-15	0	0	7.272370221797649e-20	0
0.2643542550802482	1.239360734854987e-13	-7.236565434213696e-14	-0	1.521615447112881	0	0.09478689634274365	-0.01005186944962003	0.002833820975496252	-0	1.966190721716997	0	-0.08956897507908834	0	2.18129238568616e-31	0	0	-1.278146836488279e-19	0
0.2669716239424288	1.58716513895194e-12	-9.105985445400527e-13	-0	1.52806842862808	0	0.09478689634274365	-0.01557143746782201	0.004494229561487618	-0	1.97711744531883	0	-0.08956897507908816	0	-1.07072979897611e-29	0	0	1.265045624729956e-19	0
0.2695889928046095	2.4636306629826e-11	-1.384186708716728e-11	-0	1.534694261794851	0	0.09478689634274365	-0.02362316234154574	0.007002862956620059	-0	1.987677862403784	0	-0.08956897507907771	0	5.724966102649553e-29	0	0	1.518387727348651e-18	0
0.2722063616667902	4.31258776706145e-10	-2.364312314999262e-10	-0	1.541536506521924	0	0.09478689634274365	-0.03525083009757946	0.01075379482242725	-0	1.997900999278453	0	-0.08956897507724081	0	-7.013707709896497e-28	0	0	3.868778369556321e-16	0
0.2748237305289709	8.186202615099475e-09	-4.364155914126884e-09	-0	1.548639076563834	0	0.09478689634274365	-0.05200729407533193	0.01633931796470181	-0	2.007811247104168	0	-0.08956897476889931	0	2.116905013602755e-27	0	0	9.959360797874092e-14	0
0.2774410993911516	1.773092012386385e-07	-9.16742156120802e-08	-0	1.556035524958645	0	0.09478689634274365	-0.07647655301012066	0.02474668879535868	-0	2.017415947435	0	-0.08956898037594532	0	6.648572193503106e-25	0	0	-2.529940208861398e-12	0
0.2800584682533322	4.566223800924574e-06	-2.285574459382306e-06	-0	1.563747409974843	0	0.09478689634274365	-0.113144866678294	0.03769978363866042	-0	2.026708600133079	0	-0.08956898333023799	0	1.549940400325077e-23	0	0	-5.829785880426299e-12	0
0.2826758371155129	0.0001364278676423862	-6.605156950810889e-05	-0	1.571777880753512	0	0.09478689634274365	-0.1706724593159376	0.05857119144052768	-0	2.035646883638807	0	-0.08956898160030892	0	7.478071889133596e-22	0	0	-6.936062906646816e-12	0
0.2852932059776936	0.002080299160614818	-0.0009736603206917158	-0	1.580125518488027	0	0.09478689634274365	-0.2655931233730442	0.0939579776589566	-0	2.044180910725768	0	-0.08956897969489246	0	-1.27852228581767e-20	0	0	-7.619904771362731e-12	0
0.2879105748398743	-0.01631637480888058	0.007372055607932896	-0	1.588812162016603	0	0.09478689634274365	-0.4285948718761958	0.1564993577857575	-0	2.052273109373175	0	-0.08956897834821125	0	8.478382141281583e-20	0	0	-8.544623326488372e-12	0
0.2905279437020549	-0.03030224395296685	0.01319415599049863	-0	1.597864641634781	0	0.09478689634274365	-0.7185004180367148	0.2711869210277817	-0	2.059906617524999	0	-0.08956897749793855	0	-1.606405875237192e-19	0	0	-1.002783447505092e-11	0
0.2931453125642356	-0.03676640138251181	0.01541825794568677	-0	1.60728621790603	0	0.09478689634274365	-1.249677962964669	0.4881459427023622	-0	2.067090125759601	0	-0.08956897698919009	0	3.011763496775886e-20	0	0	-1.236590114657837e-11	0
0.2957626814264163	-0.04054478680301482	0.01638506294240377	-0	1.617064303247043	0	0.09478689634274365	-2.248640666831552	0.909841619949743	-0	2.073841568623309	0	-0.08956897671812569	0	-1.026316347627406e-19	0	0	-1.593834032580791e-11	0
0.298380050288597	-0.04363545014336119	0.01702354980457314	-0	1.627163824845927	0	0.09478689634274365	-4.170413854914069	1.748771441509456	-0	2.080183559103665	0	-0.08956897662201446	0	3.519986232729175e-19	0	0	-2.110852716949538e-11	0
0.3009974191507777	-0.04708267496858179	0.01777691815972137	-0	1.637547356663817	0	0.09478689634274365	-7.921970296677424	3.443761489411169	-0	2.086134244543433	0	-0.08956897668939845	0	-2.071490772418588e-19	0	0	-2.713947042823457e-11	0
0.3036147880129583	-0.05161910474889478	0.01890890391286141	-0	1.648185414765582	0	0.09478689634274365	-15.24543591447842	6.878773816571393	-0	2.091693121138398	0	-0.08956897698212112	0	-3.065464636381371e-19	0	0	-2.403757266608819e-11	0
0.306232156875139	-0.05785569547139079	0.02061347983031465	-0	1.659049001486525	0	0.09478689634274363	-29.10507291558317	13.67002749748293	-0	2.09685409640813	0	-0.08956897771088357	0	-6.919058582971533e-19	0	0	5.489168690368745e-11	0
0.3088495257373197	-0.06634696308967254	0.02305490047469233	-0	1.670102734932352	0	0.09478689634274365	-53.04349521887164	26.10129301939661	-0	2.101584870128995	0	-0.08956897960894829	0	3.351040145338156e-20	0	0	6.497959447628894e-10	0
0.3114668945995003	-0.07776523715152185	0.02643236682943253	-0	1.681312129044661	0	0.09478689634274366	-88.09172903513635	45.90348887399028	-0	2.105859356684686	0	-0.08956898547440008	0	1.071648640552333e-18	0	0	4.865533988053855e-09	0
0.314084263461681	-0.09299524573735665	0.03101286863640975	-0	1.692642767121843	0	0.09478689634274365	-144.546114295506	81.31800658786037	-0	2.109619019789019	0	-0.08956900560592802	0	7.784638439250308e-19	0	0	3.966436592847117e-08	0
0.3167016323238617	-0.1130810975745504	0.03711422033603306	-0	1.704062812604313	0	0.09478689634274365	-283.9225403842682	181.1138640200171	-0	2.112825237892921	0	-0.08956907777659914	0	-6.81600252830378e-19	0	0	4.717275319840098e-07	0
0.3193190011860423	-0.13884112488801	0.04496742105232501	-0	1.715560837670778	0	0.09478689634274365	-491.6575968108155	398.9045110736386	-0	2.115414679014282	0	-0.08956961388661971	0	5.984528312503327e-19	0	0	1.027723830049178e-05	0
0.3219363700482231	-0.1711199865364016	0.05480107549676291	-0	1.727141553905962	0	0.09478689634274365	-411.3318010032427	731.9430456437535	-0	2.118374807647304	0	-0.08957799962250572	0	1.692936674116868e-18	0	0	0.002313381103463662	0
0.3245537389104037	-0.2118824061337904	0.0671875845511495	-0	1.738815511966266	0	0.09478689634274365	48.85523258637473	1121.017603024936	-0	2.124340939835433	0	-0.08967918933101331	0	1.505686848229798e-18	0	0	0.04172621015943855	0
0.3271711077725844	-0.2620824728780259	0.08238473103802377	-0	1.750581746013921	0	0.09478689634274365	-319.4742800318489	1572.984988474914	-0	2.133829442175514	0	-0.09003043344362396	0	-6.513478678661314e-19	0	0	0.1568259413485755	0
0.3297884766347651	-0.3197194099422762	0.09963808943082941	-0	1.762485857054701	0	0.09478689634274365	-443.9996750354777	2339.193893769116	-0	2.154919855983521	0	-0.09075446262040614	0	-1.47822717058787e-18	0	0	0.2237333573916321	0
0.3324058454969457	-0.3803588469847449	0.1173295670283673	-0	1.774608696498428	0	0.09478689634274365	-568.4769970480778	2729.306433266523	-0	2.151152032731596	0	-0.09062936405649082	0	-2.325684893364927e-18	0	0	-0.008129211621568674	0
0.3350232143591264	-0.4376596081646138	0.1332517309611679	-0	1.787048383478022	0	0.09478689634274365	-242.9454429358107	2800.439908417182	-0	2.148114953799679	0	-0.09049307099748641	0	-9.560801491630319e-19	0	0	-0.06659261732216816	0
0.3376405832213071	-0.4841794768821341	0.1450718299698234	-0	1.799882429812301	0	0.09478689634274365	-330.9353314446048	2729.290704085751	-0	2.149434781656995	0	-0.09055384074106648	0	-1.57690213244678e-18	0	0	-0.04932333497987654	0
0.3402579520834877	-0.5138975744071453	0.1513049406346038	-0	1.8131302102235	0	0.09478689634274365	-161.7701644546831	2570.787807242571	-0	2.153624604040091	0	-0.09068226741473706	0	-9.773452905654942e-19	0	0	-0.01737030505901691	0
0.3428753209456684	-0.5248808638408461	0.1518702221602969	-0	1.826784793359513	0	0.09478689634274365	-218.4890548834353	2345.333591312394	-0	2.156487104464789	0	-0.09079328052572862	0	2.52516089693358e-18	0	0	0.002781273766954133	0
0.3454926898078491	-0.5187234714253661	0.1477073323448453	-0	1.840800768577537	0	0.09478689634274365	-85.77183335505836	2122.895198009258	-0	2.16134541002142	0	-0.09094327313098516	0	-3.089438748454881e-18	0	0	0.02253749409360179	0
0.3481100586700298	-0.4997394508876586	0.1403642324391617	-0	1.855121951277498	0	0.09478689634274365	-125.6597342707498	1900.55745302663	-0	2.164873889151123	0	-0.09107502956815428	0	2.366190254816957e-18	0	0	0.03076024951442878	0
0.3507274275322105	-0.4716174299325297	0.1309765753469385	-0	1.869693370306347	0	0.09478689634274365	-37.40379829817763	1710.757309109872	-0	2.170582579691557	0	-0.09125697308252617	0	-7.153212844270828e-20	0	0	0.04022439332963337	0
0.3533447963943911	-0.437901736474519	0.120513487027111	-0	1.884466466960282	0	0.09478689634274365	-68.60738393787241	1526.03196668189	-0	2.175256294604332	0	-0.09142768763001077	0	4.362555221988547e-19	0	0	0.04170388660440172	0
0.3559621652565718	-0.4014080429117602	0.1096687707874131	-0	1.89940593197989	0	0.09478689634274365	-14.3925509982795	1367.223929397549	-0	2.182015508232988	0	-0.09165037250924311	0	-4.411092592021599e-19	0	0	0.04353796146192779	0
0.3585795341187525	-0.3644917877744308	0.09899772742323013	-0	1.914481703816627	0	0.09478689634274365	-33.90228359194215	1216.287054736495	-0	2.188354809834238	0	-0.09187759115641625	0	2.305675045042156e-18	0	0	0.04074662040368171	0
0.3611969029809332	-0.3286776445901768	0.08883778083696076	-0	1.929672248806289	0	0.09478689634274365	-6.589898474693436	1096.231432506936	-0	2.197897203736217	0	-0.09220355015202433	0	-1.660817913463652e-18	0	0	0.03959553503881632	0
0.3638142718431138	-0.2951585982510851	0.0794528545243282	-0	1.944958527590058	0	0.09478689634274365	-28.09744536756345	997.2864149396825	-0	2.208879890997965	0	-0.09259609437503738	0	1.655178589901367e-18	0	0	0.03595938397111164	0
0.3664316407052945	-0.2650689675386965	0.0711158797433305	-0	1.960318185411024	0	0.09478689634274365	-32.07945367698046	939.7057645287044	-0	2.223473895480778	0	-0.09311018740789945	0	1.340739275056748e-18	0	0	0.03085734206035343	0
0.3690490095674752	-0.2393233726647731	0.06404709844041465	-0	1.975725183986194	0	0.09478689634274365	-65.6829226628501	895.5237499655985	-0	2.237471372278198	0	-0.09361431192033216	0	-7.365878822952947e-20	0	0	0.02081600817409224	0
0.3716663784296559	-0.2190029113040261	0.05852391047808659	-0	1.991140046687483	0	0.09478689634274365	-78.83681860345416	857.8798104226498	-0	2.250962496656878	0	-0.09409374348620592	0	-1.690937119030893e-18	0	0	0.009730341744832385	0
0.3742837472918366	-0.2047185608919645	0.05469282794654305	-0	2.006519159660426	0	0.09478689634274365	-96.3346074234758	814.7444529849045	-0	2.263299087858664	0	-0.09453573283032109	0	1.11765449364068e-18	0	0	0.001825260534882515	0
0.3769011161540172	-0.19609562420418	0.05242653998357907	-0	2.021828853824099	0	0.09478689634274365	-99.81587873000947	794.0688713814041	-0	2.271321351167508	0	-0.09481941770744731	0	1.16192144881675e-18	0	0	4.457671303282058e-05	0
0.3795184850161979	-0.1925215945315657	0.05153743045048896	-0	2.037046283848666	0	0.09478689634274365	-99.78329774430175	806.2074468728372	-0	2.270977255123704	0	-0.09480334983563182	0	2.182437043603868e-19	0	0	0.0001844167108605518	0
0.3821358538783786	-0.1924663499470389	0.05158261694525509	-0	2.052181262631927	0	0.09478689634274365	-90.31031980172085	810.1693780737691	-0	2.270777189500744	0	-0.09478860147917212	0	1.406634512663374e-18	0	0	3.712873786268651e-05	0
0.3847532227405592	-0.1945797470711894	0.0521749820854164	-0	2.067256741262267	0	0.09478689634274365	-83.17677594241304	805.2501655643612	-0	2.270904547187564	0	-0.09478701838937965	0	9.455835406206137e-19	0	0	3.999500472698669e-06	0
0.3873705916027399	-0.1983249694144439	0.05316989472159776	-0	2.082295128821324	0	0.09478689634274365	-73.15829893334084	804.5589830749789	-0	2.271116687521191	0	-0.09478690322549262	0	-4.034405750283958e-19	0	0	3.102141991395648e-07	0
0.3899879604649206	-0.2033298865902206	0.05447039109915025	-0	2.097315355620052	0	0.09478689634274365	-66.47288307998217	802.692480483385	-0	2.27128498004604	0	-0.09478689668566538	0	-2.333989386859929e-19	0	0	2.005722560153135e-08	0
0.3926053293271012	-0.2093745684905317	0.05602273680594198	-0	2.112330997216224	0	0.09478689634274365	-57.77950756697541	800.158369540269	-0	2.27147922333155	0	-0.09478689635813807	0	1.224975720094368e-18	0	0	1.126343670499796e-09	0
0.3952226981892819	-0.2162865293020615	0.05778667169377367	-0	2.127352951048497	0	0.09478689634274365	-50.14199437626448	794.8852815629467	-0	2.271655243199278	0	-0.09478689634339835	0	9.467631377329915e-19	0	0	5.810329611365403e-11	0
0.3978400670514626	-0.2240836817407318	0.0597734377473307	-0	2.142385955298089	0	0.09478689634274365	-41.32116349379267	789.5753326267704	-0	2.271847186629793	0	-0.09478689634276993	0	-1.499158702631159e-18	0	0	2.778355791657925e-12	0
0.4004574359136433	-0.2328296177097324	0.06200567813255788	-0	2.157432522019827	0	0.09478689634274365	-33.43468567609202	782.4938509169541	-0	2.272023448974461	0	-0.09478689634274468	0	2.447645131655208e-19	0	0	1.257586231072276e-13	0
0.403074804775824	-0.2425906270864562	0.06450394563111728	-0	2.172492533132678	0	0.09478689634274365	-24.85809509740822	775.1113875576797	-0	2.272208814398214	0	-0.09478689634274369	0	-8.179638766907372e-19	0	0	5.144994607257353e-15	0
0.4056921736380047	-0.2534363597905194	0.0672890566212693	-0	2.187565336087579	0	0.09478689634274365	-16.92441144958922	766.6153007687576	-0	2.272383108818852	0	-0.09478689634274366	0	1.548069934102072e-18	0	0	-1.349638641726978e-16	0
0.4083095425001854	-0.2654390684063564	0.07038135901020684	-0	2.202649438947966	0	0.09478689634274365	-8.544006086986874	758.4097437508515	-0	2.272563299388581	0	-0.09478689634274363	0	4.684192413166382e-19	0	0	1.521868724239437e-16	0
0.410926911362366	-0.27866177760374	0.07379837842456913	-0	2.217743338304407	0	0.09478689634274365	-1.048833508115075	748.7534497606767	-0	2.272728465139376	0	-0.09478689634274365	0	1.496553336481456e-18	0	0	4.130773703633075e-18	0
0.4135442802245466	-0.2931351110032763	0.07754843786352646	-0	2.232845708665946	0	0.09478689634274365	6.289731656075585	737.3731706750032	-0	2.272890493644399	0	-0.09478689634274365	0	-1.515235248138829e-18	0	0	-1.330033665873041e-17	0
0.4161616490867274	-0.3089050832779364	0.08164434541090029	-0	2.247955224745921	0	0.09478689634274365	14.41970948271045	726.9247893848141	-0	2.273064514623243	0	-0.09478689634274365	0	-8.239710206614364e-19	0	0	1.027978034926801e-16	0
0.418779017948908	-0.3260557851975651	0.08610883599816596	-0	2.263070588628127	0	0.09478689634274366	24.62607201039884	721.4114524844792	-0	2.273268723919472	0	-0.09478689634274365	0	5.43504587642505e-18	0	0	-2.168169844037499e-16	0
0.4213963868110887	-0.3446228227815035	0.09095072085064074	-0	2.278191037596468	0	0.09478689634274365	34.36293819726512	717.1560896167605	-0	2.273460412712638	0	-0.09478689634274365	0	1.258739192635547e-18	0	0	9.972614813139958e-17	0
0.4240137556732694	-0.3646372100629731	0.09617714809376318	-0	2.293316376863261	0	0.09478689634274365	43.37103929028758	710.8252061980302	-0	2.273638032370584	0	-0.09478689634274365	0	3.244245993211695e-18	0	0	3.057622597121688e-16	0
0.42663112453545	-0.3862161741310849	0.1018198787675811	-0	2.308445937607632	0	0.09478689634274365	51.80762534906384	702.3215701980912	-0	2.273805627869804	0	-0.09478689634274365	0	-1.300266708239601e-18	0	0	-1.353133353804862e-16	0
0.4292484933976307	-0.4096956005086033	0.1079715266241118	-0	2.323576987838261	0	0.09478689634274365	59.85846747435589	692.2972237197384	-0	2.273966622132298	0	-0.09478689634274365	0	-1.916133982233848e-19	0	0	1.262947482023401e-16	0
0.4318658622598114	-0.4353555076502018	0.1147080320421991	-0	2.338706564602509	0	0.09478689634274365	67.32424776930057	680.5885941746509	-0	2.274118642792457	0	-0.09478689634274365	0	3.365661278460322e-19	0	0	3.655514869638869e-16	0
0.4344832311219921	-0.462840782273541	0.1219306210888854	-0	2.353835188155837	0	0.09478689634274365	74.44944283450847	667.4278774252059	-0	2.274266439837522	0	-0.09478689634274365	0	-2.515112783076589e-19	0	0	2.415709944841015e-16	0
0.4371005999841727	-0.4908207736847007	0.1292742634381944	-0	2.368967720432946	0	0.09478689634274365	81.02932014974593	652.6868196853068	-0	2.274407413788829	0	-0.09478689634274365	0	1.372580074869205e-18	0	0	-3.722708990375138e-16	0
0.4397179688463534	-0.5150189963938185	0.1355777097680861	-0	2.384125352448327	0	0.09478689634274365	87.23026883687172	636.513072100997	-0	2.274545148433309	0	-0.09478689634274365	0	-1.308793075869137e-18	0	0	-3.90143235152863e-17	0
0.4423353377085341	-0.5304225107440278	0.1395027888544688	-0	2.399334847594514	0	0.09478689634274365	92.85144896938027	618.7447803200107	-0	2.274677219499915	0	-0.09478689634274365	0	5.662193199068007e-19	0	0	7.594828206607654e-16	0
0.4449527065707147	-0.535139090649328	0.1405859204062492	-0	2.414612924739416	0	0.09478689634274365	97.99521459969453	599.3871747374135	-0	2.274806619838044	0	-0.09478689634274365	0	8.518901619473564e-19	0	0	-5.112724206884816e-16	0
0.4475700754328954	-0.5300315954180539	0.1391059657155796	-0	2.429964985636376	0	0.09478689634274365	102.5400390519129	578.4260804386111	-0	2.274932196743813	0	-0.09478689634274365	0	9.378749453533526e-19	0	0	-4.032325822466348e-16	0
0.4501874442950761	-0.5213279615153985	0.1367629330597378	-0	2.445366775357557	0	0.09478689634274365	106.5233311555972	556.0158522057396	-0	2.27505543123123	0	-0.09478689634274365	0	-9.296664409953559e-19	0	0	-4.877411939754307e-16	0
0.4528048131572568	-0.5159914396216775	0.1354197849763795	-0	2.460780103692436	0	0.09478689634274365	109.8231436488347	532.2215544169899	-0	2.275174852238203	0	-0.09478689634274365	0	3.435141760692381e-18	0	0	7.842643142231076e-16	0
0.4554221820194375	-0.513957750008277	0.1350157785648657	-0	2.476179716124699	0	0.09478689634274365	112.4639840414126	507.2618983640875	-0	2.275291391031941	0	-0.09478689634274365	0	3.205147060711748e-18	0	0	-5.58385738032076e-16	0
0.4580395508816181	-0.5129867832410657	0.1349184009126016	-0	2.491555678534515	0	0.09478689634271394	113.3758819177803	479.7405079559439	-0	2.27538904463339	0	-0.09478689634274363	0	-2.824060725701437e-16	0	0	-1.347482362661116e-15	0
0.4606569197437989	-0.5119963620951762	0.1348317412434996	-0	2.506907619986601	0	0.09478689634263079	112.0776950169536	447.8314920670261	-0	2.275468364374535	0	-0.09478689634274363	0	-1.050067558238399e-15	0	0	-1.774488175760241e-15	0
0.4632742886059795	-0.5098257011452428	0.1344409499231302	-0	2.522236799306206	0	0.09478689634239562	109.9811740499361	412.7175327596535	-0	2.27556207293076	0	-0.09478689634274365	0	-3.044797265418062e-15	0	0	-1.283357997708675e-16	0
0.4658916574681602	-0.5051899086547883	0.1334025660712309	-0	2.5375481346018	0	0.09478689634164936	107.7249544091743	376.2612554184522	-0	2.275681741962047	0	-0.09478689634274365	0	-8.913603663855171e-15	0	0	-8.7144264220288e-16	0
0.4685090263303409	-0.4965319343994332	0.1312986561077392	-0	2.552848287813518	0	0.09478689633936584	104.7374151176049	338.5629321133336	-0	2.275818842979969	0	-0.09478689634274365	0	-2.545477939861535e-14	0	0	-8.489414314881621e-16	0
0.4711263951925215	-0.4818937217525832	0.1276016299231288	-0	2.568148513094629	0	0.09478689633239588	100.8085087616957	299.6142067125439	-0	2.275977573088305	0	-0.09478689634274365	0	-7.111424016380781e-14	0	0	-7.458088499398442e-16	0
0.4737437640547022	-0.457814500781635	0.1213707183332843	-0	2.583465510911265	0	0.09478689631128695	95.65967111132704	259.9392728138899	-0	2.276155987993269	0	-0.09478689634274365	0	-1.928738667534909e-13	0	0	4.827552426829262e-16	0
0.4763611329168829	-0.4158528466137397	0.1103163556745354	-0	2.598846696703466	0	0.09478689624536372	88.93331002176981	220.5485890952625	-0	2.27633964812659	0	-0.09478689634274365	0	-5.124331007034199e-13	0	0	8.846636999316679e-16	0
0.4789785017790635	-0.3515180452102595	0.09323757993910768	-0	2.614353370325208	0	0.09478689602795375	80.1015874513097	182.5727875945861	-0	2.276488091317611	0	-0.09478689634274366	0	-1.33566411437787e-12	0	0	1.465238263698281e-15	0
0.4815958706412442	-0.272424957764198	0.07221509605955467	-0	2.630033178643928	0	0.09478689526514165	68.74968524568862	147.555592669179	-0	2.276518781065253	0	-0.09478689634274365	0	-3.39597971247506e-12	0	0	4.201282705055876e-16	0
0.4842132395034249	-0.1912207615001245	0.05065147330265537	-0	2.645916184867215	0	0.09478689239331808	56.09917350645036	116.8585408031379	-0	2.27640003130111	0	-0.09478689634274365	0	-8.362129176342233e-12	0	0	2.469044783677118e-16	0
0.4868306083656055	-0.1207334052301396	0.03196139399421544	-0	2.662001972962202	0	0.09478688074059982	43.71003690993178	91.06815991367706	-0	2.276143165885921	0	-0.09478689634274365	0	-1.983514547125461e-11	0	0	-5.801014855198753e-17	0
0.4894479772277862	-0.06801686803988584	0.01800162491826345	-0	2.678276354502927	0	0.09478682934470149	32.18464156566299	69.76357303395298	-0	2.275736396063455	0	-0.09478689634274365	0	-4.515062100340989e-11	0	0	7.464470371146977e-17	0
0.4920653460899669	-0.03318514599288154	0.008784381548500345	-0	2.694710515087352	0	0.0947865739976909	21.86538627991733	51.70505516733506	-0	2.275202809086708	0	-0.09478689634274365	0	-9.846683694598938e-11	0	0	-5.062352189245096e-17	0
0.4946827149521476	-0.01254534503617934	0.003322683343794091	-0	2.71125615291212	0	0.0947849537148138	13.09220375950453	35.94997420991577	-0	2.274575724051423	0	-0.09478689634274365	0	-2.054594038567706e-10	0	0	2.157552992436354e-17	0
0.4973000838143283	-0.001457748688803341	0.0003864223380145929	-0	2.727229628909298	0	0.09474990747544913	6.06580240994515	21.58540016491471	-0	2.273862679940476	0	-0.09478689634274365	0	-4.077588317651654e-10	0	0	-2.473094733703052e-17	0
0.4999174526765089	0.0002777888138902027	-7.366381482703914e-05	-0	2.7538647688755	0	0.09520475169687198	0.2713555918382118	3.182852655671792	-0	2.272475340993302	0	-0.09478689634274365	0	-8.482560079490255e-10	0	0	1.320627843662927e-19	0
0.5025348215386897	-2.365094720804358e-05	6.355042989139078e-06	-0	2.531638059706709	0	0.0846088279762372	0.1393126531138756	-0.2143120015047063	-0	2.267880813116429	0	-0.09478689634274365	0	1.365578279990383e-09	0	0	6.215897724728089e-19	0
0.5051521904008702	-9.443555718907644e-05	2.524131533990396e-05	-0	2.654547867381359	0	0.08951467997293559	1.009228022573871e-05	-9.667685982113187e-06	-0	2.266888292945853	0	-0.09478689634274365	0	2.600230399647833e-11	0	0	7.043129194477114e-23	0
0.5077695592630509	-0.0001920288626462556	5.135316006440041e-05	-0	2.667894363378411	0	0.08956791828675578	1.147938662071039e-10	-9.091384592254483e-11	-0	2.26849633435059	0	-0.09478689634274365	0	8.224953215047454e-13	0	0	4.398129568032173e-28	0
0.5103869281252316	-0.0003770609867184609	0.0001009305819267973	-0	2.68004686376075	0	0.08956895407183074	1.516403414661253e-14	-1.042364473025158e-14	-0	0	0	0	0	2.400105153235457e-14	0	0	-1.437351732792787e-15	0
0.5130042969874122	-0.0007164704241473749	0.000192066974413778	-0	2.692212234602267	0	0.08956897471535399	-0	-0	-0	0	0	0	0	5.117483314102407e-16	0	0	0	0
0.515621665849593	-0.001308807387696952	0.000351750685969721	-0	2.704401864022237	0	0.08956897507449958	-0	-0	-0	0	0	0	0	5.201035927637439e-18	0	0	0	0
0.5182390347117737	-0.002295243252848117	0.0006200672773225196	-0	2.716520942839475	0	0.08956897507904274	-0	-0	-0	0	0	0	0	-2.495994963832307e-20	0	0	0	0
0.5208564035739544	-0.003876087797084415	0.001056950045965703	-0	2.728453180672894	0	0.08956897507908775	2.742562804294781e-15	-1.647253395408517e-15	-0	0	0	0	0	5.094827001699996e-20	0	0	-2.599590162441538e-16	0
0.523473772436135	-0.006330105520668405	0.001750687305317712	-0	2.740104952662326	0	0.08956897507908833	1.28364049416704e-14	-7.607542983387461e-15	-0	0	0	0	0	-1.101512187278768e-21	0	0	-1.216722984619595e-15	0
