DataType=double
version=3
OpenSimVersion=4.6-2026-06-22-85aaf64
endheader
time	ground_force_r_vx	ground_force_r_vy	ground_force_r_vz	ground_force_r_px	ground_force_r_py	ground_force_r_pz	ground_force_l_vx	ground_force_l_vy	ground_force_l_vz	ground_force_l_px	ground_force_l_py	ground_force_l_pz	ground_torque_r_x	ground_torque_r_y	ground_torque_r_z	ground_torque_l_x	ground_torque_l_y	ground_torque_l_z
0	-179.6827717530944	71.75547381906085	-0	1.257338541463825	0	0.08956897507908848	96.21201549329636	163.9289040495018	-0	0.7955647075688467	0	-0.09478689634274365	0	-1.503028637476651e-15	0	0	8.162332451438879e-17	0
0.003243065400666626	-260.5771853335191	116.6464014210279	-0	1.266048292054868	0	0.08956897507908929	84.24980419150205	137.3378318788755	-0	0.7954038351086843	0	-0.09478689634274365	0	-1.468506027546013e-15	0	0	3.652402833253117e-17	0
0.006486130801333251	-386.9268413718653	207.5695956574842	-0	1.273184481868041	0	0.08956897507909037	70.40347021572792	109.4361170094867	-0	0.7952323555759685	0	-0.09478689634274365	0	-3.147966717119999e-15	0	0	-2.593925413170999e-16	0
0.009729196201999876	-527.8707036876261	389.4414733535916	-0	1.278374730908942	0	0.08956897507909845	54.27891713667162	79.42485908984015	-0	0.7950824822693741	0	-0.09478689634274365	0	-2.446637447053338e-13	0	0	3.184130914642209e-16	0
0.0129722616026665	-470.4241834841842	685.6884943213472	-0	1.282104751502894	0	0.0895689750792299	35.83447479488537	48.05173625452878	-0	0.7949963109771867	0	-0.09478689634274365	0	-2.821366582224396e-11	0	0	1.940023595496911e-16	0
0.01621532700333313	-112.1005940421206	995.1755084554313	-0	1.285128583977722	0	0.08956897508123056	14.84883624252348	17.57324870486309	-0	0.7949881936955538	0	-0.09478689634274365	0	-1.431712489361947e-09	0	0	1.073444389175575e-16	0
0.01945839240399975	-352.6264463368507	1259.293150925451	-0	1.284527132202309	0	0.08956897510164784	-0.6027690336536325	-0.7335613649551848	-0	0.7942263895273775	0	-0.09478689634274366	0	-1.395814462950886e-08	0	0	-1.017987272787667e-17	0
0.02270145780466638	-139.5286557909959	1453.77006110833	-0	1.286138878454987	0	0.08956897529085041	-4.90493590765418e-05	-0.0001766198357639025	-0	0.7913883703534896	0	-0.09478689634274365	0	-1.474206549623887e-07	0	0	3.519582816937134e-22	0
0.025944523205333	-311.3633123223138	1561.077885366196	-0	1.285681864812045	0	0.08956897680884876	3.119318971210251e-09	-3.463316979589481e-09	-0	0.7877847489641482	0	-0.09478689634274365	0	-1.196201281002149e-06	0	0	2.527727728252744e-26	0
0.02918758860599963	-147.4718449715371	1604.198347270397	-0	1.287004255421338	0	0.08956898783678291	1.119054851691728e-13	-1.035521547528972e-13	-0	0.7899194543807262	0	-0.09478689634274363	0	-8.939701270712265e-06	0	0	-2.34142049342166e-30	0
0.03243065400666625	-257.7019546457187	1589.890121430852	-0	1.286725645543027	0	0.08956905278449451	-0	-0	-0	0	0	0	0	-4.85751208596625e-05	0	0	0	0
0.03567371940733288	-125.0857772238888	1542.562267564502	-0	1.287931967581649	0	0.08956937151248043	-0	-0	-0	0	0	0	0	-0.0002221766216905531	0	0	0	0
0.0389167848079995	-192.8930580208328	1469.176416465689	-0	1.287799777142006	0	0.08957057088559507	-0	-0	-0	0	0	0	0	-0.00073292180859046	0	0	0	0
0.04215985020866613	-91.53620676002296	1386.348143003519	-0	1.288960957528924	0	0.08957422293834615	-0	-0	-0	0	0	0	0	-0.002014250873898499	0	0	0	0
0.04540291560933276	-132.3198579528477	1298.091309138522	-0	1.289113871591214	0	0.08958256227943162	-0	-0	-0	0	0	0	0	-0.00409052256375582	0	0	0	0
0.04864598100999939	-60.99961730157184	1213.027807592015	-0	1.290431049126456	0	0.08959792549061456	-0	-0	-0	0	0	0	0	-0.007018171418721073	0	0	0	0
0.05188904641066601	-84.32610667144408	1131.388215792746	-0	1.290996706357203	0	0.08961848644875424	-0	-0	-0	0	0	0	0	-0.009177604119545079	0	0	0	0
0.05513211181133262	-36.42309978105233	1054.63392453797	-0	1.292336402000224	0	0.08964139577471436	-0	-0	-0	0	0	0	0	-0.01057656401367538	0	0	0	0
0.05837517721199925	-46.54336098063168	981.6611354176897	-0	1.292938830081932	0	0.08966104148996419	-0	-0	-0	0	0	0	0	-0.01023667775797815	0	0	0	0
0.06161824261266589	-14.9489865472823	913.0713443442665	-0	1.294001359645467	0	0.08968010101480306	-0	-0	-0	0	0	0	0	-0.00980948406394132	0	0	0	0
0.06486130801333251	-17.43032170706489	849.7476394875417	-0	1.294582729387981	0	0.08969738735974855	-0	-0	-0	0	0	0	0	-0.008829532584003747	0	0	0	0
0.06810437341399914	2.340942339562921	791.4757276699917	-0	1.295505948793793	0	0.08971647039608754	-0	-0	-0	0	0	0	0	-0.0082218458959279	0	0	0	0
0.07134743881466576	3.832761354269004	738.2150829746835	-0	1.296117901808904	0	0.08973382303188883	-0	-0	-0	0	0	0	0	-0.007405231330845771	0	0	0	0
0.07459050421533238	16.34002662359235	689.0785111264642	-0	1.296910589444104	0	0.08975185632838473	3.693515818609217e-21	-1.59475886121061e-21	-0	0	0	0	0	-0.006918226152633408	0	0	-3.500969010387958e-22	0
0.07783356961599901	19.72801904590515	644.0675035703798	-0	1.297521864995172	0	0.08976862895913505	1.379540363203462e-20	-5.861591927377918e-21	-0	0	0	0	0	-0.00646497132755298	0	0	-1.307623494075975e-21	0
0.08107663501666564	27.79724198215342	602.6072925808051	-0	1.298273082859372	0	0.08978760788347948	6.134117733951004e-20	-2.570768735828344e-20	-0	0	0	0	0	-0.006359385754553991	0	0	-5.814339818021994e-21	0
0.08431970041733226	31.40056953314398	564.9877373967273	-0	1.299008550782046	0	0.0898087539943815	2.988869660980573e-19	-1.237056259489314e-19	-0	0	0	0	0	-0.006434750278632045	0	0	-2.833056787373369e-20	0
0.08756276581799889	36.68041612587002	530.8856225079354	-0	1.299952292983497	0	0.08983611587532632	1.543565412177892e-18	-6.309971184385584e-19	-0	0	0	0	0	-0.006883492733978979	0	0	-1.463097747223502e-19	0
0.09080583121866552	39.89619694860606	500.4117469917134	-0	1.301133380368448	0	0.08987312919159535	8.118566282913549e-18	-3.274750028151e-18	-0	0	0	0	0	-0.007752323915258533	0	0	-7.695337007102202e-19	0
0.09404889661933215	44.92610201748799	473.1219373623735	-0	1.302988426767078	0	0.08993244415876137	4.173986029638513e-17	-1.658853834798695e-17	-0	0	0	0	0	-0.009659133292265998	0	0	-3.956391811274059e-18	0
0.09729196201999876	50.5216567516209	449.4313499467499	-0	1.306252458307007	0	0.09004061969362999	2.075436172808257e-16	-8.121532828633351e-17	-0	0	0	0	0	-0.01383257433207041	0	0	-1.967241533779568e-17	0
0.1005350274206654	55.61849670392751	432.4588253565324	-0	1.312398090828763	0	0.09025032045114111	9.973144086223588e-16	-3.843156466496411e-16	-0	0	0	0	0	-0.02284597582751779	0	0	-9.45323374712122e-17	0
0.103778092821332	54.21571320034974	429.7538674134364	-0	1.322931980078129	0	0.09061901903531253	4.631101827792609e-15	-1.758353196886248e-15	-0	0	0	0	0	-0.03858862786366053	0	0	-4.389677689036687e-16	0
0.1070211582219986	39.4090829060611	446.564500005266	-0	1.336611287248658	0	0.09110595717579659	2.059864153109042e-14	-7.711799165380933e-15	-0	0	0	0	0	-0.05415261445312749	0	0	-1.952481299608802e-15	0
0.1102642236226653	20.40352780598059	472.0947778036381	-0	1.349557434780505	0	0.0915667316721038	8.448072333004116e-14	-3.120585764401732e-14	-0	1.077737053393913	0	-0.09478689634274365	0	-0.05859738850868216	0	0	2.619982320098085e-31	0
0.1135072890233319	9.722265603834188	493.3469021640763	-0	1.360490921469328	0	0.09195086723547352	2.942676002977227e-13	-1.072942756050905e-13	-0	1.092311629756422	0	-0.09478689634274365	0	-0.05334148921965869	0	0	-1.052735538751532e-30	0
0.1167503544239985	3.403586133024624	509.8882735763168	-0	1.370199008202981	0	0.09228957913378365	6.189974293488164e-13	-2.228565665778977e-13	-0	1.107006391413808	0	-0.09478689634274365	0	-0.04454224174563362	0	0	3.982930327912136e-30	0
0.1199934198246651	-1.989965679979051	523.2083362945491	-0	1.379019610343078	0	0.09259676478902878	-3.688208254712778e-13	1.311592161884493e-13	-0	1.121816695745119	0	-0.09478689634274365	0	-0.03481804061724604	0	0	2.954958826985361e-30	0
0.1232364852253318	-6.348271719126755	533.632991673564	-0	1.387028725675441	0	0.09287520322357785	-1.898885743811667e-12	6.673452837225444e-13	-0	1.136721172950141	0	-0.09478689634274365	0	-0.02516376419319206	0	0	1.14091902503964e-31	0
0.1264795506259984	-9.893940500497726	541.8270536942323	-0	1.394334985354328	0	0.09312891765392547	-2.126383867327623e-12	7.389965364305231e-13	-0	1.151697793267749	0	-0.09478689634274365	0	-0.0162888701539822	0	0	3.593087705411986e-30	0
0.129722616026665	-12.72628274438846	548.1549662507686	-0	1.401000918821183	0	0.09336020632673971	-1.857218270870389e-12	6.387012694039559e-13	-0	1.166731554537833	0	-0.09478689634274366	0	-0.008569104346967353	0	0	-2.429017796963819e-29	0
0.1329656814273316	-14.86197313190858	552.9722852306849	-0	1.407086172570022	0	0.09357120866950175	-1.597245581158084e-12	5.438979960008953e-13	-0	1.181809814265211	0	-0.09478689634274365	0	-0.002200393627134938	0	0	9.264226525488009e-30	0
0.1362087468279983	-16.37092756865614	556.4441176056765	-0	1.412640910684096	0	0.09376373111506739	-1.305706474749966e-12	4.405088161000996e-13	-0	1.196923845106428	0	-0.09478689634274365	0	0.002748971528475295	0	0	6.91814240336449e-30	0
0.1394518122286649	-17.27592358399848	558.7995390366473	-0	1.417705517551889	0	0.09393920087400721	-1.063836472684912e-12	3.557753333063254e-13	-0	1.212065836782225	0	-0.09478689634274366	0	0.006293211293490001	0	0	-1.454744600061027e-29	0
0.1426948776293315	-17.66502839644908	560.2740189855317	-0	1.422298707312208	0	0.09409828796934894	-8.428254860490725e-13	2.795386534421604e-13	-0	1.227227715859179	0	-0.09478689634274365	0	0.008509187041541579	0	0	3.28878187762991e-30	0
0.1459379430299982	-17.41582045742772	560.9296680841637	-0	1.426461880534023	0	0.09424237387161427	-7.370988152197292e-13	2.425601118203818e-13	-0	1.242403376242415	0	-0.09478689634274365	0	0.009506212894104317	0	0	1.974149041854903e-30	0
0.1491810084306648	-16.40645321365901	560.5114499063228	-0	1.430279922778289	0	0.094374391838461	-5.682592543380693e-13	1.85584507848423e-13	-0	1.25759403688287	0	-0.09478689634274365	0	0.00937450795413998	0	0	2.966459480365556e-30	0
0.1524240738313314	-14.86635790212007	559.2472797067654	-0	1.433756037584437	0	0.09449451431358652	-6.550567421971574e-13	2.123246908290748e-13	-0	1.272801935920372	0	-0.09478689634274365	0	0.008241719057491187	0	0	-3.071323629667678e-30	0
0.155667139231998	-13.09882246940656	557.8888664550152	-0	1.436789998650482	0	0.09459922179464644	-7.514972769773707e-13	2.417456703597789e-13	-0	1.288018964247224	0	-0.09478689634274365	0	0.006355867021052307	0	0	5.95896659801053e-30	0
0.1589102046326646	-11.09249145864645	556.963366037171	-0	1.439305657086022	0	0.09468567941966043	-4.281510274598191e-13	1.366806541529845e-13	-0	1.303232586511097	0	-0.09478689634274365	0	0.004025506348191402	0	0	-1.4864177065958e-31	0
0.1621532700333313	-8.741805918667135	556.9662887806768	-0	1.441205120019198	0	0.09475018266205384	-4.836256907286462e-13	1.532056389618691e-13	-0	1.318427420244705	0	-0.09478689634274365	0	0.001685435116397962	0	0	1.747101470692352e-30	0
0.1653963354339979	-5.902850212610419	558.7957611961918	-0	1.442283340751332	0	0.09478506220587375	-5.408860812011752e-13	1.70023849723759e-13	-0	1.333589916340797	0	-0.09478689634274365	0	9.590043242387228e-05	0	0	1.360603269080359e-30	0
0.1686394008346645	-2.489860764346282	562.3252665356063	-0	1.44258572312203	0	0.09479170466774227	-1.197129805300783e-12	3.733947748349581e-13	-0	1.348710757237414	0	-0.09478689634274365	0	-0.0002832659204089342	0	0	-4.972130362789566e-30	0
0.1718824662353312	1.246526182641879	565.5693155044667	-0	1.442635305555455	0	0.09478912316014329	-1.310594310527534e-12	4.056072927480903e-13	-0	1.363782324192331	0	-0.09478689634274365	0	-0.0001464715916439288	0	0	-6.081856945267469e-30	0
0.1751255316359978	4.926380892390267	567.5838692345768	-0	1.442707257639706	0	0.09478752496544973	-2.129666983829311e-12	6.539665452919362e-13	-0	1.378798283851908	0	-0.09478689634274365	0	-4.5816041361374e-05	0	0	7.698761485737924e-30	0
0.1783685970366644	8.480811352014781	568.4670998431146	-0	1.442804469472959	0	0.09478705296652065	-3.044877259098964e-12	9.277370869066823e-13	-0	1.393753688503735	0	-0.09478689634274365	0	-1.256639172479507e-05	0	0	-2.423510808439678e-29	0
0.181611662437331	11.93705842626492	568.3833935068415	-0	1.442906405554659	0	0.09478693379833457	-4.849872112174839e-12	1.466251047241548e-12	-0	1.408645778881339	0	-0.09478689634274363	0	-3.289564215455583e-06	0	0	3.307531675566386e-29	0
0.1848547278379977	15.2886129532977	567.4442476265909	-0	1.443006002892313	0	0.09478690454948865	-7.652196511739005e-12	2.295623430438171e-12	-0	1.42347442632777	0	-0.09478689634274365	0	-7.850972991442574e-07	0	0	-1.225700727748717e-29	0
0.1880977932386643	18.52772187664866	565.7356625451495	-0	1.443101507755117	0	0.09478689794177382	-1.506474839095849e-11	4.484553857699054e-12	-0	1.438243817863936	0	-0.09478689634274365	0	-1.659109873896647e-07	0	0	-1.310373682312474e-29	0
0.1913408586393309	21.64597363314607	563.3079232255004	-0	1.443192515632059	0	0.09478689662180965	-2.837438209253449e-11	8.381577086627353e-12	-0	1.452960327102196	0	-0.09478689634274365	0	-3.128384945041883e-08	0	0	-1.490351545326492e-28	0
0.1945839240399975	24.64766463535841	560.2041010888753	-0	1.443279182629033	0	0.09478689638710433	-5.99709550875196e-11	1.757822292290704e-11	-0	1.467632892935432	0	-0.09478689634274365	0	-5.354209827609967e-09	0	0	3.66555279794427e-28	0
0.1978269894406642	27.5139643832986	556.4761032724537	-0	1.443361329768274	0	0.09478689634925534	-1.293294434904816e-10	3.7615279949973e-11	-0	1.482270138438409	0	-0.09478689634274365	0	-8.435691635542878e-10	0	0	6.185830991348032e-28	0
0.2010700548413308	30.1981449392621	552.1826585393053	-0	1.443438310876806	0	0.09478689634363474	-2.96636577663263e-10	8.561387660472737e-11	-0	1.496878516448757	0	-0.09478689634274366	0	-1.235593284755694e-10	0	0	-4.219658402209547e-27	0
0.2043131202419974	32.79862582415593	547.3167221044135	-0	1.443512139619032	0	0.09478689634285811	-7.094817252742444e-10	2.032119922013524e-10	-0	1.511466967411524	0	-0.09478689634274365	0	-1.694052698469655e-11	0	0	1.120870293410939e-27	0
0.207556185642664	35.52308102073344	541.8452392035972	-0	1.443586694606859	0	0.09478689634275755	-1.759703013242852e-09	5.00246916984158e-10	-0	1.526046311712987	0	-0.09478689634274365	0	-2.191014595325363e-12	0	0	3.531036596038796e-27	0
0.2107992510433307	38.46924098672654	535.788083491493	-0	1.44366379688261	0	0.09478689634274527	-4.504782273746031e-09	1.271200868703503e-09	-0	1.540629681827868	0	-0.09478689634274365	0	-2.702626621050645e-13	0	0	1.613906295456597e-26	0
0.2140423164439973	41.70485443348633	529.1937664761741	-0	1.443744603435487	0	0.09478689634274381	-1.182163665819103e-08	3.311898769099705e-09	-0	1.555233063434915	0	-0.09478689634274365	0	-3.200573765501141e-14	0	0	5.182640935532833e-26	0
0.2172853818446639	45.23163321204566	522.1331002756532	-0	1.443828959199583	0	0.09478689634274366	-3.156887130248286e-08	8.782045290160252e-09	-0	1.56987275059297	0	-0.09478689634274365	0	-3.876156158800362e-15	0	0	-6.803587693644719e-26	0
0.2205284472453305	48.98038419330711	514.7080211147427	-0	1.443915330493278	0	0.09478689634274365	-8.514512534045288e-08	2.35253610803111e-08	-0	1.584564045440605	0	-0.09478689634274365	0	-3.206500651970164e-16	0	0	-6.400009618953091e-25	0
0.2237715126459971	52.94266691125512	506.9833324097287	-0	1.444003316853607	0	0.09478689634274365	-2.301412880847934e-07	6.317399277933642e-08	-0	1.59932321299616	0	-0.09478689634274365	0	4.825530290729519e-16	0	0	-7.573073163132469e-25	0
0.2270145780466638	57.11417961327018	499.0248899959135	-0	1.444092619637118	0	0.09478689634274365	-6.184846180141538e-07	1.687290391752158e-07	-0	1.614167134070688	0	-0.09478689634274365	0	6.219582565576673e-17	0	0	2.192358078741533e-25	0
0.2302576434473304	61.44520286062674	490.921825541367	-0	1.444181832763675	0	0.09478689634274365	-1.639015395729728e-06	4.445515622396368e-07	-0	1.629115260251345	0	-0.09478689634274365	0	-1.228428146967525e-16	0	0	2.324477300916932e-24	0
0.233500708847997	65.85143866794311	482.7699783447083	-0	1.444268901667871	0	0.09478689634274365	-4.24343213883972e-06	1.144678803764872e-06	-0	1.644193869803056	0	-0.09478689634274365	0	-2.738327418867891e-16	0	0	1.349150610009971e-23	0
0.2367437742486636	70.28019690373276	474.6591360245841	-0	1.444352249380583	0	0.09478689634274365	-1.062673093834259e-05	2.85194652736477e-06	-0	1.659429813587771	0	-0.09478689634274365	0	3.407468643887011e-16	0	0	8.754042760167195e-23	0
0.2399868396493303	74.67464678399901	466.6647407232304	-0	1.444430326766711	0	0.09478689634274365	-2.5475387635774e-05	6.804603775117968e-06	-0	1.674849449403418	0	-0.09478689634274365	0	2.942646573392173e-16	0	0	4.511532981544901e-23	0
0.2432299050499969	78.98200734051183	458.8027993015256	-0	1.444501735647111	0	0.09478689634274365	-5.784678741358614e-05	1.538456910941759e-05	-0	1.690479126563868	0	-0.09478689634274365	0	2.950391353183743e-17	0	0	-3.449303798701858e-22	0
0.2464729704506635	83.18011182091607	451.0640637007792	-0	1.444565921140186	0	0.09478689634274365	-0.0001230902144235203	3.261058171602472e-05	-0	1.706344869246751	0	-0.09478689634274365	0	2.717346909543893e-16	0	0	-6.207324015240999e-22	0
0.2497160358513302	87.26304155547133	443.4618576063568	-0	1.444622547924268	0	0.09478689634274365	-0.0002427476635479744	6.409718928700703e-05	-0	1.722472992092587	0	-0.09478689634274365	0	-5.020353521786818e-16	0	0	-9.522468995589386e-22	0
0.2529591012519968	91.23020034763209	435.9965832943084	-0	1.44467150074765	0	0.09478689634274365	-0.0004382787181136634	0.0001154010338809447	-0	1.738892324656812	0	-0.09478689634274365	0	-6.531993059475495e-16	0	0	1.326553063311947e-21	0
0.2562021666526634	95.03619268020597	428.6665101020064	-0	1.444711678518786	0	0.09478689634274365	-0.0007147906375759063	0.0001877787148955845	-0	1.75563299562722	0	-0.09478689634274365	0	-4.786649304574349e-16	0	0	9.294443293506863e-22	0
0.25944523205333	98.63798107439328	421.4996357802131	-0	1.44474197777475	0	0.09478689634274365	-0.001040850237218591	0.0002729951889045493	-0	1.772714197642293	0	-0.09478689613052506	0	-3.429338055661603e-16	0	0	4.676639459052731e-15	0
0.2626882974539967	102.0385036963749	414.4953566272675	-0	1.444762494425309	0	0.09478689634274366	-0.001336398666455886	0.0003502038285205005	-0	1.790152099591929	0	-0.09478689329274866	0	-1.937274101104354e-15	0	0	7.561959413810926e-14	0
0.2659313628546633	105.2613611305762	407.5895985094455	-0	1.444774160912289	0	0.09478689634274365	-0.001487761778395188	0.000389817478273136	-0	1.807963281729943	0	-0.09478684974595053	0	-5.75331727029599e-16	0	0	1.095281971506595e-12	0
0.2691744282553299	108.2924641995291	400.6754015496124	-0	1.444777405527155	0	0.09478689634274365	-0.001407007877720856	0.0003689153838796461	-0	1.82614675862178	0	-0.0947861368599164	0	5.233236518970702e-18	0	0	1.379634864424804e-11	0
0.2724174936559965	111.1383083122879	393.6470818455124	-0	1.444773158614596	0	0.09478689634274366	-0.001097092448798312	0.0002881116823481041	-0	1.844458669981071	0	-0.09477351551005632	0	-1.210300053321041e-15	0	0	1.449711045175835e-10	0
0.2756605590566631	113.7937278360212	386.5048880602062	-0	1.444761498580011	0	0.09478689634274365	-0.0006936673374593595	0.0001826964422502435	-0	1.857581515582754	0	-0.09453275335661766	0	-6.714388562421214e-16	0	0	1.13600738436765e-09	0
0.2789036244573298	116.2812438307556	379.4644477450028	-0	1.444741599061824	0	0.09478689634274365	-0.0006120201143761671	0.0001621435730775671	-0	1.805600748577033	0	-0.09182743485164446	0	8.68515656167547e-16	0	0	2.773257523063987e-09	0
0.2821466898579964	118.6542845835641	372.5771082315607	-0	1.444714518317984	0	0.09478689634274365	-0.003028514425466916	0.0008059817656389186	-0	1.757184774591195	0	-0.08960229195941559	0	-5.03287597211125e-16	0	0	1.777534209713856e-11	0
0.2853897552586631	120.9593407327474	365.5613151661071	-0	1.444683452691386	0	0.09478689634274363	-0.02161697875126803	0.005782676038759468	-0	1.76647857733926	0	-0.08956897062000968	0	1.359407226136281e-15	0	0	3.152160230303623e-13	0
0.2886328206593297	123.1544340184492	358.0911566614108	-0	1.444650202926603	0	0.09478689634274365	-0.1269356537316376	0.03420501408767928	-0	1.777154981300681	0	-0.08956897507903819	0	7.122706476967245e-16	0	0	4.485747339965933e-17	0
0.2918758860599963	125.1474582339577	349.8133946977512	-0	1.444615619835668	0	0.09478689634274366	-0.6038383359084472	0.1642466261504128	-0	1.788285321232051	0	-0.08956897507908836	0	-2.077462813964629e-15	0	0	5.036160423227813e-20	0
0.2951189514606629	126.7701155386123	340.3736405547064	-0	1.444579329613243	0	0.09478689634274365	-2.31431110760869	0.636757526603515	-0	1.799855221253523	0	-0.08956897507908836	0	7.368651305597206e-16	0	0	1.15149945413446e-17	0
0.2983620168613296	127.8160106636288	329.4654330967517	-0	1.444539897093208	0	0.09478689634274365	-7.112969257177156	1.985147380773682	-0	1.81181797427244	0	-0.08956897507908836	0	-7.200662012705368e-16	0	0	-1.797179758118389e-17	0
0.3016050822619961	128.1253795051323	316.7006553433899	-0	1.444498617655394	0	0.09478689634274365	-17.50021538812637	4.974625652380309	-0	1.824101904313988	0	-0.08956897507908836	0	1.515854258202976e-16	0	0	3.116572150178661e-18	0
0.3048481476626628	127.5491641467202	301.7140425379567	-0	1.444457504839923	0	0.09478689634274365	-34.53974779408536	10.0621389764688	-0	1.836589775573373	0	-0.08956897507908836	0	-9.48717678357025e-17	0	0	4.123262367936303e-17	0
0.3080912130633294	125.9467458827372	284.1669429317578	-0	1.44441968819304	0	0.09478689634274365	-55.48704849495911	16.69892353538869	-0	1.849129837576224	0	-0.08956897507908836	0	5.347868186877677e-16	0	0	-3.427727916490827e-16	0
0.311334278463996	123.1915917277156	263.952291190326	-0	1.444387512122208	0	0.09478689634274365	-75.21494984356003	23.56697385331222	-0	1.861542213905595	0	-0.08956897507908836	0	-4.12387299772887e-16	0	0	-2.957680411958149e-17	0
0.3145773438646626	119.1017087936417	241.2108221181662	-0	1.444359635235515	0	0.09478689634274365	-91.42980099389236	30.02313133960786	-0	1.873627320566979	0	-0.08956897507908837	0	7.504802970482587e-16	0	0	-1.896480222355996e-15	0
0.3178204092653293	113.4617712583368	216.3792849172083	-0	1.444330436986868	0	0.09478689634274365	-107.9243577381604	37.38333939499133	-0	1.885189885297083	0	-0.08956897507908836	0	6.305265264393172e-16	0	0	-5.106037479724505e-16	0
0.3210634746659959	105.9750829171631	190.238056958312	-0	1.444282326217178	0	0.09478689634274365	-133.4549339172093	49.19430087213702	-0	1.896043470295809	0	-0.08956897507908837	0	-6.800217870266168e-16	0	0	-1.89711210651714e-15	0
0.3243065400666625	96.2120154932967	163.9289040495024	-0	1.44417778770217	0	0.09478689634274365	-179.682771753097	71.75547381906189	-0	1.905951621597149	0	-0.08956897507908848	0	-4.352677232692917e-16	0	0	1.777420140030257e-15	0
0.3275496054673291	84.24980419150167	137.3378318788751	-0	1.444016915242008	0	0.09478689634274365	-260.5771853335228	116.6464014210296	-0	1.914661372188192	0	-0.0895689750790893	0	-8.2763289583328e-17	0	0	-2.686796607630125e-15	0
0.3307926708679958	70.40347021572761	109.4361170094862	-0	1.443845435709292	0	0.09478689634274363	-386.9268413718697	207.5695956574866	-0	1.921797562001365	0	-0.08956897507909037	0	6.724325743966219e-16	0	0	1.908150298916447e-15	0
0.3340357362686624	54.27891713667186	79.42485908984051	-0	1.443695562402698	0	0.09478689634274365	-527.8707036876309	389.441473353595	-0	1.926987811042266	0	-0.08956897507909845	0	8.985501588542296e-17	0	0	2.433112177036186e-13	0
0.3372788016693291	35.83447479488554	48.05173625452902	-0	1.443609391110511	0	0.09478689634274365	-470.4241834841875	685.6884943213514	-0	1.930717831636218	0	-0.0895689750792299	0	7.326465092292001e-17	0	0	2.821679217875621e-11	0
0.3405218670699957	14.84883624252442	17.57324870486419	-0	1.443601273828878	0	0.09478689634274365	-112.1005940421218	995.1755084554366	-0	1.933741664111046	0	-0.08956897508123057	0	9.139333409341919e-17	0	0	1.431709322670244e-09	0
0.3437649324706623	-0.6027690336536941	-0.7335613649552615	-0	1.442839469660702	0	0.09478689634274366	-352.6264463368527	1259.293150925456	-0	1.933140212335633	0	-0.08956897510164784	0	1.150554273275681e-17	0	0	1.395814560464899e-08	0
0.3470079978713289	-4.904935907654303e-05	-0.0001766198357639057	-0	1.440001450486814	0	0.09478689634274363	-139.528655790997	1453.770061108335	-0	1.934751958588311	0	-0.08956897529085039	0	-1.024420808230109e-21	0	0	1.474206568546249e-07	0
0.3502510632719956	3.119318971210261e-09	-3.463316979589492e-09	-0	1.436397829097472	0	0.09478689634274365	-311.3633123223154	1561.077885366201	-0	1.934294944945369	0	-0.08956897680884876	0	3.633257583531852e-27	0	0	1.196201279012611e-06	0
0.3534941286726622	1.119054851691743e-13	-1.035521547528985e-13	-0	1.43853253451405	0	0.09478689634274365	-147.4718449715383	1604.198347270403	-0	1.935617335554662	0	-0.08956898783678292	0	-7.297268131926463e-31	0	0	8.939701269096881e-06	0
0.3567371940733288	-0	-0	-0	0	0	0	-257.7019546457201	1589.890121430857	-0	1.935338725676351	0	-0.08956905278449451	0	0	0	0	4.857512086027492e-05	0
0.3599802594739954	-0	-0	-0	0	0	0	-125.0857772238898	1542.562267564507	-0	1.936545047714973	0	-0.08956937151248041	0	0	0	0	0.0002221766216915034	0
0.363223324874662	-0	-0	-0	0	0	0	-192.8930580208337	1469.176416465692	-0	1.936412857275331	0	-0.08957057088559507	0	0	0	0	0.0007329218085881627	0
0.3664663902753287	-0	-0	-0	0	0	0	-91.53620676002365	1386.348143003522	-0	1.937574037662248	0	-0.08957422293834616	0	0	0	0	0.002014250873896525	0
0.3697094556759953	-0	-0	-0	0	0	0	-132.3198579528485	1298.091309138525	-0	1.937726951724538	0	-0.08958256227943161	0	0	0	0	0.00409052256375819	0
0.3729525210766619	-0	-0	-0	0	0	0	-60.99961730157235	1213.027807592018	-0	1.93904412925978	0	-0.08959792549061456	0	0	0	0	0.007018171418721421	0
0.3761955864773285	-0	-0	-0	0	0	0	-84.32610667144458	1131.388215792749	-0	1.939609786490527	0	-0.08961848644875423	0	0	0	0	0.009177604119545197	0
0.3794386518779952	-0	-0	-0	0	0	0	-36.42309978105266	1054.633924537973	-0	1.940949482133548	0	-0.08964139577471436	0	0	0	0	0.01057656401367583	0
0.3826817172786618	-0	-0	-0	0	0	0	-46.54336098063197	981.6611354176921	-0	1.941551910215256	0	-0.0896610414899642	0	0	0	0	0.0102366777579774	0
0.3859247826793284	-0	-0	-0	0	0	0	-14.94898654728249	913.0713443442688	-0	1.942614439778791	0	-0.08968010101480307	0	0	0	0	0.009809484063941101	0
0.389167848079995	-0	-0	-0	0	0	0	-17.43032170706506	849.747639487544	-0	1.943195809521305	0	-0.08969738735974857	0	0	0	0	0.008829532584003657	0
0.3924109134806617	-0	-0	-0	0	0	0	2.340942339562814	791.4757276699939	-0	1.944119028927118	0	-0.08971647039608756	0	0	0	0	0.008221845895928058	0
0.3956539788813283	-0	-0	-0	0	0	0	3.832761354268923	738.2150829746854	-0	1.944730981942228	0	-0.08973382303188884	0	0	0	0	0.007405231330845938	0
0.3988970442819949	3.693515818609214e-21	-1.594758861210609e-21	-0	0	0	0	16.34002662359231	689.0785111264662	-0	1.945523669577428	0	-0.08975185632838471	0	3.500969010387955e-22	0	0	0.006918226152633005	0
0.4021401096826616	1.37954036320346e-20	-5.861591927377907e-21	-0	0	0	0	19.72801904590513	644.0675035703817	-0	1.946134945128496	0	-0.08976862895913505	0	1.307623494075973e-21	0	0	0.006464971327552593	0
0.4053831750833282	6.134117733950998e-20	-2.570768735828342e-20	-0	0	0	0	27.79724198215343	602.607292580807	-0	1.946886162992696	0	-0.08978760788347949	0	5.814339818021988e-21	0	0	0.006359385754554196	0
0.4086262404839948	2.98886966098057e-19	-1.237056259489313e-19	-0	0	0	0	31.400569533144	564.987737396729	-0	1.947621630915371	0	-0.08980875399438148	0	2.833056787373366e-20	0	0	0.006434750278631178	0
0.4118693058846614	1.543565412177889e-18	-6.309971184385571e-19	-0	0	0	0	36.68041612587006	530.885622507937	-0	1.948565373116822	0	-0.08983611587532636	0	1.463097747223499e-19	0	0	0.006883492733980783	0
0.4151123712853281	8.118566282913526e-18	-3.274750028150991e-18	-0	0	0	0	39.89619694860612	500.4117469917151	-0	1.949746460501772	0	-0.08987312919159533	0	7.69533700710218e-19	0	0	0.007752323915257954	0
0.4183554366859947	4.173986029638506e-17	-1.658853834798693e-17	-0	0	0	0	44.92610201748807	473.1219373623752	-0	1.951601506900402	0	-0.08993244415876138	0	3.956391811274052e-18	0	0	0.009659133292266545	0
0.4215985020866613	2.075436172808254e-16	-8.12153282863334e-17	-0	0	0	0	50.521656751621	449.4313499467515	-0	1.954865538440331	0	-0.09004061969362998	0	1.967241533779565e-17	0	0	0.01383257433207043	0
0.4248415674873279	9.973144086223574e-16	-3.843156466496406e-16	-0	0	0	0	55.6184967039276	432.4588253565342	-0	1.961011170962087	0	-0.09025032045114111	0	9.453233747121208e-17	0	0	0.02284597582751838	0
0.4280846328879946	4.631101827792589e-15	-1.75835319688624e-15	-0	0	0	0	54.21571320034981	429.7538674134386	-0	1.971545060211453	0	-0.09061901903531253	0	4.389677689036668e-16	0	0	0.03858862786365897	0
0.4313276982886612	2.059864153109039e-14	-7.71179916538092e-15	-0	0	0	0	39.40908290606107	446.5645000052684	-0	1.985224367381982	0	-0.0911059571757966	0	1.952481299608799e-15	0	0	0.05415261445312767	0
0.4345707636893278	8.448072333004108e-14	-3.120585764401729e-14	-0	1.726350133527237	0	0.09478689634274365	20.40352780598048	472.0947778036406	-0	1.998170514913829	0	-0.09156673167210382	0	2.240445232070938e-31	0	0	0.05859738850868223	0
0.4378138290899944	2.942676002977225e-13	-1.072942756050904e-13	-0	1.740924709889746	0	0.09478689634274365	9.722265603834039	493.3469021640785	-0	2.009104001602652	0	-0.09195086723547354	0	1.262135087566153e-30	0	0	0.05334148921965876	0
0.441056894490661	6.189974293488159e-13	-2.228565665778975e-13	-0	1.755619471547132	0	0.09478689634274365	3.403586133024441	509.8882735763189	-0	2.018812088336305	0	-0.09228957913378365	0	6.006899406776557e-30	0	0	0.04454224174563395	0
0.4442999598913276	-3.688208254713306e-13	1.311592161884681e-13	-0	1.770429775878443	0	0.09478689634274365	-1.989965679979236	523.2083362945517	-0	2.027632690476401	0	-0.0925967647890288	0	-1.839518366990926e-30	0	0	0.03481804061724623	0
0.4475430252919943	-1.898885743811664e-12	6.673452837225436e-13	-0	1.785334253083465	0	0.09478689634274365	-6.348271719126952	533.6329916735666	-0	2.035641805808765	0	-0.09287520322357784	0	-2.626886488279409e-30	0	0	0.02516376419319227	0
0.450786090692661	-2.126383867327621e-12	7.389965364305223e-13	-0	1.800310873401073	0	0.09478689634274365	-9.893940500497948	541.8270536942352	-0	2.042948065487652	0	-0.09312891765392547	0	-6.10588229118743e-30	0	0	0.01628887015398239	0
0.4540291560933276	-1.857218270870387e-12	6.387012694039552e-13	-0	1.815344634671157	0	0.09478689634274365	-12.72628274438867	548.1549662507707	-0	2.049613998954507	0	-0.09336020632673972	0	9.04387588909285e-30	0	0	0.008569104346967204	0
0.4572722214939942	-1.597245581158082e-12	5.438979960008945e-13	-0	1.830422894398535	0	0.09478689634274365	-14.8619731319088	552.9722852306867	-0	2.055699252703346	0	-0.09357120866950175	0	-4.837935223051498e-30	0	0	0.002200393627134923	0
0.4605152868946608	-1.305706474749964e-12	4.405088161000991e-13	-0	1.845536925239752	0	0.09478689634274365	-16.37092756865637	556.444117605679	-0	2.061253990817421	0	-0.09376373111506739	0	-2.491851100927979e-30	0	0	-0.002748971528475409	0
0.4637583522953275	-1.063836472684902e-12	3.55775333306322e-13	-0	1.860678916915549	0	0.09478689634274365	-17.2759235839987	558.7995390366495	-0	2.066318597685213	0	-0.09393920087400721	0	1.935546213280433e-30	0	0	-0.006293211293490155	0
0.4670014176959941	-8.428254860490715e-13	2.795386534421601e-13	-0	1.875840795992503	0	0.09478689634274365	-17.66502839644933	560.2740189855346	-0	2.070911787445532	0	-0.09409828796934895	0	1.975107620065082e-30	0	0	-0.00850918704154191	0
0.4702444830966607	-7.370988152197284e-13	2.425601118203816e-13	-0	1.891016456375738	0	0.09478689634274365	-17.41582045742792	560.9296680841653	-0	2.075074960667346	0	-0.09424237387161426	0	-2.811747237113385e-30	0	0	-0.009506212894104284	0
0.4734875484973273	-5.682592543380687e-13	1.855845078484228e-13	-0	1.906207117016194	0	0.09478689634274365	-16.4064532136592	560.5114499063257	-0	2.078893002911614	0	-0.09437439183846101	0	2.716229114958678e-30	0	0	-0.009374507954139884	0
0.4767306138979939	-6.550567421971568e-13	2.123246908290746e-13	-0	1.921415016053696	0	0.09478689634274365	-14.86635790212026	559.2472797067669	-0	2.082369117717761	0	-0.09449451431358651	0	-3.867762258544277e-30	0	0	-0.008241719057490842	0
0.4799736792986605	-7.514972769773699e-13	2.417456703597786e-13	-0	1.936632044380548	0	0.09478689634274365	-13.09882246940676	557.8888664550174	-0	2.085403078783806	0	-0.09459922179464646	0	5.825209690267177e-30	0	0	-0.00635586702105249	0
0.4832167446993272	-4.281510274598187e-13	1.366806541529844e-13	-0	1.951845666644421	0	0.09478689634274365	-11.09249145864664	556.9633660371732	-0	2.087918737219346	0	-0.09468567941966041	0	1.255214596268708e-30	0	0	-0.004025506348191199	0
0.4864598100999938	-4.836256907286457e-13	1.532056389618689e-13	-0	1.967040500378029	0	0.09478689634274365	-8.741805918667339	556.9662887806787	-0	2.089818200152523	0	-0.09475018266205383	0	8.848432781551446e-31	0	0	-0.001685435116397878	0
0.4897028755006604	-5.408860812011747e-13	1.700238497237588e-13	-0	1.982202996474121	0	0.09478689634274365	-5.902850212610621	558.7957611961945	-0	2.090896420884656	0	-0.09478506220587374	0	1.271341479767138e-30	0	0	-9.590043242380476e-05	0
0.492945940901327	-1.197129805300782e-12	3.733947748349578e-13	-0	1.997323837370737	0	0.09478689634274365	-2.48986076434643	562.325266535608	-0	2.091198803255354	0	-0.09479170466774228	0	-2.38575462305163e-30	0	0	0.0002832659204088983	0
0.4961890063019937	-1.310594310527533e-12	4.056072927480901e-13	-0	2.012395404325655	0	0.09478689634274365	1.246526182641637	565.5693155044687	-0	2.091248385688779	0	-0.09478912316014328	0	-8.57228942944487e-31	0	0	0.0001464715916439026	0
0.4994320717026604	-2.129666983829309e-12	6.539665452919355e-13	-0	2.027411363985232	0	0.09478689634274366	4.926380892390105	567.5838692345785	-0	2.091320337773031	0	-0.09478752496544973	0	3.238408401254344e-29	0	0	4.581604136134414e-05	0
0.5026751371033269	-3.044877259098961e-12	9.277370869066813e-13	-0	2.04236676863706	0	0.09478689634274365	8.480811352014641	568.4670998431171	-0	2.091417549606283	0	-0.09478705296652064	0	2.088471530336286e-29	0	0	1.256639172458735e-05	0
0.5059182025039936	-4.849872112174833e-12	1.466251047241547e-12	-0	2.057258859014663	0	0.09478689634274365	11.93705842626483	568.383393506844	-0	2.091519485687984	0	-0.09478693379833456	0	2.752939375006762e-29	0	0	3.289564215255178e-06	0
0.5091612679046602	-7.652196511738997e-12	2.295623430438168e-12	-0	2.072087506461094	0	0.09478689634274365	15.28861295329757	567.444247626594	-0	2.091619083025637	0	-0.09478690454948865	0	-4.66060726092424e-29	0	0	7.850972990653089e-07	0
0.5124043333053268	-1.506474839095847e-11	4.484553857699046e-12	-0	2.08685689799726	0	0.09478689634274365	18.52772187664855	565.7356625451503	-0	2.091714587888441	0	-0.09478689794177383	0	-1.369940542514667e-29	0	0	1.659109876436129e-07	0
0.5156473987059934	-2.837438209253452e-11	8.381577086627361e-12	-0	2.10157340723552	0	0.09478689634274365	21.64597363314603	563.3079232255029	-0	2.091805595765384	0	-0.09478689662180965	0	7.821449369366502e-29	0	0	3.128384940621328e-08	0
0.5188904641066601	-5.997095508751952e-11	1.757822292290702e-11	-0	2.116245973068756	0	0.09478689634274365	24.64766463535834	560.2041010888769	-0	2.091892262762357	0	-0.09478689638710433	0	3.608288604070749e-28	0	0	5.354210198023257e-09	0
0.5221335295073267	-1.293294434904817e-10	3.761527994997304e-11	-0	2.130883218571733	0	0.09478689634274365	27.51396438329846	556.4761032724552	-0	2.091974409901598	0	-0.09478689634925534	0	3.232261790528699e-28	0	0	8.43569138276144e-10	0
0.5253765949079934	-2.966365776632627e-10	8.561387660472727e-11	-0	2.14549159658208	0	0.09478689634274366	30.19814493926204	552.1826585393078	-0	2.09205139101013	0	-0.09478689634363474	0	3.898020695230286e-27	0	0	1.235594842118495e-10	0
0.5286196603086599	-7.094817252742437e-10	2.032119922013522e-10	-0	2.160080047544849	0	0.09478689634274365	32.79862582415581	547.3167221044162	-0	2.092125219752357	0	-0.09478689634285811	0	-5.102532544147803e-27	0	0	1.694040910323028e-11	0
0.5318627257093266	-1.75970301324285e-09	5.002469169841575e-10	-0	2.174659391846312	0	0.09478689634274365	35.5230810207335	541.8452392036002	-0	2.092199774740183	0	-0.09478689634275755	0	1.001485697656191e-27	0	0	2.191073536058489e-12	0
0.5351057911099932	-4.504782273746025e-09	1.271200868703501e-09	-0	2.189242761961191	0	0.09478689634274365	38.4692409867266	535.7880834914959	-0	2.092276877015935	0	-0.09478689634274527	0	3.70642732410335e-27	0	0	2.701069258249061e-13	0
0.5383488565106598	-1.182163665819099e-08	3.311898769099693e-09	-0	2.203846143568239	0	0.09478689634274365	41.70485443348612	529.193766476174	-0	2.092357683568811	0	-0.09478689634274383	0	6.970738512676495e-27	0	0	3.236348102617327e-14	0
0.5415919219113264	-3.156887130248288e-08	8.782045290160258e-09	-0	2.218485830726294	0	0.09478689634274365	45.23163321204559	522.1331002756547	-0	2.092442039332907	0	-0.09478689634274366	0	-1.181744629551373e-25	0	0	4.246569452243152e-15	0
0.5448349873119931	-8.514512534045255e-08	2.352536108031101e-08	-0	2.233177125573929	0	0.09478689634274365	48.98038419330697	514.7080211147439	-0	2.092528410626602	0	-0.09478689634274365	0	7.105110473939488e-25	0	0	8.467996387982946e-16	0
0.5480780527126596	-2.301412880847935e-07	6.317399277933644e-08	-0	2.247936293129484	0	0.09478689634274365	52.94266691125519	506.9833324097319	-0	2.092616396986932	0	-0.09478689634274365	0	-4.242687857755081e-26	0	0	3.521209718438213e-17	0
0.5513211181133263	-6.18484618014152e-07	1.687290391752152e-07	-0	2.262780214204013	0	0.09478689634274365	57.1141796132701	499.0248899959149	-0	2.092705699770442	0	-0.09478689634274365	0	1.223130241306322e-24	0	0	-1.506069253444925e-16	0
0.5545641835139929	-1.639015395729722e-06	4.445515622396352e-07	-0	2.277728340384669	0	0.09478689634274365	61.44520286062662	490.9218255413671	-0	2.092794912896998	0	-0.09478689634274365	0	1.159943118531407e-23	0	0	4.961348445118217e-18	0
0.5578072489146595	-4.243432138839713e-06	1.144678803764871e-06	-0	2.292806949936379	0	0.09478689634274365	65.85143866794314	482.7699783447111	-0	2.092881981801196	0	-0.09478689634274365	0	-2.051778902163057e-23	0	0	3.033031084496977e-16	0
0.5610503143153261	-1.062673093834254e-05	2.851946527364758e-06	-0	2.308042893721095	0	0.09478689634274365	70.28019690373311	474.6591360245872	-0	2.092965329513907	0	-0.09478689634274365	0	7.50338287611871e-23	0	0	-4.164564922024065e-16	0
0.5642933797159928	-2.547538763577395e-05	6.804603775117954e-06	-0	2.323462529536742	0	0.09478689634274365	74.67464678399918	466.664740723233	-0	2.093043406900036	0	-0.09478689634274363	0	-2.03691570133718e-22	0	0	-1.153761360653601e-15	0
0.5675364451166595	-5.784678741358602e-05	1.538456910941755e-05	-0	2.339092206697191	0	0.09478689634274365	78.98200734051156	458.8027993015253	-0	2.093114815780435	0	-0.09478689634274365	0	-2.050591863445199e-22	0	0	1.346168139705937e-16	0
0.5707795105173261	-0.0001230902144235197	3.261058171602458e-05	-0	2.354957949380075	0	0.09478689634274365	83.18011182091578	451.0640637007802	-0	2.093179001273509	0	-0.09478689634274365	0	5.862976780163102e-23	0	0	3.217400631166502e-16	0
0.5740225759179927	-0.0002427476635479741	6.409718928700696e-05	-0	2.371086072225912	0	0.09478689634274365	87.26304155547115	443.4618576063564	-0	2.093235628057591	0	-0.09478689634274365	0	-1.022870311810897e-21	0	0	7.545671793698386e-16	0
0.5772656413186593	-0.0004382787181136613	0.0001154010338809442	-0	2.387505404790137	0	0.09478689634274365	91.23020034763188	435.9965832943079	-0	2.093284580880974	0	-0.09478689634274365	0	1.563444348696226e-21	0	0	-1.191765312432743e-17	0
0.580508706719326	-0.0007147906375759074	0.0001877787148955848	-0	2.404246075760544	0	0.09478689634274363	95.03619268020579	428.666510102006	-0	2.09332475865211	0	-0.09478689634274365	0	-1.6501215435231e-20	0	0	7.311967576485917e-16	0
0.5837517721199925	-0.001040850237218589	0.0002729951889045487	-0	2.421327277775617	0	0.09478689613052506	98.63798107439356	421.499635780216	-0	2.093355057908075	0	-0.09478689634274365	0	-4.676641707462805e-15	0	0	6.376374711952461e-16	0
0.5869948375206593	-0.001336398666455883	0.0003502038285204997	-0	2.438765179725253	0	0.09478689329274866	102.0385036963752	414.495356627269	-0	2.093375574558633	0	-0.09478689634274363	0	-7.561959773555553e-14	0	0	-9.705729317597197e-16	0
0.5902379029213258	-0.001487761778395177	0.0003898174782731332	-0	2.456576361863267	0	0.09478684974595053	105.2613611305761	407.5895985094466	-0	2.093387241045613	0	-0.09478689634274365	0	-1.095281969195615e-12	0	0	8.86804287346573e-16	0
0.5934809683219924	-0.001407007877720852	0.0003689153838796452	-0	2.474759838755105	0	0.09478613685991641	108.2924641995288	400.6754015496118	-0	2.093390485660479	0	-0.09478689634274365	0	-1.37963486283167e-11	0	0	-7.88231661842482e-16	0
0.5967240337226591	-0.001097092448798317	0.0002881116823481054	-0	2.493071750114396	0	0.09477351551005632	111.1383083122879	393.6470818455139	-0	2.093386238747921	0	-0.09478689634274365	0	-1.449711045122569e-10	0	0	5.855949795066823e-16	0
0.5999670991233257	-0.0006936673374593506	0.0001826964422502412	-0	2.506194595716078	0	0.09453275335661766	113.7937278360209	386.5048880602058	-0	2.093374578713335	0	-0.09478689634274363	0	-1.136007384367833e-09	0	0	-1.202470018155452e-15	0
0.6032101645239923	-0.0006120201143761661	0.0001621435730775669	-0	2.454213828710357	0	0.09182743485164445	116.2812438307565	379.4644477450055	-0	2.093354679195148	0	-0.09478689634274365	0	-2.773257523067216e-09	0	0	1.559534071971029e-17	0
0.606453229924659	-0.003028514425466909	0.0008059817656389167	-0	2.40579785472452	0	0.08960229195941558	118.6542845835643	372.5771082315619	-0	2.093327598451308	0	-0.09478689634274365	0	-1.777534211038713e-11	0	0	-6.668930162430656e-16	0
0.6096962953253255	-0.02161697875126797	0.005782676038759452	-0	2.415091657472584	0	0.08956897062000969	120.9593407327486	365.5613151661101	-0	2.09329653282471	0	-0.09478689634274366	0	-3.152158956099136e-13	0	0	2.317995511367256e-15	0
0.6129393607259922	-0.1269356537316374	0.03420501408767922	-0	2.425768061434005	0	0.0895689750790382	123.1544340184488	358.0911566614102	-0	2.093263283059927	0	-0.09478689634274365	0	-4.315092179650177e-17	0	0	2.221470332541976e-16	0
0.6161824261266589	-0.6038383359084439	0.164246626150412	-0	2.436898401365375	0	0.08956897507908836	125.1474582339573	349.8133946977508	-0	2.093228699968992	0	-0.09478689634274365	0	-3.936172976190073e-18	0	0	2.985211054685125e-16	0
0.6194254915273254	-2.314311107608686	0.6367575266035139	-0	2.448468301386847	0	0.08956897507908836	126.7701155386124	340.3736405547076	-0	2.093192409746567	0	-0.09478689634274365	0	-8.682049867739409e-18	0	0	-1.89629637739478e-16	0
0.6226685569279922	-7.11296925717731	1.985147380773725	-0	2.460431054405765	0	0.08956897507908836	127.8160106636299	329.4654330967549	-0	2.093152977226532	0	-0.09478689634274365	0	-1.755386148987325e-17	0	0	-3.657707353077961e-16	0
0.6259116223286587	-17.50021538812675	4.974625652380417	-0	2.472714984447312	0	0.08956897507908836	128.1253795051322	316.7006553433908	-0	2.093111697788718	0	-0.09478689634274365	0	-2.332668703538901e-17	0	0	-2.694668920719319e-16	0
0.6291546877293253	-34.53974779408594	10.06213897646897	-0	2.485202855706699	0	0.08956897507908836	127.5491641467207	301.7140425379579	-0	2.093070584973247	0	-0.09478689634274365	0	1.872491892407255e-16	0	0	-2.333696871691598e-16	0
0.6323977531299919	-55.48704849495986	16.69892353538892	-0	2.497742917709548	0	0.08956897507908836	125.9467458827378	284.1669429317604	-0	2.093032768326365	0	-0.09478689634274365	0	3.02352561878662e-16	0	0	1.13561245696221e-16	0
0.6356408185306586	-75.21494984356093	23.5669738533125	-0	2.510155294038919	0	0.08956897507908836	123.1915917277164	263.9522911903289	-0	2.093000592255532	0	-0.09478689634274365	0	2.831756169321428e-16	0	0	-5.05045161714978e-17	0
0.6388838839313251	-91.4298009938929	30.02313133960804	-0	2.522240400700303	0	0.08956897507908836	119.101708793641	241.2108221181653	-0	2.092972715368839	0	-0.09478689634274365	0	-7.419903684929643e-16	0	0	3.185877448421859e-16	0
0.6421269493319919	-107.9243577381613	37.38333939499167	-0	2.533802965430407	0	0.08956897507908836	113.4617712583371	216.3792849172093	-0	2.092943517120192	0	-0.09478689634274365	0	-4.804714851853993e-16	0	0	9.35311657583769e-17	0
0.6453700147326584	-133.4549339172108	49.19430087213756	-0	2.544656550429133	0	0.08956897507908836	105.9750829171644	190.2380569583146	-0	2.092895406350503	0	-0.09478689634274363	0	-8.05134152109329e-16	0	0	-2.18798742350864e-15	0
0.6486130801333251	-179.6827717530997	71.75547381906297	-0	2.554564701730473	0	0.08956897507908848	96.21201549329712	163.9289040495031	-0	2.092790867835495	0	-0.09478689634274365	0	-2.527139144277563e-15	0	0	4.184988285814035e-16	0
