DataType=double
version=3
OpenSimVersion=4.6-2026-06-22-85aaf64
endheader
time	ground_force_r_vx	ground_force_r_vy	ground_force_r_vz	ground_force_r_px	ground_force_r_py	ground_force_r_pz	ground_force_l_vx	ground_force_l_vy	ground_force_l_vz	ground_force_l_px	ground_force_l_py	ground_force_l_pz	ground_torque_r_x	ground_torque_r_y	ground_torque_r_z	ground_torque_l_x	ground_torque_l_y	ground_torque_l_z
0	-0	-0	-0	0	0	0	6.547369257812242e-08	-2.313003197171599e-08	-0	0.5279953666648717	0	-0.09478689634274363	0	0	0	0	-1.289696341119353e-24	0
0.002345323644875458	-0	-0	-0	0	0	0	7.041528347422415e-06	-2.411171408589348e-06	-0	0.5397914001535273	0	-0.09478689634274365	0	0	0	0	-4.467325832250678e-23	0
0.004690647289750915	-0	-0	-0	0	0	0	0.0006484758721719341	-0.0002153302099831712	-0	0.5519030806632164	0	-0.09478689634274365	0	0	0	0	-3.607754176288714e-21	0
0.007035970934626372	-0	-0	-0	0	0	0	0.001503363476566301	-0.0004840963032353972	-0	0.564326176524283	0	-0.09478689634274365	0	0	0	0	-9.431507486563429e-21	0
0.00938129457950183	-0	-0	-0	0	0	0	-0.09483234667677086	0.02959146528705246	-0	0.5770807279672662	0	-0.09478689634274365	0	0	0	0	-6.294547782236318e-20	0
0.01172661822437729	-0	-0	-0	0	0	0	-0.1452012043056318	0.04386379231359536	-0	0.5901909329083939	0	-0.09478689634274365	0	0	0	0	-2.16207954410681e-19	0
0.01407194186925274	-0	-0	-0	0	0	0	-0.1734005660094541	0.05068289919358944	-0	0.6036721758653917	0	-0.09478689634274365	0	0	0	0	5.739764865627792e-19	0
0.0164172655141282	-0	-0	-0	0	0	0	-0.1926997123937087	0.05448733839103694	-0	0.6175355854874786	0	-0.09478689634274365	0	0	0	0	-1.630827178302427e-18	0
0.01876258915900366	-0	-0	-0	0	0	0	-0.2093606551806142	0.05728794464649734	-0	0.6317827469463831	0	-0.09478689634274365	0	0	0	0	-2.916639017525238e-20	0
0.02110791280387912	-0	-0	-0	0	0	0	-0.2263154280889988	0.0599719609381132	-0	0.6464163758415969	0	-0.09478689634274365	0	0	0	0	-5.350217776262113e-19	0
0.02345323644875458	-0	-0	-0	0	0	0	-0.2448380890364727	0.06288890528545331	-0	0.6614412519184468	0	-0.09478689634274365	0	0	0	0	1.462880395797706e-18	0
0.02579856009363003	-0	-0	-0	0	0	0	-0.2653745132101787	0.06615994681757828	-0	0.6768573263432921	0	-0.09478689634274365	0	0	0	0	9.939399470116948e-19	0
0.02814388373850549	-0	-0	-0	0	0	0	-0.2883252842252631	0.06991435604478638	-0	0.6926392704096206	0	-0.09478689634274365	0	0	0	0	-1.101343170185221e-18	0
0.03048920738338095	-5.076427475603044e-12	1.626375404150815e-12	-0	1.293649726757264	0	0.08956897507908836	-0.3137062413473427	0.0741800924667836	-0	0.7087578740244846	0	-0.09478689634274365	0	1.362688644104651e-29	0	0	1.084450285895027e-18	0
0.0328345310282564	-3.615981044097445e-11	1.179331690824246e-11	-0	1.29503472797002	0	0.08956897507908836	-0.3412561010850978	0.07891314261306386	-0	0.7251790262451865	0	-0.09478689634274365	0	-3.863847972291951e-30	0	0	-1.296239620730192e-18	0
0.03517985467313187	-4.992466068541882e-10	1.660315718512924e-10	-0	1.296227546379986	0	0.08956897507908836	-0.370619093814944	0.08404567643662282	-0	0.741872362157372	0	-0.09478689634274365	0	1.822161810465608e-27	0	0	2.141492068482012e-18	0
0.03752517831800732	-6.998435467112027e-09	2.374506118988864e-09	-0	1.297369123586108	0	0.08956897507908836	-0.4011532697979748	0.08942550986990323	-0	0.7588205682102126	0	-0.09478689634274366	0	1.315974975777653e-26	0	0	-8.148867810026423e-18	0
0.03987050196288278	-9.80169906140732e-08	3.391143100772406e-08	-0	1.298561418145285	0	0.08956897507908836	-0.4323086647528757	0.09493027162324856	-0	0.7760082421716913	0	-0.09478689634274365	0	-3.47601121482645e-25	0	0	-1.921979585269864e-18	0
0.04221582560775823	-1.362360318534095e-06	4.803640075772936e-07	-0	1.299815916284552	0	0.08956897507908836	-0.4638199268486405	0.1005109267429246	-0	0.7934198601914912	0	-0.09478689634274365	0	1.322028702288358e-23	0	0	-2.787543304302455e-18	0
0.04456114925263369	-1.861104987808722e-05	6.683697759633959e-06	-0	1.301141917836421	0	0.08956897507908836	-0.4956799930289545	0.1061771143749525	-0	0.8110369144166599	0	-0.09478689634274365	0	-5.60932463152043e-23	0	0	-6.687807207423235e-19	0
0.04690647289750915	-0.0002474130717074274	9.040013633322016e-05	-0	1.302564140916352	0	0.08956897516861771	-0.5278207353418246	0.1119268245768977	-0	0.8288398419363306	0	-0.09478689634274363	0	2.570204442507112e-16	0	0	8.094238916259343e-18	0
0.04925179654238461	-0.003162323482656785	0.001173885434000714	-0	1.304093884159445	0	0.08956897511702613	-0.5603508193324421	0.1177946762168827	-0	0.8468076150410976	0	-0.09478689634274365	0	1.491608421628035e-15	0	0	3.445980413882338e-18	0
0.05159712018726006	-0.03825105322710155	0.01440583989070751	-0	1.305720813940555	0	0.08956897509761855	-0.5936485882378577	0.1238715380270127	-0	0.8649188401144944	0	-0.09478689634274365	0	9.46033760423788e-15	0	0	5.805870387362783e-19	0
0.05394244383213552	-0.4282334155159749	0.1632971947799838	-0	1.307453181684302	0	0.08956897508890152	-0.6285759412350835	0.1303467632859666	-0	0.8831501218180765	0	-0.09478689634274365	0	6.08326860405304e-14	0	0	-3.193909716976158e-18	0
0.05628776747701097	-4.279588769699472	1.647378307556127	-0	1.309290138500999	0	0.08956897508456667	-0.6665790629218318	0.1375280898106682	-0	0.9014765821458145	0	-0.09478689634274365	0	3.782583559913897e-13	0	0	2.822020941914313e-18	0
0.05863309112188644	-35.09961299891852	13.6301408568934	-0	1.311188044539968	0	0.08956897508247372	-0.7098287127135866	0.1458695802017585	-0	0.9198708408646452	0	-0.09478689634274365	0	2.161271482841804e-12	0	0	-4.358270837022218e-18	0
0.0609784147667619	-175.049188518668	70.84125513091061	-0	1.312874895299744	0	0.08956897508261517	-0.7600964519306476	0.1557465387711736	-0	0.9383043621683574	0	-0.09478689634274365	0	1.071220802690045e-11	0	0	-1.032875124284242e-19	0
0.06332373841163735	-503.2696542720753	233.7177571077125	-0	1.314606887717783	0	0.08956897508734363	-0.8183429746814447	0.1673765756496205	-0	0.956748227559156	0	-0.09478689634274365	0	2.844724925270531e-11	0	0	-5.913781121369377e-18	0
0.06566906205651281	-1049.966258581377	730.1648921985701	-0	1.317090934731622	0	0.08956897512970297	-0.8780977030745417	0.179462053973692	-0	0.9751888712999375	0	-0.09478689634274365	0	-2.08107577688867e-09	0	0	6.06219922944242e-18	0
0.06801438570138828	-488.4389050797934	1233.017364982429	-0	1.321128348710523	0	0.08956897616552897	-0.9287284429441425	0.1897715535001413	-0	0.9936476719393735	0	-0.09478689634274365	0	-7.190649668237446e-07	0	0	6.65563120158019e-19	0
0.07035970934626372	-21.37839832813714	1671.723526329921	-0	1.323275748373689	0	0.08956899091356497	-0.9627390078496006	0.1966651191290292	-0	1.012173100670327	0	-0.09478689634274365	0	-1.290246532947112e-05	0	0	-6.656460582835218e-18	0
0.07270503299113919	-107.7116401326954	1958.483139113381	-0	1.323343009790745	0	0.08956909559474929	-0.9681337196849671	0.197614257312538	-0	1.030815742518894	0	-0.09478689634274363	0	-8.305413291175029e-05	0	0	1.680654803576165e-17	0
0.07505035663601464	77.13452992952908	2065.866701671058	-0	1.324375035865156	0	0.08956971065834435	-0.936367673872219	0.1908302432660905	-0	1.049635681130369	0	-0.09478689634274363	0	-0.0005210252565951424	0	0	1.400932828905386e-17	0
0.0773956802808901	-48.37050380270421	2058.346179112385	-0	1.324252095325145	0	0.08957279014027311	-0.869660584903397	0.1768389119117479	-0	1.068673456364858	0	-0.09478689634274365	0	-0.002682310141495016	0	0	4.526036344497307e-18	0
0.07974100392576557	55.03375793640566	1976.407678852976	-0	1.325459966533365	0	0.08958614042215512	-0.7759684163719839	0.157390150098229	-0	1.087939474552099	0	-0.09478689634274365	0	-0.01204192626529048	0	0	-5.047613866273282e-18	0
0.08208632757064101	-42.56001920652283	1887.57541125367	-0	1.326608658394466	0	0.08963061100017668	-0.6741035953586434	0.136447341218961	-0	1.107411985079412	0	-0.09478689634274365	0	-0.04141199210170995	0	0	-5.851111020800059e-18	0
0.08443165121551646	36.94419286787736	1803.299618038308	-0	1.330504144849834	0	0.08973540176118655	-0.5925816331525682	0.1198996421694682	-0	1.126985596094477	0	-0.09478689634274365	0	-0.1102284871276439	0	0	-7.39534678577969e-19	0
0.08677697486039193	-91.11707496263094	1802.073732069314	-0	1.339093071217494	0	0.09004221823177566	-0.5404034469946771	0.1095084890083582	-0	1.146542184755725	0	-0.09478689634274365	0	-0.2767696420087213	0	0	2.469762354201362e-18	0
0.08912229850526739	-134.481519688968	1889.440374505263	-0	1.355018167857742	0	0.09059030513600962	-0.4965859369904814	0.1008281032103464	-0	1.166067032379549	0	-0.09478689634274365	0	-0.4279973502797177	0	0	-3.313333981360498e-18	0
0.09146762215014284	-176.8836998954283	1918.109202820003	-0	1.366410353058844	0	0.0909882235964147	-0.4415538939814784	0.08974133545663467	-0	1.185616453917467	0	-0.09478689634274365	0	-0.3907548025141939	0	0	-1.079782448107851e-19	0
0.09381294579501831	-124.591427615636	1922.124001074858	-0	1.377491099389308	0	0.09136059983022964	-0.3630352379719589	0.07371700299686136	-0	1.20532488258146	0	-0.09478689634274365	0	-0.3622862489958426	0	0	-1.369236368781162e-18	0
0.09615826943989376	-155.8867012527635	1917.20243651798	-0	1.387267109064337	0	0.09170317883148538	-0.2645371624656351	0.05356730881995708	-0	1.225323987159332	0	-0.09478689634274365	0	-0.3213415304051735	0	0	3.050089395347466e-19	0
0.09850359308476921	-112.5473143244153	1897.662192909552	-0	1.396592147994575	0	0.09201821704640732	-0.1665061620591665	0.03359302458644126	-0	1.245678097210073	0	-0.09478689634274365	0	-0.2713454063838772	0	0	1.350310706940961e-18	0
0.1008489167296447	-110.5314253658167	1869.667390657767	-0	1.404430914492229	0	0.09228921595787833	-0.08598573793559386	0.01728196632294093	-0	1.266413541250544	0	-0.09478689634274365	0	-0.2165724464618798	0	0	6.493414990702025e-19	0
0.1031942403745201	-63.18323442102587	1821.400790918839	-0	1.412765785857583	0	0.09257013834542833	-0.02966360376406624	0.00594050630419771	-0	1.287526274138033	0	-0.09478689634274365	0	-0.1659961760800053	0	0	1.546046500734956e-19	0
0.1055395640193956	-57.51182798881301	1746.590524057056	-0	1.421128082168492	0	0.09286050359717647	0.001004190179088373	-0.0002004162207869116	-0	1.309016416803382	0	-0.09478689634274365	0	-0.1176117217818335	0	0	-9.446508510000382e-22	0
0.1078848876642711	-32.57429544514142	1657.198281066396	-0	1.430598377303194	0	0.09318660640139306	3.581803509031722e-05	-7.12224517440942e-06	-0	1.330922959626413	0	-0.09478689634274365	0	-0.07502117959459613	0	0	2.629986077477745e-23	0
0.1102302113091465	-38.24767905194462	1558.264040476132	-0	1.440258462029697	0	0.09352660404412642	9.459192933942254e-08	-1.87317764358376e-08	-0	1.353294318062857	0	-0.09478689634274365	0	-0.03906015225903626	0	0	-7.683440112044208e-25	0
0.1125755349540219	-27.91363410820946	1459.249684081237	-0	1.450821542344853	0	0.09389560322710111	1.801129877134502e-10	-3.552302430544558e-11	-0	1.37612698062175	0	-0.09478689634274365	0	-0.01256489265767015	0	0	-8.552022890392742e-28	0
0.1149208585988974	-34.56802638296191	1358.102695328395	-0	1.461665507131391	0	0.09427996321464528	5.516210423515912e-13	-1.084293563934022e-13	-0	1.399372091019791	0	-0.09478689634274365	0	0.002110063042682916	0	0	1.198333384470418e-30	0
0.1172661822437729	-29.9953985764745	1253.584749865473	-0	1.474158786240849	0	0.09472115399924004	6.198094961219201e-15	-1.216080678350604e-15	-0	0	0	0	0	0.001553882398396713	0	0	-5.874981846115661e-16	0
0.1196115058886483	-14.89524952882141	1234.594257438089	-0	1.476378195078809	0	0.09479378327064331	3.342494320781658e-16	-6.556854129560181e-17	-0	0	0	0	0	-0.0003066001592113484	0	0	-3.168246627101403e-17	0
0.1219568295335238	18.14382003444337	1224.967648347296	-0	1.476540490371529	0	0.09478693376188141	3.049704058916729e-17	-5.983697314654867e-18	-0	0	0	0	0	-2.53611543321013e-06	0	0	-2.890719825085845e-18	0
0.1243021531783993	37.84351000428223	1202.46436847457	-0	1.476770434303598	0	0.09478689641218747	1.967101121347144e-18	-3.858223376297409e-19	-0	0	0	0	0	-6.484581177774385e-09	0	0	-1.864554100848265e-19	0
0.1266474768232747	62.07759553080314	1176.149543328845	-0	1.477056886948335	0	0.0947868963428135	9.013985120886258e-20	-1.76646741945002e-20	-0	0	0	0	0	-8.538954169843322e-12	0	0	-8.544076732884793e-21	0
0.1289928004681502	77.88522467116279	1142.805045430507	-0	1.477264632899534	0	0.09478689634274369	-0	-0	-0	0	0	0	0	-6.531506570958758e-15	0	0	0	0
0.1313381241130256	95.93497487719692	1108.113961620289	-0	1.477506591716979	0	0.09478689634274365	-0	-0	-0	0	0	0	0	7.428782461454654e-16	0	0	0	0
0.1336834477579011	108.1044590649193	1068.781643300647	-0	1.477691989116175	0	0.09478689634274365	-0	-0	-0	0	0	0	0	2.180790540877427e-16	0	0	0	0
0.1360287714027765	121.320997185583	1029.282655060485	-0	1.477898703509137	0	0.09478689634274365	-0	-0	-0	0	0	0	0	-3.603011310511045e-16	0	0	0	0
0.138374095047652	130.2731163146831	986.8308218002014	-0	1.478062915832908	0	0.09478689634274365	-0	-0	-0	0	0	0	0	-7.938591783363255e-16	0	0	0	0
0.1407194186925274	139.9922717782968	944.8995231915816	-0	1.478245456588358	0	0.09478689634274365	-0	-0	-0	0	0	0	0	8.302932700778067e-16	0	0	0	0
0.1430647423374029	146.7968848968675	901.2931811076456	-0	1.478399207633943	0	0.09478689634274365	-0	-0	-0	0	0	0	0	2.081721494877618e-16	0	0	0	0
0.1454100659822784	154.3523850572585	858.5891376904991	-0	1.47857254681015	0	0.09478689634274365	-0	-0	-0	0	0	0	0	-1.292471214093694e-16	0	0	0	0
0.1477553896271538	160.9810021184759	813.8368674127565	-0	1.478749920390735	0	0.09478689634274365	-0	-0	-0	0	0	0	0	-7.496778187475385e-16	0	0	0	0
0.1501007132720293	169.9923231211854	765.7918881130818	-0	1.478997257635817	0	0.09478689634274363	-0	-0	-0	0	0	0	0	2.67624865984746e-15	0	0	0	0
0.1524460369169048	177.4482866113279	713.0762005638142	-0	1.479263252140518	0	0.09478689634274363	-0	-0	-0	0	0	0	0	4.047104148637151e-15	0	0	0	0
0.1547913605617802	183.398404216366	660.8004349276788	-0	1.479533911921399	0	0.09478689634274365	-0	-0	-0	0	0	0	0	-8.0896282628788e-16	0	0	0	0
0.1571366842066557	186.2362702822526	610.4549171801654	-0	1.479767301413844	0	0.09478689634274365	-0	-0	-0	0	0	0	0	5.212887084701578e-16	0	0	0	0
0.1594820078515311	186.9914053307665	564.5284708798995	-0	1.479960965031079	0	0.09478689634274365	-0	-0	-0	0	0	0	0	-1.212409180240077e-15	0	0	0	0
0.1618273314964065	185.2019747731872	522.5307898539854	-0	1.480095514628441	0	0.09478689634274365	-0	-0	-0	0	0	0	0	-1.532203042089152e-15	0	0	0	0
0.164172655141282	182.9936195338474	483.9973734148567	-0	1.480217433754963	0	0.09478689634274365	-0	-0	-0	0	0	0	0	2.632446504306461e-16	0	0	0	0
0.1665179787861575	177.8975481422067	448.6928916135977	-0	1.480253041156964	0	0.09478689634274365	-0	-0	-0	0	0	0	0	8.527022101425458e-16	0	0	0	0
0.1688633024310329	167.1721767798918	417.6482292818073	-0	1.480091408637584	0	0.09478689634274365	-0	-0	-0	0	0	0	0	-4.461106120650299e-16	0	0	0	0
0.1712086260759084	152.0964314957621	387.6619412852975	-0	1.479784924513865	0	0.09478689634274365	-0	-0	-0	0	0	0	0	4.429461776470635e-17	0	0	0	0
0.1735539497207839	137.4380214648974	354.6976748800785	-0	1.479526221570107	0	0.09478689634274365	-0	-0	-0	0	0	0	0	4.497231062744986e-16	0	0	0	0
0.1758992733656593	122.3999281764662	315.7379902408217	-0	1.479335848207182	0	0.09478689634274365	-0	-0	-0	0	0	0	0	1.592232443982475e-16	0	0	0	0
0.1782445970105348	106.095123818145	270.6755857057656	-0	1.479196761023921	0	0.09478689634274365	-0	-0	-0	0	0	0	0	-2.259047012611377e-16	0	0	0	0
0.1805899206554102	89.27014647811252	224.0743684755333	-0	1.479079963202249	0	0.09478689634274365	-0	-0	-0	0	0	0	0	-6.175484726361095e-16	0	0	0	0
0.1829352443002857	71.23283096861297	182.6909679510692	-0	1.478793081984368	0	0.09478689634274365	-0	-0	-0	0	0	0	0	3.098197669424177e-16	0	0	0	0
0.1852805679451612	51.21448347141423	147.1275359381499	-0	1.478155555420308	0	0.09478689634274365	-0	-0	-0	0	0	0	0	-4.087765390536096e-16	0	0	0	0
0.1876258915900366	30.79048452666051	114.9111871916756	-0	1.477165004729312	0	0.09478689634274365	-0	-0	-0	0	0	0	0	1.34727250604445e-17	0	0	0	0
0.1899712152349121	12.96703659564893	85.91729064534989	-0	1.475897462852248	0	0.09478689634274366	-0	-0	-0	0	0	0	0	-1.602155899313748e-16	0	0	0	0
0.1923165388797875	0.05375465863609558	58.99156837245676	-0	1.474453302533556	0	0.09478689634274365	-0	-0	-0	0	0	0	0	4.041415228078527e-19	0	0	0	0
0.194661862524663	-6.218562491093614	32.16122508361168	-0	1.472779442708732	0	0.09478689634274365	-0	-0	-0	0	0	0	0	4.479421173011585e-17	0	0	0	0
0.1970071861695384	-2.798752895907938	5.547192333052595	-0	1.470285429480739	0	0.09478689634274365	-0	-0	-0	0	0	0	0	-1.14781111158484e-17	0	0	0	0
0.1993525098144139	0.2998048258383237	-0.3170793177105341	-0	1.467128764465878	0	0.09478689634274365	-0	-0	-0	0	0	0	0	1.505465568957405e-18	0	0	0	0
0.2016978334592893	1.18889506373004e-07	-1.020968586256225e-07	-0	1.467143431167823	0	0.09478689634274365	-0	-0	-0	0	0	0	0	-1.297993897898624e-25	0	0	0	0
0.2040431571041648	-0	-0	-0	0	0	0	-0	-0	-0	0	0	0	0	0	0	0	0	0
0.2063884807490403	-0	-0	-0	0	0	0	-0	-0	-0	0	0	0	0	0	0	0	0	0
0.2087338043939157	-0	-0	-0	0	0	0	-0	-0	-0	0	0	0	0	0	0	0	0	0
0.2110791280387912	-0	-0	-0	0	0	0	-0	-0	-0	0	0	0	0	0	0	0	0	0
0.2134244516836666	-0	-0	-0	0	0	0	-0	-0	-0	0	0	0	0	0	0	0	0	0
0.2157697753285421	-0	-0	-0	0	0	0	-0	-0	-0	0	0	0	0	0	0	0	0	0
0.2181150989734175	-0	-0	-0	0	0	0	-0	-0	-0	0	0	0	0	0	0	0	0	0
0.220460422618293	-0	-0	-0	0	0	0	-0	-0	-0	0	0	0	0	0	0	0	0	0
0.2228057462631685	-0	-0	-0	0	0	0	-0	-0	-0	0	0	0	0	0	0	0	0	0
0.2251510699080439	1.280542447763181e-15	-5.13263510928478e-16	-0	0	0	0	-0	-0	-0	0	0	0	0	1.213786442586119e-16	0	0	0	0
0.2274963935529194	6.765776727510945e-14	-2.628308501440633e-14	-0	1.55002964075278	0	0.09478689634274365	-0	-0	-0	0	0	0	0	2.763406246702069e-31	0	0	0	0
0.2298417171977948	6.45146335658563e-12	-2.428476084588624e-12	-0	1.560802285895288	0	0.09478689634274365	-0	-0	-0	0	0	0	0	-1.635003129058303e-29	0	0	0	0
0.2321870408426703	6.305572322746683e-10	-2.299227756011638e-10	-0	1.571924934549712	0	0.09478689634274365	-0	-0	-0	0	0	0	0	1.646109578997285e-27	0	0	0	0
0.2345323644875457	6.547369257812441e-08	-2.313003197171669e-08	-0	1.583391006858827	0	0.09478689634274363	-0	-0	-0	0	0	0	0	8.855762415581918e-25	0	0	0	0
0.2368776881324212	7.041528347422688e-06	-2.411171408589441e-06	-0	1.595187040347483	0	0.09478689634274365	-0	-0	-0	0	0	0	0	2.656316674785847e-23	0	0	0	0
0.2392230117772967	0.000648475872171957	-0.0002153302099831788	-0	1.607298720857172	0	0.09478689634274366	-0	-0	-0	0	0	0	0	-5.395464996168894e-21	0	0	0	0
0.2415683354221721	0.001503363476566419	-0.0004840963032354353	-0	1.619721816718239	0	0.09478689634274365	-0	-0	-0	0	0	0	0	8.64103668619547e-21	0	0	0	0
0.2439136590670476	-0.09483234667677706	0.02959146528705439	-0	1.632476368161222	0	0.09478689634274365	-0	-0	-0	0	0	0	0	-1.001469887770732e-20	0	0	0	0
0.246258982711923	-0.1452012043056456	0.04386379231359954	-0	1.64558657310235	0	0.09478689634274365	-0	-0	-0	0	0	0	0	-1.678938229435659e-19	0	0	0	0
0.2486043063567985	-0.1734005660094531	0.05068289919358913	-0	1.659067816059347	0	0.09478689634274366	-0	-0	-0	0	0	0	0	2.473536366077706e-18	0	0	0	0
0.250949630001674	-0.1926997123937074	0.05448733839103657	-0	1.672931225681435	0	0.09478689634274365	-0	-0	-0	0	0	0	0	2.494037456660873e-19	0	0	0	0
0.2532949536465494	-0.2093606551806129	0.05728794464649697	-0	1.687178387140339	0	0.09478689634274365	-0	-0	-0	0	0	0	0	-5.13674959319274e-19	0	0	0	0
0.2556402772914249	-0.2263154280889977	0.05997196093811291	-0	1.701812016035553	0	0.09478689634274365	-0	-0	-0	0	0	0	0	2.224176669044081e-19	0	0	0	0
0.2579856009363003	-0.2448380890364711	0.06288890528545289	-0	1.716836892112403	0	0.09478689634274365	-0	-0	-0	0	0	0	0	-1.397376900923143e-18	0	0	0	0
0.2603309245811758	-0.265374513210177	0.06615994681757784	-0	1.732252966537248	0	0.09478689634274365	-0	-0	-0	0	0	0	0	6.336090947601333e-19	0	0	0	0
0.2626762482260512	-0.2883252842253331	0.06991435604480337	-0	1.748034910603577	0	0.09478689634274365	-0	-0	-0	0	0	0	0	-9.094767737164759e-19	0	0	0	0
0.2650215718709267	-0.3137062413473406	0.07418009246678312	-0	1.764153514218441	0	0.09478689634274365	-5.076427475603034e-12	1.626375404150813e-12	-0	2.349045366951219	0	-0.08956897507908836	0	-1.47942126856591e-18	0	0	-3.668648919157627e-30	0
0.2673668955158022	-0.341256101085176	0.07891314261308195	-0	1.780574666439142	0	0.09478689634274365	-3.615981044097439e-11	1.179331690824245e-11	-0	2.350430368163976	0	-0.08956897507908836	0	-2.604143344441587e-18	0	0	-3.736092276466426e-29	0
0.2697122191606776	-0.3706190938149423	0.08404567643662247	-0	1.797268002351328	0	0.09478689634274365	-4.992466068541871e-10	1.66031571851292e-10	-0	2.351623186573942	0	-0.08956897507908836	0	-2.075988573607448e-18	0	0	3.115974704518829e-27	0
0.2720575428055531	-0.4011532697979721	0.08942550986990265	-0	1.814216208404168	0	0.09478689634274365	-6.998435467112014e-09	2.374506118988859e-09	-0	2.352764763780063	0	-0.08956897507908836	0	-1.810990119134947e-19	0	0	3.490242272848524e-26	0
0.2744028664504286	-0.4323086647528727	0.09493027162324791	-0	1.831403882365647	0	0.09478689634274365	-9.801699061407295e-08	3.391143100772398e-08	-0	2.353957058339241	0	-0.08956897507908836	0	6.060596475080876e-19	0	0	-2.901812498153081e-25	0
0.276748190095304	-0.4638199268487208	0.100510926742942	-0	1.848815500385448	0	0.09478689634274365	-1.362360318534091e-06	4.803640075772922e-07	-0	2.355211556478507	0	-0.08956897507908836	0	-7.178686781984406e-19	0	0	1.054778600379614e-23	0
0.2790935137401794	-0.4956799930289514	0.1061771143749518	-0	1.866432554610616	0	0.09478689634274365	-1.861104987808718e-05	6.683697759633941e-06	-0	2.356537558030376	0	-0.08956897507908836	0	-2.554540622075802e-18	0	0	6.952939489578518e-23	0
0.2814388373850549	-0.5278207353418223	0.1119268245768972	-0	1.884235482130286	0	0.09478689634274365	-0.0002474130717074269	9.040013633321996e-05	-0	2.357959781110308	0	-0.08956897516861773	0	2.827011942191113e-19	0	0	-2.570261443349239e-16	0
0.2837841610299304	-0.560350819332438	0.1177946762168818	-0	1.902203255235053	0	0.09478689634274365	-0.003162323482656772	0.001173885434000709	-0	2.359489524353401	0	-0.08956897511702613	0	2.702971524683124e-18	0	0	-1.491581503380234e-15	0
0.2861294846748058	-0.5936485882378536	0.1238715380270119	-0	1.920314480308451	0	0.09478689634274365	-0.03825105322710141	0.01440583989070745	-0	2.36111645413451	0	-0.08956897509761856	0	-1.370529004078044e-18	0	0	-9.460827168386851e-15	0
0.2884748083196813	-0.6285759412350771	0.1303467632859653	-0	1.938545762012033	0	0.09478689634274365	-0.4282334155159726	0.1632971947799829	-0	2.362848821878258	0	-0.08956897508890152	0	3.455923696474412e-18	0	0	-6.083202562693249e-14	0
0.2908201319645567	-0.6665790629219117	0.1375280898106847	-0	1.95687222233977	0	0.09478689634274365	-4.279588769699822	1.647378307556262	-0	2.364685778694954	0	-0.08956897508456668	0	-3.20334183062068e-18	0	0	-3.782664506123014e-13	0
0.2931654556094322	-0.7098287127135788	0.1458695802017569	-0	1.975266481058602	0	0.09478689634274365	-35.09961299891953	13.63014085689379	-0	2.366583684733924	0	-0.0895689750824737	0	3.238861383884132e-18	0	0	-2.160562649175003e-12	0
0.2955107792543076	-0.7600964519307233	0.1557465387711891	-0	1.993700002362314	0	0.09478689634274365	-175.049188518671	70.84125513091182	-0	2.3682705354937	0	-0.08956897508261516	0	2.286352990947544e-18	0	0	-1.07096170504978e-11	0
0.2978561028991831	-0.818342974681439	0.1673765756496194	-0	2.012143867753112	0	0.09478689634274365	-503.2696542720866	233.7177571077178	-0	2.370002527911738	0	-0.08956897508734363	0	-3.426715419288681e-18	0	0	-2.844436308736518e-11	0
0.3002014265440586	-0.8780977030745373	0.1794620539736911	-0	2.030584511493893	0	0.09478689634274365	-1049.966258581394	730.1648921985816	-0	2.372486574925578	0	-0.08956897512970295	0	3.210843802917572e-18	0	0	2.081103853148151e-09	0
0.302546750188934	-0.9287284429442121	0.1897715535001556	-0	2.04904331213333	0	0.09478689634274365	-488.4389050798003	1233.017364982441	-0	2.376523988904478	0	-0.08956897616552899	0	5.594319147972054e-18	0	0	7.190649570658402e-07	0
0.3048920738338095	-0.9627390078495931	0.1966651191290277	-0	2.067568740864283	0	0.09478689634274365	-21.3783983281389	1671.723526329936	-0	2.378671388567645	0	-0.08956899091356499	0	-1.171605535437373e-18	0	0	1.290246532921451e-05	0
0.3072373974786849	-0.9681337196849622	0.197614257312537	-0	2.08621138271285	0	0.09478689634274365	-107.7116401326976	1958.483139113396	-0	2.378738649984701	0	-0.08956909559474929	0	5.441574850430994e-18	0	0	8.305413291163361e-05	0
0.3095827211235604	-0.9363676738722763	0.1908302432661022	-0	2.105031321324326	0	0.09478689634274365	77.13452992952806	2065.866701671069	-0	2.379770676059111	0	-0.08956971065834435	0	2.875439971146378e-18	0	0	0.0005210252565949787	0
0.3119280447684358	-0.8696605849034567	0.17683891191176	-0	2.124069096558814	0	0.09478689634274366	-48.37050380270608	2058.346179112394	-0	2.379647735519101	0	-0.08957279014027311	0	1.038102914487743e-17	0	0	0.002682310141495495	0
0.3142733684133113	-0.7759684163720356	0.1573901500982395	-0	2.143335114746056	0	0.09478689634274365	55.03375793640439	1976.407678852985	-0	2.380855606727321	0	-0.08958614042215511	0	-3.757154634847253e-18	0	0	0.01204192626528946	0
0.3166186920581868	-0.6741035953586378	0.1364473412189599	-0	2.162807625273369	0	0.09478689634274365	-42.56001920652501	1887.575411253679	-0	2.382004298588421	0	-0.08963061100017669	0	-6.843713852425251e-18	0	0	0.04141199210171013	0
0.3189640157030622	-0.5925816331526205	0.1198996421694788	-0	2.182381236288434	0	0.09478689634274365	36.94419286787542	1803.299618038322	-0	2.385899785043791	0	-0.08973540176118655	0	2.918700130250084e-18	0	0	0.1102284871276457	0
0.3213093393479377	-0.5404034469946729	0.1095084890083573	-0	2.20193782494968	0	0.09478689634274365	-91.11707496263446	1802.073732069329	-0	2.394488711411451	0	-0.09004221823177566	0	9.462401302412445e-20	0	0	0.2767696420087273	0
0.3236546629928131	-0.4965859369905327	0.1008281032103568	-0	2.221462672573505	0	0.09478689634274365	-134.4815196889716	1889.440374505275	-0	2.410413808051698	0	-0.09059030513600962	0	2.664149072885371e-18	0	0	0.4279973502797246	0
0.3259999866376886	-0.4415538939814751	0.089741335456634	-0	2.241012094111422	0	0.09478689634274366	-176.8836998954316	1918.109202820018	-0	2.4218059932528	0	-0.09098822359641472	0	2.782210909609049e-18	0	0	0.390754802514195	0
0.3283453102825641	-0.3630352379720097	0.07371700299687166	-0	2.260720522775416	0	0.09478689634274365	-124.5914276156384	1922.124001074866	-0	2.432886739583265	0	-0.09136059983022966	0	2.595769827605884e-19	0	0	0.3622862489958417	0
0.3306906339274395	-0.2645371624656795	0.05356730881996606	-0	2.280719627353287	0	0.09478689634274365	-155.8867012527657	1917.202436517986	-0	2.442662749258292	0	-0.09170317883148536	0	6.396284396129211e-19	0	0	0.3213415304051784	0
0.333035957572315	-0.1665061620591654	0.03359302458644103	-0	2.301073737404029	0	0.09478689634274365	-112.5473143244171	1897.662192909565	-0	2.451987788188532	0	-0.09201821704640732	0	1.424934862086251e-20	0	0	0.2713454063838792	0
0.3353812812171904	-0.08598573793559333	0.01728196632294083	-0	2.321809181444501	0	0.09478689634274365	-110.5314253658186	1869.667390657774	-0	2.459826554686185	0	-0.09228921595787833	0	-3.287932031670167e-19	0	0	0.2165724464618799	0
0.3377266048620658	-0.02966360376407839	0.005940506304200142	-0	2.34292191433199	0	0.09478689634274365	-63.18323442102746	1821.400790918847	-0	2.468161426051539	0	-0.09257013834542833	0	1.886072530794314e-19	0	0	0.1659961760800074	0
0.3400719285069413	0.001004190179088377	-0.0002004162207869124	-0	2.364412056997339	0	0.09478689634274365	-57.51182798881442	1746.590524057068	-0	2.476523722362447	0	-0.09286050359717647	0	3.448934412743677e-21	0	0	0.1176117217818337	0
0.3424172521518168	3.581803509031699e-05	-7.122245174409376e-06	-0	2.386318599820369	0	0.09478689634274365	-32.57429544514265	1657.198281066401	-0	2.48599401749715	0	-0.09318660640139308	0	-6.190761177834111e-24	0	0	0.07502117959459592	0
0.3447625757966922	9.459192933942137e-08	-1.873177643583738e-08	-0	2.408689958256813	0	0.09478689634274365	-38.24767905194575	1558.264040476139	-0	2.495654102223652	0	-0.09352660404412642	0	3.216251632364822e-25	0	0	0.03906015225903652	0
0.3471078994415677	1.801129877134493e-10	-3.55230243054454e-11	-0	2.431522620815707	0	0.09478689634274365	-27.91363410821046	1459.24968408124	-0	2.506217182538809	0	-0.09389560322710112	0	-6.300684331101746e-28	0	0	0.01256489265767051	0
0.3494532230864432	5.516210423515881e-13	-1.084293563934016e-13	-0	2.454767731213747	0	0.09478689634274365	-34.56802638296289	1358.102695328401	-0	2.517061147325347	0	-0.09427996321464528	0	-1.108083998727849e-30	0	0	-0.002110063042683436	0
0.3517985467313186	6.198094961219175e-15	-1.216080678350599e-15	-0	0	0	0	-29.99539857647553	1253.584749865481	-0	2.529554426434806	0	-0.09472115399924007	0	5.874981846115637e-16	0	0	-0.001553882398397328	0
0.3541438703761941	3.342494320781652e-16	-6.55685412956017e-17	-0	0	0	0	-14.89524952882232	1234.594257438093	-0	2.531773835272765	0	-0.09479378327064331	0	3.168246627101398e-17	0	0	0.0003066001592112947	0
0.3564891940210695	3.049704058916715e-17	-5.983697314654838e-18	-0	0	0	0	18.14382003444257	1224.967648347298	-0	2.531936130565485	0	-0.09478693376188141	0	2.890719825085832e-18	0	0	2.536115433380447e-06	0
0.358834517665945	1.967101121347136e-18	-3.858223376297394e-19	-0	0	0	0	37.84351000428147	1202.464368474574	-0	2.532166074497554	0	-0.09478689641218747	0	1.864554100848258e-19	0	0	6.484581499665051e-09	0
0.3611798413108205	9.013985120886231e-20	-1.766467419450015e-20	-0	0	0	0	62.07759553080228	1176.149543328846	-0	2.53245252714229	0	-0.0947868963428135	0	8.544076732884768e-21	0	0	8.538499412872942e-12	0
0.3635251649556959	-0	-0	-0	0	0	0	77.88522467116216	1142.805045430509	-0	2.53266027309349	0	-0.09478689634274369	0	0	0	0	6.771336926274869e-15	0
0.3658704886005714	-0	-0	-0	0	0	0	95.93497487719628	1108.113961620296	-0	2.532902231910935	0	-0.09478689634274365	0	0	0	0	8.144845554394047e-16	0
0.3682158122454469	-0	-0	-0	0	0	0	108.104459064919	1068.781643300654	-0	2.53308762931013	0	-0.09478689634274365	0	0	0	0	7.752793599889965e-16	0
0.3705611358903222	-0	-0	-0	0	0	0	121.320997185582	1029.282655060485	-0	2.533294343703093	0	-0.09478689634274365	0	0	0	0	-1.533965723933617e-16	0
0.3729064595351977	-0	-0	-0	0	0	0	130.2731163146827	986.8308218002049	-0	2.533458556026864	0	-0.09478689634274365	0	0	0	0	4.402147795814225e-16	0
0.3752517831800732	-0	-0	-0	0	0	0	139.9922717782955	944.899523191581	-0	2.533641096782314	0	-0.09478689634274365	0	0	0	0	5.080754936916831e-16	0
0.3775971068249486	-0	-0	-0	0	0	0	146.7968848968679	901.2931811076531	-0	2.533794847827899	0	-0.09478689634274365	0	0	0	0	1.454722492671411e-16	0
0.3799424304698241	-0	-0	-0	0	0	0	154.3523850572587	858.5891376905063	-0	2.533968187004106	0	-0.09478689634274365	0	0	0	0	3.650100539126381e-16	0
0.3822877541146996	-0	-0	-0	0	0	0	160.9810021184742	813.8368674127543	-0	2.534145560584691	0	-0.09478689634274365	0	0	0	0	8.167533974990915e-16	0
0.384633077759575	-0	-0	-0	0	0	0	169.9923231211866	765.7918881130898	-0	2.534392897829773	0	-0.09478689634274365	0	0	0	0	-1.714440767509525e-15	0
0.3869784014044505	-0	-0	-0	0	0	0	177.4482866113267	713.0762005638122	-0	2.534658892334474	0	-0.09478689634274366	0	0	0	0	2.275384685162642e-15	0
0.3893237250493259	-0	-0	-0	0	0	0	183.3984042163646	660.8004349276763	-0	2.534929552115354	0	-0.09478689634274365	0	0	0	0	-6.056147687317317e-16	0
0.3916690486942014	-0	-0	-0	0	0	0	186.2362702822505	610.4549171801611	-0	2.5351629416078	0	-0.09478689634274365	0	0	0	0	7.916771115492913e-16	0
0.3940143723390769	-0	-0	-0	0	0	0	186.9914053307688	564.5284708799071	-0	2.535356605225035	0	-0.09478689634274365	0	0	0	0	8.760328796094788e-16	0
0.3963596959839523	-0	-0	-0	0	0	0	185.201974773187	522.5307898539879	-0	2.535491154822397	0	-0.09478689634274365	0	0	0	0	-4.209759966885504e-16	0
0.3987050196288278	-0	-0	-0	0	0	0	182.9936195338501	483.9973734148659	-0	2.535613073948919	0	-0.09478689634274365	0	0	0	0	1.707202486471361e-15	0
0.4010503432737033	-0	-0	-0	0	0	0	177.897548142206	448.6928916135993	-0	2.53564868135092	0	-0.09478689634274365	0	0	0	0	-1.559991007652352e-15	0
0.4033956669185786	-0	-0	-0	0	0	0	167.1721767798915	417.6482292818088	-0	2.535487048831539	0	-0.09478689634274365	0	0	0	0	-7.073011067012725e-16	0
0.4057409905634541	-0	-0	-0	0	0	0	152.0964314957582	387.6619412852913	-0	2.53518056470782	0	-0.09478689634274365	0	0	0	0	-6.174322577714063e-16	0
0.4080863142083296	-0	-0	-0	0	0	0	137.4380214648975	354.6976748800799	-0	2.534921861764063	0	-0.09478689634274363	0	0	0	0	-2.180236605512744e-15	0
0.410431637853205	-0	-0	-0	0	0	0	122.3999281764639	315.7379902408165	-0	2.534731488401138	0	-0.09478689634274365	0	0	0	0	-7.994364631565004e-16	0
0.4127769614980805	-0	-0	-0	0	0	0	106.0951238181449	270.6755857057667	-0	2.534592401217877	0	-0.09478689634274365	0	0	0	0	1.080232350095033e-16	0
0.415122285142956	-0	-0	-0	0	0	0	89.27014647811258	224.0743684755351	-0	2.534475603396205	0	-0.09478689634274365	0	0	0	0	6.764892057619266e-16	0
0.4174676087878314	-0	-0	-0	0	0	0	71.23283096861255	182.6909679510691	-0	2.534188722178324	0	-0.09478689634274365	0	0	0	0	1.363031543140788e-16	0
0.4198129324327069	-0	-0	-0	0	0	0	51.21448347141442	147.1275359381513	-0	2.533551195614264	0	-0.09478689634274365	0	0	0	0	-5.84323014218514e-17	0
0.4221582560775824	-0	-0	-0	0	0	0	30.79048452666063	114.9111871916769	-0	2.532560644923268	0	-0.09478689634274365	0	0	0	0	-2.929765450962269e-18	0
0.4245035797224578	-0	-0	-0	0	0	0	12.96703659564791	85.91729064534422	-0	2.531293103046204	0	-0.09478689634274365	0	0	0	0	-8.51544623616373e-17	0
0.4268489033673333	-0	-0	-0	0	0	0	0.05375465863574216	58.99156837245704	-0	2.529848942727512	0	-0.09478689634274365	0	0	0	0	-4.095422117663093e-19	0
0.4291942270122087	-0	-0	-0	0	0	0	-6.218562491094994	32.16122508361849	-0	2.528175082902688	0	-0.09478689634274365	0	0	0	0	2.285219530259769e-17	0
0.4315395506570842	-0	-0	-0	0	0	0	-2.798752895910233	5.547192333057099	-0	2.525681069674695	0	-0.09478689634274365	0	0	0	0	1.872551410506733e-17	0
0.4338848743019597	-0	-0	-0	0	0	0	0.2998048258382289	-0.3170793177104336	-0	2.522524404659834	0	-0.09478689634274365	0	0	0	0	-9.950877039254137e-19	0
0.4362301979468351	-0	-0	-0	0	0	0	1.188895063730047e-07	-1.020968586256231e-07	-0	2.52253907136178	0	-0.09478689634274365	0	0	0	0	-3.013022080038963e-25	0
0.4385755215917105	-0	-0	-0	0	0	0	-0	-0	-0	0	0	0	0	0	0	0	0	0
0.440920845236586	-0	-0	-0	0	0	0	-0	-0	-0	0	0	0	0	0	0	0	0	0
0.4432661688814615	-0	-0	-0	0	0	0	-0	-0	-0	0	0	0	0	0	0	0	0	0
0.4456114925263369	-0	-0	-0	0	0	0	-0	-0	-0	0	0	0	0	0	0	0	0	0
0.4479568161712124	-0	-0	-0	0	0	0	-0	-0	-0	0	0	0	0	0	0	0	0	0
0.4503021398160879	-0	-0	-0	0	0	0	-0	-0	-0	0	0	0	0	0	0	0	0	0
0.4526474634609633	-0	-0	-0	0	0	0	-0	-0	-0	0	0	0	0	0	0	0	0	0
0.4549927871058387	-0	-0	-0	0	0	0	-0	-0	-0	0	0	0	0	0	0	0	0	0
0.4573381107507142	-0	-0	-0	0	0	0	-0	-0	-0	0	0	0	0	0	0	0	0	0
0.4596834343955897	-0	-0	-0	0	0	0	1.280542447763202e-15	-5.132635109284862e-16	-0	0	0	0	0	0	0	0	-1.213786442586138e-16	0
0.4620287580404651	-0	-0	-0	0	0	0	6.765776727511091e-14	-2.628308501440689e-14	-0	2.605425280946736	0	-0.09478689634274365	0	0	0	0	-3.359157062062326e-31	0
0.4643740816853406	-0	-0	-0	0	0	0	6.451463356585802e-12	-2.428476084588689e-12	-0	2.616197926089245	0	-0.09478689634274366	0	0	0	0	5.70985456895764e-29	0
0.4667194053302161	-0	-0	-0	0	0	0	6.305572322746844e-10	-2.299227756011697e-10	-0	2.627320574743668	0	-0.09478689634274365	0	0	0	0	2.154354112783019e-27	0
0.4690647289750915	-0	-0	-0	0	0	0	6.547369257812598e-08	-2.313003197171724e-08	-0	2.638786647052783	0	-0.09478689634274365	0	0	0	0	-4.118359094447935e-25	0
