DataType=double
version=3
OpenSimVersion=4.6-2026-06-22-85aaf64
endheader
time	ground_force_r_vx	ground_force_r_vy	ground_force_r_vz	ground_force_r_px	ground_force_r_py	ground_force_r_pz	ground_force_l_vx	ground_force_l_vy	ground_force_l_vz	ground_force_l_px	ground_force_l_py	ground_force_l_pz	ground_torque_r_x	ground_torque_r_y	ground_torque_r_z	ground_torque_l_x	ground_torque_l_y	ground_torque_l_z
0	-5.731836815669131e-06	1.478923736899155e-06	-0	1.157784656351101	0	0.0895693271058919	3.02495815818631e-05	-1.253467993142646e-05	-0	0.6488530008556366	0	-0.09478689634274365	0	1.68076634835127e-14	0	0	1.736194474558592e-23	0
0.002330451550976695	-4.429485943638044e-05	1.154121522633219e-05	-0	1.163075544532731	0	0.08956903313368934	0.0002445086907865047	-9.928906763381973e-05	-0	0.6578417922804891	0	-0.09478689634274365	0	2.657734995458548e-14	0	0	9.08774861763281e-22	0
0.00466090310195339	-0.0003268716980975565	8.603458192501787e-05	-0	1.168453639346613	0	0.08956898473861431	0.001732104632905848	-0.0006905089038664573	-0	0.6670098970825706	0	-0.09478689634274365	0	3.910271842833916e-14	0	0	-2.738233788295833e-21	0
0.006991354652930084	-0.002288808276903657	0.0006087428488326556	-0	1.173923925972161	0	0.08956897671244167	0.009993574177559602	-0.003917242214576006	-0	0.6763363069082057	0	-0.09478689634274365	0	5.411437872964927e-14	0	0	-5.083219410006522e-20	0
0.009321806203906781	-0.01509712653226136	0.004058444587893571	-0	1.17949520370711	0	0.08956897536119972	0.03468942708397809	-0.01338791358441568	-0	0.6858036959679501	0	-0.09478689634274365	0	7.072317711030863e-14	0	0	7.242792800920061e-20	0
0.01165225775488347	-0.09297820508869516	0.02526857132349426	-0	1.185175587147016	0	0.08956897512920213	-0.02079686881224823	0.007912508326635207	-0	0.6953963006679644	0	-0.09478689634274365	0	8.746970609623099e-14	0	0	2.961531030877316e-20	0
0.01398270930586017	-0.5284579529734407	0.1452276200558259	-0	1.190969687456871	0	0.08956897508834152	-0.1964455217514264	0.07377528298792631	-0	0.7050980568859285	0	-0.09478689634274365	0	1.025345088078025e-13	0	0	-1.823633094960217e-19	0
0.01631316085683687	-2.727173722632043	0.7581334558907532	-0	1.196880813263679	0	0.08956897508089386	-0.28674250611744	0.1064133401218299	-0	0.7148955162578047	0	-0.09478689634274366	0	1.141342781325455e-13	0	0	-4.621701573790385e-18	0
0.01864361240781356	-12.42057401094325	3.49945876993049	-0	1.202878859172696	0	0.08956897507948197	-0.3141758848022372	0.1153037594423166	-0	0.7247822724198967	0	-0.09478689634274365	0	1.232408830352045e-13	0	0	7.592648556395132e-19	0
0.02097406395879025	-47.40492059549243	13.61641747376268	-0	1.208925696399349	0	0.08956897507919724	-0.311885313592983	0.1132547327531139	-0	0.7347547244603657	0	-0.09478689634274365	0	1.377261989971901e-13	0	0	1.098379705389795e-19	0
0.02330451550976695	-135.138575526641	40.3115436052672	-0	1.214894057500268	0	0.08956897507914029	-0.2946186011137623	0.1058878368360564	-0	0.7448143944054776	0	-0.09478689634274365	0	1.855369441287181e-13	0	0	3.615285142235888e-19	0
0.02563496706074364	-262.971731212931	83.99722564171613	-0	1.22078877572808	0	0.08956897507913775	-0.2702019567248308	0.09612748241330339	-0	0.7549660106138137	0	-0.09478689634274365	0	2.895134562118466e-13	0	0	-1.538820849431474e-18	0
0.02796541861172034	-517.8638729129814	189.124124833409	-0	1.226510311101621	0	0.08956897507916504	-0.2410013923903715	0.08485758676184367	-0	0.7652237229157949	0	-0.09478689634274365	0	3.982914280849297e-13	0	0	7.274978155722379e-20	0
0.03029587016269704	-833.4153884282514	403.6257962977301	-0	1.232014412116111	0	0.08956897507941271	-0.2067376406762919	0.07200417514803564	-0	0.7756147807134923	0	-0.09478689634274365	0	-6.785776573116268e-12	0	0	2.145293993023578e-19	0
0.03262632171367373	-855.8362440976392	650.9331662394769	-0	1.236803274064585	0	0.08956897508377692	-0.1716746476891238	0.05908097009368302	-0	0.7861813431870078	0	-0.09478689634274365	0	-3.843539266298987e-10	0	0	2.334794710756903e-19	0
0.03495677326465043	-519.1422913106836	899.2451064387639	-0	1.240699254030919	0	0.08956897520716216	-0.1410668684953587	0.04791728214066575	-0	0.79695474789096	0	-0.09478689634274366	0	-4.849723607456445e-08	0	0	-1.123046436573817e-18	0
0.03728722481562712	-134.231037208245	1162.324318595768	-0	1.243443637939576	0	0.08956897729064835	-0.1150468122104301	0.03855155382645169	-0	0.8079407291830841	0	-0.09478689634274365	0	-2.020345185085613e-06	0	0	2.566398420411994e-19	0
0.03961767636660381	-239.9791721127856	1408.182761632006	-0	1.243581740991081	0	0.08956899262251745	-0.09075869622062233	0.02999213478912635	-0	0.8191524096155712	0	-0.09478689634274365	0	-1.23109858796389e-05	0	0	-5.935246268177371e-19	0
0.04194812791758051	-40.0289188788454	1598.4275364913	-0	1.244904177031894	0	0.08956906886817487	-0.06859232900681925	0.02233797328735562	-0	0.8306258600381787	0	-0.09478689634274365	0	-5.472169239365471e-05	0	0	-2.54030814675482e-19	0
0.04427857946855721	-107.8743441380678	1728.472804200815	-0	1.244897189307943	0	0.08956937461013607	-0.04980900809824546	0.01597617396543046	-0	0.8423870125479022	0	-0.09478689634274365	0	-0.0002053611175532206	0	0	-1.035050898063971e-19	0
0.0466090310195339	13.38965166167887	1790.914174623774	-0	1.245772341126539	0	0.08957049422600012	-0.03480412566102625	0.01099358821749354	-0	0.8544415399143821	0	-0.09478689634274365	0	-0.0007704930206123997	0	0	7.37307653088241e-20	0
0.0489394825705106	-44.34435041417528	1804.792786424606	-0	1.245833045678612	0	0.08957411660930076	-0.02362902476061178	0.00735240751853877	-0	0.8667846766924496	0	-0.09478689634274365	0	-0.002517465254080657	0	0	1.141993917785625e-19	0
0.05126993412148729	34.05513422370469	1775.237656382004	-0	1.246822069053318	0	0.08958481480130888	-0.01557702720123805	0.004774191056054882	-0	0.8794271872871844	0	-0.09478689634274365	0	-0.00768299170541305	0	0	-9.832589480662502e-20	0
0.05360038567246398	-7.674736726017735	1726.01381871744	-0	1.247612208160309	0	0.08961134536720022	-0.01004487722085009	0.003033694463944147	-0	0.89235500956192	0	-0.09478689634274363	0	-0.01978950805378933	0	0	1.695725821889273e-19	0
0.05593083722344067	47.05880342241314	1661.08073425291	-0	1.24980466995649	0	0.08966557554525179	-0.006375974464978133	0.00189966050325669	-0	0.9055321629463398	0	-0.09478689634274365	0	-0.04454907840320164	0	0	-4.663997351727608e-20	0
0.05826128877441737	9.828229737836867	1600.193850077513	-0	1.252582585166752	0	0.08975945117092658	-0.003991838815829013	0.001174099274440378	-0	0.9189521013232345	0	-0.09478689634274365	0	-0.08455921744371434	0	0	2.376694940258148e-20	0
0.06059174032539407	7.666523187149124	1575.189330658805	-0	1.259795429192678	0	0.08999927829378478	-0.002455756242354208	0.000713427383978416	-0	0.932607945885723	0	-0.09478689634274365	0	-0.1684683113243698	0	0	-9.159709672695082e-21	0
0.06292219187637077	-52.52407761497228	1585.78087763992	-0	1.269756692180144	0	0.09035093771547555	-0.001465876405734963	0.0004207499747985768	-0	0.9464985232104609	0	-0.09478689634274365	0	-0.2312828632198286	0	0	6.630810865925606e-21	0
0.06525264342734746	-35.71163998798707	1570.406301151223	-0	1.279213878681919	0	0.09067093358133337	-0.0008264026804549945	0.0002343608334719204	-0	0.9606338430803611	0	-0.09478689634274365	0	-0.2384657748027127	0	0	1.047930453537896e-21	0
0.06758309497832415	-49.49102725865538	1538.827333884628	-0	1.287969128412175	0	0.09097480351638687	-0.0004198309393544602	0.0001175770485904011	-0	0.9750384872714289	0	-0.09478689634274365	0	-0.2341780203074882	0	0	1.744127076668879e-21	0
0.06991354652930085	-40.46633008811105	1495.25008453709	-0	1.296815303399543	0	0.09127782173289575	-0.0001684865639284239	4.653789092690629e-05	-0	0.989766959797051	0	-0.09478689634274365	0	-0.2230127584744829	0	0	-1.22094430614378e-21	0
0.07224399808027754	-48.66305498029888	1443.446166581739	-0	1.30534710072312	0	0.09157451762912484	-3.358441933594951e-05	9.135896748426016e-06	-0	1.004860937497509	0	-0.09478689634274365	0	-0.2032284019351102	0	0	7.50172838035927e-23	0
0.07457444963125424	-39.40810186483132	1383.385327925293	-0	1.314277297676719	0	0.09188192779817204	1.040406412335157e-05	-2.786188656839175e-06	-0	1.020304769646002	0	-0.09478689634274365	0	-0.1796184464212622	0	0	-2.1068294571598e-23	0
0.07690490118223094	-41.16946243442359	1316.294300739493	-0	1.323332386873672	0	0.09219696487050875	1.047947841001248e-05	-2.763475768082276e-06	-0	1.036080168870027	0	-0.09478689634274365	0	-0.1518216988589605	0	0	-1.03618856613394e-22	0
0.07923535273320763	-35.84043508842832	1246.755667752271	-0	1.332944678884701	0	0.09253046352458437	4.291875853011331e-06	-1.114917120048435e-06	-0	1.052180240476969	0	-0.09478689634274365	0	-0.1228441226173811	0	0	2.458506769779783e-23	0
0.08156580428418432	-38.24819539688182	1176.721374980186	-0	1.342787934248102	0	0.09287464081630079	1.262932713191571e-06	-3.233572256671965e-07	-0	1.068596797479985	0	-0.09478689634274365	0	-0.09331053120813058	0	0	-4.191035316116541e-25	0
0.08389625583516101	-35.53971808913327	1107.277237045261	-0	1.353248541167105	0	0.09323982242742666	3.067038036220464e-07	-7.744572599036431e-08	-0	1.085319680627388	0	-0.09478689634274365	0	-0.06519496032686647	0	0	-9.754683941651744e-25	0
0.0862267073861377	-36.91616159451722	1037.900837129104	-0	1.364190149921924	0	0.09362381964247506	6.487848292772298e-08	-1.616862262747258e-08	-0	1.102336103063682	0	-0.09478689634274365	0	-0.03982242179661332	0	0	-2.053506510560282e-25	0
0.08855715893711441	-35.95143256547288	969.2893124285562	-0	1.375994697153727	0	0.0940383983719929	1.236935659770147e-08	-3.045085032198531e-09	-0	1.119625849704634	0	-0.09478689634274365	0	-0.01896657357559816	0	0	-1.786277738085867e-26	0
0.0908876104880911	-38.04363691279313	898.147036089217	-0	1.389062458712478	0	0.09449975481255479	2.176120750149795e-09	-5.297166984401846e-10	-0	1.137168196888434	0	-0.09478689634274365	0	-0.004394069517619763	0	0	2.635125770089242e-27	0
0.09321806203906779	-33.72434291062444	857.0179190223027	-0	1.398338401225175	0	0.09482508672054821	3.547804275531603e-10	-8.547615257308129e-11	-0	1.15494760272632	0	-0.09478689634274365	0	0.0001606441719080263	0	0	2.529411328519931e-27	0
0.0955485135900445	-18.29221939916984	871.3998687779549	-0	1.397584785439862	0	0.09478996233564473	5.35312995323614e-11	-1.277556448179096e-11	-0	1.172955797350108	0	-0.09478689634274365	0	-2.507132407404483e-05	0	0	2.392203891058647e-29	0
0.09787896514102118	-0.6181280014317424	874.7669663254114	-0	1.397756585437906	0	0.09478694840640971	7.478576577337127e-12	-1.768989985571824e-12	-0	1.191199299966503	0	-0.09478689634274365	0	-1.149752087900036e-06	0	0	3.903728805142083e-29	0
0.1002094166919979	12.52332118006089	873.3308994028312	-0	1.397958611011744	0	0.09478689693632418	9.784074463628354e-13	-2.294788307249103e-13	-0	1.209681046281626	0	-0.09478689634274365	0	-2.232505409723522e-08	0	0	-1.537676176771211e-30	0
0.1025398682429746	26.47922099841497	868.9505004193443	-0	1.398171956070577	0	0.09478689634831128	1.229640363236832e-13	-2.861028787640257e-14	-0	1.228389735440692	0	-0.09478689634274365	0	-3.054098932946648e-10	0	0	-4.551422694583925e-31	0
0.1048703197939513	38.38261168462294	861.6036508187673	-0	1.398361307384691	0	0.09478689634279315	1.525280644699267e-14	-3.522403330997141e-15	-0	0	0	0	0	-3.649853475485124e-12	0	0	-1.445766183627026e-15	0
0.107200771344928	50.27614143309549	852.6438342992117	-0	1.398551414337142	0	0.09478689634274409	1.910122493167217e-15	-4.380573991907945e-16	-0	0	0	0	0	-4.137728915306621e-14	0	0	-1.810545827617841e-16	0
0.1095312228959047	60.83851056627427	841.8242821351643	-0	1.398725713761124	0	0.09478689634274366	2.471630861336566e-16	-5.632193320317146e-17	-0	0	0	0	0	-1.557997632588917e-15	0	0	-2.342782182510353e-17	0
0.1118616744468813	71.20415250504401	830.0756601443989	-0	1.398898189222594	0	0.09478689634274363	3.372440656225042e-17	-7.640291183060921e-18	-0	0	0	0	0	1.161588991240984e-15	0	0	-3.196631829036574e-18	0
0.1141921259978581	80.61473093833193	817.1287958158322	-0	1.399058874516119	0	0.09478689634274365	4.94908943914839e-18	-1.11534776524528e-18	-0	0	0	0	0	3.369612001288904e-16	0	0	-4.691088276595257e-19	0
0.1165225775488347	89.76327370859666	803.6062279290221	-0	1.399216478022537	0	0.09478689634274365	7.944277945695986e-19	-1.781969522203749e-19	-0	0	0	0	0	-6.693954298743516e-16	0	0	-7.530134501566299e-20	0
0.1188530290998114	98.17131526116439	789.2744169789645	-0	1.399364485421293	0	0.09478689634274365	1.415726343021991e-19	-3.162416989537944e-20	-0	0	0	0	0	-5.780239306636178e-16	0	0	-1.34192306125717e-20	0
0.1211834806507881	106.3094739812379	774.5366100958694	-0	1.399509024947515	0	0.09478689634274366	2.837163391377935e-20	-6.314491809563139e-21	-0	0	0	0	0	-1.136269544544228e-15	0	0	-2.689259122859674e-21	0
0.1235139322017648	113.8308703861258	759.1453165544094	-0	1.399645375690311	0	0.09478689634274365	6.485139144579606e-21	-1.438774275579671e-21	-0	0	0	0	0	8.371480685375664e-16	0	0	-6.147062118655363e-22	0
0.1258443837527415	121.0688734633283	743.2758500789976	-0	1.399778342149222	0	0.09478689634274365	1.726191901107884e-21	-3.819146534559843e-22	-0	0	0	0	0	1.62945661111223e-16	0	0	-1.636203727979966e-22	0
0.1281748353037182	127.7906615998001	726.7057010598897	-0	1.399904947101052	0	0.09478689634274365	5.59068709332285e-22	-1.233956203485192e-22	-0	0	0	0	0	-9.682002669889465e-17	0	0	-5.299238779995077e-23	0
0.1305052868546949	134.2165168424105	709.4864383508951	-0	1.400028879605279	0	0.09478689634274365	2.461233844585676e-22	-5.420465768504736e-23	-0	0	0	0	0	-1.98567611669094e-16	0	0	-2.332927173019949e-23	0
0.1328357384056716	140.1661769834147	691.3822503687657	-0	1.400148244418588	0	0.09478689634274365	1.686610033434303e-22	-3.706465604344767e-23	-0	0	0	0	0	8.711379846339541e-16	0	0	-1.598685304097687e-23	0
0.1351661899566483	145.7600721243591	672.3557287040029	-0	1.400265789180407	0	0.09478689634274365	2.172208912932944e-22	-4.762235135127262e-23	-0	0	0	0	0	-7.146959656127291e-17	0	0	-2.058969410649588e-23	0
0.137496641507625	150.8405749612816	652.1597005399473	-0	1.400380399703765	0	0.09478689634274365	5.958638714063044e-22	-1.302664415500631e-22	-0	0	0	0	0	-5.768005478896118e-16	0	0	-5.648008701337531e-23	0
0.1398270930586017	155.4907327575515	630.7945736670495	-0	1.400494556349734	0	0.09478689634274365	3.176798794132968e-21	-6.922347506779873e-22	-0	0	0	0	0	3.899587670735201e-16	0	0	-3.011188980012346e-22	0
0.1421575446095784	159.5051141080934	608.239402175139	-0	1.400605569772859	0	0.09478689634274365	3.047969949844562e-20	-6.616840902570438e-21	-0	0	0	0	0	-4.537145100034718e-16	0	0	-2.889076116917141e-21	0
0.1444879961605551	162.7299087801438	584.7367282605019	-0	1.400710302006713	0	0.09478689634274365	4.975042578143628e-19	-1.075485732117956e-19	-0	0	0	0	0	-1.120158694673254e-16	0	0	-4.715688451552362e-20	0
0.1468184477115318	164.9344634129167	560.5045668886354	-0	1.400803506234786	0	0.09478689634274365	1.105902322159144e-17	-2.379815698461213e-18	-0	0	0	0	0	1.230269238520154e-17	0	0	-1.048250487756983e-18	0
0.1491488992625085	166.0131722536473	536.1045146788728	-0	1.400879703582995	0	0.09478689634274365	2.142813786442428e-16	-4.591331437869042e-17	-0	0	0	0	0	8.665648289116295e-17	0	0	-2.031106682573205e-17	0
0.1514793508134852	165.7184426294503	511.9609685536397	-0	1.400929740116551	0	0.09478689634274365	2.234074400895376e-15	-4.770558630577302e-16	-0	0	0	0	0	-1.156194537753907e-16	0	0	-2.117609786596471e-16	0
0.1538098023644619	163.9478961962199	487.9930196324543	-0	1.400950384818977	0	0.09478689634274365	-3.463154757074631e-16	7.378942050197317e-17	-0	0	0	0	0	-3.691603352428254e-16	0	0	3.282616909777126e-17	0
0.1561402539154386	161.1237502050276	463.6087715794707	-0	1.400955201134609	0	0.09478689634274365	-7.118014433899769e-14	1.515411929804307e-14	-0	0	0	0	0	7.496498656517094e-16	0	0	6.746944963122105e-15	0
0.1584707054664153	158.0841678749079	438.0491948447773	-0	1.400971872515249	0	0.09478689634274365	-0	-0	-0	0	0	0	0	5.412176941359198e-16	0	0	0	0
0.1608011570173919	154.7520820749871	411.1368441349483	-0	1.401003256183612	0	0.09478689634274365	-0	-0	-0	0	0	0	0	-3.069426368964466e-16	0	0	0	0
0.1631316085683686	150.4798329279464	383.24141019921	-0	1.401031463865156	0	0.09478689634274365	-0	-0	-0	0	0	0	0	1.750982248361571e-16	0	0	0	0
0.1654620601193453	144.9032789699775	354.5565446130345	-0	1.401045344754128	0	0.09478689634274363	-0	-0	-0	0	0	0	0	2.106758657232303e-15	0	0	0	0
0.167792511670322	137.8324438579547	325.3260750101426	-0	1.401036167683079	0	0.09478689634274365	-0	-0	-0	0	0	0	0	7.659930594877144e-16	0	0	0	0
0.1701229632212987	129.4037386105221	295.5541088632818	-0	1.401007299702928	0	0.09478689634274365	-0	-0	-0	0	0	0	0	-4.025208731582101e-16	0	0	0	0
0.1724534147722754	120.069334942549	265.0681680089532	-0	1.400977995503437	0	0.09478689634274365	-0	-0	-0	0	0	0	0	-1.880981028637272e-17	0	0	0	0
0.1747838663232521	109.9913570675852	233.9627694581955	-0	1.400957268290744	0	0.09478689634274365	-0	-0	-0	0	0	0	0	-3.667390588556562e-16	0	0	0	0
0.1771143178742288	99.16365469768613	202.5616139027756	-0	1.400945279434028	0	0.09478689634274365	-0	-0	-0	0	0	0	0	2.629576139183962e-16	0	0	0	0
0.1794447694252055	87.60484396487416	171.189161612859	-0	1.400943685242207	0	0.09478689634274366	-0	-0	-0	0	0	0	0	-6.399940283274366e-16	0	0	0	0
0.1817752209761822	75.36062210793075	140.2057790567452	-0	1.400956067763022	0	0.09478689634274365	-0	-0	-0	0	0	0	0	2.674401101368057e-16	0	0	0	0
0.1841056725271589	62.34979002386829	111.5293259701388	-0	1.400905522532462	0	0.09478689634274365	-0	-0	-0	0	0	0	0	-3.230782087854868e-16	0	0	0	0
0.1864361240781356	48.35856174730188	89.39158151333726	-0	1.400493386781651	0	0.09478689634274365	-0	-0	-0	0	0	0	0	-3.177112187317169e-16	0	0	0	0
0.1887665756291123	34.01929388338342	74.50249662111082	-0	1.399556462336375	0	0.09478689634274365	-0	-0	-0	0	0	0	0	1.572927260816825e-16	0	0	0	0
0.191097027180089	20.59642127612823	62.28603692626564	-0	1.398394656378444	0	0.09478689634274365	-0	-0	-0	0	0	0	0	-8.226965911057818e-18	0	0	0	0
0.1934274787310657	9.541289488089058	50.02459895101237	-0	1.397288194651651	0	0.09478689634274365	-0	-0	-0	0	0	0	0	-7.531412724882489e-18	0	0	0	0
0.1957579302820424	1.390939627098134	37.16885996074716	-0	1.39626540178201	0	0.09478689634274365	-0	-0	-0	0	0	0	0	-1.283117921395229e-17	0	0	0	0
0.1980883818330191	-3.195014256446117	23.00559252908798	-0	1.395282144330818	0	0.09478689634274363	-1.285164781368604e-12	2.972866796819363e-13	-0	1.966866228864651	0	-0.09478689634274365	0	-2.462389309788621e-17	0	0	2.304935745885863e-30	0
0.2004188333839957	-2.767479225887536	7.178572302989092	-0	1.394068032587943	0	0.09478689634274365	-1.301440094334852e-12	3.026076829132985e-13	-0	1.980038336657488	0	-0.09478689634274363	0	-1.692132554509992e-17	0	0	2.027245838106002e-29	0
0.2027492849349725	1.951803356180758	-2.223716438673651	-0	1.391631440607315	0	0.09478689634274365	-1.304833229611346e-12	3.049986392026445e-13	-0	1.993018374080144	0	-0.09478689634274363	0	2.944759138614993e-18	0	0	8.233510222548054e-30	0
0.2050797364859492	0.04720646645915061	-0.04688431927449631	-0	1.392245726984023	0	0.09478689634274365	-2.592456505354915e-12	6.093051333744218e-13	-0	2.005815974114238	0	-0.09478689634274365	0	-1.164044686518653e-19	0	0	2.871545788494296e-31	0
0.2074101880369258	5.348445313288461e-05	-4.538962366594833e-05	-0	1.393473422065683	0	0.09478689634274363	-5.107907563029748e-12	1.207478615654511e-12	-0	2.018441090849767	0	-0.09478689634274366	0	8.575553581052735e-22	0	0	-3.445575732790478e-29	0
0.2097406395879025	1.037126207800214e-07	-7.525379962827748e-08	-0	1.395679217686774	0	0.09478689634274365	-7.491884342469209e-12	1.781974309271368e-12	-0	2.030904166574938	0	-0.09478689634274365	0	-3.633638834024975e-25	0	0	-4.721246771375649e-29	0
0.2120710911388792	1.648409110295433e-09	-1.048860772240242e-09	-0	1.399144887047181	0	0.09478689634274365	-1.212753576168771e-11	2.903635788562538e-12	-0	2.043214890534428	0	-0.09478689634274363	0	-4.208003987330394e-27	0	0	1.62832120618401e-28	0
0.214401542689856	1.937658490261894e-10	-1.110075117867198e-10	-0	1.40381381411928	0	0.09478689634274365	-1.99029909509381e-11	4.799000213134793e-12	-0	2.055381951291754	0	-0.09478689634274363	0	3.33311064976827e-28	0	0	3.610439530337163e-28	0
0.2167319942408326	1.227010841088829e-10	-6.491867250625363e-11	-0	1.409542278027407	0	0.09478689634274365	-3.147411338535809e-11	7.646578497328667e-12	-0	2.067413135043418	0	-0.09478689634274365	0	6.207746711367199e-28	0	0	-5.857768396488207e-29	0
0.2190624457918093	2.542421405914916e-10	-1.268212498425446e-10	-0	1.416103209625105	0	0.09478689634274365	-6.479239337918951e-11	1.58796196031446e-11	-0	2.044460461827476	0	-0.09345833752486896	0	-1.50578183250103e-27	0	0	1.695205896485168e-16	0
0.221392897342786	1.074579397651816e-09	-5.127555185659782e-10	-0	1.423272954236802	0	0.09478689634274365	-2.009530258605815e-10	4.967805248008253e-11	-0	1.999406502126614	0	-0.09145328555641566	0	2.639246215706169e-27	0	0	2.29856094301694e-16	0
0.2237233488937627	6.344232273608036e-09	-2.920521677507996e-09	-0	1.430897951938803	0	0.09478689634274365	-1.237680829242974e-09	3.084197004103109e-10	-0	1.965673432085248	0	-0.09001947681353556	0	1.879200582148488e-26	0	0	-4.077439115528185e-16	0
0.2260538004447394	4.494097929625023e-08	-2.005760984165485e-08	-0	1.438881901630598	0	0.09478689634274365	-1.010654980468345e-08	2.538692509562332e-09	-0	1.960250332248995	0	-0.0896487665692548	0	3.430072292667291e-25	0	0	-2.068436223390539e-15	0
0.2283842519957161	3.760649815922235e-07	-1.633122648207393e-07	-0	1.447171744047864	0	0.09478689634274365	-8.567017347628385e-08	2.170289731835151e-08	-0	1.963421093391607	0	-0.08958214431733984	0	5.061000087083326e-25	0	0	-5.02197934761343e-15	0
0.2307147035466928	3.417184109408491e-06	-1.447881660015631e-06	-0	1.455725507058964	0	0.09478689634274365	-7.125016510079999e-07	1.821217877502179e-07	-0	1.968265320899985	0	-0.08957112988182195	0	1.185680320207922e-23	0	0	-9.778738665789432e-15	0
0.2330451550976695	3.02495815818621e-05	-1.253467993142605e-05	-0	1.46451104369748	0	0.09478689634274365	-5.731836815669138e-06	1.478923736899157e-06	-0	1.973442699192944	0	-0.0895693271058919	0	-1.456555162944469e-22	0	0	-1.680766353105153e-14	0
0.2353756066486462	0.0002445086907865085	-9.928906763382128e-05	-0	1.473499835122332	0	0.09478689634274365	-4.429485943638037e-05	1.154121522633217e-05	-0	1.978733587374573	0	-0.08956903313368934	0	-1.455361508803362e-21	0	0	-2.657734981438234e-14	0
0.2377060581996229	0.001732104632905878	-0.0006905089038664691	-0	1.482667939924414	0	0.09478689634274365	-0.000326871698097556	8.60345819250177e-05	-0	1.984111682188457	0	-0.08956898473861433	0	5.816327350476551e-21	0	0	-3.910272376371554e-14	0
0.2400365097505996	0.009993574177559793	-0.00391724221457608	-0	1.491994349750049	0	0.09478689634274365	-0.002288808276903652	0.0006087428488326542	-0	1.989581968814005	0	-0.08956897671244167	0	-3.860771572169339e-20	0	0	-5.411437338335271e-14	0
0.2423669613015763	0.03468942708397871	-0.01338791358441592	-0	1.501461738809793	0	0.09478689634274365	-0.01509712653226132	0.004058444587893559	-0	1.995153246548954	0	-0.08956897536119972	0	-6.225394485453452e-20	0	0	-7.072304042561835e-14	0
0.244697412852553	-0.02079686881224912	0.007912508326635545	-0	1.511054343509807	0	0.09478689634274365	-0.09297820508869482	0.02526857132349418	-0	2.000833629988859	0	-0.08956897512920213	0	-8.085085359901031e-20	0	0	-8.746936393377844e-14	0
0.2470278644035297	-0.1964455217514292	0.07377528298792733	-0	1.520756099727772	0	0.09478689634274365	-0.5284579529734384	0.1452276200558253	-0	2.006627730298714	0	-0.08956897508834152	0	-4.091181577985517e-19	0	0	-1.025368536541455e-13	0
0.2493583159545064	-0.2867425061174489	0.1064133401218332	-0	1.530553559099648	0	0.09478689634274365	-2.727173722632478	0.7581334558908744	-0	2.012538856105522	0	-0.08956897508089386	0	1.23578139912969e-18	0	0	-1.141187774559259e-13	0
0.251688767505483	-0.3141758848022466	0.11530375944232	-0	1.540440315261739	0	0.09478689634274366	-12.42057401094346	3.499458769930547	-0	2.018536902014539	0	-0.08956897507948196	0	4.654707366241946e-18	0	0	-1.232210365544798e-13	0
0.2540192190564597	-0.3118853135929891	0.1132547327531161	-0	1.550412767302209	0	0.09478689634274365	-47.40492059549337	13.61641747376295	-0	2.024583739241192	0	-0.08956897507919724	0	9.599563580873081e-19	0	0	-1.373574607871196e-13	0
0.2563496706074364	-0.2946186011137711	0.1058878368360596	-0	1.56047243724732	0	0.09478689634274365	-135.138575526643	40.31154360526779	-0	2.030552100342112	0	-0.08956897507914029	0	-1.560379819175501e-18	0	0	-1.868698435904609e-13	0
0.2586801221584131	-0.2702019567248423	0.0961274824133075	-0	1.570624053455657	0	0.09478689634274365	-262.9717312129341	83.99722564171714	-0	2.036446818569923	0	-0.08956897507913775	0	-3.666305422013735e-19	0	0	-2.873377547026695e-13	0
0.2610105737093898	-0.2410013923903855	0.08485758676184862	-0	1.580881765757638	0	0.09478689634274366	-517.8638729129904	189.1241248334123	-0	2.042168353943463	0	-0.08956897507916504	0	2.221810472007858e-18	0	0	-3.998204059186205e-13	0
0.2633410252603665	-0.2067376406762907	0.0720041751480352	-0	1.591272823555335	0	0.09478689634274365	-833.4153884282623	403.6257962977355	-0	2.047672454957954	0	-0.08956897507941271	0	-6.422521294105226e-19	0	0	6.788775449129719e-12	0
0.2656714768113432	-0.1716746476891417	0.05908097009368918	-0	1.601839386028851	0	0.09478689634274365	-855.8362440976479	650.9331662394834	-0	2.052461316906429	0	-0.08956897508377692	0	1.148014072186481e-19	0	0	3.843616298105566e-10	0
0.2680019283623199	-0.141066868495358	0.0479172821406655	-0	1.612612790732803	0	0.09478689634274365	-519.1422913106899	899.2451064387726	-0	2.056357296872763	0	-0.08956897520716216	0	-7.443385739871754e-19	0	0	4.849723024315314e-08	0
0.2703323799132966	-0.1150468122104295	0.03855155382645149	-0	1.623598772024927	0	0.09478689634274365	-134.2310372082471	1162.324318595774	-0	2.059101680781419	0	-0.08956897729064835	0	6.349144168805593e-21	0	0	2.020345184997383e-06	0
0.2726628314642733	-0.09075869622062187	0.0299921347891262	-0	1.634810452457414	0	0.09478689634274365	-239.9791721127875	1408.182761632012	-0	2.059239783832925	0	-0.08956899262251745	0	5.523411908431971e-19	0	0	1.2310985879607e-05	0
0.27499328301525	-0.06859232900681889	0.0223379732873555	-0	1.646283902880022	0	0.09478689634274365	-40.02891887884648	1598.427536491309	-0	2.060562219873738	0	-0.08956906886817485	0	-1.201046983301933e-19	0	0	5.472169239428484e-05	0
0.2773237345662267	-0.04980900809824525	0.0159761739654304	-0	1.658045055389746	0	0.09478689634274365	-107.874344138069	1728.472804200823	-0	2.060555232149786	0	-0.08956937461013607	0	-3.363776697517794e-19	0	0	0.0002053611175531196	0
0.2796541861172034	-0.03480412566102612	0.0109935882174935	-0	1.670099582756225	0	0.09478689634274366	13.38965166167801	1790.914174623781	-0	2.061430383968382	0	-0.08957049422600011	0	4.894105794272029e-19	0	0	0.0007704930206122545	0
0.2819846376681801	-0.02362902476061168	0.007352407518538739	-0	1.682442719534293	0	0.09478689634274365	-44.3443504141763	1804.792786424615	-0	2.061491088520454	0	-0.08957411660930076	0	-1.101054233489023e-19	0	0	0.002517465254080932	0
0.2843150892191568	-0.01557702720123799	0.004774191056054861	-0	1.695085230129027	0	0.09478689634274365	34.0551342237039	1775.237656382011	-0	2.062480111895161	0	-0.08958481480130887	0	-2.603462250621432e-20	0	0	0.007682991705412339	0
0.2866455407701335	-0.01004487722085005	0.003033694463944134	-0	1.708013052403763	0	0.09478689634274365	-7.674736726018732	1726.013818717444	-0	2.063270251002152	0	-0.08961134536720022	0	-2.0930009635943e-20	0	0	0.01978950805378966	0
0.2889759923211102	-0.006375974464978123	0.001899660503256687	-0	1.721190205788183	0	0.09478689634274365	47.05880342241234	1661.080734252916	-0	2.065462712798333	0	-0.0896655755452518	0	9.641912851623013e-21	0	0	0.04454907840320312	0
0.2913064438720869	-0.003991838815828997	0.001174099274440373	-0	1.734610144165078	0	0.09478689634274365	9.828229737835697	1600.193850077519	-0	2.068240628008595	0	-0.08975945117092658	0	-1.374981515560692e-20	0	0	0.08455921744371518	0
0.2936368954230635	-0.002455756242354199	0.0007134273839784133	-0	1.748265988727566	0	0.09478689634274365	7.666523187147753	1575.189330658816	-0	2.075453472034522	0	-0.08999927829378476	0	1.326891258222641e-20	0	0	0.1684683113243729	0
0.2959673469740403	-0.001465876405734958	0.0004207499747985752	-0	1.762156566052304	0	0.09478689634274365	-52.52407761497403	1585.780877639932	-0	2.085414735021987	0	-0.09035093771547555	0	-1.202699614966131e-20	0	0	0.2312828632198315	0
0.2982977985250169	-0.0008264026804549919	0.0002343608334719196	-0	1.776291885922204	0	0.09478689634274366	-35.71163998798832	1570.40630115123	-0	2.094871921523762	0	-0.09067093358133338	0	7.722617947757726e-21	0	0	0.2384657748027138	0
0.3006282500759936	-0.0004198309393544576	0.0001175770485904003	-0	1.790696530113272	0	0.09478689634274365	-49.49102725865653	1538.827333884632	-0	2.103627171254018	0	-0.09097480351638686	0	-2.804364087400376e-21	0	0	0.2341780203074907	0
0.3029587016269704	-0.0001684865639284203	4.65378909269053e-05	-0	1.805425002638894	0	0.09478689634274365	-40.4663300881122	1495.250084537095	-0	2.112473346241386	0	-0.09127782173289574	0	8.991987125926863e-22	0	0	0.2230127584744855	0
0.305289153177947	-3.358441933594942e-05	9.13589674842599e-06	-0	1.820518980339353	0	0.09478689634274365	-48.6630549802999	1443.446166581745	-0	2.121005143564963	0	-0.09157451762912486	0	-1.733852447050248e-22	0	0	0.2032284019351106	0
0.3076196047289237	1.040406412335154e-05	-2.786188656839167e-06	-0	1.835962812487844	0	0.09478689634274365	-39.40810186483218	1383.385327925298	-0	2.129935340518562	0	-0.09188192779817206	0	-1.043755391613117e-22	0	0	0.1796184464212632	0
0.3099500562799004	1.047947841001245e-05	-2.76347576808227e-06	-0	1.85173821171187	0	0.09478689634274366	-41.16946243442445	1316.294300739502	-0	2.138990429715516	0	-0.09219696487050875	0	-1.231002492787612e-22	0	0	0.1518216988589612	0
0.3122805078308771	4.29187585301141e-06	-1.114917120048456e-06	-0	1.867838283318812	0	0.09478689634274365	-35.8404350884291	1246.755667752274	-0	2.148602721726544	0	-0.09253046352458437	0	-1.264773618997904e-24	0	0	0.1228441226173816	0
0.3146109593818538	1.262932713191568e-06	-3.233572256671956e-07	-0	1.884254840321828	0	0.09478689634274365	-38.24819539688252	1176.721374980188	-0	2.158445977089946	0	-0.0928746408163008	0	1.033011855150347e-23	0	0	0.09331053120813	0
0.3169414109328305	3.067038036220457e-07	-7.744572599036414e-08	-0	1.900977723469231	0	0.09478689634274365	-35.53971808913398	1107.277237045269	-0	2.168906584008948	0	-0.09323982242742665	0	3.471402827709713e-26	0	0	0.06519496032686732	0
0.3192718624838072	6.487848292772281e-08	-1.616862262747254e-08	-0	1.917994145905526	0	0.09478689634274365	-36.91616159451784	1037.900837129107	-0	2.179848192763767	0	-0.09362381964247503	0	-2.983794041599108e-26	0	0	0.03982242179661509	0
0.3216023140347839	1.236935659770143e-08	-3.045085032198521e-09	-0	1.935283892546477	0	0.09478689634274365	-35.95143256547348	969.2893124285613	-0	2.191652739995571	0	-0.09403839837199289	0	-4.779597490270364e-26	0	0	0.01896657357559915	0
0.3239327655857606	2.176120750149787e-09	-5.29716698440183e-10	-0	1.952826239730277	0	0.09478689634274365	-38.04363691279362	898.1470360892182	-0	2.204720501554322	0	-0.09449975481255482	0	-8.269368149700476e-27	0	0	0.004394069517619005	0
0.3262632171367373	3.547804275531595e-10	-8.547615257308111e-11	-0	1.970605645568164	0	0.09478689634274363	-33.72434291062492	857.0179190223046	-0	2.213996444067018	0	-0.09482508672054821	0	4.813837564769281e-27	0	0	-0.0001606441719085458	0
0.328593668687714	5.353129953236128e-11	-1.277556448179093e-11	-0	1.988613840191951	0	0.09478689634274365	-18.29221939917035	871.3998687779584	-0	2.213242828281704	0	-0.09478996233564474	0	1.100936723307706e-28	0	0	2.507132407348837e-05	0
0.3309241202386907	7.478576577337113e-12	-1.76898998557182e-12	-0	2.006857342808346	0	0.09478689634274365	-0.6181280014322363	874.7669663254147	-0	2.21341462827975	0	-0.09478694840640971	0	2.652657739737659e-29	0	0	1.149752087897856e-06	0
0.3332545717896673	9.784074463628333e-13	-2.294788307249098e-13	-0	2.025339089123469	0	0.09478689634274365	12.52332118006036	873.3308994028324	-0	2.213616653853587	0	-0.09478689693632417	0	3.631671664917415e-30	0	0	2.23250538759956e-08	0
0.3355850233406441	1.22964036323683e-13	-2.861028787640251e-14	-0	2.044047778282534	0	0.09478689634274365	26.47922099841453	868.9505004193473	-0	2.21382999891242	0	-0.09478689634831128	0	7.16891705476668e-31	0	0	3.054100952702038e-10	0
0.3379154748916208	1.525280644699264e-14	-3.522403330997134e-15	-0	0	0	0	38.38261168462247	861.603650818768	-0	2.214019350226534	0	-0.09478689634279315	0	1.445766183627023e-15	0	0	3.650040715843229e-12	0
0.3402459264425974	1.910122493167194e-15	-4.380573991907892e-16	-0	0	0	0	50.27614143309489	852.6438342992124	-0	2.214209457178985	0	-0.09478689634274408	0	1.810545827617819e-16	0	0	4.00606898326407e-14	0
0.3425763779935742	2.471630861336583e-16	-5.632193320317184e-17	-0	0	0	0	60.83851056627393	841.824282135167	-0	2.214383756602968	0	-0.09478689634274366	0	2.342782182510369e-17	0	0	9.896762205497049e-16	0
0.3449068295445508	3.372440656225036e-17	-7.640291183060908e-18	-0	0	0	0	71.20415250504374	830.0756601444017	-0	2.214556232064436	0	-0.09478689634274365	0	3.196631829036569e-18	0	0	-9.312144238291446e-18	0
0.3472372810955275	4.949089439148379e-18	-1.115347765245277e-18	-0	0	0	0	80.61473093833195	817.1287958158374	-0	2.214716917357963	0	-0.09478689634274365	0	4.691088276595247e-19	0	0	1.218631930026265e-16	0
0.3495677326465042	7.944277945695908e-19	-1.781969522203731e-19	-0	0	0	0	89.76327370859606	803.6062279290222	-0	2.21487452086438	0	-0.09478689634274363	0	7.530134501566224e-20	0	0	-2.08337635310952e-15	0
0.3518981841974809	1.415726343021988e-19	-3.162416989537939e-20	-0	0	0	0	98.17131526116421	789.2744169789669	-0	2.215022528263136	0	-0.09478689634274365	0	1.341923061257167e-20	0	0	8.305557578547746e-16	0
0.3542286357484576	2.837163391377947e-20	-6.314491809563165e-21	-0	0	0	0	106.309473981237	774.5366100958684	-0	2.215167067789357	0	-0.09478689634274365	0	2.689259122859685e-21	0	0	-8.527684807722303e-16	0
0.3565590872994343	6.485139144579597e-21	-1.438774275579669e-21	-0	0	0	0	113.8308703861255	759.1453165544119	-0	2.215303418532154	0	-0.09478689634274363	0	6.147062118655354e-22	0	0	-1.911805079352732e-15	0
0.358889538850411	1.726191901107883e-21	-3.819146534559841e-22	-0	0	0	0	121.0688734633279	743.275850079	-0	2.215436384991066	0	-0.09478689634274365	0	1.636203727979965e-22	0	0	8.304127529655162e-16	0
0.3612199904013877	5.590687093322841e-22	-1.23395620348519e-22	-0	0	0	0	127.7906615997998	726.7057010598921	-0	2.215562989942895	0	-0.09478689634274365	0	5.299238779995069e-23	0	0	-6.861783986246166e-16	0
0.3635504419523644	2.461233844585672e-22	-5.420465768504726e-23	-0	0	0	0	134.2165168424097	709.486438350894	-0	2.215686922447121	0	-0.09478689634274363	0	2.332927173019945e-23	0	0	-1.571582206872229e-15	0
0.3658808935033411	1.6866100334343e-22	-3.70646560434476e-23	-0	0	0	0	140.1661769834152	691.3822503687715	-0	2.215806287260431	0	-0.09478689634274366	0	1.598685304097684e-23	0	0	2.463233128644019e-15	0
0.3682113450543177	2.172208912932926e-22	-4.762235135127223e-23	-0	0	0	0	145.7600721243585	672.355728704002	-0	2.21592383202225	0	-0.09478689634274365	0	2.058969410649571e-23	0	0	3.997110515661352e-16	0
0.3705417966052945	5.958638714063078e-22	-1.302664415500638e-22	-0	0	0	0	150.8405749612815	652.1597005399499	-0	2.216038442545608	0	-0.09478689634274365	0	5.648008701337563e-23	0	0	5.178598147637947e-16	0
0.3728722481562712	3.176798794132967e-21	-6.922347506779871e-22	-0	0	0	0	155.4907327575521	630.7945736670555	-0	2.216152599191577	0	-0.09478689634274365	0	3.011188980012345e-22	0	0	-7.182002220783823e-16	0
0.3752026997072478	3.047969949844558e-20	-6.61684090257043e-21	-0	0	0	0	159.5051141080943	608.2394021751445	-0	2.216263612614703	0	-0.09478689634274365	0	2.889076116917137e-21	0	0	4.201767206276953e-16	0
0.3775331512582246	4.975042578143628e-19	-1.075485732117956e-19	-0	0	0	0	162.7299087801432	584.7367282605038	-0	2.216368344848556	0	-0.09478689634274365	0	4.715688451552362e-20	0	0	3.223758582205533e-16	0
0.3798636028092013	1.105902322159143e-17	-2.37981569846121e-18	-0	0	0	0	164.9344634129181	560.5045668886411	-0	2.216461549076629	0	-0.09478689634274365	0	1.048250487756982e-18	0	0	5.435668494971935e-16	0
0.3821940543601779	2.142813786441976e-16	-4.591331437868075e-17	-0	0	0	0	166.0131722536459	536.1045146788703	-0	2.216537746424838	0	-0.09478689634274365	0	2.031106682572776e-17	0	0	-5.835852916477409e-16	0
0.3845245059111547	2.234074400895676e-15	-4.770558630577944e-16	-0	0	0	0	165.7184426294501	511.9609685536414	-0	2.216587782958394	0	-0.09478689634274365	0	2.117609786596756e-16	0	0	-1.20143478727878e-16	0
0.3868549574621314	-3.463154757097081e-16	7.378942050245152e-17	-0	0	0	0	163.9478961962198	487.9930196324555	-0	2.21660842766082	0	-0.09478689634274365	0	-3.282616909798406e-17	0	0	2.512788689911911e-16	0
0.3891854090131081	-7.118014433899285e-14	1.515411929804204e-14	-0	0	0	0	161.1237502050262	463.6087715794681	-0	2.216613243976451	0	-0.09478689634274365	0	-6.746944963121646e-15	0	0	4.70837431866146e-16	0
0.3915158605640847	-0	-0	-0	0	0	0	158.0841678749078	438.0491948447784	-0	2.216629915357092	0	-0.09478689634274363	0	0	0	0	-1.93530891166741e-15	0
0.3938463121150614	-0	-0	-0	0	0	0	154.7520820749884	411.1368441349537	-0	2.216661299025455	0	-0.09478689634274365	0	0	0	0	6.859899794013902e-16	0
0.3961767636660382	-0	-0	-0	0	0	0	150.479832927948	383.2414101992159	-0	2.216689506706999	0	-0.09478689634274365	0	0	0	0	-3.011145367135272e-16	0
0.3985072152170148	-0	-0	-0	0	0	0	144.9032789699791	354.5565446130393	-0	2.216703387595971	0	-0.09478689634274365	0	0	0	0	-2.218380109077817e-16	0
0.4008376667679915	-0	-0	-0	0	0	0	137.8324438579542	325.3260750101429	-0	2.216694210524922	0	-0.09478689634274365	0	0	0	0	-3.78810871357035e-16	0
0.4031681183189682	-0	-0	-0	0	0	0	129.4037386105202	295.5541088632783	-0	2.216665342544771	0	-0.09478689634274365	0	0	0	0	-6.248745337307222e-16	0
0.4054985698699449	-0	-0	-0	0	0	0	120.0693349425496	265.0681680089544	-0	2.21663603834528	0	-0.09478689634274365	0	0	0	0	-7.387856712870979e-16	0
0.4078290214209216	-0	-0	-0	0	0	0	109.991357067585	233.962769458196	-0	2.216615311132586	0	-0.09478689634274365	0	0	0	0	-7.866726599106463e-16	0
0.4101594729718983	-0	-0	-0	0	0	0	99.16365469768391	202.5616139027719	-0	2.216603322275871	0	-0.09478689634274365	0	0	0	0	-7.852893664250148e-16	0
0.412489924522875	-0	-0	-0	0	0	0	87.60484396487378	171.1891616128596	-0	2.21660172808405	0	-0.09478689634274363	0	0	0	0	-8.571111616840731e-16	0
0.4148203760738517	-0	-0	-0	0	0	0	75.36062210793308	140.2057790567495	-0	2.216614110604865	0	-0.09478689634274365	0	0	0	0	3.727731086214472e-16	0
0.4171508276248284	-0	-0	-0	0	0	0	62.34979002386554	111.5293259701347	-0	2.216563565374305	0	-0.09478689634274365	0	0	0	0	-8.568910200057372e-17	0
0.4194812791758051	-0	-0	-0	0	0	0	48.35856174730188	89.3915815133379	-0	2.216151429623494	0	-0.09478689634274365	0	0	0	0	-3.557901876841041e-16	0
0.4218117307267818	-0	-0	-0	0	0	0	34.01929388338315	74.50249662111086	-0	2.215214505178217	0	-0.09478689634274365	0	0	0	0	6.828001420748666e-18	0
0.4241421822777585	-0	-0	-0	0	0	0	20.59642127612811	62.28603692626565	-0	2.214052699220287	0	-0.09478689634274365	0	0	0	0	1.050225129437277e-16	0
0.4264726338287351	-0	-0	-0	0	0	0	9.541289488088998	50.02459895101259	-0	2.212946237493493	0	-0.09478689634274366	0	0	0	0	7.731887470733149e-17	0
0.4288030853797118	-0	-0	-0	0	0	0	1.390939627098057	37.1688599607471	-0	2.211923444623852	0	-0.09478689634274365	0	0	0	0	-4.150623027472179e-18	0
0.4311335369306886	-1.285164781368602e-12	2.972866796819358e-13	-0	2.782524271706494	0	0.09478689634274365	-3.195014256446783	23.00559252909211	-0	2.210940187172662	0	-0.09478689634274366	0	-1.091921802461478e-29	0	0	-3.312231700174365e-17	0
0.4334639884816652	-1.301440094334851e-12	3.026076829132983e-13	-0	2.795696379499331	0	0.09478689634274363	-2.767479225887565	7.178572302989131	-0	2.209726075429786	0	-0.09478689634274365	0	-1.500856888336502e-29	0	0	8.682723124603551e-19	0
0.4357944400326419	-1.30483322961134e-12	3.049986392026433e-13	-0	2.808676416921987	0	0.09478689634274363	1.951803356180773	-2.223716438673663	-0	2.207289483449159	0	-0.09478689634274365	0	-2.019818528231082e-29	0	0	-8.335545852564219e-18	0
0.4381248915836187	-2.59245650535491e-12	6.093051333744208e-13	-0	2.821474016956081	0	0.09478689634274363	0.04720646645915105	-0.04688431927449672	-0	2.207903769825866	0	-0.09478689634274363	0	-5.349328041861091e-29	0	0	-9.456041164679003e-19	0
0.4404553431345953	-5.107907563029741e-12	1.20747861565451e-12	-0	2.834099133691609	0	0.09478689634274366	5.348445313288608e-05	-4.538962366594958e-05	-0	2.209131464907526	0	-0.09478689634274365	0	2.775497176583683e-29	0	0	1.458707895021734e-22	0
0.442785794685572	-7.491884342469198e-12	1.781974309271365e-12	-0	2.846562209416782	0	0.09478689634274365	1.037126207800221e-07	-7.525379962827797e-08	-0	2.211337260528617	0	-0.09478689634274365	0	-1.500100495400701e-29	0	0	6.771036451750767e-25	0
0.4451162462365487	-1.21275357616877e-11	2.903635788562534e-12	-0	2.858872933376271	0	0.09478689634274365	1.648409110295434e-09	-1.048860772240242e-09	-0	2.214802929889023	0	-0.09478689634274365	0	-6.344301091584875e-29	0	0	-8.287842807838321e-27	0
0.4474466977875254	-1.990299095093813e-11	4.7990002131348e-12	-0	2.871039994133597	0	0.09478689634274365	1.937658490261911e-10	-1.110075117867207e-10	-0	2.219471856961123	0	-0.09478689634274365	0	-1.556551287147302e-28	0	0	-1.068093804174676e-27	0
0.4497771493385021	-3.147411338535815e-11	7.646578497328681e-12	-0	2.883071177885261	0	0.09478689634274365	1.227010841088847e-10	-6.491867250625456e-11	-0	2.225200320869249	0	-0.09478689634274365	0	-8.306363771308628e-29	0	0	-4.13748132146896e-28	0
0.4521076008894788	-6.479239337918944e-11	1.587961960314459e-11	-0	2.860118504669319	0	0.09345833752486896	2.542421405914958e-10	-1.268212498425467e-10	-0	2.231761252466947	0	-0.09478689634274365	0	-1.695205896484942e-16	0	0	-6.680639433460728e-28	0
0.4544380524404555	-2.009530258605811e-10	4.967805248008243e-11	-0	2.815064544968457	0	0.09145328555641566	1.074579397651833e-09	-5.127555185659863e-10	-0	2.238930997078645	0	-0.09478689634274365	0	-2.298560943007441e-16	0	0	2.447768303991163e-27	0
0.4567685039914322	-1.237680829242972e-09	3.084197004103104e-10	-0	2.781331474927092	0	0.09001947681353556	6.344232273608147e-09	-2.920521677508047e-09	-0	2.246555994780646	0	-0.09478689634274363	0	4.077439115532993e-16	0	0	-4.360282944208342e-26	0
0.4590989555424089	-1.010654980468343e-08	2.538692509562328e-09	-0	2.775908375090838	0	0.0896487665692548	4.494097929625088e-08	-2.005760984165515e-08	-0	2.254539944472441	0	-0.09478689634274363	0	2.068436223251593e-15	0	0	-9.077752260900615e-25	0
0.4614294070933856	-8.56701734762836e-08	2.170289731835145e-08	-0	2.77907913623345	0	0.08958214431733982	3.760649815922287e-07	-1.633122648207416e-07	-0	2.262829786889707	0	-0.09478689634274363	0	5.021979347058989e-15	0	0	-2.054806223828381e-24	0
0.4637598586443623	-7.125016510079989e-07	1.821217877502176e-07	-0	2.783923363741829	0	0.08957112988182195	3.417184109408531e-06	-1.447881660015648e-06	-0	2.271383549900808	0	-0.09478689634274366	0	9.778738663596537e-15	0	0	3.758003821257195e-23	0
0.466090310195339	-5.731836815669132e-06	1.478923736899155e-06	-0	2.789100742034787	0	0.0895693271058919	3.024958158186253e-05	-1.253467993142623e-05	-0	2.280169086539322	0	-0.09478689634274365	0	1.680766355938087e-14	0	0	-1.493293470358563e-22	0
