DataType=double
version=3
OpenSimVersion=4.6-2026-06-22-85aaf64
endheader
time	ground_force_r_vx	ground_force_r_vy	ground_force_r_vz	ground_force_r_px	ground_force_r_py	ground_force_r_pz	ground_force_l_vx	ground_force_l_vy	ground_force_l_vz	ground_force_l_px	ground_force_l_py	ground_force_l_pz	ground_torque_r_x	ground_torque_r_y	ground_torque_r_z	ground_torque_l_x	ground_torque_l_y	ground_torque_l_z
0	-0.001294180410178048	0.0003340168600127611	-0	1.250871831982377	0	0.09478688456390658	1.205666274297638e-12	-7.077969945081093e-13	-0	0.6282018609420865	0	-0.09478689634274365	0	-2.210803968279856e-13	0	0	0	0
0.002941176470588235	-0.0006793225744742055	0.0001761610317325023	-0	1.269065809718321	0	0.0947867803013136	2.585667940270257e-12	-1.506060755417931e-12	-0	0.6352473934613324	0	-0.09478689634274365	0	-1.038721043314546e-12	0	0	0	0
0.005882352941176471	-0.0002217939210468343	5.812237725736805e-05	-0	1.287091921914097	0	0.09478512486605919	3.604130774894508e-12	-2.084363049131074e-12	-0	0.6423659652564077	0	-0.09478689634274365	0	-4.612938015510076e-12	0	0	0	0
0.008823529411764706	-9.69454718253775e-06	2.589102348952397e-06	-0	1.300614427242515	0	0.09459430874937923	3.375141465804941e-12	-1.939501528012983e-12	-0	0.6495547752505318	0	-0.09478689634274365	0	-1.802014859005364e-11	0	0	0	0
0.01176470588235294	1.700330089453908e-06	-4.6247462163284e-07	-0	1.437027630581639	0	0.09975251255241925	2.074935363099834e-12	-1.185030985269965e-12	-0	0.656818970680334	0	-0.09478689634274365	0	-1.298403899535512e-10	0	0	0	0
0.01470588235294118	-6.529750613400743e-06	1.858853082093552e-06	-0	1.205169940017027	0	0.08942644174545916	9.989784581267193e-13	-5.666289476512448e-13	-0	0.6641775899654296	0	-0.09478689634274365	0	5.441906850775304e-12	0	0	0	0
0.01764705882352941	-4.477307869641414e-05	1.316146416497078e-05	-0	1.272713938875599	0	0.09172240201603167	7.353193307003315e-13	-4.131274534568076e-13	-0	0.6716727740372097	0	-0.09478689634274365	0	-1.95638845464316e-10	0	0	0	0
0.02058823529411765	-0.0001233727872818447	3.761670399941059e-05	-0	1.257038668069576	0	0.09076964929346969	1.505301117036411e-12	-8.339701950871791e-13	-0	0.6793597754312379	0	-0.09478689634274365	0	-1.737392450552525e-10	0	0	0	0
0.02352941176470588	-0.0003508886074520177	0.0001109331748042526	-0	1.245656230567637	0	0.09005005380448325	8.62205372954989e-12	-4.687359648301438e-12	-0	0.6872917236347863	0	-0.09478689634274365	0	3.979927125981764e-12	0	0	0	0
0.02647058823529412	-0.001034609184605636	0.0003388507819722323	-0	1.244799032476001	0	0.08974086365747204	1.274776998927636e-10	-6.769393322944708e-11	-0	0.6955121554849816	0	-0.09478689634274365	0	2.099549382684725e-10	0	0	0	0
0.02941176470588236	-0.003022613913185117	0.001025200864813807	-0	1.249301657200126	0	0.08963161316406978	4.607101506281263e-09	-2.380676625996934e-09	-0	0.7040489181267792	0	-0.09478689634274365	0	4.007832335320774e-10	0	0	0	0
0.03235294117647059	-0.00863839674568238	0.003035129516987699	-0	1.255641221274286	0	0.08959350223018567	3.477712306531477e-07	-1.743482896442783e-07	-0	0.7129163116334598	0	-0.09478689634274365	0	6.021305401981633e-10	0	0	0	0
0.03529411764705882	-0.02427659577916048	0.008843344651423233	-0	1.262432898205337	0	0.08957953742950482	2.338660504898417e-05	-1.13478610910679e-05	-0	0.7221194733587202	0	-0.09478689634274365	0	8.660953334724275e-10	0	0	0	0
0.03823529411764706	-0.0676964589228789	0.02560008003023867	-0	1.269169770228771	0	0.08957402496527128	-0.0003031555181813146	0.0001420806972620871	-0	0.7316619571448703	0	-0.09478689634274365	0	1.274125908945489e-09	0	0	0	0
0.0411764705882353	-0.1888891496253413	0.07425827522320855	-0	1.275659365379274	0	0.08957166447179615	-0.0005421713300392924	0.0002448557434420381	-0	0.7415671442821012	0	-0.09478689634274365	0	1.977485300508341e-09	0	0	0	0
0.04411764705882354	-0.5300565008724378	0.2169363344851819	-0	1.281821580754269	0	0.08957057943590287	-0.0006842385452629626	0.0002972972397822839	-0	0.7518364397811691	0	-0.09478689634274365	0	3.291040918951271e-09	0	0	0	0
0.04705882352941176	-1.493733278269638	0.6371788149500014	-0	1.287631120041305	0	0.08957006195477435	-0.0008273017752317026	0.0003462606549845495	-0	0.762385143415834	0	-0.09478689634274365	0	5.895547577905447e-09	0	0	0	0
0.05	-4.194812184404317	1.86643324707496	-0	1.293087500735819	0	0.08956982329578345	-0.001029778208782754	0.0004164732217087309	-0	0.7731205596225655	0	-0.09478689634274365	0	1.132798038705474e-08	0	0	0	0
0.05294117647058823	-11.54087720648071	5.363264481834639	-0	1.298181467836375	0	0.08956974727277806	-0.00135116707097526	0.0005295527556279909	-0	0.7839977853993422	0	-0.09478689634274365	0	2.317715552813127e-08	0	0	0	0
0.05588235294117647	-29.90750068697046	14.57456697347366	-0	1.302891494874225	0	0.08956982603729452	-0.001882351996143989	0.000716583822839092	-0	0.7949970779582796	0	-0.09478689634274365	0	4.741298154087303e-08	0	0	0	0
0.05882352941176471	-66.79491750856454	34.56779065600735	-0	1.30714768937169	0	0.08957025575398621	-0.002775502410312293	0.00102772565076155	-0	0.8061372114573939	0	-0.09478689634274365	0	5.271043335142167e-08	0	0	0	0
0.06176470588235295	-121.5211805556504	68.13086078517388	-0	1.310951579203911	0	0.08957178929541161	-0.004294198587915589	0.001548476405933076	-0	0.817432572621782	0	-0.09478689634274366	0	-4.246565410426228e-07	0	0	-5.421010862427522e-20	0
0.06470588235294118	-248.4519986466711	158.9220247311976	-0	1.314224679141799	0	0.08957582511337267	-0.006876420611603346	0.002421069842084913	-0	0.8288454721426446	0	-0.09478689634274365	0	-8.049359326633976e-06	0	0	0	0
0.06764705882352941	-430.7255282656098	368.9427507405478	-0	1.3172783558383	0	0.08959711925563338	-0.01118786027018102	0.003860198188755577	-0	0.8403471917605015	0	-0.09478689634274365	0	-0.0001835306450104213	0	0	0	0
0.07058823529411765	-214.2008711103078	658.234276287193	-0	1.324255837661506	0	0.08973137799712516	-0.01829167394174674	0.006205418987160758	-0	0.8519484670382834	0	-0.09478689634274365	0	-0.01950928115232742	0	0	0	0
0.07352941176470588	-55.97901885066003	1007.737892325509	-0	1.333276585266353	0	0.08999679898858454	-0.02982860191810439	0.009976437935085564	-0	0.8636655126959645	0	-0.09478689634274365	0	-0.0475345556006177	0	0	0	0
0.07647058823529412	-252.1302648750525	1448.719366550897	-0	1.347575482387563	0	0.09051015703783881	-0.04777861225270906	0.01578070068698493	-0	0.8755409703318636	0	-0.09478689634274365	0	-0.06156599633495574	0	0	0	0
0.07941176470588236	-185.5545818057618	1707.502002829668	-0	1.34945995145833	0	0.0905630055428788	-0.07418317473939004	0.02420242346368332	-0	0.887646023962519	0	-0.09478689634274365	0	-6.821341280272009e-06	0	0	0	0
0.0823529411764706	-190.9551734679735	1740.487548379358	-0	1.343922249906939	0	0.09037242253776136	-0.1112311395170074	0.03581521793392203	-0	0.9000518004229542	0	-0.09478689634274365	0	0.03538538965096905	0	0	0	0
0.08529411764705884	-125.918388961313	1726.982655321527	-0	1.343035087374767	0	0.09033600305751138	-0.1608946333065796	0.05106181085477049	-0	0.9128051997342223	0	-0.09478689634274365	0	0.03599322141621997	0	0	0	0
0.08823529411764706	-180.8506284947863	1690.972564666834	-0	1.342745972660353	0	0.09033931679912605	-0.2243481965341565	0.07012731704038569	-0	0.9259141881599019	0	-0.09478689634274365	0	0.03206345092378271	0	0	0	0
0.0911764705882353	-144.9802063386405	1651.803155785151	-0	1.343488638825954	0	0.09036185815784301	-0.3012442767223462	0.09275173633991667	-0	0.9393739342172652	0	-0.09478689634274365	0	0.02712021593906755	0	0	0	0
0.09411764705882353	-178.1357911782227	1617.077252484663	-0	1.343464503555569	0	0.09036964580425255	-0.3891234998497057	0.1180859062993505	-0	0.9531733779831068	0	-0.09478689634274365	0	0.02418177346321215	0	0	0	0
0.09705882352941177	-145.243658149172	1589.059020605483	-0	1.344063324947581	0	0.09038528449679062	-0.482921398750205	0.1445910281529339	-0	0.967300071100938	0	-0.09478689634274365	0	0.0210563780185371	0	0	0	0
0.1	-159.5052010447739	1563.920195885629	-0	1.34392970396316	0	0.09038466685424824	-0.5755472500836293	0.1702262782183865	-0	0.9817406430594757	0	-0.09478689634274365	0	0.01966433954652302	0	0	0	0
0.1029411764705882	-119.7074799933176	1552.2107904125	-0	1.346064918864858	0	0.0904509123734519	-0.6582835247616006	0.1925750546324349	-0	0.9964814451650268	0	-0.09478689634274365	0	0.01259495733155447	0	0	0	0
0.1058823529411765	-114.6037367194889	1564.054006747494	-0	1.351529629090393	0	0.09064011050905973	-0.7221373793215438	0.2091899380532841	-0	1.011513844232395	0	-0.09478689634274365	0	-0.008182098181183761	0	0	0	0
0.1088235294117647	-97.23612371085468	1573.962924080212	-0	1.359575525047556	0	0.09091551803817119	-0.7596691138250222	0.2181052204550451	-0	1.026833044475813	0	-0.09478689634274366	0	-0.04110623408445058	0	0	-1.387778780781446e-17	0
0.1117647058823529	-103.3616236137044	1553.25763987	-0	1.366946737173002	0	0.09117200760508117	-0.7680781555601314	0.2187126007338661	-0	1.042432700695717	0	-0.09478689634274365	0	-0.06399409355731933	0	0	0	0
0.1147058823529412	-82.08001174075144	1501.684817300398	-0	1.373830252955735	0	0.09140546897354736	-0.7488937291756722	0.2116553973884015	-0	1.058298955261802	0	-0.09478689634274365	0	-0.07265664613740608	0	0	0	0
0.1176470588235294	-75.73112994020005	1427.652950148747	-0	1.37965946864693	0	0.09160564340178907	-0.7073919122777976	0.1986288842990784	-0	1.074402719905988	0	-0.09478689634274365	0	-0.0692132190748449	0	0	0	0
0.1205882352941177	-53.56220163427845	1344.259971288237	-0	1.385297707349124	0	0.09179550185086394	-0.650774303018623	0.1817605886739628	-0	1.090708859809416	0	-0.09478689634274365	0	-0.0614827594342362	0	0	0	0
0.1235294117647059	-46.62860201190435	1263.703083541694	-0	1.390425612602068	0	0.0919712771182522	-0.5858331475864518	0.1629266722838202	-0	1.107185460893126	0	-0.09478689634274365	0	-0.05209102276519761	0	0	0	0
0.1264705882352941	-32.46887702243684	1189.767429408692	-0	1.395455225987939	0	0.09214167435715985	-0.5181853084950413	0.1436254928756079	-0	1.123803321567602	0	-0.09478689634274365	0	-0.04295955965672249	0	0	0	0
0.1294117647058824	-26.23163180594916	1118.692990460249	-0	1.400085076052346	0	0.09230030071980881	-0.4516070987674131	0.1248255665079446	-0	1.140542247086661	0	-0.09478689634274365	0	-0.0340290682316069	0	0	0	0
0.1323529411764706	-14.99734520280611	1053.867151035259	-0	1.405181996218141	0	0.092473980795578	-0.3884955702833157	0.1071210844409353	-0	1.157387100747878	0	-0.09478689634274365	0	-0.02645028362681012	0	0	0	0
0.1352941176470588	-11.10820124428594	999.0594334885141	-0	1.410863331444014	0	0.09267071684255584	-0.3300559578197388	0.09079242056605476	-0	1.174333636826858	0	-0.09478689634274365	0	-0.01990732141711327	0	0	0	0
0.1382352941176471	-6.421707823273039	958.2467834981778	-0	1.417802529080106	0	0.09291178995301538	-0.2768243886378454	0.07595505767750421	-0	1.191383038943603	0	-0.09478689634274365	0	-0.01404547319069283	0	0	0	0
0.1411764705882353	-7.549273486766277	931.6675958822857	-0	1.425862026965607	0	0.09319469978429222	-0.2290460031694548	0.06266271028386212	-0	1.208543097746098	0	-0.09478689634274365	0	-0.00809649865740858	0	0	0	0
0.1441176470588235	-5.27262582429037	919.2734854330046	-0	1.435590389181061	0	0.09353575946685039	-0.1871047320242803	0.05102785542725417	-0	1.225817126831834	0	-0.09478689634274365	0	-0.00179472574829781	0	0	0	0
0.1470588235294118	-1.991791880480081	912.9062640115706	-0	1.447103178607428	0	0.09394020689565984	-0.1522487155063116	0.04141490590367778	-0	1.243173674368977	0	-0.09478689634274365	0	0.00410972541827026	0	0	0	0
0.15	-3.793213716828224	895.3700392735947	-0	1.459569833153959	0	0.09438124899937562	-0.1248772598017469	0.03392288622262382	-0	1.26056593912911	0	-0.09478689634274365	0	0.006042984899619352	0	0	0	0
0.1529411764705882	-8.971849355823283	870.3126033910314	-0	1.470993052125383	0	0.0947878511995021	-0.1045169779805731	0.02839525404809622	-0	1.277934335757307	0	-0.09478689634274365	0	-2.705787404644333e-05	0	0	0	0
0.1558823529411765	3.047016402036749	902.6463453738647	-0	1.471309310830941	0	0.09479214326952054	-0.0899111071985004	0.02446047618820713	-0	1.295227206698783	0	-0.09478689634274365	0	-0.0002371523931503638	0	0	0	0
0.1588235294117647	19.72295261494161	923.9324489086196	-0	1.471405123694224	0	0.09478696054202704	-0.07849633933322832	0.02137555290917332	-0	1.312470954737476	0	-0.09478689634274365	0	-4.201131148517945e-06	0	0	0	0
0.1617647058823529	32.46198235694715	936.3459629616917	-0	1.471591793943958	0	0.09478689673429287	-0.06859623845900847	0.01866593491507133	-0	1.329724026712104	0	-0.09478689634274365	0	-3.494831757322459e-08	0	0	0	0
0.1647058823529412	45.87644506704341	941.2353472766736	-0	1.471786096644279	0	0.09478689634442113	-0.06002056215575874	0.01629867831401437	-0	1.347018624615974	0	-0.09478689634274365	0	-1.953699424461774e-10	0	0	0	0
0.1676470588235294	57.4552064980538	940.661777956243	-0	1.471956974930074	0	0.09478689634274985	-0.0527683344675425	0.01428871187385493	-0	1.36436690267945	0	-0.09478689634274365	0	-9.121592370320286e-13	0	0	0	0
0.1705882352941177	68.77724661474973	935.3415799029405	-0	1.472124793684711	0	0.09478689634274368	-0.04676802037626755	0.01262383165548215	-0	1.381763522199809	0	-0.09478689634274366	0	-3.552713678800501e-15	0	0	-8.673617379884035e-19	0
0.1735294117647059	78.89908706189341	926.3552713831851	-0	1.472277702527447	0	0.09478689634274365	-0.0418843060521633	0.01126932000654879	-0	1.399199969849171	0	-0.09478689634274365	0	0	0	0	0	0
0.1764705882352941	88.40133791604617	914.2988762989256	-0	1.472423297433473	0	0.09478689634274366	-0.0378861939095658	0.01016029783937697	-0	1.416673086167805	0	-0.09478689634274365	0	-1.77635683940025e-15	0	0	0	0
0.1794117647058824	96.91916742233803	899.6935113952335	-0	1.472556614799593	0	0.09478689634274365	-0.0345761897482262	0.009241489028705798	-0	1.434183068885021	0	-0.09478689634274365	0	0	0	0	0	0
0.1823529411764706	104.7382913853651	882.9086390407513	-0	1.472681490000987	0	0.09478689634274363	-0.03180604872626482	0.008471873123206517	-0	1.451731198158212	0	-0.09478689634274365	0	1.77635683940025e-15	0	0	0	0
0.1852941176470588	111.5963886930129	864.2212225049351	-0	1.472794140739733	0	0.09478689634274365	-0.02945070978408133	0.007817295463137657	-0	1.469318158406696	0	-0.09478689634274365	0	0	0	0	0	0
0.1882352941176471	117.5210789364186	843.9475865896433	-0	1.47289470199803	0	0.09478689634274365	-0.02737416729098057	0.00724163313852447	-0	1.486941919850992	0	-0.09478689634274365	0	0	0	0	0	0
0.1911764705882353	122.5273423279565	822.131096032726	-0	1.472983567761903	0	0.09478689634274365	-0.02548675428731513	0.006721122318337715	-0	1.504600239865878	0	-0.09478689634274365	0	0	0	0	0	0
0.1941176470588235	126.8924761072951	798.6243198195187	-0	1.473065758339943	0	0.09478689634274365	-0.02380008953721247	0.006257947692712308	-0	1.522292294971566	0	-0.09478689634274365	0	0	0	0	0	0
0.1970588235294118	130.6731555312113	773.2730645872828	-0	1.473143283084856	0	0.09478689634274365	-0.02231978773483656	0.005852416942233066	-0	1.540017720109609	0	-0.09478689634274365	0	0	0	0	0	0
0.2	134.0905897001898	746.2182933156462	-0	1.473220374569072	0	0.09478689634274365	-0.02099464574573874	0.005490080644760796	-0	1.557778079305776	0	-0.09478689634274365	0	0	0	0	0	0
0.2029411764705882	137.0724436360821	717.6534854405519	-0	1.473296377924436	0	0.09478689634274365	-0.01977667726245423	0.005157877084995467	-0	1.575575563431763	0	-0.09478689634274365	0	0	0	0	0	0
0.2058823529411765	139.5805758073964	687.8198405181771	-0	1.473371016435342	0	0.09478689634274365	-0.01864836352274295	0.004851236952865887	-0	1.593409461988377	0	-0.09478689634274365	0	0	0	0	0	0
0.2088235294117647	141.5281448293823	656.8670653460042	-0	1.473443359666019	0	0.09478689634274365	-0.01759994398836832	0.004567596645261787	-0	1.611277324741983	0	-0.09478689634274365	0	0	0	0	0	0
0.2117647058823529	142.9023885925325	624.9566893001432	-0	1.473513724355114	0	0.09478689634274365	-0.01661984235799462	0.004303795312693953	-0	1.62917572914656	0	-0.09478689634274365	0	0	0	0	0	0
0.2147058823529412	143.5906207904455	592.2433962223917	-0	1.473580429605319	0	0.09478689634274365	-0.01569922589032346	0.004057391284071376	-0	1.647100766236665	0	-0.09478689634274365	0	0	0	0	0	0
0.2176470588235294	143.5330035037527	558.9542712796374	-0	1.473642204946654	0	0.09478689634274365	-0.014835721214331	0.003827638221613782	-0	1.665047067442518	0	-0.09478689634274365	0	0	0	0	0	0
0.2205882352941176	142.0125848613197	523.7158533940084	-0	1.473692268123794	0	0.09478689634274365	-0.01403064569732433	0.003614732750559975	-0	1.683008228279204	0	-0.09478689634274365	0	0	0	0	0	0
0.2235294117647059	139.0459021429893	485.1491241804566	-0	1.473742165124183	0	0.09478689634274365	-0.01329123017697139	0.003420387441093047	-0	1.700975981593514	0	-0.09478689634274363	0	0	0	0	2.168404344971009e-19	0
0.2264705882352941	135.4732519022952	444.8399643202815	-0	1.473807143254321	0	0.09478689634274365	-0.01262830126199824	0.003247227896441694	-0	1.71894072401826	0	-0.09478689634274365	0	0	0	0	0	0
0.2294117647058824	131.2856953962737	404.8275393514807	-0	1.473875911397551	0	0.09478689634274365	-0.01205975133265902	0.003099680331641218	-0	1.736890679155867	0	-0.09478689634274365	0	0	0	0	0	0
0.2323529411764706	125.8735191901292	366.5103728315488	-0	1.47391781034874	0	0.09478689634274366	-0.01160894309924776	0.002983636705925719	-0	1.754811759269678	0	-0.09478689634274365	0	-1.77635683940025e-15	0	0	0	0
0.2352941176470588	118.4853892716624	331.5199933867189	-0	1.473883148370627	0	0.09478689634274365	-0.01130840534989356	0.002907406613306358	-0	1.772685984347724	0	-0.09478689634274365	0	0	0	0	0	0
0.2382352941176471	109.1247971242563	300.1432473394286	-0	1.473750820741823	0	0.09478689634274365	-0.01117830254757062	0.002875998504072151	-0	1.790496394755256	0	-0.09478689634274365	0	0	0	0	0	0
0.2411764705882353	98.29258960481263	271.5443550424185	-0	1.473533435100442	0	0.09478689634274365	-0.0111733387525667	0.002877058591856568	-0	1.80824512268865	0	-0.09478689634274365	0	0	0	0	0	0
0.2441176470588235	85.04760633447164	243.3138263237076	-0	1.473211084309406	0	0.09478689634274365	-0.01119266558234391	0.002883489116316245	-0	1.825953875874623	0	-0.09478689634274365	0	0	0	0	0	0
0.2470588235294118	68.99097762666445	213.1439571207755	-0	1.472774994562071	0	0.09478689634274366	-0.01103135617317841	0.002840817928211634	-0	1.843687996532881	0	-0.09478689634274366	0	-8.881784197001252e-16	0	0	-2.168404344971009e-19	0
0.25	52.85324818818481	182.3293440963756	-0	1.472301963340337	0	0.09478689634274366	-0.01049677320998118	0.002698778523571973	-0	1.861525068007085	0	-0.09478689634274363	0	-8.881784197001252e-16	0	0	2.168404344971009e-19	0
0.2529411764705882	38.78977111594265	152.6498705697574	-0	1.471864010788872	0	0.09478689634274365	-0.009619437924807584	0.002467022760711918	-0	1.879509417105385	0	-0.09478689634274365	0	0	0	0	0	0
0.2558823529411765	27.02885942534978	124.0170718862823	-0	1.471482745422793	0	0.09478689634274365	-0.008548498860417707	0.002186093961968259	-0	1.897654983418487	0	-0.09478689634274365	0	0	0	0	0	0
0.2588235294117647	17.67499083246846	95.94666985533598	-0	1.471186916987194	0	0.09478689634274365	-0.00750317432150789	0.001913846599882659	-0	1.915919102111552	0	-0.09478689634274365	0	0	0	0	0	0
0.261764705882353	10.39996526900567	67.99314681339365	-0	1.470976054675504	0	0.09478689634274365	-0.00664438542675081	0.001691856029818914	-0	1.934238827177173	0	-0.09478689634274365	0	0	0	0	0	0
0.2647058823529412	4.680866864038666	39.35879758882182	-0	1.470807637177224	0	0.09478689634274365	-0.006008282775264692	0.001528866116677616	-0	1.952541732643953	0	-0.09478689634274365	0	0	0	0	0	0
0.2676470588235294	1.161425713816704	-2.944621935100379	-0	1.467012897403311	0	0.09478689634274365	-0.005562472461759102	0.001415953063331079	-0	1.970769654889954	0	-0.09478689634274365	0	0	0	0	0	0
0.2705882352941177	1.868105388976997e-05	-1.72203108969681e-05	-0	1.463395492776886	0	0.09478689634274365	-0.005215490411477263	0.001328957383420797	-0	1.988909428266623	0	-0.09478689634274363	0	0	0	0	0	0
0.2735294117647059	1.267642235030491e-12	-8.874460603150106e-13	-0	1.465088216850423	0	0.09478689634274365	-0.004903995331048307	0.001251187468560844	-0	2.00696472347905	0	-0.09478689634274365	0	0	0	0	0	0
0.2764705882352941	-0	-0	-0	0	0	0	-0.004557641289665791	0.001164216163034919	-0	2.024970500087221	0	-0.09478689634274365	0	0	0	0	0	0
0.2794117647058824	-0	-0	-0	0	0	0	-0.004118900688705693	0.001053155407367543	-0	2.042968413717206	0	-0.09478689634274365	0	0	0	0	0	0
0.2823529411764706	1.066218559316569e-14	-6.491117160104923e-15	-0	0	0	0	-0.003611200388525402	0.0009243538812254566	-0	2.060973626287639	0	-0.09478689633760652	0	1.010635480606491e-15	0	0	3.634245682171411e-16	0
0.2852941176470588	5.104605970728125e-14	-3.07683771603232e-14	-0	1.489877705965812	0	0.09478689634274365	-0.003069200754183992	0.0007867917767333176	-0	2.07898874655192	0	-0.09478689630863246	0	0	0	0	1.929229345720707e-15	0
0.2882352941176471	1.591975882779591e-13	-9.507904183447764e-14	-0	1.496691039238988	0	0.09478689634274366	-0.002503005888398487	0.0006428557854276242	-0	2.097021136196181	0	-0.09478689612808139	0	-3.155443620884047e-30	0	0	9.22436497845236e-15	0
0.2911764705882353	4.368771931378705e-13	-2.586334417379483e-13	-0	1.503584426890886	0	0.09478689634274365	-0.001913848908527546	0.0004926347500498027	-0	2.115086771858335	0	-0.09478689483160826	0	0	0	0	4.582128405004882e-14	0
0.2941176470588235	1.205666274297655e-12	-7.077969945081188e-13	-0	1.510554802118585	0	0.09478689634274365	-0.001294180410178047	0.0003340168600127608	-0	2.133224773158877	0	-0.09478688456390658	0	0	0	0	2.210803697229313e-13	0
0.2970588235294118	2.585667940270298e-12	-1.506060755417955e-12	-0	1.517600334637832	0	0.09478689634274365	-0.0006793225744742126	0.0001761610317325041	-0	2.151418750894819	0	-0.09478678030131359	0	0	0	0	1.038721056867073e-12	0
0.3	3.60413077489458e-12	-2.084363049131115e-12	-0	1.524718906432907	0	0.09478689634274365	-0.0002217939210468336	5.812237725736786e-05	-0	2.169444863090597	0	-0.09478512486605919	0	0	0	0	4.612938015510076e-12	0
0.3029411764705883	3.375141465805017e-12	-1.939501528013026e-12	-0	1.531907716427031	0	0.09478689634274365	-9.69454718254126e-06	2.589102348953334e-06	-0	2.182967368419015	0	-0.09459430874937931	0	0	0	0	1.802014859005364e-11	0
0.3058823529411765	2.074935363099903e-12	-1.185030985270005e-12	-0	1.539171911856833	0	0.09478689634274365	1.700330089453867e-06	-4.624746216328286e-07	-0	2.31938057175814	0	-0.09975251255241935	0	0	0	0	1.298403899535512e-10	0
0.3088235294117647	9.989784581267425e-13	-5.66628947651258e-13	-0	1.546530531141929	0	0.09478689634274365	-6.529750613401225e-06	1.858853082093689e-06	-0	2.087522881193535	0	-0.08942644174545955	0	0	0	0	-5.441906850563546e-12	0
0.3117647058823529	7.35319330700391e-13	-4.131274534568411e-13	-0	1.554025715213708	0	0.09478689634274365	-4.477307869641477e-05	1.316146416497096e-05	-0	2.155066880052099	0	-0.09172240201603173	0	0	0	0	1.95638845464316e-10	0
0.3147058823529412	1.505301117036404e-12	-8.339701950871753e-13	-0	1.561712716607737	0	0.09478689634274365	-0.0001233727872818448	3.761670399941062e-05	-0	2.139391609246076	0	-0.09076964929346971	0	0	0	0	1.737392450518643e-10	0
0.3176470588235294	8.622053729549861e-12	-4.687359648301422e-12	-0	1.569644664811285	0	0.09478689634274365	-0.0003508886074520162	0.0001109331748042522	-0	2.128009171744137	0	-0.09005005380448323	0	0	0	0	-3.979927125981764e-12	0
0.3205882352941177	1.27477699892763e-10	-6.769393322944677e-11	-0	1.577865096661481	0	0.09478689634274365	-0.001034609184605634	0.0003388507819722315	-0	2.1271519736525	0	-0.08974086365747203	0	0	0	0	-2.099549382413675e-10	0
0.3235294117647059	4.607101506281243e-09	-2.380676625996924e-09	-0	1.586401859303278	0	0.09478689634274365	-0.00302261391318511	0.001025200864813804	-0	2.131654598376626	0	-0.08963161316406978	0	0	0	0	-4.007832335320774e-10	0
0.3264705882352941	3.477712306531462e-07	-1.743482896442776e-07	-0	1.595269252809959	0	0.09478689634274365	-0.008638396745682349	0.003035129516987688	-0	2.137994162450785	0	-0.08959350223018567	0	0	0	0	-6.021305403065835e-10	0
0.3294117647058823	2.338660504898389e-05	-1.134786109106776e-05	-0	1.604472414535219	0	0.09478689634274365	-0.02427659577916037	0.008843344651423196	-0	2.144785839381836	0	-0.08957953742950482	0	0	0	0	-8.660953326050658e-10	0
0.3323529411764706	-0.0003031555181813124	0.0001420806972620861	-0	1.614014898321369	0	0.09478689634274365	-0.06769645892287865	0.02560008003023857	-0	2.151522711405269	0	-0.0895740249652713	0	0	0	0	-1.274125909812851e-09	0
0.3352941176470589	-0.0005421713300392905	0.0002448557434420372	-0	1.6239200854586	0	0.09478689634274365	-0.1888891496253405	0.07425827522320821	-0	2.158012306555773	0	-0.08957166447179617	0	0	0	0	-1.977485303977788e-09	0
0.3382352941176471	-0.0006842385452629604	0.0002972972397822828	-0	1.634189380957668	0	0.09478689634274365	-0.5300565008724347	0.2169363344851807	-0	2.164174521930769	0	-0.08957057943590288	0	0	0	0	-3.291040925890165e-09	0
0.3411764705882353	-0.0008273017752316995	0.0003462606549845482	-0	1.644738084592333	0	0.09478689634274363	-1.49373327826963	0.6371788149499976	-0	2.169984061217804	0	-0.08957006195477435	0	0	0	0	-5.895547577905447e-09	0
0.3441176470588235	-0.001029778208782751	0.0004164732217087297	-0	1.655473500799065	0	0.09478689634274365	-4.194812184404415	1.866433247075004	-0	2.175440441912317	0	-0.08956982329578343	0	0	0	0	-1.132798033154359e-08	0
0.3470588235294118	-0.001351167070975256	0.0005295527556279894	-0	1.666350726575841	0	0.09478689634274365	-11.54087720648096	5.363264481834758	-0	2.180534409012874	0	-0.08956974727277806	0	0	0	0	-2.317715552813127e-08	0
0.35	-0.001882351996143983	0.0007165838228390896	-0	1.677350019134779	0	0.09478689634274365	-29.90750068697111	14.57456697347397	-0	2.185244436050724	0	-0.08956982603729452	0	0	0	0	-4.741298154087303e-08	0
0.3529411764705883	-0.002775502410312284	0.001027725650761547	-0	1.688490152633893	0	0.09478689634274365	-66.79491750856548	34.56779065600783	-0	2.189500630548188	0	-0.08957025575398621	0	0	0	0	-5.271043335142167e-08	0
0.3558823529411765	-0.004294198587915575	0.001548476405933071	-0	1.69978551379828	0	0.09478689634274365	-121.5211805556519	68.13086078517472	-0	2.193304520380409	0	-0.08957178929541161	0	0	0	0	4.246565410426228e-07	0
0.3588235294117647	-0.006876420611603317	0.002421069842084903	-0	1.711198413319144	0	0.09478689634274365	-248.4519986466753	158.9220247312003	-0	2.196577620318298	0	-0.08957582511337266	0	0	0	0	8.049359333739403e-06	0
0.3617647058823529	-0.01118786027018097	0.00386019818875556	-0	1.722700132937001	0	0.09478689634274365	-430.7255282656162	368.9427507405533	-0	2.1996312970148	0	-0.08959711925563336	0	0	0	0	0.0001835306450246321	0
0.3647058823529412	-0.01829167394174666	0.006205418987160732	-0	1.734301408214782	0	0.09478689634274366	-214.2008711103107	658.2342762872003	-0	2.206608778838005	0	-0.08973137799712516	0	2.168404344971009e-19	0	0	0.01950928115233097	0
0.3676470588235294	-0.02982860191810427	0.009976437935085524	-0	1.746018453872464	0	0.09478689634274365	-55.9790188506613	1007.737892325518	-0	2.215629526442852	0	-0.08999679898858454	0	0	0	0	0.04753455560061859	0
0.3705882352941177	-0.04777861225270887	0.01578070068698486	-0	1.757893911508362	0	0.09478689634274365	-252.1302648750554	1448.719366550909	-0	2.229928423564062	0	-0.09051015703783882	0	0	0	0	0.06156599633495219	0
0.3735294117647059	-0.07418317473938973	0.02420242346368322	-0	1.769998965139018	0	0.09478689634274363	-185.554581805763	1707.502002829679	-0	2.231812892634828	0	-0.09056300554287881	0	-1.734723475976807e-18	0	0	6.821341280272009e-06	0
0.3764705882352941	-0.1112311395170069	0.03581521793392187	-0	1.782404741599454	0	0.09478689634274365	-190.9551734679741	1740.487548379368	-0	2.226275191083438	0	-0.09037242253776136	0	0	0	0	-0.03538538965096905	0
0.3794117647058824	-0.1608946333065789	0.05106181085477027	-0	1.795158140910721	0	0.09478689634274365	-125.9183889613133	1726.982655321536	-0	2.225388028551265	0	-0.09033600305751138	0	0	0	0	-0.03599322141621997	0
0.3823529411764706	-0.2243481965341555	0.07012731704038537	-0	1.808267129336401	0	0.09478689634274365	-180.8506284947868	1690.972564666841	-0	2.225098913836852	0	-0.09033931679912603	0	0	0	0	-0.03206345092378271	0
0.3852941176470588	-0.3012442767223446	0.09275173633991615	-0	1.821726875393764	0	0.09478689634274365	-144.980206338641	1651.803155785159	-0	2.225841580002453	0	-0.09036185815784302	0	0	0	0	-0.02712021593906933	0
0.3882352941176471	-0.3891234998497879	0.1180859062993755	-0	1.835526319159606	0	0.09478689634274365	-178.1357911782233	1617.07725248467	-0	2.225817444732069	0	-0.09036964580425257	0	0	0	0	-0.02418177346321571	0
0.3911764705882353	-0.4829213987502021	0.1445910281529331	-0	1.849653012277437	0	0.09478689634274365	-145.2436581491723	1589.059020605488	-0	2.226416266124081	0	-0.09038528449679062	0	0	0	0	-0.02105637801853533	0
0.3941176470588236	-0.5755472500836256	0.1702262782183854	-0	1.864093584235974	0	0.09478689634274366	-159.5052010447745	1563.920195885636	-0	2.226282645139659	0	-0.09038466685424824	0	6.938893903907228e-18	0	0	-0.01966433954652835	0
0.3970588235294118	-0.6582835247615964	0.1925750546324337	-0	1.878834386341526	0	0.09478689634274365	-119.707479993318	1552.210790412507	-0	2.228417860041357	0	-0.0904509123734519	0	0	0	0	-0.01259495733155624	0
0.4	-0.7221373793215994	0.2091899380533002	-0	1.893866785408894	0	0.09478689634274365	-114.6037367194894	1564.054006747501	-0	2.233882570266891	0	-0.09064011050905975	0	0	0	0	0.008182098181181985	0
0.4029411764705882	-0.759669113825017	0.2181052204550436	-0	1.909185985652312	0	0.09478689634274365	-97.23612371085537	1573.96292408022	-0	2.241928466224055	0	-0.0909155180381712	0	0	0	0	0.0411062340844488	0
0.4058823529411765	-0.7680781555601255	0.2187126007338644	-0	1.924785641872216	0	0.09478689634274365	-103.3616236137052	1553.257639870007	-0	2.249299678349501	0	-0.09117200760508118	0	0	0	0	0.06399409355731578	0
0.4088235294117647	-0.7488937291757153	0.2116553973884137	-0	1.940651896438301	0	0.09478689634274365	-82.08001174075221	1501.684817300406	-0	2.256183194132234	0	-0.09140546897354737	0	0	0	0	0.07265664613740519	0
0.411764705882353	-0.7073919122778384	0.1986288842990898	-0	1.956755661082487	0	0.09478689634274366	-75.73112994020079	1427.652950148754	-0	2.26201240982343	0	-0.09160564340178909	0	0	0	0	0.0692132190748449	0
0.4147058823529412	-0.6507743030186628	0.1817605886739739	-0	1.973061800985916	0	0.09478689634274363	-53.56220163427898	1344.259971288241	-0	2.267650648525624	0	-0.09179550185086395	0	-6.938893903907228e-18	0	0	0.06148275943423531	0
0.4176470588235294	-0.5858331475864478	0.1629266722838191	-0	1.989538402069625	0	0.09478689634274365	-46.62860201190487	1263.703083541699	-0	2.272778553778566	0	-0.09197127711825219	0	0	0	0	0.05209102276519939	0
0.4205882352941177	-0.5181853084950785	0.1436254928756182	-0	2.006156262744101	0	0.09478689634274365	-32.46887702243728	1189.767429408696	-0	2.277808167164437	0	-0.09214167435715985	0	0	0	0	0.04295955965672249	0
0.4235294117647059	-0.4516070987674105	0.1248255665079439	-0	2.02289518826316	0	0.09478689634274365	-26.23163180594952	1118.692990460253	-0	2.282438017228845	0	-0.0923003007198088	0	0	0	0	0.03402906823160778	0
0.4264705882352942	-0.388495570283312	0.1071210844409342	-0	2.039740041924378	0	0.09478689634274365	-14.99734520280644	1053.867151035264	-0	2.287534937394641	0	-0.09247398079557802	0	0	0	0	0.02645028362681012	0
0.4294117647058824	-0.3300559578197377	0.09079242056605447	-0	2.056686578003357	0	0.09478689634274365	-11.10820124428625	999.0594334885189	-0	2.293216272620514	0	-0.09267071684255584	0	0	0	0	0.01990732141711349	0
0.4323529411764706	-0.2768243886378448	0.07595505767750405	-0	2.073735980120102	0	0.09478689634274365	-6.421707823273325	958.246783498181	-0	2.300155470256604	0	-0.09291178995301538	0	0	0	0	0.01404547319069294	0
0.4352941176470588	-0.2290460031694535	0.06266271028386176	-0	2.090896038922597	0	0.09478689634274365	-7.549273486766586	931.6675958822883	-0	2.308214968142106	0	-0.09319469978429223	0	0	0	0	0.00809649865740858	0
0.4382352941176471	-0.1871047320242793	0.05102785542725388	-0	2.108170068008333	0	0.09478689634274365	-5.27262582429069	919.273485433009	-0	2.31794333035756	0	-0.09353575946685039	0	0	0	0	0.00179472574829781	0
0.4411764705882353	-0.1522487155063107	0.04141490590367753	-0	2.125526615545475	0	0.09478689634274363	-1.991791880480415	912.9062640115728	-0	2.329456119783928	0	-0.09394020689565984	0	-3.469446951953614e-18	0	0	-0.004109725418270233	0
0.4441176470588235	-0.1248772598017464	0.03392288622262367	-0	2.142918880305608	0	0.09478689634274365	-3.793213716828632	895.3700392735984	-0	2.341922774330457	0	-0.09438124899937561	0	0	0	0	-0.006042984899619352	0
0.4470588235294118	-0.104516977980573	0.02839525404809619	-0	2.160287276933806	0	0.09478689634274365	-8.971849355823645	870.3126033910347	-0	2.353345993301883	0	-0.0947878511995021	0	0	0	0	2.705787404644333e-05	0
0.45	-0.08991110719854445	0.02446047618821911	-0	2.177580147875282	0	0.09478689634274363	3.047016402036363	902.6463453738684	-0	2.35366225200744	0	-0.09479214326952054	0	0	0	0	0.0002371523931503638	0
0.4529411764705883	-0.07849633933322762	0.02137555290917314	-0	2.194823895913975	0	0.09478689634274365	19.72295261494112	923.932448908621	-0	2.353758064870722	0	-0.09478696054202705	0	0	0	0	4.201131148739989e-06	0
0.4558823529411765	-0.0685962384590079	0.01866593491507117	-0	2.212076967888603	0	0.09478689634274365	32.46198235694676	936.3459629616954	-0	2.353944735120457	0	-0.09478689673429287	0	0	0	0	3.494831757322459e-08	0
0.4588235294117647	-0.06002056215575845	0.01629867831401429	-0	2.229371565792473	0	0.09478689634274365	45.87644506704314	941.235347276679	-0	2.354139037820779	0	-0.09478689634442114	0	0	0	0	1.953708306245971e-10	0
0.461764705882353	-0.05276833446754204	0.0142887118738548	-0	2.24671984385595	0	0.09478689634274365	57.45520649805329	940.6617779562462	-0	2.354309916106573	0	-0.09478689634274985	0	0	0	0	9.112710586123285e-13	0
0.4647058823529412	-0.04676802037626732	0.01262383165548209	-0	2.264116463376308	0	0.09478689634274365	68.77724661474947	935.3415799029435	-0	2.354477734861209	0	-0.09478689634274368	0	0	0	0	4.440892098500626e-15	0
0.4676470588235294	-0.04188430605216294	0.01126932000654869	-0	2.28155291102567	0	0.09478689634274363	78.89908706189273	926.3552713831853	-0	2.354630643703945	0	-0.09478689634274365	0	-8.673617379884035e-19	0	0	0	0
0.4705882352941176	-0.03788619390956562	0.01016029783937692	-0	2.299026027344304	0	0.09478689634274365	88.40133791604578	914.2988762989285	-0	2.354776238609972	0	-0.09478689634274366	0	0	0	0	0	0
0.4735294117647059	-0.03457618974822603	0.009241489028705755	-0	2.316536010061519	0	0.09478689634274365	96.91916742233765	899.6935113952362	-0	2.354909555976092	0	-0.09478689634274365	0	0	0	0	0	0
0.4764705882352941	-0.0318060487262647	0.008471873123206485	-0	2.334084139334711	0	0.09478689634274365	104.7382913853644	882.9086390407508	-0	2.355034431177487	0	-0.09478689634274365	0	0	0	0	0	0
0.4794117647058824	-0.02945070978408108	0.007817295463137593	-0	2.351671099583196	0	0.09478689634274365	111.5963886930124	864.2212225049374	-0	2.355147081916232	0	-0.09478689634274365	0	0	0	0	0	0
0.4823529411764706	-0.02737416729098044	0.007241633138524435	-0	2.369294861027491	0	0.09478689634274366	117.5210789364184	843.947586589646	-0	2.355247643174529	0	-0.09478689634274365	0	4.336808689942018e-19	0	0	0	0
0.4852941176470589	-0.02548675428731492	0.00672112231833766	-0	2.386953181042376	0	0.09478689634274365	122.5273423279557	822.131096032728	-0	2.355336508938402	0	-0.09478689634274365	0	0	0	0	0	0
0.4882352941176471	-0.02380008953721244	0.006257947692712302	-0	2.404645236148066	0	0.09478689634274365	126.8924761072941	798.624319819517	-0	2.355418699516442	0	-0.09478689634274365	0	0	0	0	0	0
0.4911764705882353	-0.02231978773483646	0.00585241694223304	-0	2.422370661286108	0	0.09478689634274365	130.6731555312103	773.2730645872817	-0	2.355496224261355	0	-0.09478689634274365	0	0	0	0	0	0
0.4941176470588236	-0.02099464574573855	0.005490080644760747	-0	2.440131020482275	0	0.09478689634274365	134.0905897001892	746.2182933156446	-0	2.355573315745571	0	-0.09478689634274366	0	0	0	0	1.77635683940025e-15	0
0.4970588235294118	-0.01977667726245407	0.005157877084995426	-0	2.457928504608262	0	0.09478689634274365	137.0724436360819	717.6534854405543	-0	2.355649319100936	0	-0.09478689634274365	0	0	0	0	0	0
0.5	-0.01864836352274286	0.004851236952865864	-0	2.475762403164876	0	0.09478689634274365	139.5805758073971	687.8198405181836	-0	2.355723957611842	0	-0.09478689634274365	0	0	0	0	0	0
0.5029411764705882	-0.01759994398836824	0.004567596645261767	-0	2.493630265918482	0	0.09478689634274365	141.5281448293831	656.8670653460109	-0	2.355796300842519	0	-0.09478689634274365	0	0	0	0	0	0
0.5058823529411764	-0.01661984235799462	0.004303795312693953	-0	2.511528670323058	0	0.09478689634274365	142.9023885925326	624.9566893001447	-0	2.355866665531612	0	-0.09478689634274365	0	0	0	0	0	0
0.5088235294117647	-0.01569922589032334	0.004057391284071343	-0	2.529453707413164	0	0.09478689634274365	143.5906207904454	592.2433962223937	-0	2.355933370781818	0	-0.09478689634274365	0	0	0	0	0	0
0.5117647058823529	-0.01483572121433093	0.003827638221613765	-0	2.547400008619017	0	0.09478689634274365	143.5330035037524	558.9542712796393	-0	2.355995146123153	0	-0.09478689634274365	0	0	0	0	0	0
0.5147058823529411	-0.01403064569732435	0.003614732750559978	-0	2.565361169455702	0	0.09478689634274365	142.0125848613194	523.71585339401	-0	2.356045209300293	0	-0.09478689634274365	0	0	0	0	0	0
0.5176470588235295	-0.01329123017697134	0.003420387441093034	-0	2.583328922770013	0	0.09478689634274365	139.0459021429877	485.1491241804526	-0	2.356095106300683	0	-0.09478689634274365	0	0	0	0	0	0
0.5205882352941177	-0.01262830126199818	0.00324722789644168	-0	2.601293665194758	0	0.09478689634274365	135.473251902294	444.8399643202776	-0	2.356160084430819	0	-0.09478689634274365	0	0	0	0	0	0
0.5235294117647059	-0.01205975133265902	0.003099680331641218	-0	2.619243620332367	0	0.09478689634274365	131.2856953962756	404.827539351488	-0	2.35622885257405	0	-0.09478689634274365	0	0	0	0	0	0
0.5264705882352941	-0.01160894309924776	0.002983636705925718	-0	2.637164700446176	0	0.09478689634274365	125.8735191901275	366.5103728315458	-0	2.356270751525238	0	-0.09478689634274365	0	0	0	0	0	0
0.5294117647058824	-0.01130840534989351	0.002907406613306347	-0	2.655038925524223	0	0.09478689634274366	118.4853892716625	331.51999338672	-0	2.356236089547126	0	-0.09478689634274365	0	2.168404344971009e-19	0	0	0	0
0.5323529411764706	-0.01117830254757057	0.002875998504072139	-0	2.672849335931756	0	0.09478689634274365	109.1247971242557	300.1432473394293	-0	2.356103761918322	0	-0.09478689634274365	0	0	0	0	0	0
0.5352941176470588	-0.01117333875256671	0.00287705859185657	-0	2.690598063865148	0	0.09478689634274365	98.29258960481059	271.5443550424144	-0	2.355886376276941	0	-0.09478689634274365	0	0	0	0	0	0
0.538235294117647	-0.01119266558234383	0.002883489116316223	-0	2.708306817051123	0	0.09478689634274365	85.04760633447269	243.3138263237127	-0	2.355564025485905	0	-0.09478689634274365	0	0	0	0	0	0
0.5411764705882354	-0.01103135617317832	0.00284081792821161	-0	2.726040937709379	0	0.09478689634274365	68.99097762666561	213.1439571207804	-0	2.35512793573857	0	-0.09478689634274365	0	0	0	0	0	0
0.5441176470588236	-0.01049677320998119	0.002698778523571975	-0	2.743878009183584	0	0.09478689634274366	52.85324818818513	182.3293440963767	-0	2.354654904516836	0	-0.09478689634274365	0	2.168404344971009e-19	0	0	0	0
0.5470588235294118	-0.009619437924807584	0.002467022760711918	-0	2.761862358281884	0	0.09478689634274365	38.78977111594249	152.649870569758	-0	2.354216951965371	0	-0.09478689634274365	0	0	0	0	0	0
0.55	-0.008548498860417633	0.00218609396196824	-0	2.780007924594987	0	0.09478689634274365	27.02885942534934	124.0170718862825	-0	2.353835686599291	0	-0.09478689634274365	0	0	0	0	0	0
0.5529411764705883	-0.007503174321507863	0.001913846599882652	-0	2.798272043288051	0	0.09478689634274365	17.67499083246763	95.94666985533252	-0	2.353539858163693	0	-0.09478689634274365	0	0	0	0	0	0
0.5558823529411765	-0.006644385426750819	0.001691856029818916	-0	2.816591768353672	0	0.09478689634274365	10.39996526900545	67.99314681339398	-0	2.353328995852003	0	-0.09478689634274365	0	0	0	0	0	0
0.5588235294117647	-0.006008282775264702	0.001528866116677619	-0	2.834894673820452	0	0.09478689634274365	4.680866864038721	39.35879758882228	-0	2.353160578353723	0	-0.09478689634274365	0	0	0	0	0	0
0.5617647058823529	-0.005562472461759045	0.001415953063331065	-0	2.853122596066453	0	0.09478689634274363	1.161425713816723	-2.944621935100384	-0	2.349365838579811	0	-0.09478689634274363	0	-1.084202172485504e-19	0	0	-2.775557561562891e-17	0
0.5647058823529412	-0.005215490411477239	0.001328957383420791	-0	2.871262369443122	0	0.09478689634274365	1.868105388977033e-05	-1.722031089696843e-05	-0	2.345748433953386	0	-0.09478689634274365	0	0	0	0	0	0
0.5676470588235294	-0.004903995331048289	0.00125118746856084	-0	2.889317664655549	0	0.09478689634274365	1.267642235030499e-12	-8.874460603150161e-13	-0	2.347441158026923	0	-0.09478689634274365	0	0	0	0	0	0
0.5705882352941176	-0.004557641289665748	0.001164216163034909	-0	2.907323441263721	0	0.09478689634274365	-0	-0	-0	0	0	0	0	0	0	0	0	0
0.5735294117647058	-0.004118900688705678	0.00105315540736754	-0	2.925321354893704	0	0.09478689634274365	-0	-0	-0	0	0	0	0	0	0	0	0	0
0.5764705882352941	-0.003611200388525368	0.0009243538812254479	-0	2.943326567464139	0	0.09478689633760652	1.066218559316581e-14	-6.491117160104997e-15	-0	0	0	0	0	-3.633703581085168e-16	0	0	-1.010635480606503e-15	0
0.5794117647058823	-0.003069200754184003	0.0007867917767333205	-0	2.961341687728419	0	0.09478689630863246	5.104605970728207e-14	-3.07683771603237e-14	-0	2.37223064714231	0	-0.09478689634274365	0	-1.929229345720707e-15	0	0	0	0
0.5823529411764706	-0.002503005888398515	0.0006428557854276315	-0	2.97937407737268	0	0.0947868961280814	1.591975882779622e-13	-9.507904183447953e-14	-0	2.379043980415487	0	-0.09478689634274365	0	-9.224337873398047e-15	0	0	0	0
0.5852941176470589	-0.001913848908527553	0.0004926347500498045	-0	2.997439713034834	0	0.09478689483160826	4.368771931378775e-13	-2.586334417379525e-13	-0	2.385937368067385	0	-0.09478689634274365	0	-4.582128405004882e-14	0	0	0	0
0.5882352941176471	-0.001294180410178043	0.0003340168600127597	-0	3.015577714335376	0	0.09478688456390659	1.205666274297668e-12	-7.077969945081266e-13	-0	2.392907743295085	0	-0.09478689634274363	0	-2.210803697229313e-13	0	0	0	0
