DataType=double
version=3
OpenSimVersion=4.6-2026-06-22-85aaf64
endheader
time	ground_force_r_vx	ground_force_r_vy	ground_force_r_vz	ground_force_r_px	ground_force_r_py	ground_force_r_pz	ground_force_l_vx	ground_force_l_vy	ground_force_l_vz	ground_force_l_px	ground_force_l_py	ground_force_l_pz	ground_torque_r_x	ground_torque_r_y	ground_torque_r_z	ground_torque_l_x	ground_torque_l_y	ground_torque_l_z
0	-0.07762808742159562	0.02492907726508974	-0	1.207940122577075	0	0.08956897476644005	-0	-0	-0	0	0	0	0	-1.182092618234876e-13	0	0	0	0
0.002380952380952381	-0.09333752932374942	0.03082994378308562	-0	1.217022868676816	0	0.0895689774986216	-0	-0	-0	0	0	0	0	1.096860449689707e-12	0	0	0	0
0.004761904761904761	-0.1137947945831117	0.0386510702453589	-0	1.22578169504168	0	0.08956899270297541	-0	-0	-0	0	0	0	0	9.525559160894481e-12	0	0	0	0
0.007142857142857142	-0.1411349924598779	0.04927027889178203	-0	1.234222240638249	0	0.08956899443255892	-0	-0	-0	0	0	0	0	1.244416548973337e-11	0	0	0	0
0.009523809523809523	-0.178580363655331	0.06403852259955009	-0	1.242351459656702	0	0.0895689926482867	1.288218219344575e-15	-7.071291816309989e-16	-0	0	0	0	0	1.343634231654178e-11	0	0	-1.221062068238481e-16	0
0.0119047619047619	-0.2310895358148633	0.0850681654672218	-0	1.250177190905632	0	0.08956899028076709	3.625695022491699e-14	-1.926119821255501e-14	-0	0	0	0	0	1.384214270983009e-11	0	0	-3.436683782673223e-15	0
0.01428571428571428	-0.3066256609981301	0.115798719372043	-0	1.257704957447479	0	0.08956898817665523	1.20389934013739e-12	-6.187792822014658e-13	-0	0.8232871406078902	0	-0.09478689634274365	0	1.426410378702059e-11	0	0	0	0
0.01666666666666667	-0.4182305206887362	0.1619572886386773	-0	1.264938192393186	0	0.08956898651416215	3.738461844963764e-11	-1.857025775046608e-11	-0	0.8306439777104083	0	-0.09478689634274365	0	1.505692792669322e-11	0	0	0	0
0.01904761904761905	-0.5883356067718201	0.2335945631148511	-0	1.271867838655083	0	0.08956898524101752	1.072752685884488e-09	-5.143509659943075e-10	-0	0.838341569525205	0	-0.09478689634274365	0	1.659072185189459e-11	0	0	0	0
0.02142857142857143	-0.8556925331324283	0.3485174742117445	-0	1.278479143063984	0	0.08956898428669499	2.924975565146014e-08	-1.352479849468292e-08	-0	0.8463976997550147	0	-0.09478689634274365	0	1.937319749067967e-11	0	0	0	0
0.02380952380952381	-1.286645247663517	0.5382296964653349	-0	1.284750986810207	0	0.08956898363655422	8.240748565018259e-07	-3.676027732863392e-07	-0	0.8548078052441834	0	-0.09478689634274365	0	2.393971132441663e-11	0	0	0	0
0.02619047619047619	-1.995880802210175	0.8590145908680048	-0	1.290668595872972	0	0.08956898329996751	2.414643808638891e-05	-1.040520785397971e-05	-0	0.8635529618575574	0	-0.09478689634274365	0	3.063249653934008e-11	0	0	0	0
0.02857142857142857	-3.175899240437085	1.408223604071175	-0	1.296242284184126	0	0.08956898334896832	0.0006265337062547577	-0.0002613318177385603	-0	0.8726000030458828	0	-0.09478689634274365	0	3.835065598423171e-11	0	0	0	0
0.03095238095238095	-5.149896488074174	2.354710545047284	-0	1.301491068738962	0	0.08956898389900918	0.001558743244467334	-0.0006306183123047178	-0	0.8819174678127935	0	-0.09478689634274365	0	4.099798278645039e-11	0	0	0	0
0.03333333333333333	-8.453331334504913	3.990937962143782	-0	1.306426692040473	0	0.08956898518255024	-0.02964387609511472	0.01164739760932898	-0	0.8914931660123799	0	-0.09478689634274365	0	1.493216661430097e-11	0	0	0	0
0.03571428571428572	-13.91961657233017	6.799176760713341	-0	1.311055362591319	0	0.08956898770368672	-0.04630170396270097	0.01767936025652943	-0	0.901324559571866	0	-0.09478689634274365	0	-1.308724240089987e-10	0	0	0	0
0.03809523809523809	-22.68281281119775	11.49819448708923	-0	1.315374543409068	0	0.08956899262274054	-0.05372915464522571	0.01993834412937779	-0	0.9114224692636785	0	-0.09478689634274365	0	-7.453717643102209e-10	0	0	0	0
0.04047619047619047	-35.87187767955611	18.9530740389234	-0	1.319379818218295	0	0.08956900284105546	-0.05709908513848757	0.0205913227006808	-0	0.9217981149740416	0	-0.09478689634274365	0	-3.189964736804995e-09	0	0	0	0
0.04285714285714285	-53.78587499934934	29.78843056944746	-0	1.323058202281495	0	0.08956902611329313	-0.05889377171026085	0.02064785919003277	-0	0.9324485938265228	0	-0.09478689634274366	0	-1.27367627555941e-08	0	0	-8.673617379884035e-19	0
0.04523809523809524	-75.7913799412847	44.30553546596942	-0	1.32639707437772	0	0.08956908413335243	-0.06036290357786027	0.0205947331740089	-0	0.9433618576290432	0	-0.09478689634274365	0	-5.039881934010282e-08	0	0	0	0
0.04761904761904762	-107.1853098366911	66.85066573797654	-0	1.329374015957399	0	0.08956922899988322	-0.06217398515207076	0.02067368023832363	-0	0.9545159153574272	0	-0.09478689634274363	0	-2.125136280284323e-07	0	0	8.673617379884035e-19	0
0.05	-167.24354210889	113.8122464203914	-0	1.331972812234056	0	0.08956956944102075	-0.06464069584475834	0.02098345561199024	-0	0.9658910894884072	0	-0.09478689634274366	0	-1.049109918938029e-06	0	0	-8.673617379884035e-19	0
0.05238095238095238	-255.987382612334	199.1745595574245	-0	1.33415692393926	0	0.08957060412967975	-0.06787910139292555	0.02154878188722146	-0	0.977470438079966	0	-0.09478689634274365	0	-6.531502737772144e-06	0	0	0	0
0.05476190476190475	-324.2071642800551	314.0005455365576	-0	1.335924564124399	0	0.08957537226731646	-0.07192327059807418	0.02236723145925805	-0	0.9892409513683645	0	-0.09478689634274363	0	-5.2517708855504e-05	0	0	8.673617379884035e-19	0
0.05714285714285713	-168.1886456893482	445.1065955690088	-0	1.3388787007862	0	0.08959787151163505	-0.07699973164085694	0.0234961648352228	-0	1.001190580651807	0	-0.09478689634274365	0	-0.003053189139000878	0	0	0	0
0.05952380952380952	-52.46763691383394	594.2269604428575	-0	1.342330041191509	0	0.08967024446580396	-0.08338909142812952	0.02500880512265024	-0	1.013303221191546	0	-0.09478689634274365	0	-0.01081372031246008	0	0	0	0
0.06190476190476191	-80.79409471609235	755.7888223955862	-0	1.346671589263321	0	0.08981206254464486	-0.09109971185860663	0.02689357459491462	-0	1.025565970264739	0	-0.09478689634274365	0	-0.02474142849001648	0	0	0	0
0.06428571428571429	-65.01065675654841	920.5224364119863	-0	1.352620068612832	0	0.09000343470832033	-0.1001476914848065	0.02913868579312382	-0	1.037975239322694	0	-0.09478689634274365	0	-0.04162205541620878	0	0	0	0
0.06666666666666667	-140.9931831412603	1132.135873194678	-0	1.363672320060599	0	0.09039206224489651	-0.1105323088587316	0.03172830237022806	-0	1.050533586122297	0	-0.09478689634274365	0	-0.05964438615753132	0	0	0	0
0.06904761904761905	-169.6724608288938	1301.14194130824	-0	1.369600090203804	0	0.09059701860244383	-0.1221403422416929	0.03461611974904191	-0	1.063245482619165	0	-0.09478689634274365	0	-0.03522058323840938	0	0	0	0
0.07142857142857142	-161.31289943122	1361.729136867436	-0	1.36814064910852	0	0.0905421419062368	-0.1349413997584183	0.03778125309100415	-0	1.076117627805579	0	-0.09478689634274365	0	-0.001513429653735798	0	0	0	0
0.07380952380952381	-131.9268683754804	1375.10177624796	-0	1.365968712641964	0	0.09046136334358058	-0.1489562503769836	0.04122170822887609	-0	1.0891526373582	0	-0.09478689634274365	0	0.01271711351710358	0	0	0	0
0.07619047619047618	-129.5131418766274	1377.789351547562	-0	1.364764204634505	0	0.0904200351519452	-0.1642482237307131	0.0449543805780698	-0	1.102344876846568	0	-0.09478689634274363	0	0.01693505559873465	0	0	1.734723475976807e-18	0
0.07857142857142857	-110.0152347112401	1400.530775273552	-0	1.367056871891353	0	0.09049764801985416	-0.1808821155863472	0.04899819088695532	-0	1.115685869913057	0	-0.09478689634274366	0	0.01104870466681973	0	0	0	0
0.08095238095238096	-104.4801725213788	1477.605248519405	-0	1.375581106446909	0	0.09079439738796131	-0.1987080011928421	0.05330782033829331	-0	1.12917151268151	0	-0.09478689634274365	0	-0.01868266291079834	0	0	0	0
0.08333333333333333	-143.9973965210882	1582.010044321447	-0	1.386404028144677	0	0.09117705038730288	-0.2172429386257419	0.0577432459968111	-0	1.142804694180182	0	-0.09478689634274365	0	-0.0621939157053113	0	0	0	0
0.0857142857142857	-184.702660747657	1638.060118580327	-0	1.393956100325597	0	0.09144429839904511	-0.2357012602499815	0.06208869436078204	-0	1.156593440681812	0	-0.09478689634274365	0	-0.07596739412126396	0	0	0	0
0.08809523809523809	-177.4218261840575	1636.12275986327	-0	1.399098657209334	0	0.0916197180406184	-0.2532042685488414	0.06611871649424858	-0	1.170543339723701	0	-0.09478689634274365	0	-0.06838793503416696	0	0	0	0
0.09047619047619047	-161.2576959996754	1607.534748286357	-0	1.403893700969773	0	0.09178203964761696	-0.2689643225731627	0.06964802103108997	-0	1.184653962622713	0	-0.09478689634274365	0	-0.05838896520242898	0	0	0	0
0.09285714285714286	-138.6622503722308	1558.569273515612	-0	1.408696441774978	0	0.09194392696658336	-0.2822813471555595	0.07252309384663286	-0	1.198921501470745	0	-0.09478689634274365	0	-0.04814649431224183	0	0	0	0
0.09523809523809523	-119.2693977478706	1496.288392098591	-0	1.413473449533235	0	0.09210578463217151	-0.2928278225048297	0.07469212519830008	-0	1.213335427558232	0	-0.09478689634274365	0	-0.03801029586464999	0	0	0	0
0.09761904761904762	-100.3157257712473	1427.889475507938	-0	1.418275058210296	0	0.09226870475156244	-0.300574653940519	0.07617764815107024	-0	1.227881882926039	0	-0.09478689634274365	0	-0.02841107731011938	0	0	0	0
0.09999999999999999	-84.70061442048753	1357.152890977463	-0	1.422993100331162	0	0.09242944512618603	-0.3056957573012596	0.07704472825725052	-0	1.242544619232053	0	-0.09478689634274365	0	-0.0194843771876938	0	0	0	0
0.1023809523809524	-70.25365997355303	1287.525794334122	-0	1.427644667823915	0	0.09258811187602033	-0.3085541777747255	0.07739913453480537	-0	1.257306060936472	0	-0.09478689634274365	0	-0.01148469818031206	0	0	0	0
0.1047619047619048	-59.00370495334847	1219.645890939777	-0	1.432211878786459	0	0.09274461100261765	-0.3095159767559948	0.07733833252785756	-0	1.272149521632585	0	-0.09478689634274365	0	-0.004502903559360227	0	0	0	0
0.1071428571428571	-48.75413197455254	1155.228742754082	-0	1.436867186810137	0	0.09290452396096217	-0.3089705145247697	0.07695998585228299	-0	1.287058736415013	0	-0.09478689634274365	0	0.001421853071740031	0	0	0	0
0.1095238095238095	-40.33510222218355	1095.224251640748	-0	1.441768697946276	0	0.09307372972139323	-0.3072286734046058	0.07633791442772435	-0	1.302019988096305	0	-0.09478689634274365	0	0.006398670485397773	0	0	0	0
0.1119047619047619	-29.22344788481197	1047.53401828088	-0	1.44767943254275	0	0.09327790791139229	-0.3046603807110238	0.07555980258446168	-0	1.317019869689	0	-0.09478689634274365	0	0.01077203386991599	0	0	0	0
0.1142857142857143	-17.16216033267515	1016.311020453566	-0	1.455274271749555	0	0.09354160937863397	-0.3017371226431394	0.07473885925795708	-0	1.33204561498546	0	-0.09478689634274365	0	0.01485134674343547	0	0	0	0
0.1166666666666667	-11.70424914926021	986.5337459881343	-0	1.463843623843573	0	0.09384246948481691	-0.2990010062736673	0.07400600675482912	-0	1.347084315285617	0	-0.09478689634274365	0	0.01746427532332695	0	0	0	0
0.119047619047619	-10.96171332473916	951.1717505458665	-0	1.472597796342263	0	0.09415210924400262	-0.2976106548430625	0.07365205908223442	-0	1.362117097344907	0	-0.09478689634274365	0	0.01683870501994411	0	0	0	0
0.1214285714285714	-11.3750621879582	914.594821303773	-0	1.481403286807688	0	0.09446477343529207	-0.2989522260882777	0.07402439631355417	-0	1.377121407671485	0	-0.09478689634274365	0	0.01160256713311347	0	0	0	0
0.1238095238095238	-12.1768787690902	880.0682806717156	-0	1.489753702595803	0	0.0947623273236694	-0.304275018061275	0.07543316948297871	-0	1.392073575306598	0	-0.09478689634274365	0	0.001150826274331829	0	0	0	0
0.1261904761904762	-4.359459836906516	886.9624064650862	-0	1.490911401905506	0	0.09479896567582746	-0.3146052421112043	0.07812991792113935	-0	1.40695295726858	0	-0.09478689634274365	0	-0.0007144445709491576	0	0	0	0
0.1285714285714286	8.568982481729197	895.4928301428198	-0	1.490786664372868	0	0.0947874830593512	-0.3292837219597202	0.08193038532155952	-0	1.421758420272206	0	-0.09478689634274365	0	-4.286005318909769e-05	0	0	0	0
0.130952380952381	19.42003798874412	897.7543623835978	-0	1.490936580891122	0	0.09478691087100261	-0.3471714661769567	0.08653169943021088	-0	1.436498493467602	0	-0.09478689634274365	0	-1.286509737186137e-06	0	0	0	0
0.1333333333333333	30.27576032284828	897.1646729924889	-0	1.491100386358201	0	0.0947868966028718	-0.3676389932340335	0.09177369653507204	-0	1.451185595933337	0	-0.09478689634274365	0	-2.754790839887278e-08	0	0	0	0
0.1357142857142857	39.79191449604145	893.0853520225355	-0	1.491246877873896	0	0.0947868963466164	-0.3901433622850792	0.09752064028530508	-0	1.465831265903747	0	-0.09478689634274365	0	-4.834461719838146e-10	0	0	0	0
0.1380952380952381	49.06754787092439	884.8549286696528	-0	1.491391452518128	0	0.0947868963427949	-0.4142980379887697	0.1036796842597048	-0	1.480444826113152	0	-0.09478689634274363	0	-7.429612480791548e-12	0	0	6.938893903907228e-18	0
0.1404761904761904	58.87998551535041	878.7388540523217	-0	1.491540272418033	0	0.09478689634274427	-0.439738555166719	0.1101644658375493	-0	1.4950341175451	0	-0.09478689634274365	0	-1.039168751049147e-13	0	0	0	0
0.1428571428571428	68.35896486181447	882.0291165484545	-0	1.491673167728816	0	0.09478689634274365	-0.466198285502411	0.1169119665248768	-0	1.50960467242668	0	-0.09478689634274365	0	0	0	0	0	0
0.1452380952380952	75.06543455248742	888.2533749265672	-0	1.491761320511545	0	0.09478689634274365	-0.4931767398985271	0.1237980683797663	-0	1.52416181922495	0	-0.09478689634274365	0	0	0	0	0	0
0.1476190476190476	81.30749871074116	890.1109970844864	-0	1.491845288869099	0	0.09478689634274365	-0.5196196210051681	0.1305559417960551	-0	1.538711781116136	0	-0.09478689634274365	0	0	0	0	0	0
0.15	87.93151625058995	887.8491699156924	-0	1.49193724697926	0	0.09478689634274363	-0.543997180043524	0.1367967871049942	-0	1.553261974757745	0	-0.09478689634274365	0	1.77635683940025e-15	0	0	0	0
0.1523809523809524	94.40081249027152	882.4453700311085	-0	1.49202907787841	0	0.09478689634274365	-0.5638268422298029	0.1418862243500457	-0	1.567823733294097	0	-0.09478689634274365	0	0	0	0	0	0
0.1547619047619048	100.7238133383601	874.1666568989498	-0	1.49212117212244	0	0.09478689634274365	-0.5758110766232237	0.1449799024205206	-0	1.582411353030021	0	-0.09478689634274365	0	0	0	0	0	0
0.1571428571428571	106.8192025038511	863.5892131828081	-0	1.492212096707622	0	0.09478689634274365	-0.5756071458083958	0.1449648640894647	-0	1.597046147827963	0	-0.09478689634274365	0	0	0	0	0	0
0.1595238095238095	112.5116359499522	850.9672283776323	-0	1.492299382050864	0	0.09478689634274365	-0.560315773610819	0.1411119945186518	-0	1.611749212338822	0	-0.0947868963427126	0	0	0	0	3.538835890992686e-16	0
0.1619047619047619	117.7378522244347	836.5169390453486	-0	1.492382209417773	0	0.09478689634274365	-0.5327512974203135	0.1341719696641427	-0	1.626524088988006	0	-0.09478689634262015	0	0	0	0	1.290634266126744e-15	0
0.1642857142857143	122.5044843190325	820.2073386937603	-0	1.492461280877622	0	0.09478689634274365	-0.4975642773516034	0.1253458337446192	-0	1.641363925971228	0	-0.09478689634236942	0	0	0	0	3.497202527569243e-15	0
0.1666666666666667	127.0717623633809	802.1060926053329	-0	1.492541134699168	0	0.09478689634274365	-0.4591634040736834	0.1157481105521725	-0	1.656251578684458	0	-0.09478689634144002	0	0	0	0	1.072752997544058e-14	0
0.169047619047619	131.3970931019365	782.2893706813657	-0	1.492621680081578	0	0.09478689634274365	-0.4204082499327864	0.1060883467621617	-0	1.671169279394921	0	-0.09478689633837691	0	0	0	0	3.114869473463955e-14	0
0.1714285714285714	135.5003397465538	760.9249226268138	-0	1.492703648598636	0	0.09478689634274365	-0.3802470154235469	0.09607037910478083	-0	1.686111543343865	0	-0.09478689632806897	0	0	0	0	8.931050343718994e-14	0
0.1738095238095238	138.4800421511336	736.0315127051322	-0	1.492778843270318	0	0.09478689634274365	-0.3372973391276149	0.08532243719272248	-0	1.701082065206245	0	-0.09478689629344279	0	0	0	0	2.507091756420721e-13	0
0.1761904761904762	140.2819552125571	705.3392731019502	-0	1.492855670405069	0	0.09478689634274363	-0.2923243184214601	0.07403653985981681	-0	1.716087801649851	0	-0.09478689617634108	0	1.77635683940025e-15	0	0	6.898440152447449e-13	0
0.1785714285714285	142.1329960193172	671.2012575560963	-0	1.492951725761446	0	0.09478689634274365	-0.2464809599628588	0.06250322935272087	-0	1.731135627684514	0	-0.09478689577638708	0	0	0	0	1.858797837872572e-12	0
0.1809523809523809	143.834663802282	636.8945468299952	-0	1.493053645862775	0	0.09478689634274365	-0.2020582347386493	0.05130612215274175	-0	1.746228505386451	0	-0.0947868943997906	0	0	0	0	4.892770216757825e-12	0
0.1833333333333333	144.7106859490987	602.5791548323147	-0	1.493148263722972	0	0.09478689634274365	-0.1615831210623226	0.04109103185577108	-0	1.761362862546805	0	-0.09478688965328697	0	0	0	0	1.254168470465888e-11	0
0.1857142857142857	144.89650674754	567.9010825750078	-0	1.493240720580154	0	0.09478689634274365	-0.1259850589929717	0.03209315683999917	-0	1.776533098940422	0	-0.09478687323957706	0	0	0	0	3.125498818090655e-11	0
0.1880952380952381	144.4112379065677	532.9514490040946	-0	1.493332191520435	0	0.09478689634274365	-0.09561136526998058	0.0244018159176289	-0	1.791734216549743	0	-0.09478681623650109	0	0	0	0	7.5609015576239e-11	0
0.1904761904761905	143.2876932851055	497.7359606962897	-0	1.493424941651114	0	0.09478689634274365	-0.07040946117294197	0.01800657791533738	-0	1.806961420575793	0	-0.09478661692192848	0	0	0	0	1.771857027418888e-10	0
0.1928571428571429	140.3888428304921	460.6483672235777	-0	1.493503988426672	0	0.09478689634274365	-0.05006265159285377	0.0128313628942447	-0	1.822204366480388	0	-0.09478591222198385	0	0	0	0	4.011339723927754e-10	0
0.1952380952380952	134.9855039033485	419.6075782412133	-0	1.493569398861737	0	0.09478689634274365	-0.03405235579645866	0.008749387825066429	-0	1.837429972043021	0	-0.09478337337593297	0	0	0	0	8.730771001996818e-10	0
0.1976190476190476	128.500279388613	375.7434188670824	-0	1.493659615944937	0	0.09478689634274363	-0.02186756412000812	0.005634633905776728	-0	1.852518667511991	0	-0.09477394943880318	0	1.77635683940025e-15	0	0	1.814290571076904e-09	0
0.2	121.6232742493687	331.0626467634235	-0	1.49379021599872	0	0.09478689634274365	-0.01300166690331537	0.003361344307035493	-0	1.866988656189777	0	-0.09473731033154514	0	0	0	0	3.555811479896004e-09	0
0.2023809523809524	113.7992253523716	285.8136218721945	-0	1.493958232252899	0	0.09478689634274365	-0.006911717453475603	0.001793976059825316	-0	1.878642961967861	0	-0.09458289341451306	0	0	0	0	6.393507047679388e-09	0
0.2047619047619048	104.7798234939965	240.0787873459721	-0	1.494179424711773	0	0.09478689634274365	-0.003016832344812139	0.0007868337758839962	-0	1.875018142201479	0	-0.09380974232734778	0	0	0	0	9.303677359279779e-09	0
0.2071428571428571	94.52262404636866	195.6616313803706	-0	1.494451922492128	0	0.09478689634274365	-0.001182595116843372	0.0003105899677384402	-0	1.78957261462665	0	-0.08983242568275519	0	0	0	0	9.060135523899582e-10	0
0.2095238095238095	82.68218802642156	155.600545199834	-0	1.494691878197533	0	0.09478689634274365	-0.002069807381046019	0.0005462181879788485	-0	1.790765779123278	0	-0.08944703440986825	0	0	0	0	-5.774280035239845e-10	0
0.2119047619047619	69.38423256247316	121.0482635659764	-0	1.494811441323167	0	0.09478689634274365	-0.00375619692317043	0.0009965746183677631	-0	1.804912955547157	0	-0.08956584691857147	0	0	0	0	-1.663328627393365e-11	0
0.2142857142857143	55.43470249738908	92.20698848191138	-0	1.494747252730022	0	0.09478689634274365	-0.006237969367127121	0.001665616870786952	-0	1.81614366676101	0	-0.08956892710009855	0	0	0	0	-1.824660214588825e-13	0
0.2166666666666667	41.70399252319204	68.29767358265993	-0	1.494475063898962	0	0.09478689634274365	-0.009656950073965017	0.002598161139986778	-0	1.827366326067177	0	-0.0895689745377128	0	0	0	0	9.265591766061121e-16	0
0.219047619047619	28.91073378861658	47.50472460278976	-0	1.494092032461433	0	0.09478689634274365	-0.0139862806168766	0.003797769390355674	-0	1.838622460267446	0	-0.08956897507318294	0	0	0	0	7.849623728795052e-17	0
0.2214285714285714	3.027157303344131	6.102050525502788	-0	1.492682817528468	0	0.09478689634274365	-0.01911193884613946	0.005248771214498167	-0	1.84985613390793	0	-0.08956897507899163	0	0	0	0	3.469446951953614e-18	0
0.2238095238095238	0.0001283777931440695	-0.0001810409480562674	-0	1.482035284816861	0	0.09478689634274363	-0.02496623365274037	0.006954031059628046	-0	1.860981588676451	0	-0.08956897507908329	0	1.694065894508601e-21	0	0	4.336808689942018e-19	0
0.2261904761904762	2.65729654905653e-14	-2.329772574062068e-14	-0	1.480235042210489	0	0.09478689634274365	-0.03151606639579001	0.0089326690160742	-0	1.871911235303399	0	-0.08956897507908684	0	0	0	0	8.673617379884035e-19	0
0.2285714285714285	-0	-0	-0	0	0	0	-0.03861444426249792	0.01117286589624182	-0	1.882590859947786	0	-0.08956897507908614	0	0	0	0	1.301042606982605e-18	0
0.2309523809523809	-0	-0	-0	0	0	0	-0.04630412301265055	0.01371612316778207	-0	1.892982516103348	0	-0.08956897507907666	0	0	0	0	2.602085213965211e-18	0
0.2333333333333333	-0	-0	-0	0	0	0	-0.05498409791374221	0.01671032517145056	-0	1.903062697136637	0	-0.08956897507890889	0	0	0	0	4.510281037539698e-17	0
0.2357142857142857	-0	-0	-0	0	0	0	-0.06518523858852859	0.02035548915258773	-0	1.912811993230409	0	-0.08956897507290154	0	0	0	0	1.926410420072244e-15	0
0.2380952380952381	-0	-0	-0	0	0	0	-0.07762808742159458	0.02492907726508941	-0	1.922225836862786	0	-0.08956897476644003	0	0	0	0	1.182092618234876e-13	0
0.2404761904761905	-0	-0	-0	0	0	0	-0.09333752932374913	0.03082994378308552	-0	1.931308582962528	0	-0.08956897749862161	0	0	0	0	-1.096860449689707e-12	0
0.2428571428571429	-0	-0	-0	0	0	0	-0.1137947945831113	0.03865107024535876	-0	1.940067409327392	0	-0.08956899270297541	0	0	0	0	-9.525557426171005e-12	0
0.2452380952380952	-0	-0	-0	0	0	0	-0.1411349924598774	0.04927027889178184	-0	1.948507954923961	0	-0.08956899443255892	0	0	0	0	-1.244416548973337e-11	0
0.2476190476190476	1.288218219344589e-15	-7.071291816310066e-16	-0	0	0	0	-0.1785803636553305	0.06403852259954988	-0	1.956637173942414	0	-0.08956899264828672	0	1.221062068238494e-16	0	0	-1.343634231654178e-11	0
0.25	3.625695022491742e-14	-1.926119821255525e-14	-0	0	0	0	-0.2310895358148624	0.08506816546722147	-0	1.964462905191344	0	-0.08956899028076711	0	3.436683782673264e-15	0	0	-1.384214617927704e-11	0
0.2523809523809524	1.203899340137408e-12	-6.187792822014751e-13	-0	1.537572854893602	0	0.09478689634274365	-0.3066256609981288	0.1157987193720426	-0	1.97199067173319	0	-0.08956898817665525	0	0	0	0	-1.426410725646754e-11	0
0.2547619047619047	3.738461844963814e-11	-1.857025775046632e-11	-0	1.54492969199612	0	0.09478689634274365	-0.4182305206887346	0.1619572886386766	-0	1.979223906678898	0	-0.08956898651416215	0	0	0	0	-1.505692792669322e-11	0
0.2571428571428571	1.072752685884506e-09	-5.143509659943164e-10	-0	1.552627283810917	0	0.09478689634274365	-0.5883356067718174	0.2335945631148501	-0	1.986153552940795	0	-0.08956898524101753	0	0	0	0	-1.659072879078849e-11	0
0.2595238095238095	2.924975565146074e-08	-1.352479849468319e-08	-0	1.560683414040726	0	0.09478689634274365	-0.8556925331325346	0.3485174742117878	-0	1.992764857349696	0	-0.08956898428669501	0	0	0	0	-1.937322524625529e-11	0
0.2619047619047619	8.240748565018342e-07	-3.676027732863429e-07	-0	1.569093519529895	0	0.09478689634274365	-1.286645247663509	0.5382296964653318	-0	1.999036701095919	0	-0.08956898363655422	0	0	0	0	-2.393969744662883e-11	0
0.2642857142857143	2.41464380863896e-05	-1.040520785398001e-05	-0	1.577838676143269	0	0.09478689634274363	-1.995880802210162	0.8590145908679995	-0	2.004954310158684	0	-0.08956898329996751	0	4.235164736271502e-22	0	0	-3.063249653934008e-11	0
0.2666666666666667	0.0006265337062547923	-0.0002613318177385747	-0	1.586885717331595	0	0.09478689634274365	-3.175899240437149	1.408223604071204	-0	2.010527998469838	0	-0.0895689833489683	0	0	0	0	-3.835060047308048e-11	0
0.269047619047619	0.001558743244467483	-0.0006306183123047783	-0	1.596203182098505	0	0.09478689634274365	-5.149896488074287	2.354710545047335	-0	2.015776783024675	0	-0.08956898389900918	0	0	0	0	-4.099798278645039e-11	0
0.2714285714285714	-0.02964387609511926	0.01164739760933076	-0	1.605778880298092	0	0.09478689634274365	-8.4533313345051	3.990937962143871	-0	2.020712406326186	0	-0.08956898518255026	0	0	0	0	-1.493227763660343e-11	0
0.2738095238095238	-0.04630170396270077	0.01767936025652936	-0	1.615610273857578	0	0.09478689634274365	-13.91961657233043	6.799176760713467	-0	2.025341076877031	0	-0.08956898770368672	0	0	0	0	1.308724240089987e-10	0
0.2761904761904762	-0.05372915464522549	0.01993834412937771	-0	1.62570818354939	0	0.09478689634274365	-22.68281281119809	11.4981944870894	-0	2.029660257694779	0	-0.08956899262274055	0	0	0	0	7.453717643102209e-10	0
0.2785714285714286	-0.05709908513848727	0.02059132270068069	-0	1.636083829259753	0	0.09478689634274365	-35.87187767955661	18.95307403892366	-0	2.033665532504006	0	-0.08956900284105546	0	0	0	0	3.189965180894205e-09	0
0.280952380952381	-0.0588937717102606	0.02064785919003268	-0	1.646734308112235	0	0.09478689634274366	-53.78587499935	29.78843056944783	-0	2.037343916567207	0	-0.08956902611329315	0	8.673617379884035e-19	0	0	1.273676186741568e-08	0
0.2833333333333333	-0.06036290357785998	0.0205947331740088	-0	1.657647571914755	0	0.09478689634274365	-75.79137994128544	44.30553546596985	-0	2.040682788663431	0	-0.08956908413335243	0	0	0	0	5.039882022828124e-08	0
0.2857142857142857	-0.0621739851520706	0.02067368023832358	-0	1.668801629643138	0	0.09478689634274365	-107.1853098366924	66.85066573797735	-0	2.04365973024311	0	-0.0895692289998832	0	0	0	0	2.125136298047892e-07	0
0.2880952380952381	-0.06464069584475803	0.02098345561199014	-0	1.680176803774119	0	0.09478689634274365	-167.2435421088926	113.8122464203931	-0	2.046258526519767	0	-0.08956956944102076	0	0	0	0	1.049109917161672e-06	0
0.2904761904761904	-0.06787910139292538	0.02154878188722141	-0	1.691756152365677	0	0.09478689634274365	-255.9873826123375	199.1745595574272	-0	2.048442638224973	0	-0.08957060412967977	0	0	0	0	6.53150273421943e-06	0
0.2928571428571428	-0.07192327059807378	0.02236723145925792	-0	1.703526665654077	0	0.09478689634274365	-324.2071642800591	314.0005455365614	-0	2.050210278410111	0	-0.08957537226731646	0	0	0	0	5.251770885905671e-05	0
0.2952380952380952	-0.07699973164085663	0.02349616483522271	-0	1.715476294937519	0	0.09478689634274365	-168.1886456893498	445.1065955690121	-0	2.053164415071912	0	-0.08959787151163505	0	0	0	0	0.003053189139000878	0
0.2976190476190476	-0.08338909142812906	0.0250088051226501	-0	1.727588935477258	0	0.09478689634274365	-52.46763691383467	594.2269604428617	-0	2.056615755477222	0	-0.08967024446580396	0	0	0	0	0.01081372031246186	0
0.3	-0.09109971185860627	0.02689357459491452	-0	1.73985168455045	0	0.09478689634274365	-80.79409471609333	755.7888223955914	-0	2.060957303549032	0	-0.08981206254464486	0	0	0	0	0.02474142849001559	0
0.3023809523809524	-0.1001476914848062	0.02913868579312373	-0	1.752260953608406	0	0.09478689634274365	-65.01065675654928	920.5224364119921	-0	2.066905782898544	0	-0.09000343470832034	0	0	0	0	0.04162205541620789	0
0.3047619047619047	-0.1105323088587311	0.03172830237022793	-0	1.764819300408009	0	0.09478689634274365	-140.9931831412617	1132.135873194685	-0	2.077958034346311	0	-0.0903920622448965	0	0	0	0	0.05964438615753309	0
0.3071428571428572	-0.1221403422416926	0.03461611974904181	-0	1.777531196904876	0	0.09478689634274365	-169.6724608288951	1301.141941308248	-0	2.083885804489516	0	-0.09059701860244385	0	0	0	0	0.03522058323841115	0
0.3095238095238095	-0.1349413997584179	0.03778125309100402	-0	1.790403342091291	0	0.09478689634274365	-161.3128994312208	1361.729136867443	-0	2.082426363394231	0	-0.0905421419062368	0	0	0	0	0.001513429653735798	0
0.3119047619047619	-0.1489562503769829	0.04122170822887591	-0	1.803438351643912	0	0.09478689634274365	-131.9268683754808	1375.101776247966	-0	2.080254426927676	0	-0.0904613633435806	0	0	0	0	-0.01271711351710003	0
0.3142857142857143	-0.1642482237307124	0.04495438057806959	-0	1.81663059113228	0	0.09478689634274363	-129.5131418766277	1377.789351547567	-0	2.079049918920217	0	-0.0904200351519452	0	-1.734723475976807e-18	0	0	-0.01693505559873287	0
0.3166666666666667	-0.1808821155863468	0.0489981908869552	-0	1.829971584198769	0	0.09478689634274365	-110.0152347112405	1400.530775273558	-0	2.081342586177064	0	-0.09049764801985416	0	0	0	0	-0.01104870466681973	0
0.319047619047619	-0.1987080011928413	0.05330782033829311	-0	1.843457226967221	0	0.09478689634274365	-104.4801725213794	1477.605248519412	-0	2.089866820732621	0	-0.09079439738796133	0	0	0	0	0.01868266291079657	0
0.3214285714285714	-0.2172429386257411	0.05774324599681088	-0	1.857090408465894	0	0.09478689634274365	-143.9973965210891	1582.010044321454	-0	2.100689742430388	0	-0.09117705038730287	0	0	0	0	0.06219391570531307	0
0.3238095238095238	-0.2357012602499806	0.06208869436078179	-0	1.870879154967524	0	0.09478689634274365	-184.702660747658	1638.060118580332	-0	2.108241814611309	0	-0.09144429839904512	0	0	0	0	0.07596739412126041	0
0.3261904761904761	-0.2532042685488401	0.06611871649424825	-0	1.884829054009413	0	0.09478689634274365	-177.4218261840587	1636.122759863277	-0	2.113384371495045	0	-0.09161971804061839	0	0	0	0	0.06838793503416696	0
0.3285714285714286	-0.2689643225731614	0.06964802103108965	-0	1.898939676908425	0	0.09478689634274365	-161.2576959996764	1607.534748286364	-0	2.118179415255485	0	-0.09178203964761697	0	0	0	0	0.05838896520242542	0
0.3309523809523809	-0.2822813471555583	0.07252309384663254	-0	1.913207215756458	0	0.09478689634274365	-138.6622503722316	1558.569273515617	-0	2.122982156060691	0	-0.09194392696658338	0	0	0	0	0.04814649431224183	0
0.3333333333333333	-0.2928278225048283	0.07469212519829974	-0	1.927621141843944	0	0.09478689634274365	-119.2693977478714	1496.288392098596	-0	2.127759163818947	0	-0.09210578463217152	0	0	0	0	0.03801029586464821	0
0.3357142857142857	-0.3005746539405176	0.07617764815106988	-0	1.942167597211751	0	0.09478689634274365	-100.3157257712479	1427.889475507942	-0	2.132560772496008	0	-0.09226870475156244	0	0	0	0	0.02841107731011938	0
0.3380952380952381	-0.3056957573013291	0.07704472825726806	-0	1.956830333517764	0	0.09478689634274365	-84.70061442048807	1357.152890977467	-0	2.137278814616874	0	-0.09242944512618603	0	0	0	0	0.01948437718769291	0
0.3404761904761905	-0.3085541777747242	0.07739913453480506	-0	1.971591775222183	0	0.09478689634274365	-70.25365997355344	1287.525794334125	-0	2.141930382109626	0	-0.0925881118760203	0	0	0	0	0.01148469818031383	0
0.3428571428571429	-0.3095159767559935	0.07733833252785721	-0	1.986435235918298	0	0.09478689634274365	-59.00370495334899	1219.645890939782	-0	2.146497593072171	0	-0.09274461100261766	0	0	0	0	0.004502903559359339	0
0.3452380952380952	-0.3089705145248359	0.07695998585229949	-0	2.001344450700725	0	0.09478689634274365	-48.75413197455296	1155.228742754086	-0	2.151152901095848	0	-0.09290452396096219	0	0	0	0	-0.001421853071740919	0
0.3476190476190476	-0.3072286734046044	0.076337914427724	-0	2.016305702382017	0	0.09478689634274365	-40.33510222218391	1095.224251640751	-0	2.156054412231988	0	-0.09307372972139323	0	0	0	0	-0.006398670485397773	0
0.35	-0.3046603807110209	0.07555980258446095	-0	2.031305583974712	0	0.09478689634274365	-29.22344788481234	1047.534018280884	-0	2.161965146828463	0	-0.0932779079113923	0	0	0	0	-0.01077203386991687	0
0.3523809523809524	-0.301737122643138	0.07473885925795673	-0	2.046331329271173	0	0.09478689634274365	-17.16216033267553	1016.311020453571	-0	2.169559986035267	0	-0.09354160937863396	0	0	0	0	-0.01485134674343569	0
0.3547619047619047	-0.2990010062736659	0.07400600675482877	-0	2.061370029571329	0	0.09478689634274365	-11.70424914926057	986.5337459881375	-0	2.178129338129285	0	-0.09384246948481691	0	0	0	0	-0.01746427532332717	0
0.3571428571428571	-0.297610654843061	0.07365205908223406	-0	2.076402811630619	0	0.09478689634274365	-10.96171332473939	951.1717505458674	-0	2.186883510627975	0	-0.09415210924400262	0	0	0	0	-0.01683870501994367	0
0.3595238095238095	-0.2989522260882767	0.07402439631355393	-0	2.091407121957198	0	0.09478689634274365	-11.37506218795845	914.5948213037735	-0	2.1956890010934	0	-0.09446477343529207	0	0	0	0	-0.01160256713311325	0
0.3619047619047619	-0.3042750180612738	0.0754331694829784	-0	2.10635928959231	0	0.09478689634274365	-12.17687876909055	880.0682806717173	-0	2.204039416881514	0	-0.0947623273236694	0	0	0	0	-0.001150826274331829	0
0.3642857142857143	-0.3146052421112043	0.07812991792113935	-0	2.121238671554291	0	0.09478689634274365	-4.359459836906916	886.962406465089	-0	2.205197116191218	0	-0.09479896567582746	0	0	0	0	0.0007144445709492131	0
0.3666666666666667	-0.329283721959719	0.0819303853215592	-0	2.136044134557918	0	0.09478689634274365	8.568982481728884	895.4928301428222	-0	2.20507237865858	0	-0.0947874830593512	0	0	0	0	4.286005318909769e-05	0
0.3690476190476191	-0.347171466176957	0.08653169943021095	-0	2.150784207753314	0	0.09478689634274365	19.4200379887438	897.7543623835987	-0	2.205222295176833	0	-0.09478691087100261	0	0	0	0	1.286509737186137e-06	0
0.3714285714285714	-0.3676389932340303	0.09177369653507125	-0	2.16547131021905	0	0.09478689634274365	30.27576032284803	897.164672992493	-0	2.205386100643912	0	-0.09478689660287179	0	0	0	0	2.754790795478357e-08	0
0.3738095238095238	-0.3901433622850773	0.09752064028530461	-0	2.180116980189458	0	0.09478689634274365	39.79191449604131	893.0853520225398	-0	2.205532592159608	0	-0.09478689634661638	0	0	0	0	4.834452838053949e-10	0
0.3761904761904762	-0.4142980379887699	0.1036796842597048	-0	2.194730540398863	0	0.09478689634274365	49.0675478709243	884.8549286696572	-0	2.205677166803839	0	-0.0947868963427949	0	0	0	0	7.430500659211248e-12	0
0.3785714285714286	-0.4397385551667167	0.1101644658375488	-0	2.209319831830812	0	0.09478689634274365	58.87998551534998	878.7388540523218	-0	2.205825986703745	0	-0.09478689634274426	0	0	0	0	1.039168751049147e-13	0
0.3809523809523809	-0.4661982855024799	0.116911966524894	-0	2.223890386712392	0	0.09478689634274365	68.35896486181412	882.0291165484568	-0	2.205958882014528	0	-0.09478689634274365	0	0	0	0	0	0
0.3833333333333333	-0.4931767398985247	0.1237980683797657	-0	2.238447533510662	0	0.09478689634274365	75.06543455248696	888.2533749265698	-0	2.206047034797257	0	-0.09478689634274365	0	0	0	0	0	0
0.3857142857142857	-0.5196196210052347	0.1305559417960718	-0	2.252997495401848	0	0.09478689634274365	81.3074987107408	890.1109970844888	-0	2.20613100315481	0	-0.09478689634274365	0	0	0	0	0	0
0.388095238095238	-0.5439971800435214	0.1367967871049935	-0	2.267547689043457	0	0.09478689634274365	87.93151625058978	887.8491699156975	-0	2.206222961264971	0	-0.09478689634274366	0	0	0	0	0	0
0.3904761904761904	-0.5638268422298659	0.1418862243500616	-0	2.282109447579808	0	0.09478689634274365	94.40081249027135	882.445370031111	-0	2.206314792164121	0	-0.09478689634274366	0	0	0	0	0	0
0.3928571428571428	-0.5758110766232211	0.1449799024205199	-0	2.296697067315734	0	0.09478689634274365	100.7238133383594	874.1666568989489	-0	2.206406886408152	0	-0.09478689634274365	0	0	0	0	0	0
0.3952380952380952	-0.5756071458084544	0.1449648640894795	-0	2.311331862113675	0	0.09478689634274365	106.8192025038512	863.5892131828143	-0	2.206497810993334	0	-0.09478689634274365	0	0	0	0	0	0
0.3976190476190476	-0.5603157736108135	0.1411119945186504	-0	2.326034926624534	0	0.0947868963427126	112.5116359499519	850.9672283776348	-0	2.206585096336576	0	-0.09478689634274365	0	-3.538835890992686e-16	0	0	0	0
0.4	-0.5327512974203079	0.1341719696641413	-0	2.340809803273718	0	0.09478689634262015	117.7378522244337	836.516939045347	-0	2.206667923703485	0	-0.09478689634274365	0	-1.297573160030652e-15	0	0	0	0
0.4023809523809523	-0.497564277351599	0.1253458337446181	-0	2.355649640256941	0	0.09478689634236942	122.5044843190313	820.2073386937579	-0	2.206746995163334	0	-0.09478689634274365	0	-3.50414142147315e-15	0	0	0	0
0.4047619047619048	-0.4591634040736816	0.115748110552172	-0	2.370537292970169	0	0.09478689634144001	127.0717623633813	802.1060926053393	-0	2.206826848984881	0	-0.09478689634274365	0	-1.073446886934448e-14	0	0	0	0
0.4071428571428571	-0.4204082499328366	0.1060883467621743	-0	2.385454993680634	0	0.09478689633837692	131.3970931019362	782.2893706813637	-0	2.206907394367291	0	-0.09478689634274365	0	-3.114175584073564e-14	0	0	0	0
0.4095238095238095	-0.3802470154235427	0.09607037910477981	-0	2.400397257629577	0	0.09478689632806897	135.5003397465538	760.9249226268158	-0	2.206989362884348	0	-0.09478689634274366	0	-8.931050343718994e-14	0	0	3.552713678800501e-15	0
0.4119047619047619	-0.3372973391276137	0.08532243719272216	-0	2.415367779491957	0	0.09478689629344278	138.480042151134	736.0315127051385	-0	2.20706455755603	0	-0.09478689634274365	0	-2.50716114535976e-13	0	0	0	0
0.4142857142857143	-0.2923243184214588	0.07403653985981649	-0	2.430373515935563	0	0.09478689617634108	140.2819552125566	705.339273101951	-0	2.207141384690781	0	-0.09478689634274365	0	-6.898440152447449e-13	0	0	0	0
0.4166666666666666	-0.2464809599628576	0.06250322935272055	-0	2.445421341970226	0	0.09478689577638708	142.1329960193168	671.2012575560976	-0	2.207237440047157	0	-0.09478689634274365	0	-1.858797837872572e-12	0	0	0	0
0.419047619047619	-0.2020582347386472	0.0513061221527412	-0	2.460514219672163	0	0.0947868943997906	143.834663802281	636.8945468299967	-0	2.207339360148487	0	-0.09478689634274365	0	-4.892770216757825e-12	0	0	0	0
0.4214285714285714	-0.1615831210623229	0.04109103185577118	-0	2.475648576832516	0	0.09478688965328697	144.7106859490984	602.5791548323161	-0	2.207433978008684	0	-0.09478689634274365	0	-1.254168470465888e-11	0	0	0	0
0.4238095238095238	-0.1259850589929721	0.03209315683999926	-0	2.490818813226133	0	0.09478687323957705	144.8965067475408	567.9010825750141	-0	2.207526434865866	0	-0.09478689634274365	0	-3.125498818090655e-11	0	0	0	0
0.4261904761904762	-0.0956113652699809	0.02440181591762898	-0	2.506019930835454	0	0.09478681623650111	144.4112379065656	532.9514490040901	-0	2.207617905806147	0	-0.09478689634274365	0	-7.560901384151553e-11	0	0	0	0
0.4285714285714285	-0.07040946117294238	0.01800657791533748	-0	2.521247134861504	0	0.09478661692192848	143.2876932851051	497.735960696292	-0	2.207710655936827	0	-0.09478689634274365	0	-1.771857027418888e-10	0	0	0	0
0.430952380952381	-0.0500626515928536	0.01283136289424465	-0	2.5364900807661	0	0.09478591222198383	140.388842830493	460.6483672235838	-0	2.207789702712384	0	-0.09478689634274365	0	-4.011339723927754e-10	0	0	0	0
0.4333333333333333	-0.03405235579645852	0.008749387825066395	-0	2.551715686328732	0	0.09478337337593297	134.985503903347	419.6075782412098	-0	2.207855113147449	0	-0.09478689634274365	0	-8.730771001996818e-10	0	0	0	0
0.4357142857142857	-0.02186756412003351	0.00563463390578327	-0	2.566804381797703	0	0.0947739494388032	128.5002793886126	375.7434188670834	-0	2.207945330230648	0	-0.09478689634274365	0	-1.814290571076904e-09	0	0	0	0
0.4380952380952381	-0.01300166690331532	0.003361344307035481	-0	2.581274370475488	0	0.09473731033154513	121.6232742493684	331.0626467634244	-0	2.208075930284431	0	-0.09478689634274365	0	-3.555811480112844e-09	0	0	0	0
0.4404761904761905	-0.006911717453475574	0.001793976059825308	-0	2.592928676253573	0	0.09458289341451306	113.7992253523735	285.8136218722006	-0	2.208243946538611	0	-0.09478689634274365	0	-6.393507047570968e-09	0	0	0	0
0.4428571428571428	-0.003016832344812129	0.0007868337758839934	-0	2.58930385648719	0	0.09380974232734776	104.7798234939966	240.0787873459728	-0	2.208465138997485	0	-0.09478689634274365	0	-9.303677359333989e-09	0	0	0	0
0.4452380952380952	-0.001182595116843367	0.0003105899677384389	-0	2.503858328912363	0	0.08983242568275519	94.52262404637085	195.6616313803763	-0	2.208737636777839	0	-0.09478689634274365	0	-9.060135524035107e-10	0	0	0	0
0.4476190476190476	-0.002069807381046006	0.000546218187978845	-0	2.505051493408991	0	0.08944703440986826	82.68218802642433	155.6005451998396	-0	2.208977592483245	0	-0.09478689634274365	0	5.774280035510896e-10	0	0	0	0
0.45	-0.003756196923170413	0.0009965746183677588	-0	2.519198669832869	0	0.08956584691857149	69.38423256247358	121.0482635659771	-0	2.209097155608878	0	-0.09478689634274365	0	1.663328627393365e-11	0	0	0	0
0.4523809523809523	-0.006237969367127102	0.001665616870786948	-0	2.530429381046721	0	0.08956892710009855	55.43470249739137	92.20698848191564	-0	2.209032967015734	0	-0.09478689634274363	0	1.824660214588825e-13	0	0	-8.881784197001252e-16	0
0.4547619047619048	-0.009656950073964991	0.002598161139986771	-0	2.54165204035289	0	0.0895689745377128	41.70399252318938	68.29767358265558	-0	2.208760778184674	0	-0.09478689634274365	0	-9.265591766061121e-16	0	0	0	0
0.4571428571428571	-0.01398628061687656	0.003797769390355664	-0	2.552908174553158	0	0.08956897507318295	28.91073378861974	47.50472460279512	-0	2.208377746747145	0	-0.09478689634274363	0	-7.827939685345342e-17	0	0	-4.440892098500626e-16	0
0.4595238095238094	-0.01911193884613945	0.005248771214498163	-0	2.564141848193641	0	0.08956897507899163	3.027157303344252	6.102050525503056	-0	2.20696853181418	0	-0.09478689634274365	0	-3.252606517456513e-18	0	0	0	0
0.4619047619047619	-0.02496623365274024	0.006954031059628009	-0	2.575267302962163	0	0.08956897507908329	0.0001283777931440679	-0.0001810409480562646	-0	2.196320999102573	0	-0.09478689634274365	0	-4.336808689942018e-19	0	0	0	0
0.4642857142857142	-0.03151606639578996	0.008932669016074186	-0	2.58619694958911	0	0.08956897507908686	2.657296549056529e-14	-2.329772574062067e-14	-0	2.194520756496201	0	-0.09478689634274365	0	-4.336808689942018e-19	0	0	0	0
0.4666666666666666	-0.03861444426249785	0.01117286589624181	-0	2.596876574233497	0	0.08956897507908615	-0	-0	-0	0	0	0	0	-8.673617379884035e-19	0	0	0	0
0.469047619047619	-0.04630412301265037	0.01371612316778202	-0	2.607268230389059	0	0.08956897507907667	-0	-0	-0	0	0	0	0	-1.734723475976807e-18	0	0	0	0
0.4714285714285714	-0.05498409791374193	0.01671032517145047	-0	2.617348411422348	0	0.0895689750789089	-0	-0	-0	0	0	0	0	-4.423544863740858e-17	0	0	0	0
0.4738095238095238	-0.06518523858852826	0.02035548915258762	-0	2.627097707516122	0	0.08956897507290154	-0	-0	-0	0	0	0	0	-1.926410420072244e-15	0	0	0	0
0.4761904761904762	-0.07762808742159444	0.02492907726508937	-0	2.636511551148498	0	0.08956897476644005	-0	-0	-0	0	0	0	0	-1.182083944617496e-13	0	0	0	0
