DataType=double
version=3
OpenSimVersion=4.6-2026-06-22-85aaf64
endheader
time	ground_force_r_vx	ground_force_r_vy	ground_force_r_vz	ground_force_r_px	ground_force_r_py	ground_force_r_pz	ground_force_l_vx	ground_force_l_vy	ground_force_l_vz	ground_force_l_px	ground_force_l_py	ground_force_l_pz	ground_torque_r_x	ground_torque_r_y	ground_torque_r_z	ground_torque_l_x	ground_torque_l_y	ground_torque_l_z
0	-243.5275355918294	1200.02220053234	-0	1.331734448923415	0	0.0896423547879911	99.87490121742044	279.2548913537833	-0	0.8865832981837565	0	-0.09478689634274365	0	-0.02975255831011923	0	0	-7.706310580313679e-16	0
0.004978667190568851	-230.0890711248499	1209.599299356536	-0	1.340077169312397	0	0.08989578896945585	95.5613350014099	241.3406514952779	-0	0.8865523242105168	0	-0.09478689634274365	0	-0.08088375848734619	0	0	4.473338711345952e-16	0
0.009957334381137703	-331.1989694169716	1301.229729076547	-0	1.349938313751987	0	0.09023915509587356	90.72538296431468	205.4449457360805	-0	0.8865188949187031	0	-0.09478689634274365	0	-0.05771877626341299	0	0	-4.238644658419427e-16	0
0.01493600157170655	-230.0279968599112	1216.276295999177	-0	1.349297816285856	0	0.09018856013827725	84.90600230699347	171.3415476390494	-0	0.8864715536969119	0	-0.09478689634274365	0	-0.006621023955661943	0	0	6.352782387996324e-16	0
0.01991466876227541	-210.0100977782924	1061.672363205225	-0	1.348358653794158	0	0.09015323855079996	78.26311145663999	141.8643381557837	-0	0.886349774322219	0	-0.09478689634274365	0	0.001163786750770266	0	0	1.53708900683907e-16	0
0.02489333595284426	-150.7070632268095	945.4323356043113	-0	1.347873643555388	0	0.09011787463203953	71.16576705304814	117.0947550597452	-0	0.8861327947527765	0	-0.09478689634274365	0	0.003079470690907308	0	0	9.911032857436829e-17	0
0.02987200314341311	-142.4696362331294	852.5625542046905	-0	1.347057447929901	0	0.09008662153224985	63.3279437920574	95.68031885760236	-0	0.8858089505341966	0	-0.09478689634274365	0	0.0030691474090833	0	0	3.716630350970321e-16	0
0.03485067033398196	-108.6062103094705	784.5617915966332	-0	1.346962389450841	0	0.09006825222412651	54.80817474056201	76.70135343804745	-0	0.8853862678680499	0	-0.09478689634274365	0	0.00227553777270449	0	0	-1.879877198091009e-16	0
0.03982933752455081	-103.5305674977525	727.7420793885644	-0	1.346327705169081	0	0.09004213025582369	45.70149112686534	59.61119284964402	-0	0.8848695263691332	0	-0.09478689634274363	0	0.001810935399462159	0	0	-6.49915155450046e-16	0
0.04480800471511966	-82.3319584847433	682.3349781764784	-0	1.346282086454496	0	0.09002819163894676	35.6769599230018	43.56437100174177	-0	0.8842616008496886	0	-0.09478689634274365	0	0.0009799401450773413	0	0	1.200840052962132e-16	0
0.04978667190568851	-77.98545989046055	643.5635199431089	-0	1.345787641419746	0	0.09000601489945463	24.63430845391385	27.99402140509241	-0	0.8835784719291176	0	-0.09478689634274366	0	0.0005626250396462138	0	0	5.018234963356277e-16	0
0.05476533909625737	-64.41551967556464	613.5835079366052	-0	1.345670863992658	0	0.08999175280032728	10.98872697863705	12.13178150179675	-0	0.8826168439407192	0	-0.09478689634274365	0	-2.461788740115653e-05	0	0	-1.045729703294533e-16	0
0.05974400628682621	-61.09465297020717	591.7399714218986	-0	1.345297671059055	0	0.08997331166423349	-0.3179939670113773	-0.3909371861993866	-0	0.8812997271489265	0	-0.09478689634274365	0	-0.0003343003046874454	0	0	-1.675388037551151e-18	0
0.06472267347739506	-52.72239311664261	577.3442574603008	-0	1.345213697257541	0	0.0899619422478153	-4.290228893774122e-07	-8.02280997072589e-06	-0	0.8795239076766862	0	-0.09478689634274365	0	-0.0007556200312383807	0	0	-1.373481443636659e-24	0
0.06970134066796392	-49.57736773665982	564.3593855577072	-0	1.345071329728932	0	0.08995128395205222	1.017863227499712e-11	-1.098084112213605e-11	-0	0.8805758780120256	0	-0.09478689634274365	0	-0.001028511915181577	0	0	7.809928946229202e-29	0
0.07468000785853278	-43.20672871050306	550.2612907672078	-0	1.345106886538168	0	0.08994522361159686	-0	-0	-0	0	0	0	0	-0.001299333340711204	0	0	0	0
0.07965867504910162	-39.54440165995187	534.7962888493906	-0	1.345099999771349	0	0.08993924775758498	-0	-0	-0	0	0	0	0	-0.001423559867821548	0	0	0	0
0.08463734223967047	-34.23052775567905	518.7934557316069	-0	1.345167179339174	0	0.08993507562283655	-0	-0	-0	0	0	0	0	-0.001511668143918898	0	0	0	0
0.08961600943023931	-30.493012160303	503.0646949908296	-0	1.34520220272634	0	0.0899307395687055	-0	-0	-0	0	0	0	0	-0.001518726538946117	0	0	0	0
0.09459467662080817	-26.04265234206243	488.1668219987194	-0	1.345278699503853	0	0.08992757665453424	-0	-0	-0	0	0	0	0	-0.001518284017300343	0	0	0	0
0.09957334381137703	-22.52666193852627	474.2281067680652	-0	1.345353253080569	0	0.08992499524887348	-0	-0	-0	0	0	0	0	-0.001493260708290794	0	0	0	0
0.1045520110019459	-18.80846581860605	461.4231059807203	-0	1.345468191020442	0	0.0899238583470698	-0	-0	-0	0	0	0	0	-0.001476159637023535	0	0	0	0
0.1095306781925147	-15.6949949136383	449.8069563891236	-0	1.34560336526592	0	0.08992392265049001	-0	-0	-0	0	0	0	0	-0.001454676729473764	0	0	0	0
0.1145093453830836	-12.64702224026396	439.4805916810007	-0	1.345779223393669	0	0.08992560925521427	-0	-0	-0	0	0	0	0	-0.001439621892595511	0	0	0	0
0.1194880125736524	-10.04092550096746	430.4544936362747	-0	1.345982425648985	0	0.0899286707906683	-0	-0	-0	0	0	0	0	-0.001420565469565119	0	0	0	0
0.1244666797642213	-7.5776288016528	422.6965828726183	-0	1.346218917640403	0	0.08993315766639194	-0	-0	-0	0	0	0	0	-0.001398569020913331	0	0	0	0
0.1294453469547901	-5.380660048373246	416.1195556672832	-0	1.346474601849837	0	0.08993866049645206	-0	-0	-0	0	0	0	0	-0.001364863481858376	0	0	0	0
0.134424014145359	-3.266957855053734	410.6711617476834	-0	1.34674646521554	0	0.08994499284455304	-0	-0	-0	0	0	0	0	-0.001320027365211843	0	0	0	0
0.1394026813359278	-1.28478341060296	406.3736610208474	-0	1.347026423249839	0	0.08995191771962657	-0	-0	-0	0	0	0	0	-0.001264318331314987	0	0	0	0
0.1443813485264967	0.6427902831119793	403.3043642240012	-0	1.34731227655069	0	0.08995933803053911	-0	-0	-0	0	0	0	0	-0.001201194659147898	0	0	0	0
0.1493600157170655	2.48819640202215	401.5742183855619	-0	1.347601697034841	0	0.08996720165508267	-0	-0	-0	0	0	0	0	-0.001132988154071144	0	0	0	0
0.1543386829076344	4.292407821148429	401.2668878126944	-0	1.347897230283023	0	0.08997559015333918	-0	-0	-0	0	0	0	0	-0.001063458159515755	0	0	0	0
0.1593173500982032	6.057634043899825	402.4058763514884	-0	1.348202730314321	0	0.08998464403604341	-0	-0	-0	0	0	0	0	-0.0009949303263964385	0	0	0	0
0.1642960172887721	7.788372168552102	404.9752762481762	-0	1.348517330023885	0	0.08999433378423984	-0	-0	-0	0	0	0	0	-0.0009251441866956436	0	0	0	0
0.169274684479341	9.512103045510582	408.8889520881677	-0	1.348831179335858	0	0.09000430412830381	-0	-0	-0	0	0	0	0	-0.0008475071517771794	0	0	0	0
0.1742533516699098	11.27780162179514	414.0516104475395	-0	1.349137008016686	0	0.09001428349692822	-0	-0	-0	0	0	0	0	-0.0007601912854441643	0	0	0	0
0.1792320188604786	13.10559890196857	420.3539890113876	-0	1.349431894112883	0	0.09002416705784677	-0	-0	-0	0	0	0	0	-0.0006657092402329655	0	0	0	0
0.1842106860510475	15.00017924974653	427.6623730023449	-0	1.349710919416758	0	0.09003378211905416	-0	-0	-0	0	0	0	0	-0.0005646982815308318	0	0	0	0
0.1891893532416163	16.97697211725579	435.8075652017635	-0	1.349967649466537	0	0.09004289456488103	-0	-0	-0	0	0	0	0	-0.0004568114237980265	0	0	0	0
0.1941680204321852	19.04894325682728	444.6002294679514	-0	1.35019934669014	0	0.09005139878894745	-0	-0	-0	0	0	0	0	-0.0003452024502406704	0	0	0	0
0.1991466876227541	21.20323271460307	453.86772938157	-0	1.350409510018416	0	0.09005941348963882	-0	-0	-0	0	0	0	0	-0.0002358277099650803	0	0	0	0
0.2041253548133229	23.44034377177982	463.4555741313716	-0	1.350605350231265	0	0.09006717602475206	-0	-0	-0	0	0	0	0	-0.0001356282009458911	0	0	0	0
0.2091040220038917	25.74437204068691	473.2454831230468	-0	1.350798361986328	0	0.09007507396879978	-0	-0	-0	0	0	0	0	-5.116800533824395e-05	0	0	0	0
0.2140826891944606	28.05673932027926	483.1945044335257	-0	1.350996887831099	0	0.09008339992199768	-0	-0	-0	0	0	0	0	1.464013922980077e-05	0	0	0	0
0.2190613563850295	30.33991708068045	493.5374276131291	-0	1.351208762049478	0	0.09009241818398618	-0	-0	-0	0	0	0	0	6.15919444716485e-05	0	0	0	0
0.2240400235755983	32.71619426658947	504.7016600327339	-0	1.351444733207847	0	0.09010244023326089	-0	-0	-0	0	0	0	0	9.060538211359981e-05	0	0	0	0
0.2290186907661672	35.31323900466578	517.1503200326656	-0	1.351712107649323	0	0.0901136684518767	-0	-0	-0	0	0	0	0	0.0001063435121360438	0	0	0	0
0.233997357956736	38.07125603126448	531.2321164869878	-0	1.352024694495154	0	0.09012661742880618	-0	-0	-0	0	0	0	0	0.000106104428416991	0	0	0	0
0.2389760251473048	40.90565944704662	546.7373307177917	-0	1.352399312091562	0	0.09014188728035238	-0	-0	-0	0	0	0	0	8.304576081680722e-05	0	0	0	0
0.2439546923378737	43.87499477963878	563.0673636357282	-0	1.352852851759631	0	0.09016000801398442	-0	-0	-0	0	0	0	0	2.838187178330813e-05	0	0	0	0
0.2489333595284426	47.01036990136583	579.2410443293552	-0	1.353402100803253	0	0.09018151666618966	-0	-0	-0	0	0	0	0	-7.304099559843355e-05	0	0	0	0
0.2539120267190114	50.29469001371475	594.053270961107	-0	1.354050851341327	0	0.09020649968323907	-0	-0	-0	0	0	0	0	-0.0002269447923610101	0	0	0	0
0.2588906939095802	53.7703108336155	606.3462063995017	-0	1.354796756308045	0	0.09023482596736364	-0	-0	-0	0	0	0	0	-0.0004371330788731388	0	0	0	0
0.2638693611001491	58.90611497280134	616.4903154180336	-0	1.35605641523847	0	0.0902806324036919	-0	-0	-0	0	0	0	0	-0.001151877062910577	0	0	0	0
0.268848028290718	64.36083575842179	626.0350413367872	-0	1.358629434000133	0	0.09037236253953511	-0	-0	-0	0	0	0	0	-0.0031325209430012	0	0	0	0
0.2738266954812869	67.44234670067659	638.1082224183707	-0	1.36327991923475	0	0.09053751955547706	-0	-0	-0	0	0	0	0	-0.007106335407777255	0	0	0	0
0.2788053626718557	65.88886368659574	655.5174066642613	-0	1.370247643003685	0	0.09078479640166807	-0	-0	-0	0	0	0	0	-0.0128697528810213	0	0	0	0
0.2837840298624246	58.26652980141985	673.0062977366614	-0	1.378243924292121	0	0.0910686076112413	-0	-0	-0	0	0	0	0	-0.01715813042927078	0	0	0	0
0.2887626970529933	51.11392145115241	681.8978545478624	-0	1.385857294301006	0	0.09133736163511584	-0	-0	-0	0	0	0	0	-0.01771068969735053	0	0	0	0
0.2937413642435622	46.57407948165231	681.4054359480726	-0	1.393080590822219	0	0.09159098216623325	-0	-0	-0	0	0	0	0	-0.01588646109170269	0	0	0	0
0.2987200314341311	42.30627453603822	674.4288542336155	-0	1.40016801605606	0	0.09183959617465776	-0	-0	-0	0	0	0	0	-0.01286148412920386	0	0	0	0
0.3036986986246999	38.44872037590657	662.7627611295704	-0	1.407179409249581	0	0.09208544498245792	-0	-0	-0	0	0	0	0	-0.009168150979520014	0	0	0	0
0.3086773658152688	34.76228338335467	647.9798049718686	-0	1.414126666805138	0	0.09232911869643277	-0	-0	-0	0	0	0	0	-0.005159233077346371	0	0	0	0
0.3136560330058376	31.40044887327708	631.4036822227001	-0	1.421015992175594	0	0.09257085759978911	-0	-0	-0	0	0	0	0	-0.001128202237205737	0	0	0	0
0.3186347001964065	28.38263623786262	614.6066281056337	-0	1.427754285514919	0	0.09280742184849268	-0	-0	-0	0	0	0	0	0.002681602658127051	0	0	0	0
0.3236133673869753	25.83230882568244	598.3175405979309	-0	1.43429400648832	0	0.09303712873099154	-0	-0	-0	0	0	0	0	0.006066004685044949	0	0	0	0
0.3285920345775442	23.60017799251788	582.3376133372317	-0	1.440644011479199	0	0.09326037946687499	-0	-0	-0	0	0	0	0	0.008861950783415232	0	0	0	0
0.333570701768113	21.75350248283564	566.9861964043261	-0	1.446756643907941	0	0.09347549098240518	-0	-0	-0	0	0	0	0	0.01094984914759752	0	0	0	0
0.3385493689586819	20.26248461172229	552.369544083345	-0	1.452591600460833	0	0.09368106815798263	-0	-0	-0	0	0	0	0	0.01225277557981117	0	0	0	0
0.3435280361492507	19.14702838517576	538.6011739647732	-0	1.458103796165502	0	0.09387551468180863	-0	-0	-0	0	0	0	0	0.01274110975388768	0	0	0	0
0.3485067033398196	18.39911130481033	525.8465419335205	-0	1.463230416248287	0	0.09405659633491928	-0	-0	-0	0	0	0	0	0.01243773069055809	0	0	0	0
0.3534853705303884	18.0589575776444	514.2455729540287	-0	1.467909043762286	0	0.09422204765137798	-0	-0	-0	0	0	0	0	0.01141922711222251	0	0	0	0
0.3584640377209573	18.14260096108278	503.8938986951422	-0	1.472076235972301	0	0.09436954892150309	-3.930610238170213e-12	1.308737607049903e-12	-0	1.70256027242474	0	-0.09478689634274365	0	0.009816071797839025	0	0	-9.209995861274311e-30	0
0.3634427049115261	18.71978345080275	494.9444249097687	-0	1.475661986402222	0	0.09449648258673492	-2.672021859384188e-11	8.858824031299817e-12	-0	1.71845268480999	0	-0.09478689634274365	0	0.007821986566884827	0	0	2.205604677045683e-29	0
0.368421372102095	19.86312705685	487.595782842395	-0	1.478577183913152	0	0.09459950083496929	-1.774710400189422e-10	5.859625813424943e-11	-0	1.73443599296053	0	-0.09478689634274365	0	0.005707129639742401	0	0	5.254705833925336e-28	0
0.3734000392926639	21.6874681421778	482.0903158115537	-0	1.480724257497079	0	0.0946748780114921	-1.160984136201378e-09	3.818291323658306e-10	-0	1.750531168007114	0	-0.09478689634274365	0	0.003818726477683638	0	0	3.010021722074061e-27	0
0.3783787064832327	24.23437838286161	478.4168820683502	-0	1.482085703631855	0	0.0947217921780333	-7.34950992376659e-09	2.408230512928645e-09	-0	1.766773956128827	0	-0.09478689634274365	0	0.002464474459264949	0	0	7.839984082594166e-27	0
0.3833573736738016	27.38308300409824	475.9096940545585	-0	1.482858127376197	0	0.09474730557653195	-4.417846502286213e-08	1.44269283319857e-08	-0	1.783202770952133	0	-0.09478689634274365	0	0.001653500409972565	0	0	9.79046106777296e-26	0
0.3883360408643704	30.80777479470531	473.6905255110889	-0	1.48334476582821	0	0.09476255872048152	-2.465520576966108e-07	8.027653463883208e-08	-0	1.799857732133677	0	-0.09478689634274365	0	0.001115510373196608	0	0	5.948255360241332e-25	0
0.3933147080549393	34.32286377983063	471.4234358576627	-0	1.483698268863613	0	0.09477320560833284	-1.245769322068088e-06	4.046714999648414e-07	-0	1.816781950160488	0	-0.09478689634274365	0	0.0006855087925488121	0	0	4.332456598972355e-24	0
0.3982933752455081	37.91199995028185	469.2144063325011	-0	1.483943887028257	0	0.09478015849860448	-5.543422261063583e-06	1.797982291126566e-06	-0	1.834020268583888	0	-0.09478689634274366	0	0.0003670306466267406	0	0	-3.32111913371105e-23	0
0.4032720424360769	41.57852193445969	467.1791439707605	-0	1.484098278710238	0	0.09478401794484426	-2.10913506027807e-05	6.837782608599414e-06	-0	1.851616712065484	0	-0.09478689634274365	0	0.0001699262147277946	0	0	-1.674088504423446e-22	0
0.4082507096266458	45.31916681111456	465.411821867741	-0	1.484190158616518	0	0.09478583477652577	-6.65035745669137e-05	2.1579841833897e-05	-0	1.869609504256346	0	-0.09478689634274365	0	6.76734262529671e-05	0	0	2.737925928653089e-23	0
0.4132293768172146	49.12913742216724	463.9865050460426	-0	1.484244998651691	0	0.09478656191694204	-0.0001683329867616281	5.476466577406326e-05	-0	1.888027726581571	0	-0.09478689587089573	0	2.294049549664912e-05	0	0	1.722518808172259e-15	0
0.4182080440077835	53.02839303615263	463.0114342146956	-0	1.484279291995321	0	0.09478680710151906	-0.0003313913875943785	0.0001083210629608201	-0	1.906879701057165	0	-0.09478688085064303	0	6.5647204688234e-06	0	0	9.196132172573412e-14	0
0.4231867111983523	57.03408757239106	462.5924519123786	-0	1.484300939791535	0	0.09478687619135247	-0.0004931035298167265	0.0001623644584216861	-0	1.926131418723781	0	-0.09478629598945312	0	1.584352802457319e-06	0	0	4.096667793983787e-12	0
0.4281653783889212	61.1864503710478	462.8334222632154	-0	1.484313422236302	0	0.0947868924568824	-0.0005389613672796806	0.0001793101903427212	-0	1.945172909361066	0	-0.09476197571443619	0	3.254954679137141e-07	0	0	1.270146341170049e-10	0
0.43314404557949	65.57299743939947	463.7460841092835	-0	1.484318955044742	0	0.09478689561224826	-0.0004942603087946453	0.0001668154665835821	-0	1.94144403281211	0	-0.09385919689214978	0	6.498414359661726e-08	0	0	1.860524517260893e-09	0
0.4381227127700589	70.350343405156	465.2535558925113	-0	1.484320223408284	0	0.0947868960977645	-0.002372660602190572	0.0008139453135898855	-0	1.85121352354166	0	-0.09000183906036051	0	2.307489141768247e-08	0	0	1.270987532115466e-10	0
0.4431013799606278	75.43772605845463	467.2671027841175	-0	1.484315100557155	0	0.09478689616404044	-0.0379973896149576	0.01324313747672137	-0	1.849535266011301	0	-0.08957526806854071	0	1.777444036453435e-08	0	0	-1.162097193777496e-09	0
0.4480800471511966	80.7342659608326	469.5992622524772	-0	1.484301386767278	0	0.09478689621018525	-0.4531762353389229	0.1610794628389861	-0	1.860180099350583	0	-0.0895689711281169	0	1.389291987883337e-08	0	0	1.799636544835564e-11	0
0.4530587143417655	86.09744806530402	471.9159541274905	-0	1.48427740161763	0	0.09478689626387594	-3.636661747912823	1.324095259167717	-0	1.871468207578704	0	-0.08956897507904657	0	8.694646216903724e-09	0	0	2.361937726440171e-15	0
0.4580373815323343	91.42003791017757	473.5890009544909	-0	1.484242924137171	0	0.09478689631200903	-18.99197304208684	7.158391848417875	-0	1.882968967606401	0	-0.08956897507908834	0	3.561704726699412e-09	0	0	1.60149200767313e-16	0
0.4630160487229031	96.9136248210434	473.3936295097996	-0	1.484207348870938	0	0.0947868963416991	-60.78675252433894	24.3067613240251	-0	1.894319552536267	0	-0.08956897507908831	0	1.272981221948206e-10	0	0	-9.093075209295119e-16	0
0.467994715913472	102.6068943324936	469.7642330281465	-0	1.484176774023416	0	0.09478689634872346	-121.0052941730243	53.48280432028373	-0	1.904885566611159	0	-0.08956897508223396	0	-7.684148472990335e-10	0	0	-9.329590185943592e-12	0
0.4729733831040409	107.8871084128677	460.64695056315	-0	1.484148824730733	0	0.0947868963441532	-275.2170181906486	147.8060249125701	-0	1.913836165919085	0	-0.08956897508842829	0	-1.925358989976464e-10	0	0	-4.03650293937159e-11	0
0.4779520502946097	111.3089094125706	440.0558807278274	-0	1.484129757321731	0	0.0947868963427607	-511.9074319948646	430.678390771534	-0	1.920005711478752	0	-0.08956897514104263	0	-2.524476603011185e-12	0	0	9.238930279055751e-10	0
0.4829307174851786	111.1595010579786	408.0441633998976	-0	1.484092777682685	0	0.09478689634274365	-177.6101354867559	860.3977019262127	-0	1.924878227619938	0	-0.08956897748961716	0	-7.033323859267841e-16	0	0	1.042397668492225e-06	0
0.4879093846757474	108.6589183345199	367.1212115185758	-0	1.484065813291794	0	0.09478689634274365	-229.15788601302	1173.025351161383	-0	1.925416281166074	0	-0.08956908903997075	0	6.640571616061951e-16	0	0	5.38588856477659e-05	0
0.4928880518663163	104.5467334049293	321.5891047217371	-0	1.484051925547754	0	0.09478689634274365	-171.027005643594	1248.306438329011	-0	1.926744309511725	0	-0.0895728791384542	0	5.289835325670673e-16	0	0	0.001966734420424792	0
0.4978667190568851	99.87490121742034	279.2548913537832	-0	1.484023361052018	0	0.09478689634274365	-243.5275355918311	1200.022200532344	-0	1.929174511791677	0	-0.08964235478799111	0	-4.584902885486399e-16	0	0	0.02975255831011374	0
0.502845386247454	95.56133500141019	241.3406514952786	-0	1.483992387078779	0	0.09478689634274365	-230.0890711248512	1209.599299356541	-0	1.93751723218066	0	-0.08989578896945585	0	-7.42037536763681e-16	0	0	0.0808837584873469	0
0.5078240534380228	90.72538296431446	205.4449457360802	-0	1.483958957786965	0	0.09478689634274363	-331.1989694169732	1301.229729076552	-0	1.947378376620249	0	-0.09023915509587356	0	5.716921990750298e-16	0	0	0.05771877626341147	0
0.5128027206285917	84.90600230699346	171.3415476390497	-0	1.483911616565174	0	0.09478689634274365	-230.027996859912	1216.276295999181	-0	1.946737879154118	0	-0.09018856013827725	0	7.117245740320097e-16	0	0	0.006621023955661225	0
0.5177813878191605	78.26311145664019	141.8643381557843	-0	1.483789837190481	0	0.09478689634274365	-210.010097778293	1061.672363205229	-0	1.94579871666242	0	-0.09015323855079997	0	-3.60001466624267e-16	0	0	-0.001163786750772708	0
0.5227600550097293	71.16576705304796	117.0947550597449	-0	1.483572857621039	0	0.09478689634274365	-150.70706322681	945.4323356043145	-0	1.94531370642365	0	-0.09011787463203955	0	-3.516421557655252e-16	0	0	-0.003079470690909318	0
0.5277387222002983	63.3279437920577	95.68031885760296	-0	1.483249013402459	0	0.09478689634274365	-142.4696362331299	852.5625542046935	-0	1.944497510798163	0	-0.09008662153224983	0	-2.370126741575096e-16	0	0	-0.003069147409083002	0
0.5327173893908671	54.80817474056253	76.7013534380484	-0	1.482826330736312	0	0.09478689634274365	-108.6062103094708	784.5617915966359	-0	1.944402452319103	0	-0.0900682522241265	0	-1.278018650389493e-16	0	0	-0.002275537772703006	0
0.5376960565814359	45.70149112686554	59.61119284964443	-0	1.482309589237395	0	0.09478689634274365	-103.5305674977529	727.7420793885667	-0	1.943767768037342	0	-0.09004213025582368	0	-1.906130068496664e-16	0	0	-0.001810935399460451	0
0.5426747237720048	35.67695992300199	43.564371001742	-0	1.481701663717951	0	0.09478689634274365	-82.33195848474355	682.3349781764806	-0	1.943722149322758	0	-0.09002819163894675	0	1.324478218949437e-16	0	0	-0.0009799401450752468	0
0.5476533909625736	24.63430845391422	27.99402140509286	-0	1.48101853479738	0	0.09478689634274365	-77.98545989046082	643.563519943111	-0	1.943227704288009	0	-0.09000601489945464	0	-9.897934628771031e-17	0	0	-0.0005626250396467292	0
0.5526320581531425	10.9887269786374	12.13178150179714	-0	1.480056906808981	0	0.09478689634274365	-64.41551967556485	613.5835079366072	-0	1.94311092686092	0	-0.0899917528003273	0	8.031168314173377e-17	0	0	2.461788740061961e-05	0
0.5576107253437114	-0.317993967011379	-0.3909371861993901	-0	1.478739790017189	0	0.09478689634274365	-61.09465297020738	591.7399714219006	-0	1.942737733927317	0	-0.0899733116642335	0	-6.727962360703857e-20	0	0	0.0003343003046867097	0
0.5625893925342802	-4.290228893774167e-07	-8.022809970725975e-06	-0	1.476963970544948	0	0.09478689634274365	-52.72239311664278	577.3442574603026	-0	1.942653760125803	0	-0.08996194224781529	0	-2.23243367931453e-24	0	0	0.0007556200312386212	0
0.567568059724849	1.017863227499722e-11	-1.098084112213616e-11	-0	1.478015940880288	0	0.09478689634274365	-49.57736773666001	564.3593855577093	-0	1.942511392597195	0	-0.08995128395205222	0	6.544843482482915e-29	0	0	0.001028511915182723	0
0.5725467269154179	-0	-0	-0	0	0	0	-43.20672871050324	550.2612907672097	-0	1.94254694940643	0	-0.08994522361159686	0	0	0	0	0.001299333340710769	0
0.5775253941059868	-0	-0	-0	0	0	0	-39.54440165995203	534.7962888493926	-0	1.942540062639611	0	-0.08993924775758498	0	0	0	0	0.001423559867821256	0
0.5825040612965556	-0	-0	-0	0	0	0	-34.23052775567918	518.7934557316087	-0	1.942607242207436	0	-0.08993507562283655	0	0	0	0	0.001511668143918942	0
0.5874827284871245	-0	-0	-0	0	0	0	-30.49301216030312	503.0646949908314	-0	1.942642265594603	0	-0.08993073956870551	0	0	0	0	0.001518726538945738	0
0.5924613956776933	-0	-0	-0	0	0	0	-26.04265234206252	488.166821998721	-0	1.942718762372115	0	-0.08992757665453424	0	0	0	0	0.001518284017300474	0
0.5974400628682621	-0	-0	-0	0	0	0	-22.52666193852637	474.2281067680669	-0	1.942793315948831	0	-0.0899249952488735	0	0	0	0	0.001493260708290293	0
0.6024187300588311	-0	-0	-0	0	0	0	-18.80846581860612	461.4231059807221	-0	1.942908253888704	0	-0.0899238583470698	0	0	0	0	0.00147615963702339	0
0.6073973972493999	-0	-0	-0	0	0	0	-15.69499491363837	449.8069563891253	-0	1.943043428134182	0	-0.08992392265049001	0	0	0	0	0.001454676729474001	0
0.6123760644399687	-0	-0	-0	0	0	0	-12.64702224026402	439.4805916810025	-0	1.943219286261932	0	-0.08992560925521426	0	0	0	0	0.001439621892595585	0
0.6173547316305376	-0	-0	-0	0	0	0	-10.04092550096752	430.4544936362765	-0	1.943422488517248	0	-0.0899286707906683	0	0	0	0	0.001420565469565226	0
0.6223333988211064	-0	-0	-0	0	0	0	-7.577628801652846	422.69658287262	-0	1.943658980508665	0	-0.08993315766639197	0	0	0	0	0.001398569020913186	0
0.6273120660116752	-0	-0	-0	0	0	0	-5.380660048373286	416.119555667285	-0	1.943914664718099	0	-0.08993866049645208	0	0	0	0	0.001364863481858259	0
0.632290733202244	-0	-0	-0	0	0	0	-3.266957855053762	410.6711617476852	-0	1.944186528083802	0	-0.08994499284455305	0	0	0	0	0.001320027365211779	0
0.637269400392813	-0	-0	-0	0	0	0	-1.28478341060298	406.3736610208492	-0	1.944466486118102	0	-0.08995191771962657	0	0	0	0	0.001264318331314991	0
0.6422480675833818	-0	-0	-0	0	0	0	0.6427902831119703	403.3043642240029	-0	1.944752339418952	0	-0.08995933803053913	0	0	0	0	0.001201194659147924	0
0.6472267347739507	-0	-0	-0	0	0	0	2.488196402022151	401.5742183855637	-0	1.945041759903103	0	-0.08996720165508268	0	0	0	0	0.0011329881540712	0
0.6522054019645195	-0	-0	-0	0	0	0	4.292407821148438	401.2668878126963	-0	1.945337293151285	0	-0.0899755901533392	0	0	0	0	0.001063458159515892	0
0.6571840691550883	-0	-0	-0	0	0	0	6.057634043899844	402.4058763514902	-0	1.945642793182583	0	-0.08998464403604341	0	0	0	0	0.0009949303263964515	0
0.6621627363456573	-0	-0	-0	0	0	0	7.788372168552128	404.975276248178	-0	1.945957392892147	0	-0.08999433378423984	0	0	0	0	0.000925144186695741	0
0.6671414035362261	-0	-0	-0	0	0	0	9.512103045510612	408.8889520881696	-0	1.94627124220412	0	-0.09000430412830379	0	0	0	0	0.0008475071517771008	0
0.6721200707267949	-0	-0	-0	0	0	0	11.27780162179518	414.0516104475415	-0	1.946577070884948	0	-0.09001428349692822	0	0	0	0	0.0007601912854440672	0
0.6770987379173637	-0	-0	-0	0	0	0	13.10559890196863	420.3539890113896	-0	1.946871956981145	0	-0.09002416705784679	0	0	0	0	0.0006657092402331933	0
0.6820774051079326	-0	-0	-0	0	0	0	15.0001792497466	427.6623730023469	-0	1.94715098228502	0	-0.09003378211905416	0	0	0	0	0.0005646982815309141	0
0.6870560722985015	-0	-0	-0	0	0	0	16.97697211725587	435.8075652017656	-0	1.947407712334799	0	-0.09004289456488103	0	0	0	0	0.0004568114237979588	0
0.6920347394890703	-0	-0	-0	0	0	0	19.04894325682736	444.6002294679535	-0	1.947639409558402	0	-0.09005139878894747	0	0	0	0	0.0003452024502410635	0
0.6970134066796392	-0	-0	-0	0	0	0	21.20323271460317	453.8677293815722	-0	1.947849572886679	0	-0.09005941348963881	0	0	0	0	0.000235827709964961	0
0.701992073870208	-0	-0	-0	0	0	0	23.44034377177992	463.4555741313737	-0	1.948045413099527	0	-0.09006717602475207	0	0	0	0	0.00013562820094585	0
0.7069707410607768	-0	-0	-0	0	0	0	25.74437204068704	473.245483123049	-0	1.948238424854591	0	-0.09007507396879978	0	0	0	0	5.116800533866212e-05	0
0.7119494082513458	-0	-0	-0	0	0	0	28.05673932027939	483.1945044335279	-0	1.948436950699361	0	-0.09008339992199767	0	0	0	0	-1.464013922989496e-05	0
0.7169280754419146	-0	-0	-0	0	0	0	30.33991708068059	493.5374276131314	-0	1.94864882491774	0	-0.09009241818398617	0	0	0	0	-6.159194447202121e-05	0
0.7219067426324834	-0	-0	-0	0	0	0	32.71619426658962	504.7016600327361	-0	1.948884796076109	0	-0.09010244023326089	0	0	0	0	-9.060538211392202e-05	0
0.7268854098230523	-0	-0	-0	0	0	0	35.31323900466594	517.150320032668	-0	1.949152170517585	0	-0.0901136684518767	0	0	0	0	-0.0001063435121357241	0
0.7318640770136211	-0	-0	-0	0	0	0	38.07125603126465	531.2321164869903	-0	1.949464757363415	0	-0.09012661742880618	0	0	0	0	-0.0001061044284176089	0
0.7368427442041899	-0	-0	-0	0	0	0	40.9056594470468	546.7373307177942	-0	1.949839374959825	0	-0.09014188728035238	0	0	0	0	-8.30457608165856e-05	0
0.7418214113947588	-0	-0	-0	0	0	0	43.87499477963899	563.0673636357307	-0	1.950292914627894	0	-0.09016000801398444	0	0	0	0	-2.838187178321694e-05	0
0.7468000785853277	-0	-0	-0	0	0	0	47.01036990136603	579.2410443293578	-0	1.950842163671516	0	-0.09018151666618966	0	0	0	0	7.304099559861178e-05	0
0.7517787457758965	-0	-0	-0	0	0	0	50.29469001371496	594.0532709611095	-0	1.951490914209589	0	-0.09020649968323907	0	0	0	0	0.000226944792361587	0
0.7567574129664654	-0	-0	-0	0	0	0	53.77031083361572	606.3462063995044	-0	1.952236819176308	0	-0.09023482596736362	0	0	0	0	0.0004371330788715933	0
0.7617360801570343	-0	-0	-0	0	0	0	58.90611497280158	616.4903154180363	-0	1.953496478106731	0	-0.0902806324036919	0	0	0	0	0.001151877062910183	0
0.766714747347603	-0	-0	-0	0	0	0	64.36083575842206	626.0350413367898	-0	1.956069496868396	0	-0.09037236253953509	0	0	0	0	0.003132520943000727	0
0.771693414538172	-0	-0	-0	0	0	0	67.44234670067682	638.1082224183733	-0	1.960719982103011	0	-0.09053751955547708	0	0	0	0	0.007106335407778348	0
0.7766720817287408	-0	-0	-0	0	0	0	65.88886368659595	655.5174066642641	-0	1.967687705871948	0	-0.09078479640166806	0	0	0	0	0.01286975288102109	0
0.7816507489193096	-0	-0	-0	0	0	0	58.26652980142001	673.0062977366642	-0	1.975683987160383	0	-0.09106860761124132	0	0	0	0	0.01715813042927226	0
0.7866294161098785	-0	-0	-0	0	0	0	51.11392145115253	681.8978545478652	-0	1.983297357169268	0	-0.09133736163511585	0	0	0	0	0.01771068969735073	0
0.7916080833004473	-0	-0	-0	0	0	0	46.57407948165241	681.4054359480755	-0	1.990520653690482	0	-0.09159098216623325	0	0	0	0	0.01588646109170203	0
0.7965867504910162	-0	-0	-0	0	0	0	42.30627453603832	674.4288542336184	-0	1.997608078924323	0	-0.09183959617465777	0	0	0	0	0.0128614841292045	0
0.801565417681585	-0	-0	-0	0	0	0	38.44872037590667	662.7627611295734	-0	2.004619472117843	0	-0.09208544498245791	0	0	0	0	0.009168150979519105	0
0.8065440848721539	-0	-0	-0	0	0	0	34.76228338335472	647.9798049718711	-0	2.011566729673401	0	-0.09232911869643279	0	0	0	0	0.005159233077347005	0
0.8115227520627227	-0	-0	-0	0	0	0	31.40044887327709	631.4036822227024	-0	2.018456055043856	0	-0.0925708575997891	0	0	0	0	0.001128202237205071	0
0.8165014192532916	-0	-0	-0	0	0	0	28.38263623786267	614.6066281056366	-0	2.025194348383182	0	-0.09280742184849269	0	0	0	0	-0.002681602658126698	0
0.8214800864438605	-0	-0	-0	0	0	0	25.83230882568244	598.3175405979326	-0	2.031734069356582	0	-0.09303712873099154	0	0	0	0	-0.006066004685044949	0
0.8264587536344293	-0	-0	-0	0	0	0	23.60017799251789	582.337613337234	-0	2.038084074347461	0	-0.09326037946687499	0	0	0	0	-0.008861950783415014	0
0.8314374208249982	-0	-0	-0	0	0	0	21.75350248283562	566.9861964043279	-0	2.044196706776203	0	-0.09347549098240517	0	0	0	0	-0.01094984914759771	0
0.8364160880155671	-0	-0	-0	0	0	0	20.26248461172229	552.3695440833471	-0	2.050031663329095	0	-0.09368106815798263	0	0	0	0	-0.01225277557981172	0
0.8413947552061358	-0	-0	-0	0	0	0	19.14702838517572	538.6011739647749	-0	2.055543859033764	0	-0.09387551468180863	0	0	0	0	-0.0127411097538878	0
0.8463734223967048	-0	-0	-0	0	0	0	18.39911130481031	525.8465419335225	-0	2.06067047911655	0	-0.09405659633491928	0	0	0	0	-0.01243773069055799	0
0.8513520895872735	-0	-0	-0	0	0	0	18.05895757764441	514.2455729540311	-0	2.065349106630548	0	-0.094222047651378	0	0	0	0	-0.01141922711222215	0
0.8563307567778424	-3.930610238170204e-12	1.3087376070499e-12	-0	2.300000335293003	0	0.09478689634274365	18.14260096108274	503.8938986951435	-0	2.069516298840562	0	-0.09436954892150309	0	-8.411824818274689e-31	0	0	-0.00981607179783916	0
0.8613094239684113	-2.672021859384189e-11	8.858824031299822e-12	-0	2.315892747678252	0	0.09478689634274365	18.71978345080274	494.9444249097706	-0	2.073102049270484	0	-0.0944964825867349	0	-1.062782787335767e-28	0	0	-0.007821986566885097	0
0.8662880911589801	-1.774710400189421e-10	5.859625813424938e-11	-0	2.331876055828792	0	0.09478689634274365	19.86312705684997	487.5957828423967	-0	2.076017246781414	0	-0.09459950083496928	0	9.292976970104701e-28	0	0	-0.005707129639742815	0
0.871266758349549	-1.160984136201375e-09	3.818291323658296e-10	-0	2.347971230875376	0	0.09478689634274365	21.68746814217775	482.0903158115547	-0	2.078164320365341	0	-0.09467487801149212	0	2.359497437038979e-28	0	0	-0.003818726477683161	0
0.8762454255401178	-7.34950992376657e-09	2.408230512928638e-09	-0	2.364214018997089	0	0.09478689634274365	24.23437838286156	478.4168820683511	-0	2.079525766500117	0	-0.09472179217803331	0	-3.433103738929181e-27	0	0	-0.002464474459264546	0
0.8812240927306867	-4.417846502286209e-08	1.442692833198569e-08	-0	2.380642833820395	0	0.09478689634274365	27.38308300409827	475.90969405456	-0	2.080298190244458	0	-0.09474730557653192	0	-3.527309947248889e-25	0	0	-0.001653500409973511	0
0.8862027599212555	-2.465520576966101e-07	8.027653463883183e-08	-0	2.397297795001939	0	0.09478689634274365	30.80777479470535	473.6905255110909	-0	2.080784828696472	0	-0.09476255872048152	0	2.361431592150243e-25	0	0	-0.00111551037319635	0
0.8911814271118244	-1.245769322068084e-06	4.046714999648401e-07	-0	2.41422201302875	0	0.09478689634274363	34.32286377983066	471.4234358576642	-0	2.081138331731875	0	-0.09477320560833283	0	-1.277751593322644e-23	0	0	-0.0006855087925492593	0
0.8961600943023933	-5.543422261063575e-06	1.797982291126564e-06	-0	2.431460331452151	0	0.09478689634274365	37.91199995028187	469.2144063325025	-0	2.081383949896519	0	-0.09478015849860448	0	-2.515403521607027e-23	0	0	-0.0003670306466269407	0
0.901138761492962	-2.10913506027807e-05	6.837782608599413e-06	-0	2.449056774933746	0	0.09478689634274365	41.57852193445967	467.1791439707612	-0	2.0815383415785	0	-0.09478401794484426	0	-1.537416462387834e-22	0	0	-0.0001699262147278092	0
0.906117428683531	-6.650357456691375e-05	2.157984183389702e-05	-0	2.467049567124609	0	0.09478689634274365	45.3191668111146	465.4118218677423	-0	2.08163022148478	0	-0.09478583477652576	0	2.8831004085716e-23	0	0	-6.767342625378127e-05	0
0.9110960958740997	-0.0001683329867616283	5.476466577406331e-05	-0	2.485467789449833	0	0.09478689587089574	49.12913742216738	463.9865050460447	-0	2.081685061519953	0	-0.09478656191694204	0	-1.722517997517969e-15	0	0	-2.294049549650181e-05	0
0.9160747630646686	-0.0003313913875943777	0.0001083210629608199	-0	2.504319763925428	0	0.09478688085064303	53.02839303615267	463.011434214697	-0	2.081719354863584	0	-0.09478680710151906	0	-9.196132590079785e-14	0	0	-6.564720468335109e-06	0
0.9210534302552374	-0.0004931035298167236	0.0001623644584216852	-0	2.523571481592043	0	0.09478629598945312	57.03408757239117	462.59245191238	-0	2.081741002659797	0	-0.09478687619135247	0	-4.096667790128765e-12	0	0	-1.58435280233944e-06	0
0.9260320974458063	-0.0005389613672796797	0.0001793101903427208	-0	2.542612972229327	0	0.09476197571443619	61.18645037104796	462.8334222632175	-0	2.081753485104564	0	-0.0947868924568824	0	-1.270146341146042e-10	0	0	-3.254954675222155e-07	0
0.9310107646363752	-0.0004942603087946417	0.0001668154665835809	-0	2.538884095680372	0	0.09385919689214976	65.5729974393995	463.7460841092842	-0	2.081759017913004	0	-0.09478689561224826	0	-1.860524517257979e-09	0	0	-6.498414356714691e-08	0
0.9359894318269441	-0.002372660602190563	0.0008139453135898822	-0	2.448653586409923	0	0.09000183906036051	70.35034340515618	465.2535558925127	-0	2.081760286276547	0	-0.09478689609776449	0	-1.270987532028905e-10	0	0	-2.307489264652148e-08	0
0.9409680990175129	-0.03799738961495751	0.01324313747672134	-0	2.446975328879563	0	0.08957526806854073	75.43772605845487	467.2671027841197	-0	2.081755163425417	0	-0.09478689616404044	0	1.16209719489824e-09	0	0	-1.777444055812549e-08	0
0.9459467662080817	-0.4531762353389208	0.1610794628389853	-0	2.457620162218845	0	0.0895689711281169	80.7342659608328	469.5992622524794	-0	2.081741449635541	0	-0.09478689621018524	0	-1.79963620650582e-11	0	0	-1.389292079295385e-08	0
0.9509254333986505	-3.636661747912997	1.32409525916778	-0	2.468908270446966	0	0.08956897507904657	86.09744806530431	471.9159541274926	-0	2.081717464485892	0	-0.09478689626387593	0	-2.35240346154827e-15	0	0	-8.694648893399036e-09	0
0.9559041005892195	-18.99197304208705	7.158391848417958	-0	2.480409030474664	0	0.08956897507908834	91.42003791017765	473.5890009544923	-0	2.081682987005433	0	-0.09478689631200903	0	-2.890861336333498e-16	0	0	-3.561705526466734e-09	0
0.9608827677797882	-60.78675252433947	24.30676132402531	-0	2.49175961540453	0	0.08956897507908831	96.91362482104364	473.393629509801	-0	2.0816474117392	0	-0.09478689634169908	0	6.796113010654844e-16	0	0	-1.272996607326359e-10	0
0.9658614349703571	-121.0052941730252	53.48280432028413	-0	2.502325629479421	0	0.08956897508223396	102.606894332494	469.7642330281489	-0	2.081616836891679	0	-0.09478689634872346	0	9.32806742791982e-12	0	0	7.684153188249013e-10	0
0.970840102160926	-275.2170181906519	147.8060249125719	-0	2.511276228787347	0	0.08956897508842829	107.8871084128678	460.6469505631506	-0	2.081588887598996	0	-0.09478689634415322	0	4.036699444400186e-11	0	0	1.925370847594841e-10	0
0.9758187693514948	-511.9074319948681	430.678390771537	-0	2.517445774347014	0	0.08956897514104263	111.3089094125709	440.0558807278294	-0	2.081569820189993	0	-0.0947868963427607	0	-9.238950908962862e-10	0	0	2.524400893383377e-12	0
0.9807974365420637	-177.6101354867573	860.3977019262172	-0	2.5223182904882	0	0.08956897748961717	111.1595010579791	408.0441633998999	-0	2.081532840550947	0	-0.09478689634274366	0	-1.042397665632899e-06	0	0	3.635155005701515e-15	0
0.9857761037326325	-229.1578860130213	1173.025351161386	-0	2.522856344034335	0	0.08956908903997075	108.6589183345197	367.121211518576	-0	2.081505876160056	0	-0.09478689634274365	0	-5.385888564790295e-05	0	0	4.471827187221785e-16	0
0.9907547709232014	-171.0270056435949	1248.306438329013	-0	2.524184372379987	0	0.08957287913845419	104.5467334049292	321.5891047217368	-0	2.081491988416016	0	-0.09478689634274365	0	-0.001966734420426643	0	0	7.001378140129405e-16	0
0.9957334381137702	-243.5275355918321	1200.022200532345	-0	2.52661457465994	0	0.08964235478799111	99.87490121742044	279.2548913537841	-0	2.08146342392028	0	-0.09478689634274365	0	-0.02975255831011439	0	0	-7.706310580313679e-16	0
