DataType=double
version=3
OpenSimVersion=4.6-2026-06-22-85aaf64
endheader
time	ground_force_r_vx	ground_force_r_vy	ground_force_r_vz	ground_force_r_px	ground_force_r_py	ground_force_r_pz	ground_force_l_vx	ground_force_l_vy	ground_force_l_vz	ground_force_l_px	ground_force_l_py	ground_force_l_pz	ground_torque_r_x	ground_torque_r_y	ground_torque_r_z	ground_torque_l_x	ground_torque_l_y	ground_torque_l_z
0	-0.06845401286040929	0.01990609689454805	-0	1.197832894403254	0	0.08956897507770697	-0	-0	-0	0	0	0	0	-3.486794186713382e-16	0	0	0	0
0.002272727272727273	-0.1057294974780614	0.03157058062039092	-0	1.206628473933704	0	0.0895689750662349	-0	-0	-0	0	0	0	0	-6.019490461639521e-15	0	0	0	0
0.004545454545454545	-0.1598065948204238	0.04912097857072598	-0	1.2151381014296	0	0.08956897464813222	9.146832861737561e-15	-5.17378852016408e-15	-0	0	0	0	0	-3.429756478823265e-13	0	0	-8.669998983299194e-16	0
0.006818181818181818	-0.2373688801413019	0.07525700284331903	-0	1.22335800120367	0	0.08956896765307576	2.581843927410446e-13	-1.418199233926472e-13	-0	0.8315176880072134	0	-0.09478689634274365	0	-9.361979941280296e-12	0	0	0	0
0.00909090909090909	-0.3480785971202738	0.1139637560914381	-0	1.231299622558467	0	0.08956905416401868	9.197483892053561e-12	-4.907419924870327e-12	-0	0.8377639653399513	0	-0.09478689634274365	0	1.494772743082518e-10	0	0	0	0
0.01136363636363636	-0.5059744187441501	0.1711454624265754	-0	1.238965723440333	0	0.08956906075235679	3.245372767983065e-10	-1.681768453158012e-10	-0	0.8442493787714279	0	-0.09478689634274365	0	2.324702930156519e-10	0	0	0	0
0.01363636363636364	-0.7320843475318498	0.2558401349992165	-0	1.246360994694192	0	0.08956904752164065	9.711488297479847e-09	-4.883439409972469e-09	-0	0.8509858592453846	0	-0.09478689634274365	0	2.719728886546591e-10	0	0	0	0
0.01590909090909091	-1.058472641539075	0.3821024678076022	-0	1.253487580946551	0	0.08956903389407338	2.345605544423174e-07	-1.143139446629634e-07	-0	0.8579922157222375	0	-0.09478689634274365	0	2.959305717142868e-10	0	0	0	0
0.01818181818181818	-1.537142565352972	0.5731415166934599	-0	1.2603379395888	0	0.08956902341623589	4.744886458701425e-06	-2.239080124147737e-06	-0	0.8652859052356482	0	-0.09478689634274365	0	3.18682025213235e-10	0	0	0	0
0.02045454545454545	-2.252426073239508	0.867506775663497	-0	1.26690171760684	0	0.0895690160865113	8.211850837451936e-05	-3.750184109446746e-05	-0	0.8728794268673148	0	-0.09478689634274365	0	3.496022638049823e-10	0	0	0	0
0.02272727272727273	-3.341027848289494	1.329487007633766	-0	1.27316591766805	0	0.08956901130232682	0.001180107812210318	-0.0005215682411468032	-0	0.8807752845839223	0	-0.09478689634274365	0	3.96070953812e-10	0	0	0	0
0.025	-5.021948806409046	2.065611061252901	-0	1.279120377550181	0	0.08956900857470207	0.009213393682546887	-0.003943461355063126	-0	0.8889677930917811	0	-0.09478689634274365	0	4.643080364630237e-10	0	0	0	0
0.02727272727272727	-7.629200597319314	3.245498925520439	-0	1.284761609434793	0	0.08956900783674041	-0.03803849904485843	0.01579140727623077	-0	0.8974331854932133	0	-0.09478689634274365	0	5.515128354005583e-10	0	0	0	0
0.02954545454545454	-11.65805115649443	5.133441652694679	-0	1.290091260024772	0	0.08956900931630443	-0.1107182465091586	0.0446615845692345	-0	0.9061459954065459	0	-0.09478689634274365	0	6.257143692067757e-10	0	0	0	0
0.03181818181818182	-17.79518617778699	8.122999032303067	-0	1.295108294900024	0	0.08956901383173962	-0.1447612990589526	0.05679295906981278	-0	0.9151008439567035	0	-0.09478689634274365	0	5.564710914285342e-10	0	0	0	0
0.0340909090909091	-26.85751764684441	12.74028962366325	-0	1.299810230266853	0	0.08956902337074016	-0.1607780886547863	0.06137121973223741	-0	0.9242999887114672	0	-0.09478689634274366	0	-1.519451231501989e-10	0	0	-3.469446951953614e-18	0
0.03636363636363636	-39.50363474723623	19.54708827047962	-0	1.304187844942381	0	0.08956904278295993	-0.1674304450591204	0.0622100006812599	-0	0.9337447236749356	0	-0.09478689634274365	0	-3.325353326033564e-09	0	0	0	0
0.03863636363636363	-55.68306399380465	28.88704441238653	-0	1.308232433114012	0	0.08956908420873602	-0.1693239028918753	0.06127745679482817	-0	0.943435197687042	0	-0.09478689634274365	0	-1.564456564295824e-08	0	0	0	0
0.04090909090909091	-74.92397720384184	40.98603461788458	-0	1.311933559500787	0	0.0895691771034173	-0.1698324129745197	0.05991663078547244	-0	0.9533655475799266	0	-0.09478689634274365	0	-6.052990997318375e-08	0	0	0	0
0.04318181818181818	-100.7867642684901	58.53545771966767	-0	1.31528357811693	0	0.08956938109509527	-0.1707319848993863	0.05878158728749144	-0	0.9635283871798466	0	-0.09478689634274365	0	-2.225897883789685e-07	0	0	0	0
0.04545454545454546	-146.6205768271307	91.7811609775333	-0	1.318256352953824	0	0.08956980358569619	-0.1726865807437872	0.05809548478978747	-0	0.973909494891995	0	-0.09478689634274365	0	-8.977054086756198e-07	0	0	0	0
0.04772727272727273	-220.0246360267664	153.3847290082883	-0	1.320838014514562	0	0.089570828566334	-0.1758990579082431	0.05790971204306751	-0	0.9844932852376636	0	-0.09478689634274365	0	-4.461074336603588e-06	0	0	0	0
0.05	-297.7694677254012	243.5216447500118	-0	1.323027176094119	0	0.0895742956857465	-0.1802571436009131	0.05815713342033456	-0	0.9952695120615916	0	-0.09478689634274365	0	-2.68791512709754e-05	0	0	0	0
0.05227272727272727	-335.1718609266208	349.7652768382113	-0	1.325008163598087	0	0.08959033477785096	-0.1856168306713176	0.05876865767824823	-0	1.00623019359573	0	-0.09478689634274365	0	-0.0001932367354697817	0	0	0	0
0.05454545454545454	-63.18102019873877	470.1095722185218	-0	1.329616012066446	0	0.08965157571587326	-0.1925620955607588	0.05991104574427747	-0	1.017364573167374	0	-0.09478689634274365	0	-0.008058938141430438	0	0	0	0
0.05681818181818182	-63.403957781183	611.209781854045	-0	1.333945938747	0	0.0897849466048192	-0.2014361532883794	0.0616781022026707	-0	1.028654930055267	0	-0.09478689634274365	0	-0.01944242388869544	0	0	0	0
0.05909090909090909	-54.98633838499133	760.0269840522772	-0	1.339202515259905	0	0.08995297689591192	-0.2118343521662495	0.06392449826594394	-0	1.040088560176962	0	-0.09478689634274365	0	-0.03209847425635459	0	0	0	0
0.06136363636363636	-93.84792700937811	937.5328430831703	-0	1.34789690934993	0	0.09025274492345872	-0.2236100927285961	0.06658108707898808	-0	1.051660346174755	0	-0.09478689634274365	0	-0.04756730490484351	0	0	0	0
0.06363636363636364	-148.6863493227689	1140.776932993016	-0	1.357637029134323	0	0.0905939389185889	-0.2364519530510977	0.06953760757805798	-0	1.06336842436505	0	-0.09478689634274365	0	-0.04496389442256365	0	0	0	0
0.06590909090909092	-159.8794439685318	1260.005691156176	-0	1.358812688298354	0	0.09063227306887629	-0.2500331201983499	0.07268258614555059	-0	1.075213766847775	0	-0.09478689634274365	0	-0.01446691582749615	0	0	0	0
0.06818181818181818	-126.3856482809888	1303.211296020582	-0	1.356072115929426	0	0.09052968080983738	-0.2642488564995247	0.07597807584854008	-0	1.087196973201972	0	-0.09478689634274365	0	0.007575796723179096	0	0	0	0
0.07045454545454545	-89.79694402037188	1341.03757161914	-0	1.356531247530708	0	0.09054009185559816	-0.2790528105359252	0.07941095687810444	-0	1.099315188648434	0	-0.09478689634274365	0	0.00955702650234791	0	0	0	0
0.07272727272727272	-66.29556794749735	1430.808107238901	-0	1.364864721398358	0	0.09082821055595738	-0.2940283597063607	0.08286179740956708	-0	1.111566498398203	0	-0.09478689634274366	0	-0.01638517719898935	0	0	-3.469446951953614e-18	0
0.075	-121.8954677503936	1559.426324681778	-0	1.376555815058928	0	0.09124455661854385	-0.3083763790074357	0.08609771776672061	-0	1.123954387199167	0	-0.09478689634274365	0	-0.05906727859430561	0	0	0	0
0.07727272727272727	-178.4081197351489	1643.00222652641	-0	1.384790093685043	0	0.09153799733962159	-0.3211451306563607	0.08885149229531671	-0	1.136486240815744	0	-0.09478689634274365	0	-0.07150715443759736	0	0	0	0
0.07954545454545454	-179.8784735501508	1660.952279288361	-0	1.390045733848612	0	0.09171893300879765	-0.3315007139934769	0.09090665320230557	-0	1.149167424936298	0	-0.09478689634274365	0	-0.06138091555567016	0	0	0	0
0.08181818181818182	-164.8177877906155	1650.751010856297	-0	1.395046695790769	0	0.09188894280391241	-0.3388575949730935	0.09212962366732318	-0	1.161999141393581	0	-0.09478689634274365	0	-0.05027838681526831	0	0	0	0
0.08409090909090909	-147.4602385185078	1618.308564120611	-0	1.400044715944851	0	0.09205899290456256	-0.3427866968439344	0.09243431369609774	-0	1.174980571529407	0	-0.09478689634274365	0	-0.03926133356029382	0	0	0	0
0.08636363636363636	-129.4785585202425	1569.615234104019	-0	1.405016112133962	0	0.09222833473394293	-0.3432915357771631	0.09185384952130272	-0	1.188106272242825	0	-0.09478689634274365	0	-0.02836864992020161	0	0	0	0
0.08863636363636364	-113.6285918511695	1512.06463674273	-0	1.409936143370921	0	0.09239646103112767	-0.3406663908865444	0.09049575732438761	-0	1.201367929959332	0	-0.09478689634274365	0	-0.01798458777833467	0	0	0	0
0.09090909090909091	-97.93932334255226	1449.921666730322	-0	1.414830377662627	0	0.09256383010569896	-0.3353484935856096	0.08849741850287841	-0	1.214753931283341	0	-0.09478689634274366	0	-0.008410527298540416	0	0	-6.938893903907228e-18	0
0.09318181818181819	-83.78747657513119	1386.992645267701	-0	1.419743352286621	0	0.09273226404203076	-0.3278585784033765	0.0860094972320215	-0	1.228251377676973	0	-0.09478689634274365	0	0.0001497408145700874	0	0	0	0
0.09545454545454544	-70.55017020749757	1325.554789516887	-0	1.424807195084377	0	0.09290630531957707	-0.318648167926788	0.08315444512241851	-0	1.241847483193182	0	-0.09478689634274365	0	0.007659328330776205	0	0	0	0
0.09772727272727272	-59.22991607621319	1265.777016762993	-0	1.430076440544468	0	0.09308817672531729	-0.3081359725462589	0.08004049837275444	-0	1.255529637991176	0	-0.09478689634274365	0	0.01410439488916193	0	0	0	0
0.09999999999999999	-48.79910500520134	1207.232132007785	-0	1.435637598312613	0	0.09328075557745349	-0.2966972754742281	0.07676064576447615	-0	1.269286260883683	0	-0.09478689634274365	0	0.01937065734355325	0	0	0	0
0.1022727272727273	-38.60726809439877	1152.809910970385	-0	1.441719669677049	0	0.09349202556612733	-0.2847562620503987	0.0734197295974247	-0	1.283105450290216	0	-0.09478689634274365	0	0.02337227182649704	0	0	0	0
0.1045454545454546	-28.69390803857247	1105.879674530646	-0	1.448555761752079	0	0.09373033586232522	-0.2729244102264219	0.07017211024123456	-0	1.296973209738411	0	-0.09478689634274365	0	0.02586231658139448	0	0	0	0
0.1068181818181818	-22.27805198140091	1062.515979398248	-0	1.455914056661934	0	0.09398866050606039	-0.261906547449859	0.06719513943200514	-0	1.310873725600005	0	-0.09478689634274365	0	0.02581477322479309	0	0	0	0
0.1090909090909091	-18.60929192855139	1021.280327554917	-0	1.463475259216398	0	0.09425565151877537	-0.2527778527232228	0.06476346517181675	-0	1.324784947905303	0	-0.09478689634274365	0	0.02210148291350045	0	0	0	0
0.1113636363636364	-16.88921352050424	982.077258272994	-0	1.471109903250049	0	0.09452668880919685	-0.246537927851386	0.06312918794191273	-0	1.338682292571899	0	-0.09478689634274365	0	0.01360135924388262	0	0	0	0
0.1136363636363636	-15.35649071828829	947.5567299444901	-0	1.47813549743591	0	0.09477685091452739	-0.2437562116471965	0.06242862381896253	-0	1.352542967059199	0	-0.09478689634274365	0	0.0006446676333291546	0	0	0	0
0.1159090909090909	-6.518723192056252	953.1510605170995	-0	1.478814264525355	0	0.09479622110789547	-0.2447628968275786	0.06273558045492914	-0	1.366347871527393	0	-0.09478689634274365	0	-0.0007233471135495995	0	0	0	0
0.1181818181818182	6.521715442573856	958.5655049804153	-0	1.478756334316517	0	0.09478737436910607	-0.2488313374972546	0.06384304004611259	-0	1.380094853595969	0	-0.09478689634274365	0	-4.41737783496432e-05	0	0	0	0
0.1204545454545455	17.29530545169214	958.7295332936869	-0	1.478901011373844	0	0.09478690996126295	-0.2550798156584135	0.06550769610425272	-0	1.393789522635288	0	-0.09478689634274365	0	-1.481725674157275e-06	0	0	0	0
0.1227272727272727	28.27845625854818	956.4268004174055	-0	1.479059472465432	0	0.0947868966325003	-0.2631011026978125	0.06762151109165729	-0	1.407440237334394	0	-0.09478689634274365	0	-3.678484850055952e-08	0	0	0	0
0.125	37.93648473438535	951.3038072268611	-0	1.479201115508192	0	0.09478689634794044	-0.2726166550529794	0.07011203606139878	-0	1.421054758489378	0	-0.09478689634274365	0	-7.621130393431486e-10	0	0	0	0
0.1272727272727273	47.46171156090954	943.2683183619486	-0	1.479341483776412	0	0.09478689634282665	-0.2834725477131249	0.07294129135370057	-0	1.434639693760945	0	-0.09478689634274365	0	-1.391953219354036e-11	0	0	0	0
0.1295454545454545	57.10899653338307	937.1991106455951	-0	1.479480823606905	0	0.09478689634274488	-0.2955541943837977	0.07608200803983002	-0	1.448200757895657	0	-0.09478689634274365	0	-2.344791028008331e-13	0	0	0	0
0.1318181818181818	66.35346240036836	938.8576639071097	-0	1.479606116802646	0	0.09478689634274365	-0.3088057818358257	0.07952170266019409	-0	1.461742257515523	0	-0.09478689634274365	0	-2.664535259100376e-15	0	0	0	0
0.1340909090909091	73.15299184022892	942.5338050507036	-0	1.479693650246007	0	0.09478689634274365	-0.3230918173473557	0.08322647902026373	-0	1.475268376262329	0	-0.09478689634274365	0	8.881784197001252e-16	0	0	0	0
0.1363636363636364	79.64662434575133	942.0935363715716	-0	1.479778712543589	0	0.09478689634274365	-0.3381313616355554	0.08712430769062618	-0	1.488783203070357	0	-0.09478689634274366	0	0	0	0	-6.938893903907228e-18	0
0.1386363636363636	86.44564288331497	937.6973499605417	-0	1.479870177669709	0	0.09478689634274365	-0.3535862396915187	0.0911288457021793	-0	1.502290858654027	0	-0.09478689634274365	0	0	0	0	0	0
0.1409090909090909	93.16122588175458	930.2713702688905	-0	1.479962338963673	0	0.09478689634274366	-0.3691654317221907	0.09516652052315133	-0	1.515794757447508	0	-0.09478689634274366	0	-1.77635683940025e-15	0	0	0	0
0.1431818181818182	99.72274160733429	920.0489809750425	-0	1.480054584136465	0	0.09478689634274365	-0.3845975826311518	0.09916918313243724	-0	1.529297813854902	0	-0.09478689634274365	0	0	0	0	0	0
0.1454545454545454	106.0944959723051	907.5792466024637	-0	1.480146277573703	0	0.09478689634274365	-0.3998015334205375	0.1031182595864921	-0	1.542801312402713	0	-0.09478689634274363	0	0	0	0	6.938893903907228e-18	0
0.1477272727272727	112.0971120262381	893.0474088387393	-0	1.480235117026093	0	0.09478689634274365	-0.4147690012538998	0.1070142392253335	-0	1.556305547168723	0	-0.09478689634274365	0	0	0	0	0	0
0.15	117.7653283287517	876.7272122615996	-0	1.480321702744003	0	0.09478689634274363	-0.4294815724350223	0.1108544036966217	-0	1.569809630607258	0	-0.09478689634274365	0	1.77635683940025e-15	0	0	0	0
0.1522727272727273	122.9683854269954	858.6706909588969	-0	1.480404510745883	0	0.09478689634274365	-0.4437350625470048	0.1145858354567376	-0	1.583313009358292	0	-0.09478689634274365	0	0	0	0	0	0
0.1545454545454545	127.7853438916939	839.0295066988433	-0	1.480485008008648	0	0.09478689634274365	-0.4566746317950009	0.117982006033445	-0	1.596818301088966	0	-0.09478689634274365	0	0	0	0	0	0
0.1568181818181818	132.1846907442276	817.8204937414291	-0	1.480563285172505	0	0.09478689634274365	-0.4668119140317412	0.1206484647473602	-0	1.610331041705596	0	-0.09478689634274365	0	0	0	0	0	0
0.1590909090909091	136.3285045804914	795.1521072712467	-0	1.480642422715764	0	0.09478689634274365	-0.4712676946160945	0.1218242482678208	-0	1.623865240047752	0	-0.09478689634274365	0	0	0	0	0	0
0.1613636363636363	140.1364939486613	771.0852156054627	-0	1.480721766099233	0	0.09478689634274366	-0.4672843547051778	0.1207889259490817	-0	1.637437525540153	0	-0.09478689634270736	0	-1.77635683940025e-15	0	0	3.469446951953614e-16	0
0.1636363636363636	143.593372405655	745.740055711423	-0	1.48080160250667	0	0.09478689634274365	-0.4543746292121128	0.1174327512899871	-0	1.651058784642637	0	-0.09478689634267219	0	0	0	0	6.453171330633722e-16	0
0.1659090909090909	145.6883034116613	716.9833368709985	-0	1.480872377174924	0	0.09478689634274365	-0.4336839693714487	0.1120737247184662	-0	1.664733775063278	0	-0.09478689634256481	0	0	0	0	1.491862189340054e-15	0
0.1681818181818182	146.3118252319074	682.383805936466	-0	1.480943254834296	0	0.09478689634274365	-0.408942435859786	0.1057014696302593	-0	1.678451377625534	0	-0.09478689634220135	0	0	0	0	4.128641872824801e-15	0
0.1704545454545454	146.8487207549933	644.316250326772	-0	1.481035649752327	0	0.09478689634274365	-0.3835812294993873	0.09921369483005928	-0	1.692194087151867	0	-0.09478689634098555	0	0	0	0	1.205979760499076e-14	0
0.1727272727272727	147.23346901386	606.1693056702566	-0	1.481137190166815	0	0.09478689634274365	-0.3594186952007337	0.09308077115276657	-0	1.705938808175976	0	-0.0947868963371909	0	0	0	0	3.403527459866496e-14	0
0.175	146.8628278393758	567.9942033571632	-0	1.481236560902739	0	0.09478689634274365	-0.3367046142020144	0.08735539250578152	-0	1.719665775004914	0	-0.09478689632547897	0	0	0	0	9.397344014061559e-14	0
0.1772727272727273	145.9430593141657	528.898901517626	-0	1.481345766577474	0	0.09478689634274365	-0.3137691980112237	0.08157508793078663	-0	1.733371607220807	0	-0.09478689628911474	0	0	0	0	2.568813217695975e-13	0
0.1795454545454545	143.295560215468	487.1055943491808	-0	1.481452305295896	0	0.09478689634274365	-0.2894224790130638	0.07540898127159208	-0	1.747059228791395	0	-0.09478689617643586	0	0	0	0	6.918320083482143e-13	0
0.1818181818181818	138.0164286047364	440.8160541186035	-0	1.481552132283382	0	0.09478689634274365	-0.2622951897857655	0.06848215001779026	-0	1.760743284261064	0	-0.09478689582502617	0	0	0	0	1.83394965880268e-12	0
0.1840909090909091	131.403328398808	391.4312353796766	-0	1.481680855444493	0	0.09478689634274365	-0.231655503323433	0.06059272233611166	-0	1.774442404249586	0	-0.09478689471546768	0	0	0	0	4.776214146406943e-12	0
0.1863636363636363	124.1239329238539	341.3149926295509	-0	1.481853953973846	0	0.09478689634274366	-0.1980334425731582	0.05188107930252386	-0	1.78817570606284	0	-0.09478689115825148	0	-1.77635683940025e-15	0	0	1.217536141351339e-11	0
0.1886363636363636	115.7082749066735	291.2657433510282	-0	1.482067782986047	0	0.09478689634274365	-0.1628017453158858	0.04271218714236714	-0	1.801959871996288	0	-0.09478687954967069	0	0	0	0	3.022739870905955e-11	0
0.1909090909090909	105.8179951030489	241.8745728093211	-0	1.482326474906663	0	0.09478689634274365	-0.1279677776367328	0.03361943224975024	-0	1.815806370737474	0	-0.09478684101555249	0	0	0	0	7.252006287150614e-11	0
0.1931818181818182	94.24064575690457	195.2323967273472	-0	1.482600845159435	0	0.09478689634274365	-0.09533347112753843	0.02508012694865331	-0	1.829724742921141	0	-0.09478671034954199	0	0	0	0	1.66925912328808e-10	0
0.1954545454545454	80.88622125327655	154.9812209048709	-0	1.482761196294941	0	0.09478689634274365	-0.06637456827089402	0.01748495888131284	-0	1.843722364451218	0	-0.09478625130419574	0	0	0	0	3.676804598631844e-10	0
0.1977272727272727	66.48792984589694	122.02008267833	-0	1.48270410824053	0	0.09478689634274365	-0.0424945899545429	0.01120906154560383	-0	1.857790057760268	0	-0.09478455432481599	0	0	0	0	7.730536714239955e-10	0
0.2	52.25824585440267	94.93951150748492	-0	1.482440943012669	0	0.09478689634274363	-0.0247688469712095	0.00654291169871794	-0	1.871841884597174	0	-0.09477790893095757	0	8.881784197001252e-16	0	0	1.543888934231463e-09	0
0.2022727272727273	39.07708566566161	72.59432527077021	-0	1.48199636661703	0	0.09478689634274365	-0.01285447472208839	0.003401262164465213	-0	1.885484852986054	0	-0.09474961506808206	0	0	0	0	2.910413428921371e-09	0
0.2045454545454545	27.34805399857773	53.41134045636576	-0	1.481433648706107	0	0.09478689634274365	-0.00531958357787677	0.001410108616983053	-0	1.896352328354322	0	-0.09459963881286358	0	0	0	0	5.085860250411862e-09	0
0.2068181818181818	4.575655425952164	12.23037198122336	-0	1.479803893430991	0	0.09478689634274365	-0.001013638915635739	0.0002695252030202036	-0	1.867773993269219	0	-0.09280647336914666	0	0	0	0	5.602092480823297e-09	0
0.2090909090909091	0.0006153811621565908	-0.0008419390059839564	-0	1.469457183363723	0	0.09478689634274365	-0.0005980495626105159	0.0001597215847369566	-0	1.766261597735756	0	-0.0881778590551025	0	0	0	0	-3.910234751111272e-09	0
0.2113636363636363	2.769630058696153e-13	-2.460135807121279e-13	-0	1.46756798340875	0	0.09478689634274365	-0.001457622008538263	0.0003891754081071559	-0	1.809597122013269	0	-0.08951454373553297	0	0	0	0	-2.313453868578452e-10	0
0.2136363636363636	-0	-0	-0	0	0	0	-0.002792692802325933	0.0007468187956205353	-0	1.821281562448943	0	-0.08956755099134177	0	0	0	0	-8.04014743237963e-12	0
0.2159090909090909	-0	-0	-0	0	0	0	-0.005138851259317989	0.001379343314707768	-0	1.831593499652119	0	-0.08956894536973672	0	0	0	0	-1.702550318609386e-13	0
0.2181818181818182	-0	-0	-0	0	0	0	-0.009157758135384185	0.002476224937876124	-0	1.841720728823645	0	-0.08956897450676016	0	0	0	0	-9.007551649009571e-16	0
0.2204545454545454	-0	-0	-0	0	0	0	-0.01582927176609838	0.004332448940352362	-0	1.851607140734824	0	-0.08956897506256387	0	0	0	0	2.133709875451473e-16	0
0.2227272727272727	-0	-0	-0	0	0	0	-0.02654460626483339	0.00738655258815582	-0	1.861228612245038	0	-0.08956897507758359	0	0	0	0	7.28583859910259e-17	0
0.225	-0	-0	-0	0	0	0	-0.0432207472448136	0.0122746681647326	-0	1.870576228259085	0	-0.08956897507842147	0	0	0	0	8.066464163292153e-17	0
0.2272727272727273	-0	-0	-0	0	0	0	-0.06845401286040728	0.01990609689454747	-0	1.879651076221436	0	-0.08956897507770696	0	0	0	0	3.495467804093266e-16	0
0.2295454545454545	-0	-0	-0	0	0	0	-0.105729497478061	0.03157058062039082	-0	1.888446655751887	0	-0.0895689750662349	0	0	0	0	6.019490461639521e-15	0
0.2318181818181818	9.146832861737692e-15	-5.173788520164155e-15	-0	0	0	0	-0.1598065948204233	0.0491209785707258	-0	1.896956283247783	0	-0.08956897464813222	0	8.669998983299319e-16	0	0	3.429756478823265e-13	0
0.2340909090909091	2.581843927410477e-13	-1.418199233926489e-13	-0	1.513335869825396	0	0.09478689634274365	-0.2373688801413011	0.07525700284331878	-0	1.905176183021852	0	-0.08956896765307576	0	0	0	0	9.361983410727248e-12	0
0.2363636363636364	9.197483892053655e-12	-4.907419924870377e-12	-0	1.519582147158134	0	0.09478689634274365	-0.3480785971202724	0.1139637560914377	-0	1.91311780437665	0	-0.08956905416401868	0	0	0	0	-1.494772777776987e-10	0
0.2386363636363636	3.245372767983096e-10	-1.681768453158028e-10	-0	1.526067560589611	0	0.09478689634274365	-0.5059744187441481	0.1711454624265747	-0	1.920783905258515	0	-0.08956906075235679	0	0	0	0	-2.324702930156519e-10	0
0.2409090909090909	9.711488297479973e-09	-4.883439409972533e-09	-0	1.532804041063567	0	0.09478689634274365	-0.7320843475318467	0.2558401349992154	-0	1.928179176512374	0	-0.08956904752164065	0	0	0	0	-2.719729025324469e-10	0
0.2431818181818182	2.345605544423217e-07	-1.143139446629655e-07	-0	1.53981039754042	0	0.09478689634274365	-1.058472641539071	0.3821024678076004	-0	1.935305762764733	0	-0.08956903389407339	0	0	0	0	-2.959305855920746e-10	0
0.2454545454545455	4.744886458701497e-06	-2.239080124147772e-06	-0	1.547104087053831	0	0.09478689634274365	-1.537142565352965	0.5731415166934571	-0	1.942156121406982	0	-0.08956902341623589	0	0	0	0	-3.186820529688106e-10	0
0.2477272727272727	8.211850837452091e-05	-3.750184109446817e-05	-0	1.554697608685497	0	0.09478689634274365	-2.2524260732396	0.8675067756635326	-0	1.948719899425023	0	-0.0895690160865113	0	0	0	0	-3.496022638049823e-10	0
0.25	0.001180107812210337	-0.0005215682411468115	-0	1.562593466402105	0	0.09478689634274365	-3.341027848289567	1.329487007633796	-0	1.954984099486232	0	-0.08956901130232683	0	0	0	0	-3.96070953812e-10	0
0.2522727272727273	0.009213393682547167	-0.003943461355063246	-0	1.570785974909964	0	0.09478689634274365	-5.021948806409097	2.065611061252922	-0	1.960938559368363	0	-0.08956900857470207	0	0	0	0	-4.643080364630237e-10	0
0.2545454545454545	-0.03803849904485964	0.01579140727623127	-0	1.579251367311396	0	0.09478689634274365	-7.629200597319473	3.245498925520506	-0	1.966579791252975	0	-0.08956900783674041	0	0	0	0	-5.515129464228608e-10	0
0.2568181818181818	-0.110718246509158	0.04466158456923427	-0	1.587964177224729	0	0.09478689634274366	-11.65805115649464	5.133441652694771	-0	1.971909441842954	0	-0.08956900931630445	0	1.734723475976807e-18	0	0	-6.257148132959856e-10	0
0.2590909090909091	-0.1447612990589608	0.05679295906981601	-0	1.596919025774886	0	0.09478689634274365	-17.79518617778729	8.122999032303204	-0	1.976926476718206	0	-0.08956901383173964	0	0	0	0	-5.564713134731392e-10	0
0.2613636363636364	-0.1607780886547855	0.06137121973223712	-0	1.60611817052965	0	0.09478689634274365	-26.85751764684483	12.74028962366345	-0	1.981628412085036	0	-0.08956902337074016	0	0	0	0	1.519451231501989e-10	0
0.2636363636363636	-0.1674304450591196	0.0622100006812596	-0	1.615562905493118	0	0.09478689634274365	-39.50363474723678	19.54708827047989	-0	1.986006026760563	0	-0.08956904278295993	0	0	0	0	3.325353326033564e-09	0
0.2659090909090909	-0.1693239028918746	0.06127745679482789	-0	1.625253379505225	0	0.09478689634274365	-55.68306399380528	28.88704441238686	-0	1.990050614932194	0	-0.08956908420873601	0	0	0	0	1.564456564295824e-08	0
0.2681818181818182	-0.169832412974519	0.05991663078547216	-0	1.635183729398109	0	0.09478689634274365	-74.92397720384261	40.986034617885	-0	1.993751741318969	0	-0.0895691771034173	0	0	0	0	6.052990997318375e-08	0
0.2704545454545454	-0.1707319848993857	0.05878158728749122	-0	1.645346568998029	0	0.09478689634274366	-100.7867642684913	58.53545771966836	-0	1.997101759935113	0	-0.08956938109509527	0	0	0	0	2.225897901553253e-07	0
0.2727272727272727	-0.1726865807437865	0.05809548478978723	-0	1.655727676710177	0	0.09478689634274365	-146.6205768271329	91.78116097753467	-0	2.000074534772007	0	-0.08956980358569619	0	0	0	0	8.977054104519766e-07	0
0.275	-0.1758990579082424	0.05790971204306727	-0	1.666311467055846	0	0.09478689634274365	-220.0246360267695	153.3847290082904	-0	2.002656196332745	0	-0.08957082856633401	0	0	0	0	4.461074333050874e-06	0
0.2772727272727273	-0.1802571436009123	0.05815713342033433	-0	1.677087693879774	0	0.09478689634274365	-297.7694677254048	243.5216447500147	-0	2.004845357912302	0	-0.0895742956857465	0	0	0	0	2.687915127452811e-05	0
0.2795454545454545	-0.185616830671317	0.05876865767824804	-0	1.688048375413912	0	0.09478689634274365	-335.1718609266236	349.7652768382142	-0	2.00682634541627	0	-0.08959033477785096	0	0	0	0	0.0001932367354697817	0
0.2818181818181818	-0.192562095560758	0.05991104574427721	-0	1.699182754985557	0	0.09478689634274365	-63.1810201987397	470.1095722185265	-0	2.011434193884629	0	-0.08965157571587327	0	0	0	0	0.00805893814142955	0
0.2840909090909091	-0.2014361532883782	0.06167810220267034	-0	1.71047311187345	0	0.09478689634274365	-63.40395778118373	611.2097818540487	-0	2.015764120565182	0	-0.08978494660481921	0	0	0	0	0.01944242388869544	0
0.2863636363636364	-0.2118343521662484	0.0639244982659436	-0	1.721906741995145	0	0.09478689634274365	-54.9863383849921	760.026984052282	-0	2.021020697078087	0	-0.08995297689591192	0	0	0	0	0.03209847425635459	0
0.2886363636363636	-0.2236100927285951	0.06658108707898779	-0	1.733478527992937	0	0.09478689634274365	-93.84792700937936	937.5328430831776	-0	2.029715091168113	0	-0.09025274492345874	0	0	0	0	0.04756730490484351	0
0.2909090909090909	-0.2364519530510967	0.06953760757805767	-0	1.745186606183232	0	0.09478689634274365	-148.6863493227702	1140.776932993022	-0	2.039455210952505	0	-0.0905939389185889	0	0	0	0	0.04496389442256543	0
0.2931818181818182	-0.2500331201983489	0.07268258614555032	-0	1.757031948665957	0	0.09478689634274365	-159.8794439685329	1260.005691156183	-0	2.040630870116537	0	-0.09063227306887629	0	0	0	0	0.01446691582749615	0
0.2954545454545454	-0.2642488564995232	0.07597807584853963	-0	1.769015155020154	0	0.09478689634274365	-126.3856482809894	1303.211296020589	-0	2.037890297747607	0	-0.09052968080983738	0	0	0	0	-0.007575796723179096	0
0.2977272727272727	-0.2790528105359894	0.07941095687812273	-0	1.781133370466617	0	0.09478689634274365	-89.79694402037219	1341.037571619146	-0	2.038349429348891	0	-0.09054009185559815	0	0	0	0	-0.009557026502344357	0
0.3	-0.2940283597063595	0.08286179740956674	-0	1.793384680216385	0	0.09478689634274363	-66.29556794749776	1430.808107238908	-0	2.046682903216541	0	-0.09082821055595738	0	-3.469446951953614e-18	0	0	0.01638517719898847	0
0.3022727272727272	-0.3083763790074343	0.08609771776672023	-0	1.805772569017349	0	0.09478689634274365	-121.8954677503946	1559.426324681785	-0	2.058373996877111	0	-0.09124455661854385	0	0	0	0	0.05906727859430561	0
0.3045454545454546	-0.3211451306563592	0.08885149229531633	-0	1.818304422633927	0	0.09478689634274365	-178.4081197351502	1643.002226526418	-0	2.066608275503225	0	-0.09153799733962158	0	0	0	0	0.07150715443760447	0
0.3068181818181818	-0.3315007139934754	0.09090665320230515	-0	1.83098560675448	0	0.09478689634274365	-179.8784735501523	1660.95227928837	-0	2.071863915666794	0	-0.09171893300879765	0	0	0	0	0.0613809155556666	0
0.3090909090909091	-0.3388575949730922	0.09212962366732282	-0	1.843817323211763	0	0.09478689634274365	-164.8177877906165	1650.751010856303	-0	2.076864877608951	0	-0.0918889428039124	0	0	0	0	0.05027838681527186	0
0.3113636363636363	-0.3427866968439326	0.09243431369609731	-0	1.85679875334759	0	0.09478689634274366	-147.4602385185088	1618.308564120618	-0	2.081862897763034	0	-0.09205899290456256	0	0	0	0	0.03926133356029382	0
0.3136363636363636	-0.3432915357771615	0.09185384952130231	-0	1.869924454061007	0	0.09478689634274366	-129.4785585202435	1569.615234104026	-0	2.086834293952144	0	-0.09222833473394292	0	0	0	0	0.02836864992020161	0
0.3159090909090909	-0.3406663908865427	0.09049575732438717	-0	1.883186111777515	0	0.09478689634274365	-113.6285918511703	1512.064636742736	-0	2.091754325189104	0	-0.09239646103112767	0	0	0	0	0.01798458777833467	0
0.3181818181818182	-0.3353484935856083	0.08849741850287807	-0	1.896572113101524	0	0.09478689634274366	-97.93932334255291	1449.921666730326	-0	2.096648559480809	0	-0.09256383010569896	0	0	0	0	0.008410527298540416	0
0.3204545454545454	-0.3278585784033733	0.08600949723202067	-0	1.910069559495156	0	0.09478689634274363	-83.7874765751319	1386.992645267707	-0	2.101561534104803	0	-0.09273226404203075	0	-3.469446951953614e-18	0	0	-0.0001497408145700874	0
0.3227272727272727	-0.3186481679267866	0.08315444512241814	-0	1.923665665011364	0	0.09478689634274363	-70.55017020749813	1325.554789516891	-0	2.106625376902559	0	-0.09290630531957707	0	-6.938893903907228e-18	0	0	-0.007659328330776205	0
0.325	-0.3081359725462575	0.08004049837275409	-0	1.937347819809359	0	0.09478689634274365	-59.22991607621368	1265.777016762997	-0	2.11189462236265	0	-0.0930881767253173	0	0	0	0	-0.01410439488916193	0
0.3272727272727273	-0.2966972754742267	0.07676064576447578	-0	1.951104442701866	0	0.09478689634274365	-48.79910500520187	1207.23213200779	-0	2.117455780130796	0	-0.09328075557745349	0	0	0	0	-0.01937065734355325	0
0.3295454545454545	-0.2847562620503976	0.0734197295974244	-0	1.964923632108398	0	0.09478689634274365	-38.60726809439923	1152.809910970389	-0	2.123537851495232	0	-0.09349202556612735	0	0	0	0	-0.02337227182649748	0
0.3318181818181818	-0.2729244102264208	0.07017211024123428	-0	1.978791391556593	0	0.09478689634274365	-28.69390803857279	1105.879674530648	-0	2.130373943570262	0	-0.09373033586232522	0	0	0	0	-0.02586231658139448	0
0.3340909090909091	-0.2619065474498578	0.06719513943200484	-0	1.992691907418188	0	0.09478689634274365	-22.27805198140127	1062.515979398251	-0	2.137732238480117	0	-0.09398866050606042	0	0	0	0	-0.02581477322479397	0
0.3363636363636364	-0.2527778527232217	0.06476346517181648	-0	2.006603129723486	0	0.09478689634274365	-18.60929192855168	1021.280327554918	-0	2.145293441034582	0	-0.09425565151877538	0	0	0	0	-0.02210148291350067	0
0.3386363636363636	-0.246537927851385	0.06312918794191247	-0	2.020500474390081	0	0.09478689634274365	-16.88921352050468	982.0772582729979	-0	2.152928085068231	0	-0.09452668880919685	0	0	0	0	-0.01360135924388306	0
0.3409090909090909	-0.2437562116472556	0.06242862381897765	-0	2.034361148877382	0	0.09478689634274365	-15.35649071828865	947.5567299444941	-0	2.159953679254093	0	-0.09477685091452738	0	0	0	0	-0.0006446676333291546	0
0.3431818181818181	-0.2447628968275763	0.06273558045492857	-0	2.048166053345576	0	0.09478689634274365	-6.518723192056564	953.1510605171005	-0	2.160632446343537	0	-0.09479622110789547	0	0	0	0	0.0007233471135497105	0
0.3454545454545455	-0.2488313374972536	0.06384304004611233	-0	2.061913035414151	0	0.09478689634274365	6.521715442573584	958.5655049804194	-0	2.160574516134699	0	-0.09478737436910609	0	0	0	0	4.417377834986524e-05	0
0.3477272727272727	-0.2550798156584124	0.06550769610425244	-0	2.075607704453471	0	0.09478689634274365	17.29530545169191	958.729533293691	-0	2.160719193192027	0	-0.09478690996126296	0	0	0	0	1.481725674379319e-06	0
0.35	-0.2631011026978113	0.067621511091657	-0	2.089258419152577	0	0.09478689634274365	28.27845625854789	956.4268004174081	-0	2.160877654283615	0	-0.09478689663250031	0	0	0	0	3.678484894464873e-08	0
0.3522727272727273	-0.2726166550529782	0.07011203606139847	-0	2.10287294030756	0	0.09478689634274365	37.93648473438508	951.3038072268633	-0	2.161019297326374	0	-0.09478689634794044	0	0	0	0	7.621130393431486e-10	0
0.3545454545454546	-0.2834725477131226	0.07294129135369998	-0	2.116457875579128	0	0.09478689634274365	47.46171156090942	943.2683183619532	-0	2.161159665594595	0	-0.09478689634282665	0	0	0	0	1.392042037196006e-11	0
0.3568181818181818	-0.2955541943837978	0.07608200803983003	-0	2.130018939713839	0	0.09478689634274365	57.10899653338235	937.1991106455947	-0	2.161299005425087	0	-0.09478689634274487	0	0	0	0	2.335909243811329e-13	0
0.3590909090909091	-0.3088057818358232	0.07952170266019344	-0	2.143560439333706	0	0.09478689634274365	66.35346240036799	938.8576639071111	-0	2.161424298620828	0	-0.09478689634274366	0	0	0	0	3.552713678800501e-15	0
0.3613636363636363	-0.3230918173473531	0.08322647902026307	-0	2.157086558080512	0	0.09478689634274365	73.15299184022851	942.5338050507056	-0	2.16151183206419	0	-0.09478689634274365	0	0	0	0	-8.881784197001252e-16	0
0.3636363636363636	-0.3381313616355527	0.08712430769062547	-0	2.17060138488854	0	0.09478689634274365	79.64662434575139	942.0935363715765	-0	2.161596894361772	0	-0.09478689634274365	0	0	0	0	0	0
0.3659090909090909	-0.3535862396915863	0.0911288457021967	-0	2.184109040472211	0	0.09478689634274365	86.44564288331495	937.697349960544	-0	2.161688359487892	0	-0.09478689634274365	0	0	0	0	0	0
0.3681818181818182	-0.3691654317221891	0.09516652052315094	-0	2.197612939265691	0	0.09478689634274365	93.16122588175448	930.2713702688962	-0	2.161780520781856	0	-0.09478689634274365	0	0	0	0	0	0
0.3704545454545455	-0.3845975826311514	0.09916918313243712	-0	2.211115995673085	0	0.09478689634274365	99.72274160733383	920.0489809750446	-0	2.161872765954647	0	-0.09478689634274365	0	0	0	0	0	0
0.3727272727272727	-0.3998015334206043	0.1031182595865093	-0	2.224619494220896	0	0.09478689634274365	106.0944959723037	907.5792466024616	-0	2.161964459391885	0	-0.09478689634274365	0	0	0	0	0	0
0.375	-0.4147690012538981	0.107014239225333	-0	2.238123728986906	0	0.09478689634274365	112.0971120262375	893.0474088387381	-0	2.162053298844275	0	-0.09478689634274366	0	0	0	0	1.77635683940025e-15	0
0.3772727272727273	-0.4294815724350203	0.1108544036966212	-0	2.251627812425441	0	0.09478689634274365	117.7653283287516	876.7272122616017	-0	2.162139884562186	0	-0.09478689634274365	0	0	0	0	0	0
0.3795454545454545	-0.4437350625470027	0.114585835456737	-0	2.265131191176475	0	0.09478689634274365	122.9683854269948	858.6706909588987	-0	2.162222692564066	0	-0.09478689634274365	0	0	0	0	0	0
0.3818181818181818	-0.4566746317950008	0.1179820060334449	-0	2.278636482907149	0	0.09478689634274363	127.7853438916934	839.0295066988448	-0	2.162303189826831	0	-0.09478689634274365	0	-6.938893903907228e-18	0	0	0	0
0.384090909090909	-0.466811914031739	0.1206484647473596	-0	2.292149223523779	0	0.09478689634274365	132.1846907442274	817.8204937414305	-0	2.162381466990688	0	-0.09478689634274365	0	0	0	0	0	0
0.3863636363636364	-0.471267694616094	0.1218242482678207	-0	2.305683421865934	0	0.09478689634274365	136.3285045804913	795.1521072712484	-0	2.162460604533947	0	-0.09478689634274365	0	0	0	0	0	0
0.3886363636363636	-0.4672843547051759	0.1207889259490813	-0	2.319255707358336	0	0.09478689634270736	140.1364939486602	771.0852156054608	-0	2.162539947917415	0	-0.09478689634274366	0	-3.469446951953614e-16	0	0	1.77635683940025e-15	0
0.3909090909090909	-0.4543746292121126	0.1174327512899871	-0	2.332876966460819	0	0.09478689634267219	143.5933724056558	745.740055711429	-0	2.162619784324852	0	-0.09478689634274365	0	-6.453171330633722e-16	0	0	0	0
0.3931818181818182	-0.4336839693714448	0.1120737247184652	-0	2.346551956881461	0	0.09478689634256481	145.6883034116607	716.983336870996	-0	2.162690558993106	0	-0.09478689634274366	0	-1.491862189340054e-15	0	0	1.77635683940025e-15	0
0.3954545454545454	-0.4089424358598404	0.1057014696302734	-0	2.360269559443717	0	0.09478689634220133	146.3118252319058	682.383805936462	-0	2.162761436652478	0	-0.09478689634274365	0	-4.135580766728708e-15	0	0	0	0
0.3977272727272727	-0.3835812294993838	0.09921369483005839	-0	2.374012268970051	0	0.09478689634098555	146.8487207549943	644.3162503267781	-0	2.162853831570509	0	-0.09478689634274365	0	-1.205979760499076e-14	0	0	0	0
0.4	-0.3594186952007842	0.09308077115277967	-0	2.387756989994159	0	0.09478689633719091	147.233469013859	606.1693056702527	-0	2.162955371984998	0	-0.09478689634274365	0	-3.402833570476105e-14	0	0	0	0
0.4022727272727272	-0.3367046142020144	0.08735539250578155	-0	2.401483956823097	0	0.09478689632547899	146.8628278393755	567.9942033571656	-0	2.163054742720922	0	-0.09478689634274365	0	-9.397344014061559e-14	0	0	0	0
0.4045454545454545	-0.313769198011224	0.08157508793078672	-0	2.41518978903899	0	0.09478689628911474	145.9430593141666	528.8989015176322	-0	2.163163948395657	0	-0.09478689634274365	0	-2.568813217695975e-13	0	0	0	0
0.4068181818181818	-0.289422479013064	0.07540898127159212	-0	2.428877410609577	0	0.09478689617643586	143.295560215468	487.1055943491825	-0	2.163270487114078	0	-0.09478689634274365	0	-6.918320083482143e-13	0	0	0	0
0.4090909090909091	-0.262295189785763	0.06848215001778962	-0	2.442561466079248	0	0.09478689582502615	138.0164286047362	440.8160541186056	-0	2.163370314101564	0	-0.09478689634274365	0	-1.833953128249632e-12	0	0	0	0
0.4113636363636364	-0.2316555033234322	0.06059272233611147	-0	2.456260586067769	0	0.09478689471546768	131.4033283988085	391.431235379678	-0	2.163499037262675	0	-0.09478689634274363	0	-4.776214146406943e-12	0	0	-1.77635683940025e-15	0
0.4136363636363636	-0.1980334425731574	0.05188107930252365	-0	2.469993887881023	0	0.09478689115825149	124.1239329238539	341.3149926295526	-0	2.163672135792028	0	-0.09478689634274365	0	-1.217535794406643e-11	0	0	0	0
0.4159090909090909	-0.1628017453158851	0.04271218714236695	-0	2.483778053814471	0	0.09478687954967069	115.7082749066716	291.2657433510234	-0	2.16388596480423	0	-0.09478689634274365	0	-3.022739870905955e-11	0	0	0	0
0.4181818181818182	-0.1279677776367329	0.03361943224975025	-0	2.497624552555656	0	0.09478684101555249	105.817995103049	241.8745728093218	-0	2.164144656724846	0	-0.09478689634274365	0	-7.252006287150614e-11	0	0	0	0
0.4204545454545454	-0.09533347112753805	0.02508012694865321	-0	2.511542924739322	0	0.09478671034954199	94.24064575690478	195.2323967273476	-0	2.164419026977618	0	-0.09478689634274365	0	-1.66925912328808e-10	0	0	0	0
0.4227272727272727	-0.06637456827089376	0.01748495888131277	-0	2.525540546269401	0	0.09478625130419573	80.88622125327679	154.9812209048713	-0	2.164579378113124	0	-0.09478689634274365	0	-3.676804607305462e-10	0	0	0	0
0.425	-0.04249458995454219	0.01120906154560365	-0	2.539608239578451	0	0.09478455432481599	66.4879298458971	122.0200826783303	-0	2.164522290058712	0	-0.09478689634274365	0	-7.730536705566338e-10	0	0	0	0
0.4272727272727272	-0.02476884697120976	0.00654291169871801	-0	2.553660066415356	0	0.09477790893095757	52.25824585440282	94.93951150748518	-0	2.164259124830851	0	-0.09478689634274365	0	-1.543888934665144e-09	0	0	0	0
0.4295454545454546	-0.01285447472208861	0.003401262164465272	-0	2.567303034804236	0	0.09474961506808204	39.07708566565816	72.59432527076434	-0	2.163814548435212	0	-0.09478689634274365	0	-2.910413429355052e-09	0	0	0	0
0.4318181818181818	-0.005319583577876988	0.00141010861698311	-0	2.578170510172505	0	0.0945996388128636	27.3480539985777	53.41134045636591	-0	2.163251830524289	0	-0.09478689634274365	0	-5.085860250303442e-09	0	0	0	0
0.4340909090909091	-0.001013638915635736	0.0002695252030202027	-0	2.549592175087402	0	0.09280647336914664	4.575655425952154	12.2303719812234	-0	2.161622075249173	0	-0.09478689634274365	0	-5.602092480809745e-09	0	0	0	0
0.4363636363636364	-0.0005980495626105081	0.0001597215847369545	-0	2.448079779553936	0	0.08817785905510242	0.0006153811621565954	-0.0008419390059839592	-0	2.151275365181906	0	-0.09478689634274365	0	3.910234751111272e-09	0	0	0	0
0.4386363636363636	-0.00145762200853826	0.0003891754081071551	-0	2.491415303831453	0	0.08951454373553298	2.769630058696147e-13	-2.460135807121272e-13	-0	2.149386165226934	0	-0.09478689634274365	0	2.313453868578452e-10	0	0	0	0
0.4409090909090909	-0.002792692802325926	0.0007468187956205334	-0	2.503099744267125	0	0.08956755099134177	-0	-0	-0	0	0	0	0	8.040147486589738e-12	0	0	0	0
0.4431818181818181	-0.005138851259317978	0.001379343314707765	-0	2.513411681470301	0	0.08956894536973672	-0	-0	-0	0	0	0	0	1.702550860710472e-13	0	0	0	0
0.4454545454545454	-0.00915775813538418	0.002476224937876123	-0	2.523538910641828	0	0.08956897450676016	-0	-0	-0	0	0	0	0	9.007551649009571e-16	0	0	0	0
0.4477272727272727	-0.0158292717660983	0.004332448940352342	-0	2.533425322553008	0	0.08956897506256387	-0	-0	-0	0	0	0	0	-2.133709875451473e-16	0	0	0	0
0.45	-0.02654460626483326	0.007386552588155784	-0	2.54304679406322	0	0.08956897507758359	-0	-0	-0	0	0	0	0	-7.28583859910259e-17	0	0	0	0
0.4522727272727273	-0.04322074724481355	0.01227466816473258	-0	2.552394410077268	0	0.08956897507842147	-0	-0	-0	0	0	0	0	-8.066464163292153e-17	0	0	0	0
0.4545454545454545	-0.06845401286040705	0.0199060968945474	-0	2.56146925803962	0	0.08956897507770696	-0	-0	-0	0	0	0	0	-3.486794186713382e-16	0	0	0	0
