DataType=double
version=3
OpenSimVersion=4.6-2026-06-22-85aaf64
endheader
time	ground_force_r_vx	ground_force_r_vy	ground_force_r_vz	ground_force_r_px	ground_force_r_py	ground_force_r_pz	ground_force_l_vx	ground_force_l_vy	ground_force_l_vz	ground_force_l_px	ground_force_l_py	ground_force_l_pz	ground_torque_r_x	ground_torque_r_y	ground_torque_r_z	ground_torque_l_x	ground_torque_l_y	ground_torque_l_z
0	-0.006261506410862875	0.001811519906085403	-0	1.194414549507853	0	0.08956868923503107	-0	-0	-0	0	0	0	0	-1.464334838281733e-12	0	0	0	0
0.0025	-0.01093252469673359	0.003259231090524294	-0	1.203654261301776	0	0.08956789698348759	-0	-0	-0	0	0	0	0	-1.87490155779263e-11	0	0	0	0
0.005	-0.01857488416771845	0.005719006130410657	-0	1.212974619445511	0	0.08957989877662	-0	-0	-0	0	0	0	0	4.363381589638643e-10	0	0	0	0
0.0075	-0.0307467322642313	0.009786010378290279	-0	1.221633020832586	0	0.08957889633975957	2.095431524411541e-15	-1.191000014167436e-15	-0	0	0	0	0	7.678369238171834e-10	0	0	-1.98619450697714e-16	0
0.01	-0.04997666672116273	0.01645225870559715	-0	1.229962045334031	0	0.08957625849507397	3.91588293517931e-14	-2.160700323400816e-14	-0	0.7612909076138926	0	-0.09478689634274363	0	9.808444187062171e-10	0	0	-7.888609052210118e-31	0
0.0125	-0.08022656733167616	0.02732256090106015	-0	1.238029886778399	0	0.08957424752723868	1.113596299994928e-12	-5.949912408726917e-13	-0	0.7681954054378914	0	-0.09478689634274365	0	1.137629876586665e-09	0	0	0	0
0.015	-0.1280996565349556	0.04512040280244143	-0	1.245841689607433	0	0.08957289142758297	3.593547803904245e-11	-1.856171321275255e-11	-0	0.775420426134147	0	-0.09478689634274365	0	1.278308282143259e-09	0	0	0	0
0.0175	-0.2048814308220064	0.07458406004140558	-0	1.25339240352255	0	0.08957199716127744	1.301517611037735e-09	-6.492801852421462e-10	-0	0.7829806543074197	0	-0.09478689634274366	0	1.444819888729576e-09	0	0	2.584939414228211e-26	0
0.02	-0.3306382716497021	0.1243185260053097	-0	1.260662644919742	0	0.08957140526357876	5.155764389292933e-08	-2.482133063375489e-08	-0	0.7908859494428017	0	-0.09478689634274365	0	1.684638709781305e-09	0	0	0	0
0.0225	-0.5417745138166491	0.210330346078387	-0	1.267630213353809	0	0.0895710093236031	2.148790649767742e-06	-9.978970642119623e-07	-0	0.7991426727028803	0	-0.09478689634274365	0	2.058520728875912e-09	0	0	0	0
0.025	-0.9056421338330168	0.3631985199410525	-0	1.274263388738822	0	0.08957075876710952	8.935200266071967e-05	-4.003251021690986e-05	-0	0.8077474064518917	0	-0.09478689634274365	0	2.633704421217686e-09	0	0	0	0
0.0275	-1.547982573401368	0.6420425410926037	-0	1.280537681385577	0	0.08957062711207567	0.002777039228487477	-0.001201206030874097	-0	0.8166883919883459	0	-0.09478689634274365	0	3.43398995350519e-09	0	0	0	0
0.03	-2.698664072009781	1.158917082524923	-0	1.28645228850338	0	0.08957061466062526	-0.01883989822533725	0.007878156511178503	-0	0.8259415511740277	0	-0.09478689634274365	0	4.217710541931652e-09	0	0	0	0
0.0325	-4.774900816770226	2.125195669700029	-0	1.292018821266427	0	0.08957074355185451	-0.08329777789698982	0.03372369298481866	-0	0.8354833614860486	0	-0.09478689634274365	0	3.622106281575554e-09	0	0	0	0
0.035	-8.519038441015995	3.934145035451954	-0	1.297250512963258	0	0.08957107309577537	-0.1117801597104039	0.0438512224905978	-0	0.845309811393376	0	-0.09478689634274365	0	-3.902016709744771e-09	0	0	0	0
0.03750000000000001	-15.17362727946845	7.281427667705112	-0	1.302160273200048	0	0.0895717459678232	-0.125134454589414	0.04759202966563721	-0	0.8554233203077544	0	-0.09478689634274363	0	-3.998855535591872e-08	0	0	1.734723475976807e-18	0
0.04	-26.53760084056512	13.26522151975219	-0	1.306753514517939	0	0.08957308785936542	-0.1318959871203903	0.04867521779688556	-0	0.8658197215195939	0	-0.09478689634274365	0	-1.852958080306166e-07	0	0	0	0
0.0425	-44.33412849441355	23.18379391958397	-0	1.31104482456448	0	0.08957595716262388	-0.1360754470928419	0.04878988434944742	-0	0.8764914948575483	0	-0.09478689634274365	0	-7.49053583604109e-07	0	0	0	0
0.045	-68.39676562534338	37.68700522977757	-0	1.315084663700894	0	0.08958284853711072	-0.1398742327577661	0.04880786321058993	-0	0.8874234503371385	0	-0.09478689634274365	0	-2.978255595031953e-06	0	0	0	0
0.0475	-99.74085954753876	58.45361741619136	-0	1.319040897441557	0	0.08959985228700552	-0.1445085282404311	0.04916844118689295	-0	0.8985994826344367	0	-0.09478689634274365	0	-1.174762637567994e-05	0	0	0	0
0.05	-159.0686857324213	101.1575642813475	-0	1.32310457440738	0	0.08963512563323964	-0.1508666547313738	0.05015327995760165	-0	0.9099997584869568	0	-0.09478689634274365	0	-4.978669151967097e-05	0	0	0	0
0.0525	-265.3298428280783	192.7299752062975	-0	1.327983535805	0	0.08971438479579984	-0.1593183478855893	0.05184861404097914	-0	0.9216062290692474	0	-0.09478689634274365	0	-0.0002686831468992068	0	0	0	0
0.055	-373.2676433627301	338.8745849192608	-0	1.33698375273467	0	0.08995524652299663	-0.1696541765052339	0.05415409889029005	-0	0.9334032091783024	0	-0.09478689634274365	0	-0.001572237867911497	0	0	0	0
0.0575	-276.2405388524424	543.114975296016	-0	1.352111531709645	0	0.09041316206433903	-0.1820656982554189	0.0571037486158357	-0	0.9453787512917931	0	-0.09478689634274365	0	-0.04016054299446026	0	0	0	0
0.06	-127.2496190499573	884.0418790377477	-0	1.373396717640006	0	0.09111863303137574	-0.1967418750586714	0.06072580045126538	-0	0.9575251093186572	0	-0.09478689634274365	0	-0.04117699056911484	0	0	0	0
0.0625	-259.5087749478973	1116.554876248043	-0	1.370829515141757	0	0.09103746747333452	-0.21274345814717	0.0647090395476833	-0	0.9698374103905787	0	-0.09478689634274365	0	-0.004024064038087971	0	0	0	0
0.065	-109.4680279329592	1214.903432981544	-0	1.361761317507335	0	0.09069647788968303	-0.2295580579560481	0.06886261861891654	-0	0.9823306152271593	0	-0.09478689634274365	0	0.01561020947112901	0	0	0	0
0.0675	-141.3412023528545	1288.726177803293	-0	1.355831380622229	0	0.09049607929289355	-0.2472034242134121	0.0731682612138458	-0	0.9950171970688966	0	-0.09478689634274365	0	0.02345047653479782	0	0	0	0
0.07000000000000001	-94.76933686808377	1355.743425093847	-0	1.354646264400101	0	0.09045088976595032	-0.2652832970213646	0.07750973892874062	-0	1.00789980549096	0	-0.09478689634274365	0	0.02578383324083333	0	0	0	0
0.07250000000000001	-141.6871195229734	1401.505417613111	-0	1.353658467097263	0	0.09042782489930197	-0.2835530197833372	0.08182115069519386	-0	1.020979280264434	0	-0.09478689634274365	0	0.02667567211162059	0	0	0	0
0.075	-120.9498783498006	1434.025361750345	-0	1.35396001417781	0	0.09043764055144304	-0.301567179374027	0.08599142637952685	-0	1.03425089207919	0	-0.09478689634274363	0	0.02569545659613226	0	0	3.469446951953614e-18	0
0.0775	-147.731887131823	1451.883660014691	-0	1.353731271823229	0	0.09043694827230135	-0.3189426286099558	0.08993172594086067	-0	1.047708531464573	0	-0.09478689634274366	0	0.02478793232949705	0	0	-3.469446951953614e-18	0
0.08	-128.7385153991875	1464.416259563617	-0	1.354396103008296	0	0.09045843014915224	-0.3351471163583232	0.093513338871468	-0	1.061344802624112	0	-0.09478689634274366	0	0.02255712362219775	0	0	-6.938893903907228e-18	0
0.0825	-128.1695762034314	1493.157105370409	-0	1.357418123205914	0	0.09056524691073403	-0.3495473506055585	0.09658109458851656	-0	1.075152578013395	0	-0.09478689634274365	0	0.0145952720192799	0	0	0	0
0.08500000000000001	-103.6249765737742	1565.6132503909	-0	1.366185839973552	0	0.09086700483031408	-0.360922186114715	0.09880945754357082	-0	1.089131349373004	0	-0.09478689634274365	0	-0.01454073441473724	0	0	0	0
0.08749999999999999	-138.9258074341021	1638.7219419854	-0	1.376062894330138	0	0.09121688973960983	-0.3678261001962515	0.09980886092895945	-0	1.103288045752124	0	-0.09478689634274363	0	-0.0520612124510027	0	0	6.938893903907228e-18	0
0.09	-148.3028424945221	1649.991560912628	-0	1.383270385160911	0	0.09146801189718469	-0.3692952967435328	0.09933959935316884	-0	1.117631457197803	0	-0.09478689634274365	0	-0.06488201785739633	0	0	0	0
0.0925	-141.7019990888772	1609.413384289966	-0	1.38844839920981	0	0.09164569278889385	-0.3650228305867729	0.09736490457920075	-0	1.132164248520527	0	-0.09478689634274363	0	-0.06019612933201302	0	0	6.938893903907228e-18	0
0.095	-118.3567060520644	1548.847735797118	-0	1.393514868920233	0	0.09181659989062631	-0.3555977143174949	0.0941028730770362	-0	1.146876024311348	0	-0.09478689634274365	0	-0.05257735222649806	0	0	0	0
0.0975	-102.8041792939685	1475.10256287123	-0	1.398329085070867	0	0.09198039968133144	-0.3421680075909342	0.08990197421200717	-0	1.161751101718318	0	-0.09478689634274365	0	-0.04354403299539911	0	0	0	0
0.1	-81.73466595830956	1397.634200131687	-0	1.403201205408032	0	0.09214507993895826	-0.3262866447909108	0.08518903530528282	-0	1.17676856009508	0	-0.09478689634274363	0	-0.03468261218951696	0	0	6.938893903907228e-18	0
0.1025	-68.8068413931706	1321.288802365731	-0	1.407841393936451	0	0.09230340224991133	-0.3095222519098142	0.08037463746131335	-0	1.191904928477163	0	-0.09478689634274365	0	-0.02616046293176222	0	0	0	0
0.105	-53.13848680615761	1249.010289486554	-0	1.412484931947311	0	0.09246112193115347	-0.2928930228849033	0.07570857406329376	-0	1.207137603227205	0	-0.09478689634274365	0	-0.01847167355331525	0	0	0	0
0.1075	-43.58562361632818	1180.285414253134	-0	1.41693249858269	0	0.0926134923306539	-0.2770739019497935	0.07134603965352924	-0	1.22244512572019	0	-0.09478689634274365	0	-0.01157774373633291	0	0	0	0
0.11	-33.3994881801375	1114.928829513217	-0	1.421405694727688	0	0.09276661654319304	-0.2622743603519869	0.0673198004484287	-0	1.237811385081106	0	-0.09478689634274365	0	-0.005603097181886341	0	0	0	0
0.1125	-26.9904547674681	1053.049693066096	-0	1.425946626088752	0	0.09292331193153641	-0.2485325635240797	0.06362158488050276	-0	1.253222743410911	0	-0.09478689634274365	0	-0.0005210751826272286	0	0	0	0
0.115	-20.2857888998794	996.9009892384106	-0	1.430918576388517	0	0.0930952618826708	-0.2358224951360869	0.06023160470446914	-0	1.268669273092909	0	-0.09478689634274365	0	0.003772758574469792	0	0	0	0
0.1175	-11.86320677526773	955.0687785784737	-0	1.437148159818436	0	0.09331129285039508	-0.2241632793400651	0.05714585532454126	-0	1.284141532361439	0	-0.09478689634274365	0	0.0076153915635504	0	0	0	0
0.12	-0.5834356117539097	932.793999594363	-0	1.445552575897008	0	0.09360366025663988	-0.213718595536819	0.05440137341613046	-0	1.299629332048291	0	-0.09478689634274365	0	0.01132000084632402	0	0	0	0
0.1225	2.307771515328898	910.1968482070542	-0	1.455013026057806	0	0.09393697715241939	-0.2047549299384973	0.05206372976529308	-0	1.315121129653029	0	-0.09478689634274365	0	0.01353568022110019	0	0	0	0
0.125	1.14481953130317	878.4583247293385	-0	1.464635038403548	0	0.09427816638528676	-0.1981810555698971	0.05037059558353164	-0	1.330593175012652	0	-0.09478689634274365	0	0.01214898768215768	0	0	0	0
0.1275	-1.348647074049887	843.1074242707971	-0	1.474348692270697	0	0.09462405719356509	-0.1949092556004365	0.04955741758066527	-0	1.346016592817018	0	-0.09478689634274365	0	0.005425775951932887	0	0	0	0
0.13	0.7815002447306958	831.0090949410002	-0	1.479694945481725	0	0.09481278285010229	-0.1952736142290452	0.04970147256630768	-0	1.361368509684614	0	-0.09478689634274366	0	-0.001146506899342856	0	0	-3.469446951953614e-18	0
0.1325	12.17755831050001	846.1880770872194	-0	1.479223047859075	0	0.09478944777130045	-0.1993589866028805	0.05081380475439892	-0	1.376634321671595	0	-0.09478689634274366	0	-0.0001451902815605699	0	0	-3.469446951953614e-18	0
0.135	24.52480380629823	851.736708034006	-0	1.479342311673492	0	0.09478696367995894	-0.206312586726165	0.05265700917275588	-0	1.39182323635308	0	-0.09478689634274365	0	-4.793136207936755e-06	0	0	0	0
0.1375	34.68706924921651	852.9394575758581	-0	1.479498518610585	0	0.0947868975014696	-0.2151842416447725	0.05497187411635754	-0	1.406953556239851	0	-0.09478689634274363	0	-1.011043786469656e-07	0	0	3.469446951953614e-18	0
0.14	45.01396402929863	851.5237753351455	-0	1.479657497766866	0	0.09478689635821143	-0.2255756600379719	0.05765592215770144	-0	1.422042747466989	0	-0.09478689634274365	0	-1.628835732958578e-09	0	0	0	0
0.1425	53.82139373060127	846.5548546632142	-0	1.479796546161342	0	0.09478689634292323	-0.2371888165514536	0.06063501113830612	-0	1.437105286790916	0	-0.09478689634274365	0	-2.244604502266156e-11	0	0	0	0
0.145	62.37681011213625	836.9849734810427	-0	1.479934847554764	0	0.09478689634274554	-0.2498691460459746	0.0638740378971176	-0	1.452150729197349	0	-0.09478689634274365	0	-2.771116669464391e-13	0	0	0	0
0.1475	71.69032995769616	829.943304842221	-0	1.480079553914044	0	0.09478689634274368	-0.2635208757089111	0.06735376392610111	-0	1.467186255745498	0	-0.09478689634274365	0	-3.552713678800501e-15	0	0	0	0
0.15	80.83908699887192	833.6940262347955	-0	1.480205653043688	0	0.09478689634274365	-0.2781927956495768	0.07109079502626077	-0	1.482215238737361	0	-0.09478689634274365	0	0	0	0	0	0
0.1525	86.98798118356771	841.035620301764	-0	1.480280339637638	0	0.09478689634274363	-0.2939016573512093	0.07509242623318069	-0	1.497240207210184	0	-0.09478689634274365	0	0	0	0	0	0
0.155	92.59759828092412	843.7897280335939	-0	1.48035135109362	0	0.09478689634274363	-0.3105589817546501	0.07933790858151395	-0	1.512262550969574	0	-0.09478689634274365	0	0	0	0	0	0
0.1575	98.63415389832191	842.1929620557642	-0	1.480432811563463	0	0.09478689634274365	-0.3280511804235771	0.08380063800840425	-0	1.527283375223663	0	-0.09478689634274366	0	0	0	0	-3.469446951953614e-18	0
0.16	104.5115657526434	837.2784529419667	-0	1.480515147801525	0	0.09478689634274365	-0.346268106354306	0.08845497615278405	-0	1.542303031648224	0	-0.09478689634274366	0	0	0	0	-6.938893903907228e-18	0
0.1625	110.241738264892	829.2940041420075	-0	1.480598750657061	0	0.09478689634274365	-0.3650528513725739	0.0932628926193344	-0	1.557321815927839	0	-0.09478689634274363	0	0	0	0	0	0
0.165	115.7151685764129	818.7497258567421	-0	1.480681731691441	0	0.09478689634274365	-0.3841510951658932	0.0981597977013965	-0	1.572340550163654	0	-0.09478689634274365	0	0	0	0	0	0
0.1675	120.7871821480394	805.8438750651143	-0	1.480762139927367	0	0.09478689634274365	-0.4031477193992151	0.1030384171037355	-0	1.587360755887363	0	-0.09478689634274365	0	0	0	0	0	0
0.17	125.4525210534545	790.8829821702664	-0	1.480839883577947	0	0.09478689634274365	-0.4211991150424317	0.1076781694570429	-0	1.602386868463534	0	-0.09478689634274365	0	0	0	0	0	0
0.1725	129.705884402083	773.9555471665957	-0	1.480915335149878	0	0.09478689634274366	-0.4368614410399999	0.1117006295366754	-0	1.617425973770215	0	-0.09478689634274363	0	-1.77635683940025e-15	0	0	6.938893903907228e-18	0
0.175	133.7833676170431	755.1853679482152	-0	1.480992744191469	0	0.09478689634274366	-0.4471534167711558	0.1143259224729123	-0	1.632494639033678	0	-0.09478689634274365	0	-1.77635683940025e-15	0	0	0	0
0.1775	137.6059722012494	734.6832277593971	-0	1.481071391161878	0	0.09478689634274365	-0.4488609650619513	0.1147230259316158	-0	1.647612878029661	0	-0.09478689634274365	0	0	0	0	0	0
0.18	141.1379729807277	712.617012898679	-0	1.481151118635584	0	0.09478689634274365	-0.4404291682946586	0.1125084943169037	-0	1.66279657889399	0	-0.09478689634274365	0	0	0	0	0	0
0.1825	143.283411490152	686.6849050051519	-0	1.481221883345476	0	0.09478689634274365	-0.4222319862365269	0.1078038021571195	-0	1.678054999102233	0	-0.09478689634274365	0	0	0	0	0	0
0.185	143.9438765387729	654.2765692960012	-0	1.481294009924264	0	0.09478689634274365	-0.3985647961113456	0.1017442088688618	-0	1.693374658540018	0	-0.09478689634274365	0	0	0	0	0	0
0.1875	144.7430072187454	618.3926872132405	-0	1.481390599816641	0	0.09478689634274365	-0.3741672903484903	0.09555794180123695	-0	1.708731184301392	0	-0.09478689634274365	0	0	0	0	0	0
0.19	145.5590703098221	583.1864510403227	-0	1.481494229004438	0	0.09478689634274365	-0.3518876690887712	0.08996280460478008	-0	1.724094763014071	0	-0.0947868963426973	0	0	0	0	3.191891195797325e-16	0
0.1925	145.4452177764183	548.6600712747615	-0	1.481585420724751	0	0.09478689634274365	-0.3329741107033963	0.08526237519831634	-0	1.73943833529775	0	-0.09478689634265056	0	0	0	0	5.898059818321144e-16	0
0.195	144.5621696354121	514.0546599062411	-0	1.481672004865625	0	0.09478689634274365	-0.3158676184098839	0.08103203831452424	-0	1.754751300310975	0	-0.09478689634237156	0	0	0	0	2.123301534595612e-15	0
0.1975	143.1157352950947	479.365901840461	-0	1.481760178426594	0	0.09478689634274365	-0.2987189880058438	0.07677817175825526	-0	1.770032976472167	0	-0.0947868963415802	0	0	0	0	5.943162628696541e-15	0
0.2	141.2267509317721	444.3368491850794	-0	1.48185732180329	0	0.09478689634274365	-0.2808172534183633	0.07231440462494483	-0	1.785288657408471	0	-0.09478689633905069	0	0	0	0	1.678865380050354e-14	0
0.2025	137.9448885342003	407.5248245901726	-0	1.481954302196656	0	0.09478689634274365	-0.2614266315035054	0.06744685203379502	-0	1.800525456149067	0	-0.09478689633087355	0	0	0	0	4.745509540882153e-14	0
0.205	132.5562747242673	367.3734679396856	-0	1.48205216056664	0	0.09478689634274363	-0.2403512196999196	0.06212383129937477	-0	1.815751868977301	0	-0.09478689630440133	0	1.77635683940025e-15	0	0	1.328069598738324e-13	0
0.2075	125.8119745633554	324.5394830050152	-0	1.482180088759218	0	0.09478689634274365	-0.2178963389290119	0.05642486602843828	-0	1.830974122695666	0	-0.09478689621934369	0	0	0	0	3.638443712983275e-13	0
0.21	118.0174262961803	280.4791738863747	-0	1.4823509020214	0	0.09478689634274365	-0.1935507313026109	0.05021156212021481	-0	1.846203824072465	0	-0.09478689594546076	0	0	0	0	9.738460038377639e-13	0
0.2125	108.5046230951903	236.4872652197594	-0	1.482540569563407	0	0.09478689634274365	-0.1670303215185359	0.0434052751982569	-0	1.861456994552295	0	-0.09478689505737199	0	0	0	0	2.538233512261456e-12	0
0.215	96.57053802454783	194.6286487626738	-0	1.48268228541895	0	0.09478689634274365	-0.1385081784768333	0.03604853886050771	-0	1.876756222706539	0	-0.09478689213603161	0	0	0	0	6.415732528575191e-12	0
0.2175	82.70936476246139	156.5783856281518	-0	1.482727874198016	0	0.09478689634274365	-0.1087397390412186	0.02833797277812252	-0	1.89212736796803	0	-0.09478688226529401	0	0	0	0	1.567019951298487e-11	0
0.22	67.92526346091563	123.5725477736057	-0	1.482632845103293	0	0.09478689634274365	-0.07911735708765748	0.02063973797629329	-0	1.907601759706694	0	-0.09478684726808888	0	0	0	0	3.690873995321198e-11	0
0.2225	53.25012004218384	96.06446926712253	-0	1.482353822683804	0	0.09478689634274365	-0.05183047233301252	0.01353143560148811	-0	1.923211419817307	0	-0.09478671310828089	0	0	0	0	8.374820975598496e-11	0
0.225	39.69502884920082	73.81847493178513	-0	1.481878543954155	0	0.09478689634274365	-0.02967677278934392	0.007751432290278643	-0	1.938973273412368	0	-0.09478613710387288	0	0	0	0	1.838790166137916e-10	0
0.2275	27.72881670209562	55.73786025158516	-0	1.481222394418477	0	0.09478689634274365	-0.01409811618773763	0.003683490064989142	-0	1.954857393085141	0	-0.0947831906047779	0	0	0	0	3.917068492481635e-10	0
0.23	17.32501942146861	38.99240361406818	-0	1.480518650962601	0	0.09478689634274365	-0.004595909117010027	0.001201323585528457	-0	1.970480719954274	0	-0.09476109106103039	0	0	0	0	8.008420355359348e-10	0
0.2325	8.42964330427132	21.42816920868866	-0	1.479917218820532	0	0.09478689634274365	-1.901222314659964e-05	5.052732852237471e-06	-0	1.681686043238427	0	-0.0811612062941293	0	0	0	0	-2.540880644230215e-09	0
0.235	1.125561370705742	3.183437788175025	-0	1.479484101137686	0	0.09478689634274366	-4.892323102620492e-05	1.297134423487669e-05	-0	1.734499193741297	0	-0.08327262544280292	0	-2.775557561562891e-17	0	0	-3.532917786005837e-09	0
0.2375	0.02996061087647987	-0.2156920189443019	-0	1.475714284518849	0	0.09478689634274365	-0.000226968424386667	6.001238546824053e-05	-0	1.891461271661781	0	-0.08950826312107621	0	0	0	0	-5.926843729204189e-11	0
0.24	6.219250112697586e-08	-6.012444939242552e-08	-0	1.470285877869133	0	0.09478689634274365	-0.0004733164946554615	0.0001261138362290484	-0	1.903946412643894	0	-0.08956751698900574	0	0	0	0	-2.264833584347467e-12	0
0.2425	-0	-0	-0	0	0	0	-0.0009521196541759881	0.0002571241768127003	-0	1.914642037201062	0	-0.08956887896368662	0	0	0	0	-2.052223950672893e-13	0
0.245	-0	-0	-0	0	0	0	-0.001852011254835833	0.0005096140942596816	-0	1.924917605485355	0	-0.08956894459683258	0	0	0	0	-6.566893296505727e-14	0
0.2475	-0	-0	-0	0	0	0	-0.003466937977394769	0.0009764329114441685	-0	1.934832446112659	0	-0.08956892507680983	0	0	0	0	-2.067183230147762e-14	0
0.25	-0	-0	-0	0	0	0	-0.006261506410862855	0.001811519906085398	-0	1.944414549507854	0	-0.08956868923503107	0	0	0	0	1.464334729861516e-12	0
0.2525	-0	-0	-0	0	0	0	-0.01093252469673355	0.003259231090524283	-0	1.953654261301776	0	-0.08956789698348759	0	0	0	0	1.87490155779263e-11	0
0.255	-0	-0	-0	0	0	0	-0.01857488416771839	0.005719006130410637	-0	1.962974619445511	0	-0.08957989877662001	0	0	0	0	-4.363381591807047e-10	0
0.2575	2.095431524411574e-15	-1.191000014167455e-15	-0	0	0	0	-0.03074673226423119	0.009786010378290244	-0	1.971633020832587	0	-0.08957889633975956	0	1.986194506977172e-16	0	0	-7.678369233835025e-10	0
0.26	3.915882935179356e-14	-2.160700323400842e-14	-0	1.511290907613893	0	0.09478689634274366	-0.04997666672116258	0.0164522587055971	-0	1.979962045334031	0	-0.08957625849507397	0	-7.888609052210118e-31	0	0	-9.808444195735788e-10	0
0.2625	1.113596299994942e-12	-5.949912408726987e-13	-0	1.518195405437892	0	0.09478689634274365	-0.08022656733167589	0.02732256090106006	-0	1.988029886778399	0	-0.08957424752723867	0	0	0	0	-1.137629874851942e-09	0
0.265	3.593547803904302e-11	-1.856171321275284e-11	-0	1.525420426134147	0	0.09478689634274365	-0.1280996565349551	0.04512040280244127	-0	1.995841689607433	0	-0.08957289142758297	0	0	0	0	-1.278308283877982e-09	0
0.2675	1.301517611037755e-09	-6.492801852421567e-10	-0	1.53298065430742	0	0.09478689634274365	-0.2048814308220057	0.0745840600414053	-0	2.003392403522551	0	-0.08957199716127744	0	0	0	0	-1.444819888729576e-09	0
0.27	5.155764389293055e-08	-2.482133063375547e-08	-0	1.540885949442802	0	0.09478689634274365	-0.3306382716497006	0.1243185260053091	-0	2.010662644919743	0	-0.08957140526357878	0	0	0	0	-1.684638713250752e-09	0
0.2725	2.148790649767782e-06	-9.978970642119807e-07	-0	1.549142672702881	0	0.09478689634274365	-0.5417745138166464	0.210330346078386	-0	2.017630213353809	0	-0.08957100932360308	0	0	0	0	-2.058520714998124e-09	0
0.275	8.935200266072164e-05	-4.003251021691076e-05	-0	1.557747406451892	0	0.09478689634274365	-0.9056421338330118	0.3631985199410505	-0	2.024263388738823	0	-0.08957075876710954	0	0	0	0	-2.633704448973262e-09	0
0.2775	0.002777039228487554	-0.00120120603087413	-0	1.566688391988347	0	0.09478689634274365	-1.547982573401358	0.6420425410925997	-0	2.030537681385578	0	-0.08957062711207567	0	0	0	0	-3.43398995350519e-09	0
0.28	-0.01883989822533794	0.007878156511178793	-0	1.575941551174028	0	0.09478689634274365	-2.698664072009869	1.158917082524961	-0	2.03645228850338	0	-0.08957061466062526	0	0	0	0	-4.217710541931652e-09	0
0.2825	-0.08329777789698943	0.0337236929848185	-0	1.58548336148605	0	0.09478689634274365	-4.774900816770367	2.125195669700092	-0	2.042018821266427	0	-0.08957074355185451	0	0	0	0	-3.622106281575554e-09	0
0.285	-0.1117801597104033	0.04385122249059757	-0	1.595309811393377	0	0.09478689634274365	-8.519038441016146	3.934145035452024	-0	2.047250512963259	0	-0.08957107309577537	0	0	0	0	3.902016709744771e-09	0
0.2875	-0.1251344545894135	0.047592029665637	-0	1.605423320307755	0	0.09478689634274365	-15.17362727946877	7.281427667705267	-0	2.052160273200049	0	-0.08957174596782319	0	0	0	0	3.998855535591872e-08	0
0.29	-0.1318959871204139	0.04867521779689427	-0	1.615819721519595	0	0.09478689634274365	-26.53760084056558	13.26522151975242	-0	2.056753514517939	0	-0.08957308785936542	0	0	0	0	1.852958084747058e-07	0
0.2925	-0.1360754470928411	0.04878988434944715	-0	1.626491494857548	0	0.09478689634274365	-44.33412849441412	23.18379391958428	-0	2.061044824564481	0	-0.08957595716262388	0	0	0	0	7.49053583604109e-07	0
0.295	-0.1398742327577655	0.0488078632105897	-0	1.637423450337139	0	0.09478689634274365	-68.39676562534409	37.68700522977797	-0	2.065084663700893	0	-0.08958284853711071	0	0	0	0	2.978255595031953e-06	0
0.2975	-0.1445085282404303	0.04916844118689267	-0	1.648599482634437	0	0.09478689634274366	-99.74085954753986	58.45361741619199	-0	2.069040897441558	0	-0.08959985228700552	0	1.734723475976807e-18	0	0	1.174762637567994e-05	0
0.3	-0.1508666547313731	0.05015327995760143	-0	1.659999758486957	0	0.09478689634274365	-159.0686857324236	101.157564281349	-0	2.07310457440738	0	-0.08963512563323964	0	0	0	0	4.978669151967097e-05	0
0.3025	-0.1593183478855888	0.05184861404097897	-0	1.671606229069248	0	0.09478689634274366	-265.3298428280823	192.7299752063004	-0	2.077983535805001	0	-0.08971438479579984	0	1.734723475976807e-18	0	0	0.0002686831468992068	0
0.305	-0.1696541765052333	0.05415409889028988	-0	1.683403209178303	0	0.09478689634274366	-373.2676433627344	338.8745849192646	-0	2.086983752734671	0	-0.08995524652299665	0	3.469446951953614e-18	0	0	0.001572237867911497	0
0.3075	-0.1820656982554182	0.05710374861583548	-0	1.695378751291793	0	0.09478689634274365	-276.2405388524457	543.1149752960217	-0	2.102111531709645	0	-0.09041316206433903	0	0	0	0	0.04016054299446026	0
0.31	-0.1967418750586707	0.06072580045126517	-0	1.707525109318657	0	0.09478689634274365	-127.249619049959	884.0418790377564	-0	2.123396717640007	0	-0.09111863303137574	0	0	0	0	0.04117699056911484	0
0.3125	-0.2127434581471693	0.06470903954768309	-0	1.719837410390579	0	0.09478689634274365	-259.5087749478993	1116.554876248052	-0	2.120829515141757	0	-0.09103746747333452	0	0	0	0	0.004024064038091524	0
0.315	-0.2295580579560468	0.06886261861891617	-0	1.73233061522716	0	0.09478689634274365	-109.4680279329597	1214.903432981553	-0	2.111761317507335	0	-0.09069647788968303	0	0	0	0	-0.01561020947112546	0
0.3175	-0.2472034242134108	0.07316826121384541	-0	1.745017197068897	0	0.09478689634274365	-141.341202352855	1288.7261778033	-0	2.10583138062223	0	-0.09049607929289354	0	0	0	0	-0.02345047653479426	0
0.32	-0.2652832970213633	0.07750973892874023	-0	1.75789980549096	0	0.09478689634274365	-94.76933686808394	1355.743425093854	-0	2.104646264400102	0	-0.09045088976595031	0	0	0	0	-0.02578383324083156	0
0.3225	-0.2835530197833357	0.08182115069519344	-0	1.770979280264435	0	0.09478689634274365	-141.6871195229739	1401.505417613119	-0	2.103658467097264	0	-0.09042782489930197	0	0	0	0	-0.02667567211161881	0
0.325	-0.3015671793740261	0.0859914263795266	-0	1.78425089207919	0	0.09478689634274365	-120.9498783498009	1434.025361750351	-0	2.103960014177812	0	-0.09043764055144306	0	0	0	0	-0.02569545659613404	0
0.3275	-0.3189426286099541	0.08993172594086023	-0	1.797708531464574	0	0.09478689634274365	-147.7318871318234	1451.883660014697	-0	2.103731271823229	0	-0.09043694827230137	0	0	0	0	-0.02478793232950061	0
0.33	-0.3351471163583209	0.09351333887146736	-0	1.811344802624112	0	0.09478689634274365	-128.7385153991878	1464.416259563623	-0	2.104396103008296	0	-0.09045843014915224	0	0	0	0	-0.02255712362219953	0
0.3325	-0.349547350605557	0.09658109458851613	-0	1.825152578013396	0	0.09478689634274365	-128.1695762034319	1493.157105370415	-0	2.107418123205914	0	-0.090565246910734	0	0	0	0	-0.0145952720192728	0
0.335	-0.3609221861147133	0.09880945754357034	-0	1.839131349373005	0	0.09478689634274365	-103.6249765737747	1565.613250390907	-0	2.116185839973552	0	-0.09086700483031405	0	0	0	0	0.01454073441473724	0
0.3375	-0.3678261001962498	0.09980886092895898	-0	1.853288045752124	0	0.09478689634274365	-138.925807434103	1638.721941985407	-0	2.126062894330139	0	-0.09121688973960983	0	0	0	0	0.0520612124510027	0
0.34	-0.3692952967435915	0.09933959935318463	-0	1.867631457197804	0	0.09478689634274365	-148.3028424945231	1649.991560912635	-0	2.133270385160911	0	-0.09146801189718469	0	0	0	0	0.06488201785739989	0
0.3425	-0.3650228305867713	0.09736490457920033	-0	1.882164248520528	0	0.09478689634274365	-141.701999088878	1609.413384289971	-0	2.13844839920981	0	-0.09164569278889384	0	0	0	0	0.06019612933201834	0
0.345	-0.3555977143174932	0.09410287307703576	-0	1.896876024311348	0	0.09478689634274365	-118.3567060520653	1548.847735797124	-0	2.143514868920233	0	-0.09181659989062631	0	0	0	0	0.05257735222650162	0
0.3475	-0.3421680075909895	0.08990197421202169	-0	1.911751101718318	0	0.09478689634274366	-102.8041792939692	1475.102562871234	-0	2.148329085070868	0	-0.09198039968133144	0	6.938893903907228e-18	0	0	0.04354403299539733	0
0.35	-0.326286644790909	0.08518903530528237	-0	1.926768560095081	0	0.09478689634274363	-81.73466595831013	1397.634200131691	-0	2.153201205408033	0	-0.09214507993895828	0	-3.469446951953614e-18	0	0	0.03468261218951607	0
0.3525	-0.3095222519098128	0.08037463746131296	-0	1.941904928477163	0	0.09478689634274365	-68.80684139317115	1321.288802365737	-0	2.15784139393645	0	-0.09230340224991132	0	0	0	0	0.02616046293176311	0
0.355	-0.2928930228849019	0.0757085740632934	-0	1.957137603227206	0	0.09478689634274365	-53.13848680615812	1249.010289486559	-0	2.162484931947311	0	-0.09246112193115345	0	0	0	0	0.01847167355331614	0
0.3575	-0.2770739019498464	0.07134603965354287	-0	1.97244512572019	0	0.09478689634274365	-43.5856236163286	1180.285414253139	-0	2.166932498582691	0	-0.0926134923306539	0	0	0	0	0.01157774373633291	0
0.36	-0.2622743603519855	0.06731980044842834	-0	1.987811385081107	0	0.09478689634274365	-33.39948818013787	1114.92882951322	-0	2.171405694727689	0	-0.09276661654319306	0	0	0	0	0.005603097181885897	0
0.3625	-0.2485325635240785	0.06362158488050247	-0	2.003222743410911	0	0.09478689634274365	-26.99045476746837	1053.049693066099	-0	2.175946626088752	0	-0.09292331193153641	0	0	0	0	0.0005210751826281168	0
0.365	-0.2358224951360859	0.06023160470446888	-0	2.01866927309291	0	0.09478689634274365	-20.28578889987969	996.9009892384142	-0	2.180918576388517	0	-0.0930952618826708	0	0	0	0	-0.003772758574469792	0
0.3675	-0.2241632793400641	0.057145855324541	-0	2.034141532361439	0	0.09478689634274365	-11.863206775268	955.0687785784767	-0	2.187148159818437	0	-0.09331129285039511	0	0	0	0	-0.007615391563550622	0
0.37	-0.2137185955368179	0.05440137341613016	-0	2.049629332048291	0	0.09478689634274365	-0.5834356117541331	932.7939995943682	-0	2.195552575897008	0	-0.09360366025663987	0	0	0	0	-0.01132000084632414	0
0.3725	-0.2047549299384964	0.05206372976529284	-0	2.06512112965303	0	0.09478689634274365	2.307771515328671	910.1968482070563	-0	2.205013026057807	0	-0.09393697715241939	0	0	0	0	-0.01353568022110024	0
0.375	-0.1981810555698972	0.05037059558353167	-0	2.080593175012653	0	0.09478689634274365	1.144819531302907	878.4583247293403	-0	2.214635038403548	0	-0.09427816638528679	0	0	0	0	-0.01214898768215751	0
0.3775	-0.1949092556004348	0.04955741758066481	-0	2.096016592817019	0	0.09478689634274365	-1.348647074050155	843.1074242707996	-0	2.224348692270698	0	-0.09462405719356509	0	0	0	0	-0.005425775951932915	0
0.38	-0.1952736142290444	0.04970147256630746	-0	2.111368509684615	0	0.09478689634274365	0.7815002447303858	831.0090949410027	-0	2.229694945481725	0	-0.09481278285010229	0	0	0	0	0.00114650689934287	0
0.3825	-0.1993589866028797	0.05081380475439871	-0	2.126634321671595	0	0.09478689634274366	12.17755831049976	846.1880770872234	-0	2.229223047859076	0	-0.09478944777130047	0	0	0	0	0.0001451902815605699	0
0.385	-0.206312586726164	0.05265700917275564	-0	2.141823236353081	0	0.09478689634274365	24.5248038062979	851.7367080340073	-0	2.229342311673492	0	-0.09478696367995894	0	0	0	0	4.793136208380844e-06	0
0.3875	-0.2151842416447706	0.05497187411635706	-0	2.156953556239852	0	0.09478689634274365	34.68706924921626	852.9394575758608	-0	2.229498518610585	0	-0.0947868975014696	0	0	0	0	1.011043786469656e-07	0
0.39	-0.2255756600379716	0.05765592215770135	-0	2.172042747466989	0	0.09478689634274365	45.01396402929846	851.5237753351482	-0	2.229657497766866	0	-0.09478689635821143	0	0	0	0	1.628835732958578e-09	0
0.3925	-0.2371888165514536	0.06063501113830611	-0	2.187105286790916	0	0.09478689634274365	53.82139373060092	846.5548546632169	-0	2.229796546161343	0	-0.09478689634292323	0	0	0	0	2.244604502266156e-11	0
0.395	-0.2498691460459745	0.06387403789711756	-0	2.202150729197349	0	0.09478689634274365	62.37681011213608	836.9849734810474	-0	2.229934847554764	0	-0.09478689634274555	0	0	0	0	2.779998453661392e-13	0
0.3975	-0.2635208757089099	0.06735376392610076	-0	2.217186255745499	0	0.09478689634274365	71.69032995769614	829.9433048422253	-0	2.230079553914044	0	-0.09478689634274366	0	0	0	0	2.664535259100376e-15	0
0.4	-0.2781927956495744	0.07109079502626016	-0	2.232215238737362	0	0.09478689634274365	80.83908699887165	833.6940262348002	-0	2.230205653043689	0	-0.09478689634274365	0	0	0	0	0	0
0.4025	-0.2939016573512079	0.07509242623318034	-0	2.247240207210184	0	0.09478689634274365	86.98798118356764	841.0356203017662	-0	2.230280339637638	0	-0.09478689634274365	0	0	0	0	0	0
0.405	-0.3105589817546485	0.07933790858151353	-0	2.262262550969575	0	0.09478689634274365	92.59759828092319	843.7897280335932	-0	2.230351351093621	0	-0.09478689634274365	0	0	0	0	0	0
0.4075	-0.3280511804235766	0.08380063800840411	-0	2.277283375223663	0	0.09478689634274365	98.63415389832197	842.1929620557701	-0	2.230432811563463	0	-0.09478689634274366	0	0	0	0	1.77635683940025e-15	0
0.41	-0.3462681063543055	0.08845497615278393	-0	2.292303031648224	0	0.09478689634274365	104.5115657526433	837.2784529419689	-0	2.230515147801525	0	-0.09478689634274363	0	0	0	0	-1.77635683940025e-15	0
0.4125	-0.3650528513725722	0.09326289261933397	-0	2.307321815927839	0	0.09478689634274365	110.2417382648917	829.29400414201	-0	2.230598750657062	0	-0.09478689634274365	0	0	0	0	0	0
0.415	-0.3841510951658898	0.09815979770139564	-0	2.322340550163655	0	0.09478689634274365	115.7151685764128	818.7497258567448	-0	2.230681731691441	0	-0.09478689634274365	0	0	0	0	0	0
0.4175	-0.4031477193992117	0.1030384171037347	-0	2.337360755887364	0	0.09478689634274365	120.78718214804	805.8438750651209	-0	2.230762139927368	0	-0.09478689634274365	0	0	0	0	0	0
0.42	-0.4211991150425001	0.1076781694570603	-0	2.352386868463534	0	0.09478689634274365	125.4525210534534	790.8829821702643	-0	2.230839883577947	0	-0.09478689634274365	0	0	0	0	0	0
0.4225	-0.4368614410399994	0.1117006295366753	-0	2.367425973770215	0	0.09478689634274365	129.7058844020826	773.955547166598	-0	2.230915335149878	0	-0.09478689634274365	0	0	0	0	0	0
0.425	-0.4471534167711514	0.1143259224729112	-0	2.382494639033678	0	0.09478689634274365	133.7833676170419	755.1853679482127	-0	2.230992744191469	0	-0.09478689634274365	0	0	0	0	0	0
0.4275	-0.4488609650619476	0.1147230259316148	-0	2.397612878029661	0	0.09478689634274365	137.6059722012501	734.6832277594032	-0	2.231071391161878	0	-0.09478689634274363	0	0	0	0	-1.77635683940025e-15	0
0.43	-0.4404291682947158	0.1125084943169183	-0	2.412796578893991	0	0.09478689634274365	141.1379729807273	712.6170128986811	-0	2.231151118635585	0	-0.09478689634274365	0	0	0	0	0	0
0.4325	-0.4222319862365852	0.1078038021571344	-0	2.428054999102234	0	0.09478689634274365	143.2834114901511	686.684905005154	-0	2.231221883345476	0	-0.09478689634274366	0	0	0	0	1.77635683940025e-15	0
0.435	-0.398564796111345	0.1017442088688616	-0	2.443374658540018	0	0.09478689634274365	143.9438765387723	654.2765692960031	-0	2.231294009924265	0	-0.09478689634274365	0	0	0	0	0	0
0.4375	-0.3741672903484871	0.09555794180123613	-0	2.458731184301393	0	0.09478689634274363	144.7430072187443	618.3926872132413	-0	2.231390599816642	0	-0.09478689634274365	0	-6.938893903907228e-18	0	0	0	0
0.44	-0.351887669088768	0.08996280460477925	-0	2.474094763014072	0	0.09478689634269728	145.5590703098235	583.1864510403296	-0	2.231494229004438	0	-0.09478689634274365	0	-3.261280134836397e-16	0	0	0	0
0.4425	-0.3329741107034479	0.08526237519832953	-0	2.489438335297751	0	0.09478689634265056	145.4452177764165	548.6600712747589	-0	2.231585420724752	0	-0.09478689634274365	0	-5.898059818321144e-16	0	0	0	0
0.445	-0.3158676184098823	0.08103203831452384	-0	2.504751300310976	0	0.09478689634237156	144.5621696354116	514.0546599062427	-0	2.231672004865626	0	-0.09478689634274365	0	-2.123301534595612e-15	0	0	0	0
0.4475	-0.2987189880058437	0.07677817175825524	-0	2.520032976472167	0	0.0947868963415802	143.1157352950946	479.3659018404624	-0	2.231760178426595	0	-0.09478689634274365	0	-5.943162628696541e-15	0	0	0	0
0.45	-0.2808172534183619	0.0723144046249445	-0	2.535288657408471	0	0.0947868963390507	141.2267509317741	444.3368491850856	-0	2.23185732180329	0	-0.09478689634274365	0	-1.678518435355159e-14	0	0	0	0
0.4525	-0.2614266315035041	0.06744685203379469	-0	2.550525456149067	0	0.09478689633087355	137.9448885342	407.524824590173	-0	2.231954302196657	0	-0.09478689634274365	0	-4.745509540882153e-14	0	0	0	0
0.455	-0.2403512196999725	0.06212383129938845	-0	2.565751868977302	0	0.09478689630440132	132.5562747242677	367.3734679396875	-0	2.232052160566641	0	-0.09478689634274365	0	-1.328104293207844e-13	0	0	0	0
0.4575	-0.2178963389290108	0.05642486602843803	-0	2.580974122695666	0	0.09478689621934369	125.8119745633554	324.5394830050162	-0	2.232180088759219	0	-0.09478689634274365	0	-3.638443712983275e-13	0	0	0	0
0.46	-0.1935507313026089	0.05021156212021432	-0	2.596203824072466	0	0.09478689594546078	118.0174262961805	280.4791738863759	-0	2.232350902021401	0	-0.09478689634274365	0	-9.738425343908119e-13	0	0	0	0
0.4625	-0.167030321518536	0.04340527519825694	-0	2.611456994552296	0	0.09478689505737201	108.5046230951921	236.4872652197648	-0	2.232540569563409	0	-0.09478689634274365	0	-2.538230042814504e-12	0	0	0	0
0.465	-0.1385081784768327	0.03604853886050756	-0	2.626756222706539	0	0.09478689213603161	96.57053802454814	194.6286487626744	-0	2.23268228541895	0	-0.09478689634274363	0	-6.415734263298667e-12	0	0	0	0
0.4675	-0.1087397390412175	0.02833797277812224	-0	2.642127367968031	0	0.09478688226529401	82.70936476245919	156.5783856281482	-0	2.232727874198017	0	-0.09478689634274365	0	-1.567019951298487e-11	0	0	0	0
0.47	-0.07911735708765716	0.0206397379762932	-0	2.657601759706695	0	0.09478684726808888	67.92526346091539	123.5725477736057	-0	2.232632845103294	0	-0.09478689634274365	0	-3.690873995321198e-11	0	0	0	0
0.4725	-0.05183047233301228	0.01353143560148805	-0	2.673211419817307	0	0.09478671310828089	53.25012004218384	96.06446926712286	-0	2.232353822683805	0	-0.09478689634274365	0	-8.374820888862322e-11	0	0	0	0
0.475	-0.02967677278934343	0.007751432290278516	-0	2.688973273412368	0	0.09478613710387288	39.69502884920114	73.81847493178572	-0	2.231878543954155	0	-0.09478689634274365	0	-1.838790166137916e-10	0	0	0	0
0.4775	-0.01409811618773756	0.003683490064989125	-0	2.704857393085141	0	0.0947831906047779	27.72881670209367	55.73786025158125	-0	2.231222394418478	0	-0.09478689634274365	0	-3.917068492481635e-10	0	0	0	0
0.48	-0.00459590911701001	0.001201323585528453	-0	2.720480719954275	0	0.09476109106103039	17.32501942147051	38.99240361407264	-0	2.230518650962602	0	-0.09478689634274365	0	-8.008420355359348e-10	0	0	0	0
0.4825	-1.901222314659972e-05	5.052732852237495e-06	-0	2.431686043238427	0	0.08116120629412939	8.429643304271153	21.42816920868845	-0	2.229917218820533	0	-0.09478689634274365	0	2.540880644230851e-09	0	0	0	0
0.485	-4.892323102619886e-05	1.29713442348751e-05	-0	2.484499193741265	0	0.08327262544280149	1.125561370705664	3.183437788174859	-0	2.229484101137687	0	-0.09478689634274365	0	3.53291778600499e-09	0	0	0	0
0.4875	-0.0002269684243866666	6.001238546824041e-05	-0	2.641461271661782	0	0.08950826312107621	0.02996061087648121	-0.2156920189443084	-0	2.22571428451885	0	-0.09478689634274365	0	5.926843729204189e-11	0	0	0	0
0.49	-0.0004733164946554614	0.0001261138362290484	-0	2.653946412643895	0	0.08956751698900572	6.219250112697616e-08	-6.01244493924258e-08	-0	2.220285877869134	0	-0.09478689634274365	0	2.264833577571203e-12	0	0	0	0
0.4925	-0.0009521196541759872	0.0002571241768127	-0	2.664642037201062	0	0.08956887896368662	-0	-0	-0	0	0	0	0	2.052223950672893e-13	0	0	0	0
0.495	-0.001852011254835829	0.0005096140942596804	-0	2.674917605485355	0	0.08956894459683258	-0	-0	-0	0	0	0	0	6.566893296505727e-14	0	0	0	0
0.4975	-0.003466937977394761	0.0009764329114441662	-0	2.684832446112659	0	0.08956892507680983	-0	-0	-0	0	0	0	0	2.067183230147762e-14	0	0	0	0
0.5	-0.006261506410862847	0.001811519906085396	-0	2.694414549507854	0	0.08956868923503107	-0	-0	-0	0	0	0	0	-1.464334838281733e-12	0	0	0	0
