DataType=double
version=3
OpenSimVersion=4.6-2026-06-22-85aaf64
endheader
time	ground_force_r_vx	ground_force_r_vy	ground_force_r_vz	ground_force_r_px	ground_force_r_py	ground_force_r_pz	ground_force_l_vx	ground_force_l_vy	ground_force_l_vz	ground_force_l_px	ground_force_l_py	ground_force_l_pz	ground_torque_r_x	ground_torque_r_y	ground_torque_r_z	ground_torque_l_x	ground_torque_l_y	ground_torque_l_z
0	-0.0008986466460227527	0.0002528530348936332	-0	1.182560505757652	0	0.0895646490136905	-0	-0	-0	0	0	0	0	5.384207890733045e-12	0	0	0	0
0.002631578947368421	-0.001892766530273869	0.0005478615201584355	-0	1.191826384662341	0	0.08955477707022302	-0	-0	-0	0	0	0	0	6.853542174967489e-12	0	0	0	0
0.005263157894736842	-0.003892105210808153	0.001162572364141338	-0	1.203355035254718	0	0.08963533810898164	-0	-0	-0	0	0	0	0	1.770435581450146e-10	0	0	0	0
0.007894736842105262	-0.007576926033675655	0.002338912111790119	-0	1.212131857806077	0	0.08962737913108521	-0	-0	-0	0	0	0	0	6.185028424750966e-10	0	0	0	0
0.01052631578947368	-0.01426207408584362	0.004551752991552202	-0	1.220235730406175	0	0.08960523608251612	4.781621359399271e-15	-2.652065475520595e-15	-0	0	0	0	0	9.876929495632181e-10	0	0	-4.532350481436276e-16	0
0.0131578947368421	-0.02624935058090736	0.008659289060316582	-0	1.22830311055459	0	0.08959019876374771	1.106860423769013e-13	-5.995134214197138e-14	-0	0.7284924293047973	0	-0.09478689634274365	0	1.258055510027639e-09	0	0	0	0
0.01578947368421052	-0.04759920133319923	0.0162262517536254	-0	1.236310369033115	0	0.0895817083933097	3.623410641809349e-12	-1.909468835301287e-12	-0	0.7359584606206264	0	-0.09478689634274365	0	1.495896391999485e-09	0	0	0	0
0.01842105263157895	-0.0856124066176731	0.03015394351116539	-0	1.24416213384293	0	0.08957704581820883	1.502968776705872e-10	-7.675274265672825e-11	-0	0.7437304761450705	0	-0.09478689634274365	0	1.763751002019365e-09	0	0	0	0
0.02105263157894737	-0.1538943946773772	0.05600747909370165	-0	1.251783235349981	0	0.08957443428569298	8.099209170700438e-09	-3.997640799664362e-09	-0	0.7518393384731985	0	-0.09478689634274365	0	2.121389116455097e-09	0	0	0	0
0.02368421052631579	-0.2784230203345653	0.1047378184295513	-0	1.259122997342026	0	0.08957293261745446	5.508564476946248e-07	-2.624491737601757e-07	-0	0.7602968918948377	0	-0.09478689634274365	0	2.641524807917017e-09	0	0	0	0
0.02631578947368421	-0.5104365800584482	0.1986454815031403	-0	1.266137654212558	0	0.08957205739045863	4.143937510854163e-05	-1.904874601155385e-05	-0	0.7690996146078789	0	-0.09478689634274365	0	3.431107432894098e-09	0	0	0	0
0.02894736842105263	-0.9530906345513976	0.3841703752397436	-0	1.272795918835178	0	0.08957155891098084	0.001779026833977358	-0.0007890741388650545	-0	0.778237769821105	0	-0.09478689634274365	0	4.645785811607794e-09	0	0	0	0
0.03157894736842105	-1.815512790770838	0.7586481543764986	-0	1.279087417129098	0	0.08957130541134813	-0.01830386801660902	0.007834508159734683	-0	0.7877048427122675	0	-0.09478689634274365	0	6.493814513897078e-09	0	0	0	0
0.03421052631578948	-3.521617211898711	1.526617032873277	-0	1.285010885134516	0	0.08957124197619534	-0.03706277098128127	0.01531017428496278	-0	0.7974970290006427	0	-0.09478689634274365	0	9.06386898869016e-09	0	0	0	0
0.0368421052631579	-6.905151443749369	3.108784652089778	-0	1.290567621356213	0	0.08957139201258778	-0.04622537199777444	0.01843085424600623	-0	0.8076146164990612	0	-0.09478689634274365	0	1.067579558089449e-08	0	0	0	0
0.03947368421052632	-13.51478735744184	6.330195342599923	-0	1.295765514206317	0	0.08957185720674526	-0.05194705884631208	0.02000020315561654	-0	0.8180549436167007	0	-0.09478689634274365	0	4.924702867725728e-10	0	0	0	0
0.04210526315789474	-25.84822870823496	12.63697871679406	-0	1.300605486571459	0	0.08957290711479708	-0.0568938175951462	0.02117798982430623	-0	0.8287990610572505	0	-0.09478689634274363	0	-7.367137744296315e-08	0	0	8.673617379884035e-19	0
0.04473684210526315	-46.57746803608124	23.91066092270788	-0	1.305097045949907	0	0.08957533769034173	-0.06236666707552987	0.02248925428257575	-0	0.8398227024831871	0	-0.09478689634274365	0	-4.67383412861011e-07	0	0	0	0
0.04736842105263157	-75.55742033682435	41.13152311129492	-0	1.30928606872061	0	0.08958171637156338	-0.06905173374729807	0.02418254811108411	-0	0.8510949063587887	0	-0.09478689634274366	0	-2.467536830863537e-06	0	0	-8.673617379884035e-19	0
0.05	-115.7356322799337	67.66162610934798	-0	1.313348150989188	0	0.08959842236669199	-0.07742991864938978	0.02641219452119593	-0	0.862586872471616	0	-0.09478689634274365	0	-1.219774041949506e-05	0	0	0	0
0.05263157894736842	-201.7350118431503	130.5992230044168	-0	1.317460802436755	0	0.08963395120307316	-0.08805512215112014	0.02934294434010844	-0	0.8742716482986628	0	-0.09478689634274365	0	-6.654213886747584e-05	0	0	0	0
0.05526315789473685	-336.6889968879195	260.9772422790559	-0	1.322898788228174	0	0.08973384472376432	-0.1013399813459687	0.03308459244933572	-0	0.8861269081919825	0	-0.09478689634274365	0	-0.0004740570106633868	0	0	0	0
0.05789473684210526	-437.1067042347872	457.1971988111026	-0	1.333891184955928	0	0.09005097546108065	-0.1175312915933215	0.03768274061495477	-0	0.8981452059631173	0	-0.09478689634274365	0	-0.002855758954183329	0	0	0	0
0.06052631578947368	-140.0499205652681	737.1852033472447	-0	1.350341841799811	0	0.09054083746213179	-0.1374062181301161	0.04334248793642436	-0	0.9103281547327144	0	-0.09478689634274365	0	-0.04696634371066644	0	0	0	0
0.06315789473684209	-302.3126192970141	1108.98136369044	-0	1.362940404022643	0	0.09099125325450023	-0.16088000788505	0.05000388384612177	-0	0.9226751206509931	0	-0.09478689634274365	0	-0.02611889809167423	0	0	0	0
0.06578947368421052	-186.979146913446	1297.661742217262	-0	1.357583769374418	0	0.09078375663486007	-0.1871432704016121	0.05737972509830058	-0	0.9351988674105287	0	-0.09478689634274365	0	0.009146106084475747	0	0	0	0
0.06842105263157895	-185.3443399640208	1383.33740339932	-0	1.349656422768349	0	0.09050740558131287	-0.2162138349250167	0.06542139471865215	-0	0.9479284272928508	0	-0.09478689634274365	0	0.02585113399032579	0	0	0	0
0.07105263157894737	-127.9218632908804	1457.359313084624	-0	1.347555808171054	0	0.09042893441563683	-0.2477054372953478	0.07397153609040578	-0	0.9608816183742986	0	-0.09478689634274365	0	0.0298595157047945	0	0	0	0
0.0736842105263158	-169.4149096439536	1505.737397254339	-0	1.346569928236942	0	0.09040524576824967	-0.280965191931619	0.08281742042858348	-0	0.974067625202197	0	-0.09478689634274365	0	0.03064179941911149	0	0	0	0
0.07631578947368421	-142.8109956416252	1531.590180334571	-0	1.34671364440997	0	0.09040910909076019	-0.3149386506953712	0.09164919090114453	-0	0.9874912467481584	0	-0.09478689634274366	0	0.02935459078478075	0	0	-3.469446951953614e-18	0
0.07894736842105263	-168.0428782072844	1539.233317782502	-0	1.346419698503509	0	0.09040616989607025	-0.3484441316569323	0.1001491621008577	-0	1.00115079730934	0	-0.09478689634274366	0	0.0279926227667282	0	0	-6.938893903907228e-18	0
0.08157894736842104	-145.7858828614036	1537.242557111772	-0	1.346664742972059	0	0.09041281883669951	-0.3800508296786695	0.1079513799203013	-0	1.015041359420561	0	-0.09478689634274365	0	0.02591970567122459	0	0	0	0
0.08421052631578947	-156.398733180112	1527.409748312672	-0	1.346461186588637	0	0.09040964786893943	-0.4083327262254522	0.1147075252123428	-0	1.029154827177574	0	-0.09478689634274365	0	0.02444803534668871	0	0	0	0
0.08684210526315789	-121.9770277500333	1535.943875708459	-0	1.349263259168489	0	0.09050187990592998	-0.4316620768379928	0.1200254766226908	-0	1.043481836339841	0	-0.09478689634274365	0	0.01648132638196742	0	0	0	0
0.08947368421052632	-113.7075497326909	1587.206173139821	-0	1.357334601633764	0	0.09078222649399789	-0.4479366263578401	0.1233727031343748	-0	1.05801878513756	0	-0.09478689634274365	0	-0.01244459229640782	0	0	0	0
0.09210526315789473	-122.4163923515018	1637.176568392139	-0	1.36732092821812	0	0.09113102890003053	-0.4550933410141523	0.1242222515009235	-0	1.072769160255491	0	-0.09478689634274365	0	-0.05321482474476724	0	0	0	0
0.09473684210526315	-139.4260553285532	1625.622506065917	-0	1.374449656978698	0	0.0913810545547967	-0.452358975326126	0.1224151405591845	-0	1.087737565321433	0	-0.09478689634274365	0	-0.06802354497896879	0	0	0	0
0.09736842105263158	-117.6950749658324	1567.994507433632	-0	1.380049287879399	0	0.09157047046700102	-0.4401231306307797	0.1181338873948361	-0	1.102920739207863	0	-0.09478689634274365	0	-0.06542861953683676	0	0	0	0
0.09999999999999999	-104.5676172750955	1493.830240516479	-0	1.385170223405032	0	0.09174507322622172	-0.4201246845860831	0.11193198953987	-0	1.11830026546807	0	-0.09478689634274365	0	-0.05810628196960366	0	0	0	0
0.1026315789473684	-81.85345436259172	1412.002445417529	-0	1.390260444086317	0	0.09191661653927971	-0.3947991892389643	0.1045087907141682	-0	1.133851992621969	0	-0.09478689634274365	0	-0.04947537194971829	0	0	0	0
0.1052631578947368	-68.33731103054362	1330.285932718181	-0	1.395089302289101	0	0.09208103711035881	-0.3666533198708106	0.09653177488230619	-0	1.149549395147411	0	-0.09478689634274365	0	-0.04046361583057934	0	0	0	0
0.1078947368421053	-51.4807418105492	1253.635405766314	-0	1.399858689715745	0	0.09224246712655362	-0.3379439633756684	0.08857750195163253	-0	1.165364701945198	0	-0.09478689634274365	0	-0.03202367740744627	0	0	0	0
0.1105263157894737	-41.41913746928847	1181.391055153748	-0	1.404353057414554	0	0.09239593500848432	-0.3102889303104151	0.08103694143193653	-0	1.181273078387195	0	-0.09478689634274365	0	-0.02416514890385679	0	0	0	0
0.1131578947368421	-30.19612971390501	1114.012172400825	-0	1.408858744876407	0	0.09254947930317257	-0.2847076990019633	0.07414060040509111	-0	1.197251901347864	0	-0.09478689634274365	0	-0.01723218324673281	0	0	0	0
0.1157894736842105	-23.68379048820651	1049.918323670318	-0	1.413301869660322	0	0.09270225309493084	-0.2614759729633285	0.06792608096076568	-0	1.213286427868576	0	-0.09478689634274365	0	-0.01112940785312944	0	0	0	0
0.1184210526315789	-16.84044302281999	991.367416239563	-0	1.418092860468301	0	0.09286730103717063	-0.2405536906373005	0.06235782616107868	-0	1.229365354878783	0	-0.09478689634274365	0	-0.005918991021728326	0	0	0	0
0.1210526315789474	-13.79081354004973	940.2979251112846	-0	1.423340944655852	0	0.09304990326250365	-0.2217597939518021	0.05737468763818725	-0	1.245481174376058	0	-0.09478689634274365	0	-0.001398047139753666	0	0	0	0
0.1236842105263158	-6.290146488352921	906.295529675152	-0	1.430220899975164	0	0.09328887848693151	-0.2049569963699628	0.0529338120842698	-0	1.261626497485616	0	-0.09478689634274365	0	0.002726559379575666	0	0	0	0
0.1263157894736842	3.039015545482391	889.995103892015	-0	1.43951671430552	0	0.09361311415151484	-0.1902626287330648	0.04906472648045608	-0	1.277790204534238	0	-0.09478689634274365	0	0.006808087658533413	0	0	0	0
0.1289473684210526	5.274145176499848	870.2288199015511	-0	1.450060570317224	0	0.09398475960790775	-0.1779036574972551	0.04582646115815087	-0	1.293958189834377	0	-0.09478689634274365	0	0.009554296856842948	0	0	0	0
0.131578947368421	2.106665909724536	838.8559290600338	-0	1.460783758170237	0	0.09436557208603662	-0.1687257113404148	0.04344464299303238	-0	1.310099899425025	0	-0.09478689634274366	0	0.008397486588549968	0	0	-3.469446951953614e-18	0
0.1342105263157895	-1.071527035408971	806.5587244081127	-0	1.471194971490871	0	0.09473631248213479	-0.1634280305096596	0.04210141118453831	-0	1.326179142964075	0	-0.09478689634274363	0	0.001505663220919121	0	0	1.734723475976807e-18	0
0.1368421052631579	4.635456831519121	816.6616018453251	-0	1.473154349627291	0	0.09480217658040896	-0.1618582968582495	0.04174337218985413	-0	1.342174033379751	0	-0.09478689634274365	0	-0.0006334489323693293	0	0	0	0
0.1394736842105263	18.23096333300485	831.1674628854556	-0	1.47295325343147	0	0.09478747216851989	-0.1636206790929584	0.04225264052725461	-0	1.358076321711732	0	-0.09478689634274363	0	-3.173417863044925e-05	0	0	1.734723475976807e-18	0
0.1421052631578947	29.14531071278616	837.6559821952605	-0	1.473109034609046	0	0.09478690616124964	-0.167737052980736	0.04335735930412616	-0	1.373903780143842	0	-0.09478689634274363	0	-6.951211037886651e-07	0	0	3.469446951953614e-18	0
0.1447368421052632	39.98672772100088	840.2016933351379	-0	1.473277377049274	0	0.09478689645980976	-0.1733043091862972	0.04480985040900724	-0	1.389682142844924	0	-0.09478689634274365	0	-1.038073493830893e-08	0	0	0	0
0.1473684210526316	49.57881883636288	839.5147465075569	-0	1.473428379743157	0	0.09478689634389283	-0.1799838851460229	0.04652457536626362	-0	1.405432359957639	0	-0.09478689634274365	0	-1.249622627597091e-10	0	0	0	0
0.15	58.79433090742696	836.39209025589	-0	1.473573678002025	0	0.09478689634275377	-0.1875530152123928	0.04844847547934462	-0	1.421170543222683	0	-0.09478689634274365	0	-1.326050380612287e-12	0	0	0	0
0.1526315789473684	67.0952844579318	830.5343082345839	-0	1.473706868491739	0	0.09478689634274373	-0.1959211223232337	0.05056349232763118	-0	1.436905964899351	0	-0.09478689634274365	0	-1.243449787580175e-14	0	0	0	0
0.1552631578947368	75.8764526668502	826.4712147072194	-0	1.473842244802002	0	0.09478689634274363	-0.2050449707909583	0.05286398079416946	-0	1.452645119195096	0	-0.09478689634274365	0	8.881784197001252e-16	0	0	0	0
0.1578947368421053	84.05145180546116	828.2165961845146	-0	1.473958282368549	0	0.09478689634274365	-0.2149970842870638	0.05537284433460329	-0	1.468389853008115	0	-0.09478689634274365	0	0	0	0	0	0
0.1605263157894737	90.57089922519191	831.4570511863589	-0	1.474045117878665	0	0.09478689634274365	-0.2258457469864611	0.0581107863497611	-0	1.484140921808569	0	-0.09478689634274365	0	0	0	0	0	0
0.1631578947368421	96.4148721707645	830.6302381167236	-0	1.474125640969833	0	0.09478689634274365	-0.237568218154598	0.06107306514624174	-0	1.49989829057933	0	-0.09478689634274365	0	0	0	0	0	0
0.1657894736842105	102.6070846348101	826.2177342489035	-0	1.474214538864893	0	0.09478689634274365	-0.2501103569314735	0.06424698226336586	-0	1.515661958453961	0	-0.09478689634274365	0	0	0	0	0	0
0.1684210526315789	108.3930520677184	818.7158420599909	-0	1.474300573334113	0	0.09478689634274363	-0.2633810019881587	0.06761017470026076	-0	1.531431876756868	0	-0.09478689634274365	0	1.77635683940025e-15	0	0	0	0
0.1710526315789474	114.0386020154906	808.5294757914311	-0	1.474387592010665	0	0.09478689634274365	-0.2772524779521591	0.07113106824360274	-0	1.547208050340857	0	-0.09478689634274365	0	0	0	0	0	0
0.1736842105263158	119.1297440808271	795.8496840242649	-0	1.474469669648496	0	0.09478689634274365	-0.2915439202416654	0.07476436947228872	-0	1.56299072149718	0	-0.09478689634274365	0	0	0	0	0	0
0.1763157894736842	123.8620586291975	780.9301449438381	-0	1.474549942118527	0	0.09478689634274365	-0.3060018778459508	0.0784456949767737	-0	1.578780553922329	0	-0.09478689634274365	0	0	0	0	0	0
0.1789473684210526	128.1626933468973	763.8693694620085	-0	1.474627768463876	0	0.09478689634274365	-0.320325488537685	0.08209767288849164	-0	1.594579017466017	0	-0.09478689634274365	0	0	0	0	0	0
0.181578947368421	132.1851587066454	744.9171525284712	-0	1.474705777020814	0	0.09478689634274365	-0.3339954133538814	0.08558465268655868	-0	1.610388592754062	0	-0.09478689634274365	0	0	0	0	0	0
0.1842105263157895	135.8780295516624	724.1547641108184	-0	1.474783773835053	0	0.09478689634274365	-0.3456747515576216	0.08855535330387895	-0	1.626218129936967	0	-0.09478689634274365	0	0	0	0	0	0
0.1868421052631579	139.292261232327	701.7926659073407	-0	1.474862964352001	0	0.09478689634274366	-0.3536450715918225	0.09056218110466682	-0	1.642079675466172	0	-0.09478689634274366	0	-1.77635683940025e-15	0	0	-6.938893903907228e-18	0
0.1894736842105263	142.2780573942634	677.9300994884356	-0	1.474941414088717	0	0.09478689634274365	-0.3561402973635057	0.09115192614391644	-0	1.657987764149853	0	-0.09478689634274365	0	0	0	0	0	0
0.1921052631578947	143.9611726266676	650.6701894056433	-0	1.475011713005861	0	0.09478689634274365	-0.3518400714599514	0.08999315354497682	-0	1.673955685218041	0	-0.09478689634274365	0	0	0	0	0	0
0.1947368421052632	144.1589172056795	617.7991054930118	-0	1.475081869261091	0	0.09478689634274365	-0.3410846967981536	0.08719163721340123	-0	1.689986849751297	0	-0.09478689634274366	0	0	0	0	0	0
0.1973684210526316	144.2873361601016	581.8468195273323	-0	1.475172878656279	0	0.09478689634274365	-0.3250696660502245	0.08306823641974216	-0	1.706078490299028	0	-0.09478689634274365	0	0	0	0	0	0
0.2	144.1929191167381	546.154819463364	-0	1.475268548659507	0	0.09478689634274365	-0.3055156463992545	0.07806876558506384	-0	1.722219959833892	0	-0.09478689634274365	0	0	0	0	0	0
0.2026315789473684	143.2520033361316	510.9502429848186	-0	1.475354730861425	0	0.09478689634274365	-0.2845727711387811	0.07274602786055033	-0	1.738396114561117	0	-0.09478689634274365	0	0	0	0	0	0
0.2052631578947368	141.5582079676422	475.8294389019626	-0	1.475436493963268	0	0.09478689634274365	-0.2652857231787095	0.06788304080886655	-0	1.754578007372348	0	-0.09478689634274365	0	0	0	0	0	0
0.2078947368421053	139.2230174563823	440.9604284868733	-0	1.475516549243832	0	0.09478689634274365	-0.2496533084975379	0.06398736530320211	-0	1.770732521912123	0	-0.09478689634274365	0	0	0	0	0	0
0.2105263157894737	136.27485461299	406.4430237907854	-0	1.475596228340986	0	0.09478689634274365	-0.2369099611443504	0.06084430770938366	-0	1.786840383125798	0	-0.09478689634267706	0	0	0	0	3.05311331771918e-16	0
0.2131578947368421	132.4094531661325	371.5321433203634	-0	1.475676287467492	0	0.09478689634274365	-0.2256705589967319	0.05808287542591456	-0	1.802893634974305	0	-0.0947868963425446	0	0	0	0	8.118505867571457e-16	0
0.2157894736842105	127.4303955446588	334.8970177330976	-0	1.475770649181538	0	0.09478689634274365	-0.2137259542474975	0.05512075095847586	-0	1.818905636235199	0	-0.09478689634208001	0	0	0	0	2.435551760271437e-15	0
0.2184210526315789	120.8254813153066	295.9259308506205	-0	1.475881729714468	0	0.09478689634274365	-0.199545254697419	0.05155670864323355	-0	1.834895253055412	0	-0.09478689634052896	0	0	0	0	7.181755190543981e-15	0
0.2210526315789474	111.7808546156171	254.7613828614352	-0	1.47599295739661	0	0.09478689634274365	-0.1820568890562115	0.04711136929649335	-0	1.850888579578749	0	-0.09478689633520272	0	0	0	0	2.110464580873384e-14	0
0.2236842105263158	100.5138549200937	213.3449278200252	-0	1.476090383760018	0	0.09478689634274366	-0.1605119745009448	0.04158837443430581	-0	1.866915798880248	0	-0.09478689631666198	0	0	0	0	6.085063009031444e-14	0
0.2263157894736842	87.07627759988802	174.7339689587567	-0	1.476099582387339	0	0.09478689634274365	-0.135551491811928	0.0351578378735871	-0	1.883005089611298	0	-0.09478689625101637	0	0	0	0	1.704105606625816e-13	0
0.2289473684210526	72.12768481195802	140.2857256854584	-0	1.475966332772229	0	0.09478689634274365	-0.1084361643477265	0.02814954439549858	-0	1.899183982396561	0	-0.09478689601338787	0	0	0	0	4.599844810604381e-13	0
0.2315789473684211	56.97186372138601	110.563338303626	-0	1.475678761123092	0	0.09478689634274365	-0.08130988849589037	0.02112328142053785	-0	1.915475515744978	0	-0.09478689512620807	0	0	0	0	1.194190579756338e-12	0
0.2342105263157895	42.63654244090707	85.6710510186999	-0	1.475225107451093	0	0.09478689634274365	-0.05665368523780809	0.01472747237111705	-0	1.93189851642407	0	-0.09478689168235499	0	0	0	0	2.982060778866646e-12	0
0.2368421052631579	29.92523328608819	64.93207040233469	-0	1.474635345980862	0	0.09478689634274365	-0.0368705618600566	0.00959042969409183	-0	1.948453875788829	0	-0.09478687776875531	0	0	0	0	7.223047247123526e-12	0
0.2394736842105263	19.18808726057609	47.42152352373864	-0	1.473943797024098	0	0.09478689634274366	-0.02272945628145226	0.005915669897737138	-0	1.965129328098413	0	-0.09478681952463833	0	-2.220446049250313e-16	0	0	1.714157505175451e-11	0
0.2421052631578947	10.38868080366648	31.32961271717416	-0	1.473208234604797	0	0.09478689634274365	-0.01329454361944204	0.003462335311774609	-0	1.981899001356193	0	-0.09478656431522235	0	0	0	0	4.006418352457686e-11	0
0.2447368421052631	3.691933572671518	15.03696662572085	-0	1.472490191871161	0	0.09478689634274365	-0.007280979123733355	0.001897665495534642	-0	1.998727432649806	0	-0.09478536927401886	0	0	0	0	9.226241884201236e-11	0
0.2473684210526315	-0.09314532697520862	-0.7315273601963351	-0	1.471680025501406	0	0.09478689634274363	-0.003552417133920772	0.0009268142504180256	-0	2.015509594158527	0	-0.0947790579111277	0	0	0	0	2.076762188867737e-10	0
0.25	0.06085902010819358	-0.1288335116713659	-0	1.467761596398422	0	0.09478689634274365	-0.001244310648433146	0.0003252359346624847	-0	2.031410324098047	0	-0.09473143503405095	0	0	0	0	4.500713026686686e-10	0
0.2526315789473684	3.18315803493406e-07	-2.946957959038404e-07	-0	1.465247914451716	0	0.09478689634274365	-3.931180902642079e-05	1.036852472115535e-05	-0	1.951625974432241	0	-0.09052183931327523	0	0	0	0	1.750073020079948e-10	0
0.2552631578947368	3.832979841797145e-14	-2.700038017483098e-14	-0	1.466867482138914	0	0.09478689634274365	-4.871581909887623e-05	1.30013024579497e-05	-0	1.868866888070335	0	-0.08656376578182151	0	0	0	0	-1.10139806100762e-09	0
0.2578947368421052	-0	-0	-0	0	0	0	-0.0001772727566113295	4.781087279982957e-05	-0	1.949770019900033	0	-0.08948714768569493	0	0	0	0	-5.46668606209329e-11	0
0.2605263157894737	-0	-0	-0	0	0	0	-0.0004087060316416316	0.0001123002403589546	-0	1.962006708560509	0	-0.08956150074572909	0	0	0	0	-7.86222465170433e-12	0
0.2631578947368421	-0	-0	-0	0	0	0	-0.0008986466460227504	0.0002528530348936325	-0	1.972034189968178	0	-0.08956464901369049	0	0	0	0	-5.384207877180518e-12	0
0.2657894736842105	-0	-0	-0	0	0	0	-0.001892766530273864	0.0005478615201584339	-0	1.981300068872867	0	-0.08955477707022302	0	0	0	0	-6.853542147862435e-12	0
0.2684210526315789	-0	-0	-0	0	0	0	-0.003892105210808142	0.001162572364141335	-0	1.992828719465244	0	-0.08963533810898164	0	0	0	0	-1.770435580908045e-10	0
0.2710526315789474	-0	-0	-0	0	0	0	-0.007576926033675631	0.002338912111790112	-0	2.001605542016604	0	-0.08962737913108522	0	0	0	0	-6.185028425835168e-10	0
0.2736842105263158	4.781621359399333e-15	-2.652065475520629e-15	-0	0	0	0	-0.01426207408584357	0.004551752991552187	-0	2.009709414616701	0	-0.08960523608251612	0	4.532350481436335e-16	0	0	-9.876929497800585e-10	0
0.2763157894736842	1.106860423769029e-13	-5.995134214197228e-14	-0	1.517966113515324	0	0.09478689634274365	-0.02624935058090726	0.008659289060316551	-0	2.017776794765116	0	-0.08959019876374771	0	0	0	0	-1.258055510027639e-09	0
0.2789473684210526	3.623410641809421e-12	-1.909468835301325e-12	-0	1.525432144831153	0	0.09478689634274365	-0.04759920133319904	0.01622625175362534	-0	2.025784053243641	0	-0.0895817083933097	0	0	0	0	-1.495896391999485e-09	0
0.281578947368421	1.502968776705908e-10	-7.675274265673009e-11	-0	1.533204160355597	0	0.09478689634274365	-0.08561240661767282	0.03015394351116529	-0	2.033635818053456	0	-0.08957704581820884	0	0	0	0	-1.763751002886726e-09	0
0.2842105263157895	8.099209170700636e-09	-3.997640799664459e-09	-0	1.541313022683725	0	0.09478689634274365	-0.1538943946773767	0.05600747909370145	-0	2.041256919560508	0	-0.08957443428569299	0	0	0	0	-2.12138911818982e-09	0
0.2868421052631579	5.508564476946229e-07	-2.624491737601748e-07	-0	1.549770576105364	0	0.09478689634274365	-0.2784230203345642	0.104737818429551	-0	2.048596681552552	0	-0.08957293261745446	0	0	0	0	-2.64152480444757e-09	0
0.2894736842105263	4.143937510853823e-05	-1.904874601155229e-05	-0	1.558573298818405	0	0.09478689634274365	-0.5104365800584461	0.1986454815031395	-0	2.055611338423084	0	-0.08957205739045862	0	0	0	0	-3.431107425955204e-09	0
0.2921052631578947	0.001779026833977348	-0.0007890741388650502	-0	1.567711454031631	0	0.09478689634274365	-0.9530906345513926	0.3841703752397416	-0	2.062269603045704	0	-0.08957155891098086	0	0	0	0	-4.645785825485582e-09	0
0.2947368421052631	-0.01830386801660888	0.00783450815973462	-0	1.577178526922794	0	0.09478689634274365	-1.815512790770953	0.7586481543765466	-0	2.068561101339625	0	-0.08957130541134814	0	0	0	0	-6.493814541652654e-09	0
0.2973684210526316	-0.03706277098128111	0.01531017428496272	-0	1.586970713211169	0	0.09478689634274365	-3.521617211898795	1.526617032873314	-0	2.074484569345041	0	-0.08957124197619533	0	0	0	0	-9.063868933179009e-09	0
0.3	-0.04622537199777422	0.01843085424600615	-0	1.597088300709588	0	0.09478689634274365	-6.905151443749489	3.108784652089831	-0	2.08004130556674	0	-0.08957139201258779	0	0	0	0	-1.067579569191679e-08	0
0.3026315789473684	-0.05194705884631186	0.02000020315561646	-0	1.607528627827227	0	0.09478689634274365	-13.51478735744213	6.330195342600057	-0	2.085239198416843	0	-0.08957185720674525	0	0	0	0	-4.924702867725728e-10	0
0.3052631578947368	-0.05689381759514593	0.02117798982430613	-0	1.618272745267777	0	0.09478689634274363	-25.84822870823542	12.63697871679429	-0	2.090079170781986	0	-0.0895729071147971	0	-8.673617379884035e-19	0	0	7.367137655478473e-08	0
0.3078947368421052	-0.0623666670755765	0.02248925428259257	-0	1.629296386693714	0	0.09478689634274365	-46.57746803608194	23.91066092270824	-0	2.094570730160433	0	-0.08957533769034172	0	0	0	0	4.673834137491895e-07	0
0.3105263157894737	-0.06905173374729773	0.02418254811108399	-0	1.640568590569315	0	0.09478689634274365	-75.55742033682513	41.13152311129535	-0	2.098759752931136	0	-0.08958171637156338	0	0	0	0	2.467536831751715e-06	0
0.3131578947368421	-0.07742991864938946	0.02641219452119582	-0	1.652060556682142	0	0.09478689634274365	-115.7356322799352	67.66162610934886	-0	2.102821835199714	0	-0.08959842236669198	0	0	0	0	1.219774042304778e-05	0
0.3157894736842105	-0.08805512215111973	0.02934294434010831	-0	1.663745332509189	0	0.09478689634274365	-201.735011843154	130.5992230044191	-0	2.106934486647282	0	-0.08963395120307315	0	0	0	0	6.654213887102856e-05	0
0.3184210526315789	-0.1013399813459682	0.03308459244933556	-0	1.675600592402509	0	0.09478689634274365	-336.6889968879245	260.9772422790598	-0	2.112372472438701	0	-0.08973384472376431	0	0	0	0	0.0004740570106704922	0
0.3210526315789474	-0.117531291593321	0.03768274061495461	-0	1.687618890173644	0	0.09478689634274365	-437.1067042347921	457.1971988111077	-0	2.123364869166454	0	-0.09005097546108064	0	0	0	0	0.00285575895419754	0
0.3236842105263158	-0.1374062181301156	0.04334248793642421	-0	1.699801838943241	0	0.09478689634274365	-140.04992056527	737.1852033472522	-0	2.139815526010338	0	-0.09054083746213179	0	0	0	0	0.04696634371066644	0
0.3263157894736842	-0.1608800078850493	0.05000388384612155	-0	1.71214880486152	0	0.09478689634274365	-302.312619297017	1108.98136369045	-0	2.152414088233171	0	-0.09099125325450025	0	0	0	0	0.02611889809167778	0
0.3289473684210526	-0.1871432704016112	0.0573797250983003	-0	1.724672551621055	0	0.09478689634274366	-186.9791469134471	1297.661742217271	-0	2.147057453584944	0	-0.09078375663486007	0	3.469446951953614e-18	0	0	-0.009146106084475747	0
0.331578947368421	-0.2162138349250159	0.0654213947186519	-0	1.737402111503377	0	0.09478689634274365	-185.3443399640216	1383.337403399329	-0	2.139130106978874	0	-0.09050740558131286	0	0	0	0	-0.02585113399032224	0
0.3342105263157895	-0.2477054372953466	0.07397153609040544	-0	1.750355302584825	0	0.09478689634274365	-127.9218632908807	1457.359313084632	-0	2.13702949238158	0	-0.09042893441563683	0	0	0	0	-0.02985951570479628	0
0.3368421052631579	-0.2809651919316176	0.08281742042858312	-0	1.763541309412723	0	0.09478689634274363	-169.4149096439541	1505.737397254346	-0	2.136043612447468	0	-0.09040524576824967	0	-3.469446951953614e-18	0	0	-0.03064179941911149	0
0.3394736842105263	-0.3149386506953693	0.09164919090114397	-0	1.776964930958684	0	0.09478689634274365	-142.8109956416255	1531.590180334578	-0	2.136187328620496	0	-0.09040910909076018	0	0	0	0	-0.02935459078477898	0
0.3421052631578947	-0.3484441316569309	0.1001491621008573	-0	1.790624481519866	0	0.09478689634274365	-168.0428782072849	1539.233317782508	-0	2.135893382714035	0	-0.09040616989607025	0	0	0	0	-0.02799262276672998	0
0.3447368421052631	-0.3800508296787355	0.1079513799203201	-0	1.804515043631088	0	0.09478689634274366	-145.785882861404	1537.242557111778	-0	2.136138427182585	0	-0.09041281883669952	0	6.938893903907228e-18	0	0	-0.02591970567122459	0
0.3473684210526315	-0.40833272622545	0.1147075252123422	-0	1.8186285113881	0	0.09478689634274365	-156.3987331801125	1527.409748312679	-0	2.135934870799164	0	-0.09040964786893942	0	0	0	0	-0.02444803534668694	0
0.35	-0.4316620768379901	0.1200254766226901	-0	1.832955520550368	0	0.09478689634274365	-121.9770277500337	1535.943875708465	-0	2.138736943379015	0	-0.09050187990592998	0	0	0	0	-0.01648132638196742	0
0.3526315789473684	-0.4479366263578385	0.1233727031343743	-0	1.847492469348086	0	0.09478689634274365	-113.7075497326915	1587.206173139828	-0	2.146808285844291	0	-0.09078222649399789	0	0	0	0	0.01244459229640782	0
0.3552631578947368	-0.4550933410141493	0.1242222515009227	-0	1.862242844466017	0	0.09478689634274365	-122.4163923515025	1637.176568392145	-0	2.156794612428646	0	-0.09113102890003053	0	0	0	0	0.05321482474476902	0
0.3578947368421053	-0.452358975326123	0.1224151405591837	-0	1.87721124953196	0	0.09478689634274365	-139.4260553285542	1625.622506065925	-0	2.163923341189225	0	-0.0913810545547967	0	0	0	0	0.06802354497897056	0
0.3605263157894737	-0.4401231306308322	0.1181338873948502	-0	1.892394423418389	0	0.09478689634274365	-117.6950749658333	1567.994507433639	-0	2.169522972089925	0	-0.09157047046700101	0	0	0	0	0.06542861953683854	0
0.3631578947368421	-0.4201246845860809	0.1119319895398694	-0	1.907773949678596	0	0.09478689634274365	-104.5676172750963	1493.830240516484	-0	2.174643907615558	0	-0.09174507322622172	0	0	0	0	0.05810628196960366	0
0.3657894736842105	-0.3947991892390146	0.1045087907141815	-0	1.923325676832495	0	0.09478689634274365	-81.85345436259234	1412.002445417535	-0	2.179734128296843	0	-0.09191661653927972	0	0	0	0	0.04947537194971829	0
0.3684210526315789	-0.3666533198708088	0.09653177488230569	-0	1.939023079357937	0	0.09478689634274365	-68.33731103054416	1330.285932718185	-0	2.184562986499628	0	-0.09208103711035884	0	0	0	0	0.04046361583057756	0
0.3710526315789474	-0.3379439633757174	0.08857750195164535	-0	1.954838386155725	0	0.09478689634274363	-51.48074181054969	1253.635405766319	-0	2.189332373926271	0	-0.09224246712655362	0	-6.938893903907228e-18	0	0	0.03202367740744716	0
0.3736842105263158	-0.3102889303104641	0.08103694143194937	-0	1.970746762597722	0	0.09478689634274365	-41.41913746928891	1181.391055153753	-0	2.19382674162508	0	-0.09239593500848431	0	0	0	0	0.02416514890385812	0
0.3763157894736842	-0.2847076990019617	0.0741406004050907	-0	1.986725585558389	0	0.09478689634274365	-30.19612971390534	1114.012172400829	-0	2.198332429086933	0	-0.09254947930317257	0	0	0	0	0.01723218324673281	0
0.3789473684210526	-0.2614759729633272	0.06792608096076533	-0	2.002760112079102	0	0.09478689634274365	-23.68379048820682	1049.918323670322	-0	2.202775553870848	0	-0.09270225309493084	0	0	0	0	0.01112940785312944	0
0.381578947368421	-0.2405536906372993	0.06235782616107836	-0	2.018839039089309	0	0.09478689634274365	-16.8404430228203	991.3674162395682	-0	2.207566544678828	0	-0.09286730103717064	0	0	0	0	0.005918991021728548	0
0.3842105263157894	-0.2217597939518011	0.057374687638187	-0	2.034954858586585	0	0.09478689634274366	-13.79081354005	940.297925111288	-0	2.212814628866379	0	-0.09304990326250365	0	0	0	0	0.001398047139753222	0
0.3868421052631579	-0.2049569963699608	0.05293381208426928	-0	2.051100181696143	0	0.09478689634274365	-6.29014648835318	906.2955296751562	-0	2.219694584185691	0	-0.09328887848693151	0	0	0	0	-0.002726559379575777	0
0.3894736842105263	-0.190262628733065	0.04906472648045612	-0	2.067263888744765	0	0.09478689634274365	3.039015545482153	889.9951038920203	-0	2.228990398516046	0	-0.09361311415151481	0	0	0	0	-0.006808087658533579	0
0.3921052631578947	-0.1779036574972541	0.04582646115815064	-0	2.083431874044904	0	0.09478689634274365	5.274145176499609	870.2288199015557	-0	2.23953425452775	0	-0.09398475960790775	0	0	0	0	-0.009554296856843114	0
0.3947368421052632	-0.1687257113404139	0.04344464299303214	-0	2.099573583635551	0	0.09478689634274365	2.106665909724255	838.8559290600367	-0	2.250257442380763	0	-0.09436557208603662	0	0	0	0	-0.008397486588550052	0
0.3973684210526316	-0.1634280305096589	0.04210141118453813	-0	2.115652827174601	0	0.09478689634274366	-1.071527035409287	806.5587244081145	-0	2.260668655701398	0	-0.09473631248213482	0	3.469446951953614e-18	0	0	-0.001505663220918954	0
0.4	-0.1618582968582494	0.04174337218985411	-0	2.131647717590277	0	0.09478689634274365	4.635456831518824	816.6616018453266	-0	2.262628033837816	0	-0.09480217658040895	0	0	0	0	0.0006334489323692738	0
0.4026315789473684	-0.1636206790929576	0.0422526405272544	-0	2.147550005922259	0	0.09478689634274365	18.23096333300455	831.1674628854585	-0	2.262426937641996	0	-0.09478747216851989	0	0	0	0	3.173417863067129e-05	0
0.4052631578947368	-0.1677370529807352	0.04335735930412594	-0	2.163377464354368	0	0.09478689634274365	29.14531071278589	837.6559821952634	-0	2.262582718819572	0	-0.09478690616124964	0	0	0	0	6.951211037886651e-07	0
0.4078947368421053	-0.1733043091862957	0.04480985040900683	-0	2.179155827055451	0	0.09478689634274365	39.98672772100051	840.2016933351388	-0	2.262751061259801	0	-0.09478689645980976	0	0	0	0	1.038073493830893e-08	0
0.4105263157894737	-0.1799838851460228	0.04652457536626358	-0	2.194906044168165	0	0.09478689634274365	49.57881883636253	839.5147465075595	-0	2.262902063953683	0	-0.09478689634389283	0	0	0	0	1.249622627597091e-10	0
0.4131578947368421	-0.187553015212392	0.04844847547934439	-0	2.210644227433209	0	0.09478689634274365	58.79433090742657	836.3920902558903	-0	2.263047362212551	0	-0.09478689634275378	0	0	0	0	1.327826737451687e-12	0
0.4157894736842105	-0.195921122323232	0.05056349232763076	-0	2.226379649109878	0	0.09478689634274366	67.09528445793167	830.5343082345889	-0	2.263180552702265	0	-0.09478689634274372	0	3.469446951953614e-18	0	0	1.154631945610163e-14	0
0.4184210526315789	-0.2050449707909573	0.05286398079416921	-0	2.242118803405623	0	0.09478689634274365	75.8764526668498	826.4712147072196	-0	2.263315929012528	0	-0.09478689634274365	0	0	0	0	0	0
0.4210526315789473	-0.2149970842870627	0.05537284433460302	-0	2.257863537218642	0	0.09478689634274365	84.05145180546108	828.216596184517	-0	2.263431966579075	0	-0.09478689634274365	0	0	0	0	0	0
0.4236842105263158	-0.225845746986461	0.05811078634976106	-0	2.273614606019095	0	0.09478689634274365	90.57089922519157	831.4570511863615	-0	2.263518802089191	0	-0.09478689634274363	0	0	0	0	-1.77635683940025e-15	0
0.4263157894736842	-0.2375682181545969	0.06107306514624145	-0	2.289371974789856	0	0.09478689634274365	96.41487217076417	830.6302381167261	-0	2.263599325180359	0	-0.09478689634274363	0	0	0	0	-1.77635683940025e-15	0
0.4289473684210526	-0.2501103569314723	0.06424698226336555	-0	2.305135642664487	0	0.09478689634274365	102.6070846348098	826.217734248906	-0	2.263688223075418	0	-0.09478689634274365	0	0	0	0	0	0
0.4315789473684211	-0.2633810019881574	0.06761017470026044	-0	2.320905560967395	0	0.09478689634274365	108.393052067718	818.7158420599933	-0	2.26377425754464	0	-0.09478689634274363	0	0	0	0	-1.77635683940025e-15	0
0.4342105263157895	-0.277252477952159	0.0711310682436027	-0	2.336681734551383	0	0.09478689634274365	114.0386020154904	808.5294757914336	-0	2.263861276221192	0	-0.09478689634274365	0	0	0	0	0	0
0.4368421052631579	-0.2915439202416629	0.07476436947228809	-0	2.352464405707706	0	0.09478689634274365	119.1297440808268	795.849684024267	-0	2.263943353859023	0	-0.09478689634274365	0	0	0	0	0	0
0.4394736842105263	-0.3060018778459493	0.07844569497677333	-0	2.368254238132855	0	0.09478689634274365	123.8620586291961	780.9301449438359	-0	2.264023626329052	0	-0.09478689634274365	0	0	0	0	0	0
0.4421052631578947	-0.3203254885376822	0.08209767288849093	-0	2.384052701676544	0	0.09478689634274365	128.1626933468968	763.8693694620104	-0	2.264101452674403	0	-0.09478689634274365	0	0	0	0	0	0
0.4447368421052631	-0.3339954133538796	0.08558465268655821	-0	2.399862276964587	0	0.09478689634274363	132.1851587066454	744.9171525284735	-0	2.26417946123134	0	-0.09478689634274365	0	0	0	0	0	0
0.4473684210526315	-0.3456747515576197	0.08855535330387847	-0	2.415691814147493	0	0.09478689634274365	135.8780295516622	724.1547641108211	-0	2.264257458045579	0	-0.09478689634274365	0	0	0	0	0	0
0.45	-0.3536450715918223	0.09056218110466678	-0	2.431553359676698	0	0.09478689634274365	139.2922612323271	701.792665907343	-0	2.264336648562528	0	-0.09478689634274365	0	0	0	0	0	0
0.4526315789473684	-0.3561402973635051	0.09115192614391629	-0	2.44746144836038	0	0.09478689634274365	142.278057394263	677.9300994884371	-0	2.264415098299244	0	-0.09478689634274365	0	0	0	0	0	0
0.4552631578947368	-0.3518400714599497	0.08999315354497638	-0	2.463429369428568	0	0.09478689634274365	143.9611726266688	650.6701894056501	-0	2.264485397216388	0	-0.09478689634274365	0	0	0	0	0	0
0.4578947368421052	-0.3410846967981518	0.08719163721340079	-0	2.479460533961824	0	0.09478689634274365	144.1589172056797	617.7991054930141	-0	2.264555553471618	0	-0.09478689634274365	0	0	0	0	0	0
0.4605263157894737	-0.3250696660502844	0.0830682364197575	-0	2.495552174509554	0	0.09478689634274365	144.2873361601016	581.8468195273344	-0	2.264646562866805	0	-0.09478689634274365	0	0	0	0	0	0
0.4631578947368421	-0.3055156463992533	0.07806876558506351	-0	2.511693644044418	0	0.09478689634274365	144.192919116738	546.1548194633657	-0	2.264742232870034	0	-0.09478689634274365	0	0	0	0	0	0
0.4657894736842105	-0.2845727711387796	0.07274602786054996	-0	2.527869798771644	0	0.09478689634274365	143.2520033361322	510.9502429848246	-0	2.264828415071952	0	-0.09478689634274365	0	0	0	0	0	0
0.468421052631579	-0.2652857231787092	0.06788304080886647	-0	2.544051691582874	0	0.09478689634274365	141.5582079676419	475.8294389019635	-0	2.264910178173794	0	-0.09478689634274365	0	0	0	0	0	0
0.4710526315789474	-0.2496533084975378	0.06398736530320208	-0	2.560206206122649	0	0.09478689634274365	139.2230174563809	440.9604284868703	-0	2.264990233454357	0	-0.09478689634274365	0	0	0	0	0	0
0.4736842105263158	-0.2369099611443506	0.06084430770938371	-0	2.576314067336325	0	0.09478689634267706	136.27485461299	406.4430237907866	-0	2.265069912551513	0	-0.09478689634274365	0	-3.05311331771918e-16	0	0	0	0
0.4763157894736842	-0.2256705589967297	0.05808287542591402	-0	2.592367319184832	0	0.09478689634254459	132.4094531661326	371.5321433203646	-0	2.265149971678018	0	-0.09478689634274365	0	-8.153200337090993e-16	0	0	0	0
0.4789473684210526	-0.2137259542474965	0.05512075095847561	-0	2.608379320445725	0	0.09478689634208003	127.4303955446566	334.8970177330928	-0	2.265244333392064	0	-0.09478689634274365	0	-2.435551760271437e-15	0	0	0	0
0.481578947368421	-0.1995452546974775	0.0515567086432487	-0	2.624368937265939	0	0.09478689634052896	120.8254813153086	295.9259308506259	-0	2.265355413924994	0	-0.09478689634274365	0	-7.181755190543981e-15	0	0	0	0
0.4842105263157894	-0.1820568890562106	0.04711136929649314	-0	2.640362263789275	0	0.09478689633520271	111.7808546156174	254.761382861436	-0	2.265466641607136	0	-0.09478689634274365	0	-2.110464580873384e-14	0	0	0	0
0.4868421052631579	-0.1605119745009439	0.04158837443430559	-0	2.656389483090775	0	0.09478689631666198	100.5138549200939	213.3449278200267	-0	2.265564067970544	0	-0.09478689634274365	0	-6.085063009031444e-14	0	0	0	0
0.4894736842105263	-0.1355514918119267	0.03515783787358675	-0	2.672478773821825	0	0.09478689625101636	87.07627759988813	174.7339689587577	-0	2.265573266597865	0	-0.09478689634274365	0	-1.704105606625816e-13	0	0	0	0
0.4921052631578947	-0.108436164347726	0.02814954439549845	-0	2.688657666607088	0	0.09478689601338786	72.12768481195793	140.2857256854586	-0	2.265440016982755	0	-0.09478689634274365	0	-4.599844810604381e-13	0	0	0	0
0.4947368421052631	-0.08130988849589001	0.02112328142053776	-0	2.704949199955505	0	0.09478689512620805	56.97186372138808	110.5633383036307	-0	2.265152445333618	0	-0.09478689634274363	0	-1.194191447118076e-12	0	0	-8.881784197001252e-16	0
0.4973684210526316	-0.0566536852378083	0.01472747237111711	-0	2.721372200634596	0	0.09478689168235499	42.63654244090723	85.67105101870023	-0	2.264698791661619	0	-0.09478689634274365	0	-2.982060778866646e-12	0	0	0	0
0.5	-0.03687056186005603	0.009590429694091681	-0	2.737927559999356	0	0.09478687776875531	29.92523328608819	64.93207040233496	-0	2.264109030191388	0	-0.09478689634274365	0	-7.223047247123526e-12	0	0	0	0
0.5026315789473684	-0.02272945628145216	0.005915669897737113	-0	2.754603012308939	0	0.09478681952463833	19.18808726057462	47.421523523735	-0	2.263417481234624	0	-0.09478689634274365	0	-1.714157461807364e-11	0	0	0	0
0.5052631578947369	-0.01329454361944199	0.003462335311774596	-0	2.771372685566719	0	0.09478656431522235	10.38868080366515	31.32961271717032	-0	2.262681918815323	0	-0.09478689634274365	0	-4.006418352457686e-11	0	0	0	0
0.5078947368421052	-0.007280979123733467	0.00189766549553467	-0	2.788201116860332	0	0.09478536927401886	3.691933572671411	15.03696662572066	-0	2.261963876081687	0	-0.09478689634274365	0	-9.226241884201236e-11	0	0	0	0
0.5105263157894736	-0.003552417133920647	0.000926814250417993	-0	2.804983278369053	0	0.09477905791112769	-0.09314532697502738	-0.7315273601949348	-0	2.261153709711932	0	-0.09478689634274365	0	-2.076762189951939e-10	0	0	0	0
0.513157894736842	-0.001244310648433142	0.0003252359346624835	-0	2.820884008308574	0	0.09473143503405093	0.06085902010817722	-0.1288335116713307	-0	2.257235280608949	0	-0.09478689634274365	0	-4.500713026957736e-10	0	0	0	0
0.5157894736842105	-3.931180902642068e-05	1.036852472115532e-05	-0	2.741099658642768	0	0.09052183931327525	3.183158034934075e-07	-2.946957959038418e-07	-0	2.254721598662242	0	-0.09478689634274365	0	-1.750073020071477e-10	0	0	0	0
0.5184210526315789	-4.871581909887622e-05	1.30013024579497e-05	-0	2.658340572280862	0	0.0865637657818215	3.832979841797156e-14	-2.700038017483105e-14	-0	2.256341166349441	0	-0.09478689634274365	0	1.101398061005079e-09	0	0	0	0
0.5210526315789473	-0.0001772727566113294	4.781087279982954e-05	-0	2.73924370411056	0	0.08948714768569495	-0	-0	-0	0	0	0	0	5.46668606209329e-11	0	0	0	0
0.5236842105263158	-0.0004087060316416306	0.0001123002403589543	-0	2.751480392771035	0	0.08956150074572911	-0	-0	-0	0	0	0	0	7.862224658480594e-12	0	0	0	0
0.5263157894736842	-0.0008986466460227496	0.0002528530348936323	-0	2.761507874178704	0	0.08956464901369049	-0	-0	-0	0	0	0	0	5.384207877180518e-12	0	0	0	0
