DataType=double
version=3
OpenSimVersion=4.6-2026-06-22-85aaf64
endheader
time	ground_force_r_vx	ground_force_r_vy	ground_force_r_vz	ground_force_r_px	ground_force_r_py	ground_force_r_pz	ground_force_l_vx	ground_force_l_vy	ground_force_l_vz	ground_force_l_px	ground_force_l_py	ground_force_l_pz	ground_torque_r_x	ground_torque_r_y	ground_torque_r_z	ground_torque_l_x	ground_torque_l_y	ground_torque_l_z
0	-1.082099099652777e-12	2.715557054964627e-13	-0	1.306240051431833	0	0.09478689634274365	-0	-0	-0	0	0	0	0	0	0	0	0	0
0.003448275862068966	-1.276475458686517e-11	3.217922751047792e-12	-0	1.187193997322403	0	0.08985169943177974	-0	-0	-0	0	0	0	0	7.85880824899731e-19	0	0	0	0
0.006896551724137932	-1.091367266882754e-10	2.757607568951657e-11	-0	1.19162906713124	0	0.08959755964467592	-0	-0	-0	0	0	0	0	8.753131749624288e-18	0	0	0	0
0.0103448275862069	-1.039940180703152e-09	2.637861668803799e-10	-0	1.202272285315728	0	0.08957005339681949	-0	-0	-0	0	0	0	0	6.291301181675881e-18	0	0	0	0
0.01379310344827586	-9.41666944506046e-09	2.413892346864448e-09	-0	1.213115057645768	0	0.08956903544954495	4.049955967791457e-19	-2.478702249862736e-19	-0	0	0	0	0	4.918975406527118e-18	0	0	-3.838827565117248e-20	0
0.01724137931034483	-7.761292179616949e-08	2.031797647770432e-08	-0	1.223100209709049	0	0.08956897507908836	2.747400567482159e-17	-1.637580883921474e-17	-0	0	0	0	0	0	0	0	-2.604175728019265e-18	0
0.02068965517241379	-5.723480161310083e-07	1.544997498318181e-07	-0	1.232367727985662	0	0.08956897507908836	7.978741828787146e-15	-4.619128227455916e-15	-0	0	0	0	0	0	0	0	-7.5628017467076e-16	0
0.02413793103448276	-3.76575892015431e-06	1.05663642762976e-06	-0	1.241101904932146	0	0.08956897507908836	6.385293995005008e-12	-3.577957612118052e-12	-0	0.5495171767114143	0	-0.09478689634274365	0	0	0	0	0	0
0.02758620689655173	-2.230073089103499e-05	6.546112302706991e-06	-0	1.249435130196914	0	0.08956897507908836	1.035767161006464e-08	-5.600194376559494e-09	-0	0.5589511821905303	0	-0.09478689634274365	0	0	0	0	0	0
0.03103448275862069	-0.0001206948545355574	3.723974273748356e-05	-0	1.257430290011735	0	0.08956897507908836	-2.911579551041211e-06	1.515569714570761e-06	-0	0.5687303908870668	0	-0.09478689634274365	0	0	0	0	0	0
0.03448275862068966	-0.0006085530368952207	0.0001978961534631002	-0	1.26514333773742	0	0.08956897507908836	-1.284056304223543e-05	6.428395662602211e-06	-0	0.5788124925838279	0	-0.09478689634274365	0	0	0	0	0	0
0.03793103448275862	-0.002907668897528401	0.0009974524050307481	-0	1.27259059984435	0	0.08956897507908836	-1.873211500838773e-05	9.021213949894968e-06	-0	0.5891328123580121	0	-0.09478689634274365	0	0	0	0	0	0
0.04137931034482759	-0.01341520991310982	0.004856466592355426	-0	1.279726475924266	0	0.08956897507908836	-2.634106753630597e-05	1.222220610845554e-05	-0	0.5996005223761774	0	-0.09478689634274365	0	0	0	0	0	0
0.04482758620689656	-0.06072174697599287	0.02320099179555425	-0	1.286501583057544	0	0.08956897507908836	-4.041731558085153e-05	1.811460059874369e-05	-0	0.6101287062945986	0	-0.09478689634274365	0	0	0	0	0	0
0.04827586206896552	-0.273126653779591	0.1101711325927615	-0	1.292864934016396	0	0.08956897507908836	-6.938050143706753e-05	3.012161787012411e-05	-0	0.6206660273947257	0	-0.09478689634274365	0	0	0	0	0	0
0.0517241379310345	-1.225403979272455	0.5218542079220269	-0	1.298790242150188	0	0.08956897507908836	-0.0001325816990919533	5.592808942361382e-05	-0	0.6311857584895046	0	-0.09478689634274365	0	0	0	0	0	0
0.05517241379310345	-5.420857715483786	2.437733961823145	-0	1.304258585627432	0	0.08956897507908836	-0.0002779235789674585	0.0001142589672111986	-0	0.6416874742939946	0	-0.09478689634274365	0	0	0	0	0	0
0.05862068965517241	-22.50600447427287	10.71735827521381	-0	1.309252725561931	0	0.08956897507908858	-0.0006262097459153003	0.0002515670989790517	-0	0.6521941576775235	0	-0.09478689634274365	0	-4.440892098500626e-16	0	0	0	0
0.06206896551724138	-74.3709470112784	38.31197705142709	-0	1.313606659004303	0	0.08956897507908863	-0.001482364050209881	0.0005829879220319538	-0	0.6627563213903408	0	-0.09478689634274365	0	-8.881784197001252e-16	0	0	0	0
0.06551724137931035	-174.6394668393029	101.7990247852289	-0	1.317325915672151	0	0.08956897507908931	-0.003595160664712934	0.001385680598412305	-0	0.6734369596428	0	-0.09478689634274363	0	1.77635683940025e-15	0	0	5.421010862427522e-20	0
0.06896551724137932	-452.3582647581625	355.0714762516995	-0	1.320192012776299	0	0.08956897507909471	-0.008675027279549467	0.003278861648870469	-0	0.6843057598643389	0	-0.09478689634274365	0	-1.4210854715202e-13	0	0	0	0
0.07241379310344828	-274.084557126942	788.9898975659893	-0	1.323502653769818	0	0.08956897507923656	-0.02016042436147597	0.007477276573012274	-0	0.695434864558781	0	-0.09478689634274365	0	-6.80522305174236e-11	0	0	0	0
0.07586206896551724	39.54807822998445	1187.152345692044	-0	1.325534558509114	0	0.08956897508238063	-0.04415693680074285	0.01608630791687247	-0	0.7068813778879962	0	-0.09478689634274365	0	-2.211590022227483e-09	0	0	0	0
0.07931034482758621	-97.54289279524352	1410.577193495564	-0	1.325409072795379	0	0.08956897512783718	-0.08969568988500538	0.03212358984245498	-0	0.7187060560310381	0	-0.09478689634274365	0	-3.633189393781322e-08	0	0	0	0
0.08275862068965517	0.6638508168308405	1455.28329185245	-0	1.326432152649195	0	0.08956897577260145	-0.1677223919599268	0.05908396044297375	-0	0.7309587443143553	0	-0.09478689634274365	0	-5.921774493336529e-07	0	0	0	0
0.08620689655172414	-141.8451505925708	1416.13369362933	-0	1.326176594850242	0	0.08956898432119492	-0.2875782855284442	0.09970567414106422	-0	0.743667543792824	0	-0.09478689634274365	0	-7.799749283776691e-06	0	0	0	0
0.08965517241379312	-77.27480486466712	1351.227815785759	-0	1.327192260500281	0	0.08956908779585961	-0.4505278013614178	0.1538815062524685	-0	0.7568419510418257	0	-0.09478689634274365	0	-8.9897021774199e-05	0	0	0	0
0.09310344827586207	-178.0424592043716	1309.785930046083	-0	1.327119247323642	0	0.08957008902821439	-0.6452035798319768	0.2173809693885612	-0	0.7704794248675478	0	-0.09478689634274365	0	-0.0007704599388755895	0	0	0	0
0.09655172413793105	-119.2842025840083	1282.419962032571	-0	1.328410967294846	0	0.08957749756821858	-0.8494279062434243	0.2826177243677737	-0	0.7845755298682552	0	-0.09478689634274365	0	-0.005035274596837169	0	0	0	0
0.1	-179.7487717696685	1280.228298992375	-0	1.329585718661029	0	0.08961305837479248	-1.039136966708493	0.3416986841548511	-0	0.799117729902212	0	-0.09478689634274365	0	-0.02127716666496582	0	0	0	0
0.103448275862069	-129.7431692228045	1284.190006647313	-0	1.333249309247683	0	0.08970485810673746	-1.190876703441672	0.3871931691815551	-0	0.8140945214215343	0	-0.09478689634274365	0	-0.05332319706369937	0	0	0	0
0.1068965517241379	-177.5532684720111	1306.717544623686	-0	1.338144944434824	0	0.08986871890029696	-1.287505970624298	0.4139188387913472	-0	0.8294977726825451	0	-0.09478689634274366	0	-0.09055433350883568	0	0	-1.387778780781446e-17	0
0.1103448275862069	-170.9902335536763	1352.284724775585	-0	1.347599146612982	0	0.09017912807667887	-1.317067599876948	0.418464807815764	-0	0.8453379796633589	0	-0.09478689634274366	0	-0.1213585474659951	0	0	-2.775557561562891e-17	0
0.1137931034482759	-190.5697356928715	1344.750649689082	-0	1.351602749369134	0	0.09031567189256423	-1.277574946842117	0.4008077707811221	-0	0.8616320268388959	0	-0.09478689634274365	0	-0.07797038563456127	0	0	0	0
0.1172413793103448	-137.2037688941791	1304.549525006127	-0	1.35301098639989	0	0.09034593586148977	-1.178677858054624	0.3648125354291511	-0	0.8783973034054878	0	-0.09478689634274365	0	-0.04453704798749847	0	0	0	0
0.1206896551724138	-136.3327972814278	1279.426002640381	-0	1.353570856731737	0	0.09036122942029444	-1.039499767410213	0.3172397372801423	-0	0.8956408759574408	0	-0.09478689634274365	0	-0.02908379156664331	0	0	0	0
0.1241379310344828	-100.2377586185079	1256.532328386737	-0	1.354753973464394	0	0.09038875304598942	-0.881729195378618	0.2653710559839896	-0	0.9133464887256029	0	-0.09478689634274365	0	-0.02289748656409607	0	0	0	0
0.1275862068965517	-95.32262688933709	1232.054635518807	-0	1.355386914456689	0	0.09040652051659406	-0.7243924266584347	0.2151217133953639	-0	0.9314896773654167	0	-0.09478689634274365	0	-0.01798977151346648	0	0	0	0
0.1310344827586207	-60.66216033527915	1191.605945610536	-0	1.356549295808692	0	0.090434503512013	-0.5793921135840657	0.16988347563495	-0	0.9500434664869585	0	-0.09478689634274365	0	-0.01580169489962913	0	0	0	0
0.1344827586206897	-43.45268218891526	1144.997747704569	-0	1.35862959774485	0	0.09050000975444421	-0.4533687670884112	0.131354009325809	-0	0.968976624626249	0	-0.09478689634274365	0	-0.01836107993803893	0	0	0	0
0.1379310344827586	-12.35840579035556	1106.556307013969	-0	1.364375855280443	0	0.09068885260987432	-0.3480020723581567	0.09971355724838669	-0	0.9882583711221601	0	-0.09478689634274365	0	-0.03338834731103346	0	0	0	0
0.1413793103448276	-14.82902722302266	1073.439962656939	-0	1.371816547220717	0	0.09094707644397035	-0.2626927696350652	0.07450021627219723	-0	1.007860033850141	0	-0.09478689634274365	0	-0.05154365416796836	0	0	0	0
0.1448275862068966	-14.21595713745056	1036.259199675702	-0	1.379155994411805	0	0.09120035991533226	-0.195468320240475	0.05490890913270051	-0	1.027757048466939	0	-0.09478689634274365	0	-0.06135578498823335	0	0	0	0
0.1482758620689655	-20.74320210121762	1003.146641825269	-0	1.385189766501504	0	0.09141007901590402	-0.1436685854834922	0.04000286047802033	-0	1.047924500606209	0	-0.09478689634274365	0	-0.06158190513576112	0	0	0	0
0.1517241379310345	-18.10373216347506	973.674999960341	-0	1.390576959530752	0	0.0915942221111421	-0.1043968781127943	0.02883252306406165	-0	1.068339008816652	0	-0.09478689634274365	0	-0.05744466730068054	0	0	0	0
0.1551724137931035	-18.51187851829289	950.6683101974374	-0	1.395362932348957	0	0.09175842205645532	-0.0750379226006713	0.02056952359692708	-0	1.088978982893482	0	-0.09478689634274365	0	-0.051737682622786	0	0	0	0
0.1586206896551724	-13.31330941527944	936.8006128960435	-0	1.400614353182328	0	0.09193730385309304	-0.05332229732117883	0.01451538904183332	-0	1.109829819117076	0	-0.09478689634274365	0	-0.04702286734398609	0	0	0	0
0.1620689655172414	-11.49405211167467	933.9196860779189	-0	1.406637464571024	0	0.09214466970046645	-0.03743133016093744	0.01012304168092736	-0	1.130880189059146	0	-0.09478689634274365	0	-0.04310986243144765	0	0	0	0
0.1655172413793103	-7.447691511495066	941.7350252132958	-0	1.414124607911487	0	0.09240310247010555	-0.02594821351339958	0.006974102336265505	-0	1.152121912180285	0	-0.09478689634274365	0	-0.03926541212556189	0	0	0	0
0.1689655172413793	-11.28126706193915	946.2339717171985	-0	1.421811656969623	0	0.09267129472324981	-0.01775438168072851	0.004743564582054497	-0	1.173549291990001	0	-0.09478689634274365	0	-0.03221327491792159	0	0	0	0
0.1724137931034483	-13.31843832824175	938.0835516861056	-0	1.429055857009419	0	0.09292352670856695	-0.01198538007799995	0.003183933997733209	-0	1.19515754743627	0	-0.09478689634274365	0	-0.02234430613636129	0	0	0	0
0.1758620689655173	-13.24093947263485	923.7087091939716	-0	1.436085003660828	0	0.09316787400726907	-0.007960797988265648	0.002102867662595489	-0	1.216947105847739	0	-0.09478689634274365	0	-0.01210204004386295	0	0	0	0
0.1793103448275862	-10.15734874139384	905.9211213662327	-0	1.443554227095258	0	0.09342731062414457	-0.005147345008804347	0.001351499225768394	-0	1.238944756148121	0	-0.09478689634274363	0	-0.002689913171881719	0	0	5.421010862427522e-20	0
0.1827586206896552	-3.063434768565269	889.6763806326153	-0	1.452355851607386	0	0.09373322629385571	-0.003216299258652546	0.0008390840834147572	-0	1.261172806519451	0	-0.09478689634274365	0	0.005150867631005418	0	0	0	0
0.1862068965517241	7.500140165359566	876.0011171946187	-0	1.463389022369669	0	0.09411792331870272	-0.001970520174160534	0.0005110879406901001	-0	1.283593552873545	0	-0.09478689634274365	0	0.00983540422301743	0	0	0	0
0.1896551724137931	9.708329749533068	851.5323333066202	-0	1.475785948814957	0	0.09455538107881722	-0.001207190589239402	0.0003116663062190515	-0	1.306150969986832	0	-0.09478689634274365	0	0.006598581477589072	0	0	0	0
0.1931034482758621	17.90299043505356	845.3934191526797	-0	1.482951173031983	0	0.09480533789511963	-0.0007506276420975789	0.000193148482819406	-0	1.328790139571322	0	-0.09478689634274365	0	-0.0008495868462041756	0	0	0	0
0.1965517241379311	41.13553509570924	866.6639460349348	-0	1.482760443999699	0	0.09478701664196808	-0.0004758352438504648	0.0001221395636032261	-0	1.351477014795526	0	-0.09478689634274365	0	-8.165399396187212e-06	0	0	0	0
0.2	61.62676998857933	873.0837254721996	-0	1.483042694203738	0	0.09478689647816708	-0.0002982665826583521	7.63433715049571e-05	-0	1.374260673802893	0	-0.09478689634274365	0	-1.278609218502424e-08	0	0	0	0
0.203448275862069	75.84574285962402	872.759682158051	-0	1.483250296524766	0	0.09478689634284254	-0.0001801262660592444	4.592613851388464e-05	-0	1.397202435390246	0	-0.09478689634274365	0	-1.244604419525785e-11	0	0	0	0
0.2068965517241379	88.49585959252691	867.737420973173	-0	1.483438500013575	0	0.09478689634274373	-0.0001061430763812968	2.695007138074481e-05	-0	1.420296072822129	0	-0.09478689634274366	0	-1.243449787580175e-14	0	0	-1.694065894508601e-21	0
0.2103448275862069	97.59715396600589	860.5300808988383	-0	1.483578697881382	0	0.09478689634274365	-6.216165792063501e-05	1.572169802116448e-05	-0	1.443514241788274	0	-0.09478689634274365	0	0	0	0	0	0
0.2137931034482759	105.2331595775182	852.4519822541387	-0	1.483696029426208	0	0.09478689634274365	-3.638324325372256e-05	9.168846732369613e-06	-0	1.466840009310781	0	-0.09478689634274365	0	0	0	0	0	0
0.2172413793103448	110.5603398119214	844.1388494966476	-0	1.483777294661833	0	0.09478689634274365	-2.137738661000774e-05	5.36920687345194e-06	-0	1.490260667379855	0	-0.09478689634274366	0	0	0	0	0	0
0.2206896551724138	114.7765522890655	835.8024849392597	-0	1.48383834976598	0	0.09478689634274365	-1.266991533796655e-05	3.172037556821188e-06	-0	1.513768168015082	0	-0.09478689634274365	0	0	0	0	0	0
0.2241379310344828	117.6287579365758	826.9128740395781	-0	1.483876515768311	0	0.09478689634274365	-7.580375508143217e-06	1.891801089217141e-06	-0	1.53735872371908	0	-0.09478689634274365	0	0	0	0	0	0
0.2275862068965518	120.0690259060572	817.0541127288018	-0	1.483906515580075	0	0.09478689634274363	-4.53286659731622e-06	1.127496361895838e-06	-0	1.561041147166039	0	-0.09478689634274365	0	1.77635683940025e-15	0	0	0	0
0.2310344827586207	122.2821950053622	805.5468779367088	-0	1.48393296140091	0	0.09478689634274365	-2.623506174932693e-06	6.503427335452356e-07	-0	1.584818628105916	0	-0.09478689634274365	0	0	0	0	0	0
0.2344827586206897	125.5529232194671	792.9097266653355	-0	1.483974330402681	0	0.09478689634274363	-1.339185543781648e-06	3.310849181643108e-07	-0	1.608655320505161	0	-0.09478689634274365	0	1.77635683940025e-15	0	0	0	0
0.2379310344827586	129.5496497626063	779.1705228456722	-0	1.484025879552553	0	0.09478689634274365	-5.328011490443342e-07	1.315911602210056e-07	-0	1.632500072835126	0	-0.09478689634274365	0	0	0	0	0	0
0.2413793103448276	134.1311343067387	763.3312203906914	-0	1.4840884348099	0	0.09478689634274365	-1.400296718424424e-07	3.461490215000272e-08	-0	1.65630913011785	0	-0.09478689634274365	0	0	0	0	0	0
0.2448275862068966	138.5452824587917	744.0550319112624	-0	1.484154786687319	0	0.09478689634274365	-1.371070725592962e-08	3.397579928169123e-09	-0	1.680045942504798	0	-0.09478689634274365	0	0	0	0	0	0
0.2482758620689655	142.5076124564281	720.650993493049	-0	1.484224232764076	0	0.09478689634274365	3.412428146594558e-09	-8.482807712488867e-10	-0	1.703707845900699	0	-0.09478689634274365	0	0	0	0	0	0
0.2517241379310345	145.4431474373411	692.6318596564236	-0	1.484290976909665	0	0.09478689634274363	2.418676482192839e-09	-6.030427266284807e-10	-0	1.72730596941542	0	-0.09478689634274365	0	1.77635683940025e-15	0	0	0	0
0.2551724137931035	147.3829161302141	660.6658277078428	-0	1.48435613570658	0	0.09478689634274365	8.781304506570032e-10	-2.194788046474702e-10	-0	1.750846076145043	0	-0.09478689634274365	0	0	0	0	0	0
0.2586206896551724	148.1552689394568	625.3006688771057	-0	1.484417209798304	0	0.09478689634274365	-1.858532522085076e-10	4.653787225167286e-11	-0	1.774328765556588	0	-0.09478689634274365	0	0	0	0	0	0
0.2620689655172414	147.8833386696405	587.1023528785049	-0	1.484477281019656	0	0.09478689634274365	-9.074515634100306e-10	2.275621707551667e-10	-0	1.797736536572205	0	-0.09478689634274363	0	0	0	0	1.292469707114106e-26	0
0.2655172413793104	143.7697620429045	545.769499275193	-0	1.484480124719247	0	0.09478689634274365	-1.251861099712736e-09	3.143284357330075e-10	-0	1.82105115164255	0	-0.09478689634274365	0	0	0	0	0	0
0.2689655172413793	134.0169432158639	502.0777168755753	-0	1.484375141021352	0	0.09478689634274365	-1.204263822049316e-09	3.026830634092201e-10	-0	1.84427509054373	0	-0.09478689634274365	0	0	0	0	0	0
0.2724137931034483	120.6527008721455	459.3285810409077	-0	1.484175819303333	0	0.09478689634274365	-9.556991658775677e-10	2.403618600966514e-10	-0	1.867424061519614	0	-0.09478689634274365	0	0	0	0	0	0
0.2758620689655173	105.2437204221374	420.6829440457815	-0	1.483888876497373	0	0.09478689634274365	-6.835234209358874e-10	1.719313528027314e-10	-0	1.890528901937057	0	-0.09478689634274365	0	0	0	0	0	0
0.2793103448275863	89.96845545708005	385.6451793460278	-0	1.483572428806113	0	0.09478689634274366	-4.552468622055798e-10	1.14450092574112e-10	-0	1.913630606370315	0	-0.09478689634274365	0	-1.77635683940025e-15	0	0	0	0
0.2827586206896552	77.40593169237955	352.3851385704743	-0	1.483318763622779	0	0.09478689634274365	-2.850347507160851e-10	7.156332096987917e-11	-0	1.936778805246711	0	-0.09478689634274365	0	0	0	0	0	0
0.2862068965517242	67.4207981724586	321.2490917087611	-0	1.48313178952593	0	0.09478689634274365	-1.697418870591189e-10	4.252850039443664e-11	-0	1.960010731816761	0	-0.09478689634274363	0	0	0	0	0	0
0.2896551724137931	59.30646084713546	292.926412800061	-0	1.482992566684545	0	0.09478689634274365	-9.870385013453777e-11	2.466631940538287e-11	-0	1.98332945638464	0	-0.09478689634274365	0	0	0	0	0	0
0.2931034482758621	51.4741852712225	265.5587792010617	-0	1.48286256397407	0	0.09478689634274365	-5.854349380158737e-11	1.459124554345959e-11	-0	2.006704585208221	0	-0.09478689634274365	0	0	0	0	0	0
0.2965517241379311	42.94383900056862	237.0870853255904	-0	1.482717320356379	0	0.09478689634274365	-3.809773033877713e-11	9.476182298760227e-12	-0	2.03002435913857	0	-0.09478689634274365	0	0	0	0	0	0
0.3	34.90372621646155	204.2143255274129	-0	1.48262973647487	0	0.09478689634274365	-2.782212324134951e-11	6.913515887461081e-12	-0	2.053178386998581	0	-0.09478689634274365	0	0	0	0	0	0
0.303448275862069	28.41139768062198	161.2692816371292	-0	1.482714690738087	0	0.09478689634274365	-2.190047332634892e-11	5.441601658421997e-12	-0	2.076102273488919	0	-0.09478689634274365	0	0	0	0	0	0
0.3068965517241379	22.59600349200751	109.3626701454872	-0	1.483030568027126	0	0.09478689634274363	-1.788577670658338e-11	4.446568273585911e-12	-0	2.098755830349536	0	-0.09478689634274365	0	4.440892098500626e-16	0	0	0	0
0.3103448275862069	15.15198199163896	53.99060544881298	-0	1.483677168354626	0	0.09478689634274365	-1.509212252309393e-11	3.75479708731012e-12	-0	2.121164267827815	0	-0.09478689634274365	0	0	0	0	0	0
0.3137931034482759	0.1408120956890569	-0.7537789316164896	-0	1.479862671974957	0	0.09478689634274365	-1.243849309420683e-11	3.095605141397906e-12	-0	2.143404469098041	0	-0.09478689634274365	0	0	0	0	0	0
0.3172413793103449	1.433580218136583e-08	-1.303171070951298e-08	-0	1.474562078806003	0	0.09478689634274365	-9.713156471752056e-12	2.415640506593363e-12	-0	2.165630936418208	0	-0.09478689634274365	0	0	0	0	0	0
0.3206896551724138	-0	-0	-0	0	0	0	-7.2484292001803e-12	1.799238716351978e-12	-0	2.18798290723168	0	-0.09478689634274365	0	0	0	0	0	0
0.3241379310344827	-0	-0	-0	0	0	0	-4.937940507627007e-12	1.223144497670877e-12	-0	2.210419843557772	0	-0.09478689634274365	0	0	0	0	0	0
0.3275862068965517	-0	-0	-0	0	0	0	-3.6885878640956e-12	9.126472097288233e-13	-0	2.232807928079344	0	-0.09478689634274365	0	0	0	0	0	0
0.3310344827586207	-0	-0	-0	0	0	0	-2.600149893131194e-12	6.435670812297854e-13	-0	2.255006542280646	0	-0.09478689634274365	0	0	0	0	0	0
0.3344827586206897	-0	-0	-0	0	0	0	-1.844294753706471e-12	4.573502261239183e-13	-0	2.276911226984756	0	-0.09478689634274365	0	0	0	0	0	0
0.3379310344827586	-0	-0	-0	0	0	0	-1.660702893355013e-12	4.131437544823941e-13	-0	2.298480264344059	0	-0.09478689634274365	0	0	0	0	0	0
0.3413793103448276	-0	-0	-0	0	0	0	-1.41141862647454e-12	3.525735830608289e-13	-0	2.319725321600699	0	-0.09478689634274365	0	0	0	0	0	0
0.3448275862068966	-0	-0	-0	0	0	0	-1.082099099652768e-12	2.715557054964605e-13	-0	2.340722810052522	0	-0.09478689634274365	0	0	0	0	0	0
0.3482758620689655	-0	-0	-0	0	0	0	-1.276475458686514e-11	3.217922751047785e-12	-0	2.221676755943093	0	-0.08985169943177973	0	0	0	0	-7.858808246977826e-19	0
0.3517241379310345	-0	-0	-0	0	0	0	-1.091367266882751e-10	2.757607568951651e-11	-0	2.226111825751929	0	-0.08959755964467592	0	0	0	0	-8.753131749624288e-18	0
0.3551724137931035	-0	-0	-0	0	0	0	-1.039940180703149e-09	2.637861668803791e-10	-0	2.236755043936419	0	-0.0895700533968195	0	0	0	0	-6.291301194600578e-18	0
0.3586206896551725	4.049955967791438e-19	-2.478702249862724e-19	-0	0	0	0	-9.416669445060457e-09	2.413892346864447e-09	-0	2.247597816266457	0	-0.08956903544954495	0	3.83882756511723e-20	0	0	-4.918975303129542e-18	0
0.3620689655172414	2.747400567482149e-17	-1.637580883921468e-17	-0	0	0	0	-7.76129217961692e-08	2.031797647770424e-08	-0	2.257582968329738	0	-0.08956897507908836	0	2.604175728019255e-18	0	0	0	0
0.3655172413793104	7.978741828787117e-15	-4.619128227455899e-15	-0	0	0	0	-5.723480161310076e-07	1.544997498318179e-07	-0	2.266850486606351	0	-0.08956897507908836	0	7.562801746707574e-16	0	0	0	0
0.3689655172413793	6.38529399500499e-12	-3.577957612118043e-12	-0	1.583999935332103	0	0.09478689634274365	-3.765758920154304e-06	1.056636427629758e-06	-0	2.275584663552836	0	-0.08956897507908836	0	0	0	0	0	0
0.3724137931034483	1.035767161006461e-08	-5.60019437655948e-09	-0	1.593433940811219	0	0.09478689634274365	-2.230073089103493e-05	6.546112302706972e-06	-0	2.283917888817604	0	-0.08956897507908836	0	0	0	0	0	0
0.3758620689655173	-2.911579551041188e-06	1.515569714570749e-06	-0	1.603213149507756	0	0.09478689634274365	-0.0001206948545355569	3.723974273748339e-05	-0	2.291913048632424	0	-0.08956897507908836	0	0	0	0	0	0
0.3793103448275862	-1.284056304223539e-05	6.42839566260219e-06	-0	1.613295251204517	0	0.09478689634274365	-0.0006085530368952185	0.0001978961534630995	-0	2.299626096358109	0	-0.08956897507908836	0	0	0	0	0	0
0.3827586206896552	-1.873211500838767e-05	9.021213949894936e-06	-0	1.623615570978701	0	0.09478689634274365	-0.00290766889752839	0.0009974524050307444	-0	2.307073358465039	0	-0.08956897507908836	0	0	0	0	0	0
0.3862068965517241	-2.63410675363059e-05	1.222220610845551e-05	-0	1.634083280996866	0	0.09478689634274365	-0.01341520991310976	0.004856466592355407	-0	2.314209234544955	0	-0.08956897507908836	0	0	0	0	0	0
0.3896551724137931	-4.041731558085142e-05	1.811460059874364e-05	-0	1.644611464915288	0	0.09478689634274365	-0.06072174697599257	0.02320099179555414	-0	2.320984341678233	0	-0.08956897507908836	0	0	0	0	0	0
0.3931034482758621	-6.938050143706731e-05	3.012161787012401e-05	-0	1.655148786015415	0	0.09478689634274365	-0.2731266537795892	0.1101711325927608	-0	2.327347692637086	0	-0.08956897507908836	0	0	0	0	0	0
0.396551724137931	-0.0001325816990919529	5.592808942361363e-05	-0	1.665668517110194	0	0.09478689634274365	-1.225403979272446	0.5218542079220232	-0	2.333273000770877	0	-0.08956897507908836	0	0	0	0	0	0
0.4	-0.0002779235789674577	0.0001142589672111983	-0	1.676170232914684	0	0.09478689634274365	-5.42085771548388	2.437733961823187	-0	2.33874134424812	0	-0.08956897507908836	0	0	0	0	0	0
0.403448275862069	-0.0006262097459152976	0.0002515670989790507	-0	1.686676916298213	0	0.09478689634274365	-22.50600447427349	10.7173582752141	-0	2.34373548418262	0	-0.08956897507908858	0	0	0	0	4.440892098500626e-16	0
0.406896551724138	-0.001482364050209875	0.0005829879220319512	-0	1.69723908001103	0	0.09478689634274365	-74.37094701127981	38.31197705142782	-0	2.348089417624991	0	-0.08956897507908863	0	0	0	0	8.881784197001252e-16	0
0.4103448275862069	-0.003595160664712921	0.0013856805984123	-0	1.707919718263489	0	0.09478689634274363	-174.6394668393063	101.7990247852308	-0	2.35180867429284	0	-0.0895689750790893	0	-5.421010862427522e-20	0	0	3.552713678800501e-15	0
0.4137931034482759	-0.008675027279549434	0.003278861648870456	-0	1.718788518485028	0	0.09478689634274365	-452.3582647581709	355.0714762517061	-0	2.354674771396988	0	-0.08956897507909471	0	0	0	0	1.4210854715202e-13	0
0.4172413793103449	-0.02016042436147586	0.007477276573012235	-0	1.72991762317947	0	0.09478689634274365	-274.0845571269457	788.9898975659978	-0	2.357985412390506	0	-0.08956897507923654	0	0	0	0	6.80557832311024e-11	0
0.4206896551724138	-0.04415693680074262	0.01608630791687238	-0	1.741364136508685	0	0.09478689634274365	39.54807822998388	1187.152345692054	-0	2.360017317129803	0	-0.08956897508238063	0	0	0	0	2.211590022227483e-09	0
0.4241379310344828	-0.08969568988500484	0.03212358984245479	-0	1.753188814651727	0	0.09478689634274365	-97.54289279524542	1410.577193495575	-0	2.359891831416067	0	-0.08956897512783718	0	0	0	0	3.633189393781322e-08	0
0.4275862068965517	-0.1677223919600432	0.05908396044301478	-0	1.765441502935045	0	0.09478689634274365	0.6638508168294815	1455.283291852459	-0	2.360914911269883	0	-0.08956897577260145	0	0	0	0	5.921774493336529e-07	0
0.4310344827586207	-0.2875782855284424	0.09970567414106364	-0	1.778150302413513	0	0.09478689634274365	-141.845150592573	1416.133693629338	-0	2.360659353470931	0	-0.08956898432119494	0	0	0	0	7.799749280223978e-06	0
0.4344827586206897	-0.4505278013614148	0.1538815062524675	-0	1.791324709662515	0	0.09478689634274365	-77.27480486466898	1351.227815785766	-0	2.361675019120971	0	-0.08956908779585961	0	0	0	0	8.989702177331083e-05	0
0.4379310344827587	-0.6452035798320451	0.2173809693885842	-0	1.804962183488237	0	0.09478689634274365	-178.0424592043737	1309.785930046089	-0	2.361602005944331	0	-0.08957008902821439	0	0	0	0	0.0007704599388755895	0
0.4413793103448276	-0.8494279062434807	0.2826177243677925	-0	1.819058288488945	0	0.09478689634274365	-119.2842025840098	1282.419962032574	-0	2.362893725915535	0	-0.08957749756821858	0	0	0	0	0.005035274596838946	0
0.4448275862068966	-1.03913696670854	0.3416986841548665	-0	1.833600488522901	0	0.09478689634274365	-179.7487717696699	1280.228298992377	-0	2.364068477281719	0	-0.08961305837479248	0	0	0	0	0.02127716666497292	0
0.4482758620689655	-1.190876703441712	0.3871931691815682	-0	1.848577280042223	0	0.09478689634274365	-129.7431692228059	1284.190006647315	-0	2.367732067868372	0	-0.08970485810673748	0	0	0	0	0.05332319706369759	0
0.4517241379310345	-1.287505970624332	0.4139188387913581	-0	1.863980531303234	0	0.09478689634274365	-177.5532684720136	1306.717544623696	-0	2.372627703055513	0	-0.08986871890029696	0	0	0	0	0.09055433350883746	0
0.4551724137931035	-1.317067599876977	0.4184648078157731	-0	1.879820738284048	0	0.09478689634274365	-170.9902335536784	1352.284724775593	-0	2.382081905233672	0	-0.09017912807667888	0	0	0	0	0.1213585474659968	0
0.4586206896551724	-1.27757494684218	0.4008077707811419	-0	1.896114785459585	0	0.09478689634274365	-190.5697356928732	1344.75064968909	-0	2.386085507989823	0	-0.09031567189256422	0	0	0	0	0.07797038563456482	0
0.4620689655172414	-1.178677858054682	0.3648125354291692	-0	1.912880062026177	0	0.09478689634274365	-137.2037688941802	1304.549525006134	-0	2.38749374502058	0	-0.09034593586148978	0	0	0	0	0.04453704798750024	0
0.4655172413793104	-1.039499767410237	0.3172397372801494	-0	1.930123634578129	0	0.09478689634274365	-136.3327972814287	1279.426002640387	-0	2.388053615352426	0	-0.09036122942029444	0	0	0	0	0.02908379156664154	0
0.4689655172413794	-0.8817291953786417	0.2653710559839967	-0	1.947829247346292	0	0.09478689634274365	-100.2377586185086	1256.532328386744	-0	2.389236732085082	0	-0.09038875304598942	0	0	0	0	0.02289748656409962	0
0.4724137931034483	-0.7243924266584589	0.2151217133953711	-0	1.965972435986106	0	0.09478689634274365	-95.32262688933766	1232.054635518813	-0	2.389869673077378	0	-0.09040652051659408	0	0	0	0	0.0179897715134647	0
0.4758620689655173	-0.5793921135840903	0.1698834756349572	-0	1.984526225107648	0	0.09478689634274365	-60.66216033527957	1191.605945610542	-0	2.391032054429381	0	-0.09043450351201299	0	0	0	0	0.0158016948996309	0
0.4793103448275863	-0.4533687670884081	0.1313540093258081	-0	2.003459383246938	0	0.09478689634274365	-43.45268218891559	1144.997747704574	-0	2.393112356365539	0	-0.09050000975444421	0	0	0	0	0.01836107993803981	0
0.4827586206896552	-0.3480020723581823	0.09971355724839405	-0	2.02274112974285	0	0.09478689634274365	-12.35840579035583	1106.556307013974	-0	2.398858613901133	0	-0.0906888526098743	0	0	0	0	0.03338834731103413	0
0.4862068965517242	-0.2626927696350637	0.07450021627219679	-0	2.04234279247083	0	0.09478689634274365	-14.82902722302305	1073.439962656944	-0	2.406299305841406	0	-0.09094707644397035	0	0	0	0	0.05154365416796902	0
0.4896551724137931	-0.1954683202404735	0.05490890913270007	-0	2.062239807087627	0	0.09478689634274365	-14.21595713745093	1036.259199675706	-0	2.413638753032493	0	-0.09120035991533225	0	0	0	0	0.06135578498823402	0
0.4931034482758621	-0.1436685854834914	0.04000286047802012	-0	2.082407259226899	0	0.09478689634274365	-20.74320210121807	1003.146641825274	-0	2.419672525122193	0	-0.09141007901590402	0	0	0	0	0.06158190513576178	0
0.496551724137931	-0.1043968781128246	0.02883252306407001	-0	2.102821767437341	0	0.09478689634274365	-18.10373216347548	973.6749999603452	-0	2.425059718151441	0	-0.09159422211114211	0	0	0	0	0.05744466730068098	0
0.5	-0.07503792260067085	0.02056952359692696	-0	2.123461741514172	0	0.09478689634274365	-18.5118785182933	950.6683101974417	-0	2.429845690969647	0	-0.09175842205645533	0	0	0	0	0.051737682622786	0
0.503448275862069	-0.05332229732117836	0.01451538904183319	-0	2.144312577737766	0	0.09478689634274365	-13.31330941527981	936.8006128960487	-0	2.435097111803018	0	-0.09193730385309304	0	0	0	0	0.04702286734398631	0
0.5068965517241379	-0.03743133016093706	0.01012304168092726	-0	2.165362947679835	0	0.09478689634274365	-11.49405211167506	933.9196860779255	-0	2.441120223191713	0	-0.09214466970046643	0	0	0	0	0.0431098624314481	0
0.5103448275862069	-0.02594821351339932	0.006974102336265435	-0	2.186604670800975	0	0.09478689634274365	-7.447691511495424	941.7350252133023	-0	2.448607366532176	0	-0.09240310247010557	0	0	0	0	0.039265412125562	0
0.5137931034482759	-0.01775438168072842	0.004743564582054473	-0	2.208032050610691	0	0.09478689634274365	-11.28126706193959	946.2339717172028	-0	2.456294415590313	0	-0.09267129472324984	0	0	0	0	0.03221327491792136	0
0.5172413793103449	-0.01198538007799995	0.003183933997733208	-0	2.22964030605696	0	0.09478689634274365	-13.3184383282422	938.0835516861108	-0	2.463538615630109	0	-0.09292352670856696	0	0	0	0	0.02234430613636151	0
0.5206896551724138	-0.007960797988265557	0.002102867662595465	-0	2.251429864468428	0	0.09478689634274365	-13.24093947263526	923.7087091939757	-0	2.470567762281516	0	-0.09316787400726909	0	0	0	0	0.01210204004386273	0
0.5241379310344828	-0.005147345008804356	0.001351499225768397	-0	2.273427514768811	0	0.09478689634274363	-10.15734874139429	905.9211213662361	-0	2.478036985715947	0	-0.09342731062414457	0	-5.421010862427522e-20	0	0	0.00268991317188183	0
0.5275862068965518	-0.003216299258652529	0.0008390840834147528	-0	2.29565556514014	0	0.09478689634274365	-3.06343476856564	889.6763806326175	-0	2.486838610228076	0	-0.09373322629385572	0	0	0	0	-0.005150867631005474	0
0.5310344827586208	-0.001970520174160509	0.0005110879406900936	-0	2.318076311494235	0	0.09478689634274365	7.500140165359174	876.0011171946221	-0	2.497871780990357	0	-0.09411792331870274	0	0	0	0	-0.00983540422301743	0
0.5344827586206897	-0.001207190589239408	0.0003116663062190531	-0	2.340633728607521	0	0.09478689634274365	9.708329749532657	851.5323333066256	-0	2.510268707435646	0	-0.09455538107881721	0	0	0	0	-0.006598581477589183	0
0.5379310344827587	-0.0007506276420975837	0.0001931484828194072	-0	2.363272898192011	0	0.09478689634274365	17.90299043505323	845.3934191526835	-0	2.517433931652671	0	-0.09480533789511963	0	0	0	0	0.0008495868462041756	0
0.5413793103448277	-0.0004758352438504678	0.0001221395636032269	-0	2.385959773416214	0	0.09478689634274365	41.13553509570886	866.6639460349371	-0	2.517243202620388	0	-0.09478701664196809	0	0	0	0	8.16539939707539e-06	0
0.5448275862068965	-0.0002982665826583515	7.634337150495694e-05	-0	2.408743432423582	0	0.09478689634274365	61.62676998857892	873.0837254722031	-0	2.517525452824426	0	-0.0947868964781671	0	0	0	0	1.278609307320266e-08	0
0.5482758620689655	-0.0001801262660592439	4.592613851388451e-05	-0	2.431685194010935	0	0.09478689634274365	75.84574285962348	872.7596821580523	-0	2.517733055145454	0	-0.09478689634284256	0	0	0	0	1.244693237367756e-11	0
0.5517241379310345	-0.0001061430763812965	2.695007138074474e-05	-0	2.454778831442819	0	0.09478689634274365	88.49585959252663	867.7374209731767	-0	2.517921258634264	0	-0.09478689634274373	0	0	0	0	1.243449787580175e-14	0
0.5551724137931034	-6.21616579206349e-05	1.572169802116446e-05	-0	2.477997000408964	0	0.09478689634274365	97.59715396600595	860.5300808988437	-0	2.518061456502072	0	-0.09478689634274365	0	0	0	0	0	0
0.5586206896551724	-3.638324325372243e-05	9.168846732369579e-06	-0	2.501322767931469	0	0.09478689634274365	105.2331595775177	852.4519822541395	-0	2.518178788046897	0	-0.09478689634274365	0	0	0	0	0	0
0.5620689655172414	-2.137738661000798e-05	5.369206873452001e-06	-0	2.524743426000543	0	0.09478689634274365	110.560339811921	844.1388494966508	-0	2.518260053282522	0	-0.09478689634274365	0	0	0	0	0	0
0.5655172413793104	-1.266991533796651e-05	3.172037556821178e-06	-0	2.548250926635772	0	0.09478689634274365	114.7765522890648	835.8024849392592	-0	2.518321108386668	0	-0.09478689634274365	0	0	0	0	0	0
0.5689655172413793	-7.580375508143346e-06	1.891801089217174e-06	-0	2.571841482339769	0	0.09478689634274365	117.628757936576	826.9128740395844	-0	2.518359274389001	0	-0.09478689634274365	0	0	0	0	0	0
0.5724137931034483	-4.532866597316284e-06	1.127496361895854e-06	-0	2.595523905786727	0	0.09478689634274365	120.0690259060566	817.0541127288049	-0	2.518389274200764	0	-0.09478689634274365	0	0	0	0	0	0
0.5758620689655173	-2.623506174932674e-06	6.503427335452311e-07	-0	2.619301386726605	0	0.09478689634274365	122.2821950053617	805.5468779367119	-0	2.518415720021599	0	-0.09478689634274365	0	0	0	0	0	0
0.5793103448275863	-1.339185543781616e-06	3.310849181643029e-07	-0	2.643138079125851	0	0.09478689634274365	125.5529232194666	792.9097266653384	-0	2.518457089023369	0	-0.09478689634274365	0	0	0	0	0	0
0.5827586206896552	-5.328011490443126e-07	1.315911602210003e-07	-0	2.666982831455816	0	0.09478689634274365	129.5496497626054	779.1705228456713	-0	2.518508638173243	0	-0.09478689634274365	0	0	0	0	0	0
0.5862068965517242	-1.400296718424429e-07	3.461490215000285e-08	-0	2.690791888738539	0	0.09478689634274365	134.1311343067387	763.3312203906981	-0	2.518571193430589	0	-0.09478689634274365	0	0	0	0	0	0
0.5896551724137932	-1.371070725592536e-08	3.397579928168068e-09	-0	2.714528701125487	0	0.09478689634274365	138.5452824587915	744.0550319112656	-0	2.518637545308008	0	-0.09478689634274365	0	0	0	0	0	0
0.5931034482758621	3.412428146594549e-09	-8.482807712488845e-10	-0	2.738190604521388	0	0.09478689634274365	142.5076124564283	720.6509934930555	-0	2.518706991384766	0	-0.09478689634274363	0	0	0	0	-1.77635683940025e-15	0
0.596551724137931	2.41867648219289e-09	-6.030427266284934e-10	-0	2.76178872803611	0	0.09478689634274365	145.4431474373401	692.6318596564256	-0	2.518773735530353	0	-0.09478689634274365	0	0	0	0	0	0
0.6000000000000001	8.781304506572718e-10	-2.194788046475373e-10	-0	2.785328834765732	0	0.09478689634274365	147.3829161302136	660.6658277078452	-0	2.518838894327269	0	-0.09478689634274365	0	0	0	0	0	0
0.603448275862069	-1.858532522084688e-10	4.653787225166312e-11	-0	2.808811524177278	0	0.09478689634274365	148.1552689394568	625.300668877108	-0	2.518899968418994	0	-0.09478689634274365	0	0	0	0	0	0
0.606896551724138	-9.074515634100598e-10	2.27562170755174e-10	-0	2.832219295192894	0	0.09478689634274365	147.8833386696407	587.1023528785071	-0	2.518960039640345	0	-0.09478689634274365	0	0	0	0	0	0
0.6103448275862069	-1.251861099712725e-09	3.143284357330049e-10	-0	2.855533910263239	0	0.09478689634274366	143.7697620429034	545.7694992751908	-0	2.518962883339935	0	-0.09478689634274365	0	2.584939414228211e-26	0	0	0	0
0.613793103448276	-1.204263822049244e-09	3.026830634092019e-10	-0	2.878757849164419	0	0.09478689634274365	134.0169432158627	502.0777168755727	-0	2.518857899642041	0	-0.09478689634274365	0	0	0	0	0	0
0.6172413793103448	-9.556991658775659e-10	2.403618600966509e-10	-0	2.901906820140303	0	0.09478689634274365	120.6527008721449	459.3285810409091	-0	2.518658577924023	0	-0.09478689634274365	0	0	0	0	0	0
0.6206896551724139	-6.835234209359064e-10	1.719313528027361e-10	-0	2.925011660557747	0	0.09478689634274365	105.2437204221375	420.6829440457836	-0	2.518371635118062	0	-0.09478689634274365	0	0	0	0	0	0
0.6241379310344828	-4.552468622055769e-10	1.144500925741113e-10	-0	2.948113364991004	0	0.09478689634274365	89.96845545708035	385.645179346034	-0	2.518055187426802	0	-0.09478689634274365	0	0	0	0	0	0
0.6275862068965518	-2.850347507160779e-10	7.156332096987735e-11	-0	2.9712615638674	0	0.09478689634274365	77.40593169238015	352.3851385704802	-0	2.517801522243468	0	-0.09478689634274365	0	0	0	0	0	0
0.6310344827586207	-1.697418870591152e-10	4.252850039443572e-11	-0	2.99449349043745	0	0.09478689634274365	67.42079817245715	321.2490917087572	-0	2.517614548146619	0	-0.09478689634274365	0	0	0	0	0	0
0.6344827586206897	-9.870385013453761e-11	2.466631940538283e-11	-0	3.017812215005329	0	0.09478689634274365	59.3064608471354	292.9264128000622	-0	2.517475325305234	0	-0.09478689634274365	0	0	0	0	0	0
0.6379310344827587	-5.854349380158746e-11	1.459124554345961e-11	-0	3.041187343828909	0	0.09478689634274365	51.47418527122185	265.5587792010625	-0	2.517345322594759	0	-0.09478689634274365	0	0	0	0	0	0
0.6413793103448276	-3.809773033877627e-11	9.476182298760013e-12	-0	3.064507117759259	0	0.09478689634274365	42.94383900056851	237.0870853255911	-0	2.517200078977068	0	-0.09478689634274365	0	0	0	0	0	0
0.6448275862068966	-2.782212324134948e-11	6.913515887461072e-12	-0	3.08766114561927	0	0.09478689634274365	34.90372621646105	204.2143255274135	-0	2.517112495095558	0	-0.09478689634274365	0	0	0	0	0	0
0.6482758620689655	-2.190047332634889e-11	5.441601658421989e-12	-0	3.110585032109609	0	0.09478689634274365	28.4113976806218	161.26928163713	-0	2.517197449358776	0	-0.09478689634274365	0	0	0	0	0	0
0.6517241379310346	-1.788577670658336e-11	4.446568273585905e-12	-0	3.133238588970225	0	0.09478689634274365	22.59600349200696	109.3626701454877	-0	2.517513326647815	0	-0.09478689634274365	0	0	0	0	0	0
0.6551724137931034	-1.509212252309375e-11	3.754797087310076e-12	-0	3.155647026448504	0	0.09478689634274365	15.15198199163996	53.9906054488173	-0	2.518159926975315	0	-0.09478689634274365	0	0	0	0	0	0
0.6586206896551725	-1.243849309420691e-11	3.095605141397927e-12	-0	3.17788722771873	0	0.09478689634274363	0.1408120956890883	-0.7537789316166574	-0	2.514345430595646	0	-0.09478689634274365	0	-2.01948391736579e-28	0	0	0	0
0.6620689655172414	-9.713156471752035e-12	2.415640506593358e-12	-0	3.200113695038897	0	0.09478689634274365	1.433580218136579e-08	-1.303171070951294e-08	-0	2.509044837426692	0	-0.09478689634274365	0	0	0	0	0	0
0.6655172413793103	-7.248429200180355e-12	1.799238716351991e-12	-0	3.22246566585237	0	0.09478689634274365	-0	-0	-0	0	0	0	0	0	0	0	0	0
0.6689655172413793	-4.937940507627005e-12	1.223144497670876e-12	-0	3.244902602178461	0	0.09478689634274363	-0	-0	-0	0	0	0	0	0	0	0	0	0
0.6724137931034483	-3.688587864095522e-12	9.126472097288037e-13	-0	3.267290686700033	0	0.09478689634274365	-0	-0	-0	0	0	0	0	0	0	0	0	0
0.6758620689655173	-2.600149893131188e-12	6.43567081229784e-13	-0	3.289489300901336	0	0.09478689634274365	-0	-0	-0	0	0	0	0	0	0	0	0	0
0.6793103448275862	-1.844294753706445e-12	4.57350226123912e-13	-0	3.311393985605445	0	0.09478689634274365	-0	-0	-0	0	0	0	0	0	0	0	0	0
0.6827586206896552	-1.660702893355011e-12	4.131437544823935e-13	-0	3.332963022964748	0	0.09478689634274365	-0	-0	-0	0	0	0	0	0	0	0	0	0
0.6862068965517242	-1.411418626474538e-12	3.525735830608284e-13	-0	3.354208080221388	0	0.09478689634274365	-0	-0	-0	0	0	0	0	0	0	0	0	0
0.6896551724137931	-1.082099099652767e-12	2.715557054964601e-13	-0	3.375205568673211	0	0.09478689634274365	-0	-0	-0	0	0	0	0	0	0	0	0	0
