DataType=double
version=3
OpenSimVersion=4.6-2026-06-22-85aaf64
endheader
time	ground_force_r_vx	ground_force_r_vy	ground_force_r_vz	ground_force_r_px	ground_force_r_py	ground_force_r_pz	ground_force_l_vx	ground_force_l_vy	ground_force_l_vz	ground_force_l_px	ground_force_l_py	ground_force_l_pz	ground_torque_r_x	ground_torque_r_y	ground_torque_r_z	ground_torque_l_x	ground_torque_l_y	ground_torque_l_z
0	-0	-0	-0	0	0	0	0.02124442643202476	-0.00586500929938493	-0	0.6136512195888185	0	-0.09478689634274365	0	0	0	0	-1.252775322894795e-19	0
0.002205134225461006	-5.677160490741791e-12	1.49442956711881e-12	-0	1.171770308443655	0	0.08956897507908834	0.002771015525836105	-0.0007488867775535506	-0	0.6278054004109077	0	-0.09478689634274365	0	-1.021797313877755e-28	0	0	1.789710861094338e-20	0
0.004410268450922012	-5.599075852477525e-11	1.490309264152206e-11	-0	1.1750392451206	0	0.08956897507908836	-0.06169652533477323	0.01633563509962405	-0	0.6422531726740572	0	-0.09478689634274365	0	-3.830378444517956e-28	0	0	-3.073594033728681e-19	0
0.006615402676383018	-5.154311204997094e-10	1.387910311274842e-10	-0	1.178290900504363	0	0.08956897507908836	-0.1017387304394821	0.02641254456839122	-0	0.6569893959954367	0	-0.09478689634274365	0	2.120554282490268e-27	0	0	1.606980148360204e-19	0
0.008820536901844023	-4.783171401521322e-09	1.303641679814701e-09	-0	1.181547771951946	0	0.08956897507908836	-0.1112761503324192	0.02834780105485312	-0	0.6720097961961199	0	-0.09478689634274365	0	-2.568532217161842e-26	0	0	-1.044575706649867e-19	0
0.01102567112730503	-4.320600265257182e-08	1.192514374143728e-08	-0	1.184831378404901	0	0.08956897507908836	-0.1054536128971316	0.02638270067124394	-0	0.6873103187317314	0	-0.09478689634274363	0	3.739260137113725e-25	0	0	2.035094808557841e-18	0
0.01323080535276604	-3.773669973014466e-07	1.055334415596804e-07	-0	1.188162171827781	0	0.08956897507908836	-0.09319739845613195	0.02291708765487686	-0	0.7028857436319408	0	-0.09478689634274365	0	-9.281658189823776e-25	0	0	2.861430064329813e-19	0
0.01543593957822704	-3.16237026113386e-06	8.96560401213378e-07	-0	1.191558901367583	0	0.08956897507908836	-0.0840843151133927	0.02037296438453143	-0	0.7186761091632791	0	-0.09478689634274365	0	2.400243453335636e-23	0	0	-3.289083522653925e-19	0
0.01764107380368805	-2.522319155275981e-05	7.253498055550424e-06	-0	1.195039644357474	0	0.08956897507908836	-0.08964616376955341	0.02155930330789825	-0	0.7343952642732805	0	-0.09478689634274365	0	-1.21543253561373e-22	0	0	5.91318412951779e-19	0
0.01984620802914905	-0.0001898821906910113	5.541815272949879e-05	-0	1.198622138831249	0	0.08956897507908836	-0.1088014222084304	0.02621852298078348	-0	0.7497174416505583	0	-0.09478689634274365	0	1.730608099499607e-22	0	0	8.284478540067913e-19	0
0.02205134225461006	-0.00133791472584001	0.0003965054625827645	-0	1.202322058514461	0	0.08956897507908837	-0.1327719843933996	0.0322401575477481	-0	0.7645316618886483	0	-0.09478689634274365	0	2.158415955552622e-20	0	0	3.634606327402075e-19	0
0.02425647648007107	-0.008749006471133728	0.002634301518300134	-0	1.206150378421817	0	0.08956897507908836	-0.1596284564914285	0.03911008058847059	-0	0.7788602310658351	0	-0.09478689634274365	0	2.554676604395382e-20	0	0	1.7151653108978e-19	0
0.02646161070553207	-0.05261729012492608	0.01610569014790034	-0	1.210112199303967	0	0.08956897507908836	-0.1903862172423014	0.04697656318375235	-0	0.7928495210324606	0	-0.09478689634274365	0	3.79071292451488e-19	0	0	1.333628720950045e-18	0
0.02866674493099308	-0.2880459213914454	0.08969083757475517	-0	1.214210126603983	0	0.08956897507908836	-0.2270293433758023	0.05622888703285822	-0	0.8066384559483092	0	-0.09478689634274365	0	-9.734875392218401e-20	0	0	-4.175944249016293e-19	0
0.03087187915645409	-1.416760766421571	0.4491789927590628	-0	1.218439799039202	0	0.08956897507908836	-0.2730891092792821	0.06771804313449653	-0	0.8203064518848648	0	-0.09478689634274365	0	-1.293214438175002e-17	0	0	2.971565351787612e-19	0
0.03307701338191509	-6.152084129535248	1.988829718176123	-0	1.22279391429855	0	0.08956897507908836	-0.331648237098162	0.08218829432503241	-0	0.8339122060276538	0	-0.09478689634274365	0	-5.403084573669397e-17	0	0	1.335290259684549e-18	0
0.03528214760737609	-22.89393202980514	7.578781373491171	-0	1.227219353467041	0	0.08956897507908836	-0.4061292203554495	0.1004596137555741	-0	0.847490851173993	0	-0.09478689634274363	0	-1.258360444728492e-16	0	0	5.997055607398477e-18	0
0.0374872818328371	-69.07380155109449	23.66403242960089	-0	1.231651089957862	0	0.08956897507908837	-0.4996845789836666	0.123266948593807	-0	0.8610749191407338	0	-0.09478689634274365	0	1.198206405057136e-15	0	0	-2.017446678574717e-18	0
0.0396924160582981	-153.2069372403182	55.54939331065395	-0	1.23597511554311	0	0.08956897507908836	-0.6143997327842725	0.151049406308977	-0	0.8746944158127067	0	-0.09478689634274365	0	-5.892902508126783e-16	0	0	1.65269773406904e-18	0
0.04189755028375911	-269.8106369058608	107.0511486320776	-0	1.240164359672181	0	0.08956897507908836	-0.7504905127700237	0.1837687955612354	-0	0.8883798341618735	0	-0.09478689634274365	0	-2.755367879601086e-17	0	0	-5.329838977581666e-18	0
0.04410268450922012	-540.3573105269244	255.7263405931164	-0	1.244076439943243	0	0.08956897507908836	-0.9002212206033113	0.2193883412692905	-0	0.9021755944822217	0	-0.09478689634274365	0	-5.197272372011822e-16	0	0	-2.937766580519654e-18	0
0.04630781873468113	-786.9268995117054	542.9498953247922	-0	1.247650152846568	0	0.08956897507908838	-1.04043336811225	0.2520580821584735	-0	0.9161519309694	0	-0.09478689634274365	0	7.197682582848313e-15	0	0	-3.23236655031789e-18	0
0.04851295296014213	-560.3582514509228	914.2910568371782	-0	1.251240645617513	0	0.08956897507908881	-1.144431781648802	0.275298836977651	-0	0.9303796210692988	0	-0.09478689634274365	0	-2.000592861132531e-13	0	0	-3.487766173501093e-18	0
0.05071808718560313	-44.97650594833465	1289.490280297004	-0	1.254290920460708	0	0.08956897507909722	-1.200156727356003	0.2865868278592938	-0	0.9448872189526794	0	-0.09478689634274365	0	-1.048822070550205e-11	0	0	2.854762744295202e-19	0
0.05292322141106414	-270.5763922020511	1625.967073909731	-0	1.254028790210972	0	0.08956897507920925	-1.185228272386286	0.2807813342977823	-0	0.95971462538855	0	-0.09478689634274365	0	-1.511029422778374e-10	0	0	2.77340500043212e-19	0
0.05512835563652515	68.79736940994428	1889.647417922561	-0	1.25588219592772	0	0.08956897508064429	-1.079029068670102	0.2532731024015881	-0	0.9749348379237356	0	-0.09478689634274365	0	-2.788793807207807e-09	0	0	-3.879499895608198e-18	0
0.05733348986198616	-126.5828313978219	2064.324094447244	-0	1.255628043167369	0	0.08956897509933187	-0.9003407273473059	0.2092825694973049	-0	0.9905808281122984	0	-0.09478689634274365	0	-3.605821194562166e-08	0	0	-4.840863406260702e-18	0
0.05953862408744717	102.5286212140205	2150.056548290493	-0	1.257134403858788	0	0.0895689753640813	-0.6815469980553266	0.1568769279920857	-0	1.006670672793007	0	-0.09478689634274365	0	-5.918348751918835e-07	0	0	-3.088038409790848e-18	0
0.06174375831290817	-46.58261425512194	2156.652218224007	-0	1.257070611387064	0	0.08956897921719269	-0.462513941655309	0.1054421090475406	-0	1.023204316159382	0	-0.09478689634274366	0	-8.073804987945399e-06	0	0	-8.383438724243954e-18	0
0.06394889253836918	125.8902071836029	2095.048355306064	-0	1.25853749732825	0	0.08956903719261819	-0.2742575840186446	0.06195692484192112	-0	1.040169393043473	0	-0.09478689634274365	0	-0.0001271944502900847	0	0	-9.740857482720885e-19	0
0.06615402676383017	17.04705581357063	1984.787828522768	-0	1.258673689112807	0	0.08956987307281411	-0.1335001606774492	0.02990292446163239	-0	1.057546481222041	0	-0.09478689634274365	0	-0.001650588422568165	0	0	3.934847244538655e-19	0
0.06835916098929118	137.9920801890133	1839.40892128781	-0	1.260444311589821	0	0.08958072804263566	-0.04067096151096587	0.009039092065018323	-0	1.075309598854933	0	-0.09478689634274365	0	-0.02113656450994657	0	0	-4.835279215963823e-20	0
0.07056429521475219	38.84481848737098	1703.963281574385	-0	1.263380697434163	0	0.08967352274946735	0.002353764888725075	-0.0005193789341768417	-0	1.093436616630061	0	-0.09478689634274365	0	-0.1542555357443962	0	0	1.313422946171341e-20	0
0.0727694294402132	60.91177664976681	1634.019746730241	-0	1.273856079497594	0	0.0899986063045965	0.0002152600920437012	-4.718431143148066e-05	-0	1.111906190699637	0	-0.09478689634274365	0	-0.4675398450182962	0	0	1.073392826721847e-21	0
0.0749745636656742	-154.2121256261195	1825.843504531696	-0	1.29937525642344	0	0.09090798637113286	4.721882477703422e-06	-1.02816109580399e-06	-0	1.130729418820433	0	-0.09478689634274365	0	-0.8932320065845067	0	0	5.486018201743933e-24	0
0.0771796978911352	-90.20952779428521	1909.037771300174	-0	1.317987827574967	0	0.09154440256064952	6.145290003864237e-08	-1.328264687223349e-08	-0	1.14994930696411	0	-0.09478689634274365	0	-0.7290520310510733	0	0	1.951441362150431e-25	0
0.07938483211659621	-105.94461620209	1856.203059405497	-0	1.33385073094367	0	0.09210093367148089	5.081132217191583e-10	-1.089328571075961e-10	-0	1.169609696214262	0	-0.09478689634274365	0	-0.5493330178010942	0	0	2.280762754358084e-27	0
0.08158996634205722	-96.79263135999975	1751.20840676206	-0	1.350391777031437	0	0.09267815258709945	3.181883056158421e-12	-6.764025291880307e-13	-0	1.189725935535042	0	-0.09478689634274365	0	-0.3844594123594083	0	0	-2.303719212477157e-29	0
0.08379510056751822	-121.9138020066023	1608.823722324221	-0	1.367048510273744	0	0.0932673273991371	1.67045995462638e-14	-3.520804092496322e-15	-0	0	0	0	0	-0.2303120412244312	0	0	-1.58337714563875e-15	0
0.08600023479297923	-112.5209300499406	1457.145876357062	-0	1.38527061744812	0	0.09390675604709024	8.489137611864973e-17	-1.774403590780569e-17	-0	0	0	0	0	-0.104837989820504	0	0	-8.046590068551315e-18	0
0.08820536901844024	-125.8359363887766	1298.358159096566	-0	1.405087069815517	0	0.09460967938039112	5.147414149714679e-19	-1.067917023848402e-19	-0	0	0	0	0	-0.01484133064222646	0	0	-4.879074114421773e-20	0
0.09041050324390125	-107.4139294616175	1285.168513351945	-0	1.410436001084188	0	0.09479195144163129	-0	-0	-0	0	0	0	0	0.0002439637916526011	0	0	0	0
0.09261563746936224	-93.43684478388857	1298.562241655479	-0	1.410473043979227	0	0.09478691336302662	-0	-0	-0	0	0	0	0	1.891842915981113e-07	0	0	0	0
0.09482077169482325	-67.58115192523452	1300.003489745185	-0	1.410744118460424	0	0.09478689637486734	-0	-0	-0	0	0	0	0	-8.799348323997001e-10	0	0	0	0
0.09702590592028426	-48.79687699207747	1287.206068161821	-0	1.410957685182463	0	0.09478689634279652	-0	-0	-0	0	0	0	0	-3.552089082658914e-12	0	0	0	0
0.09923104014574527	-23.60202196570328	1268.980054983446	-0	1.411232730273211	0	0.09478689634274373	-0	-0	-0	0	0	0	0	-8.977508223171313e-15	0	0	0	0
0.1014361743712063	-3.921149182586268	1241.883242055878	-0	1.41146410831016	0	0.09478689634274365	-0	-0	-0	0	0	0	0	-8.599778627949681e-18	0	0	0	0
0.1036413085966673	19.23712555583413	1212.546228543973	-0	1.411737408487859	0	0.09478689634274365	-0	-0	-0	0	0	0	0	-3.099160164345596e-17	0	0	0	0
0.1058464428221283	37.87940359328916	1177.894167227332	-0	1.411974993703461	0	0.09478689634274365	-0	-0	-0	0	0	0	0	1.537526028354906e-16	0	0	0	0
0.1080515770475893	58.36543419411026	1142.806928896267	-0	1.412241455303558	0	0.09478689634274365	-0	-0	-0	0	0	0	0	-2.304621114874237e-16	0	0	0	0
0.1102567112730503	75.17218332976194	1104.524764553359	-0	1.412478280593243	0	0.09478689634274365	-0	-0	-0	0	0	0	0	1.638333891091839e-16	0	0	0	0
0.1124618454985113	92.95395893131922	1066.503883118506	-0	1.412736061976862	0	0.09478689634274365	-0	-0	-0	0	0	0	0	8.289759589118163e-16	0	0	0	0
0.1146669797239723	107.7435097635247	1026.432305989394	-0	1.412969596534966	0	0.09478689634274365	-0	-0	-0	0	0	0	0	-5.327478901838604e-16	0	0	0	0
0.1168721139494333	122.2159626077173	987.5715144545051	-0	1.413207551642639	0	0.09478689634274365	-0	-0	-0	0	0	0	0	7.081091763558035e-16	0	0	0	0
0.1190772481748943	131.9421427881467	950.5225380057086	-0	1.413387266400478	0	0.09478689634274365	-0	-0	-0	0	0	0	0	8.801305618060547e-16	0	0	0	0
0.1212823824003553	139.5834017449293	917.9722671337096	-0	1.413534722451878	0	0.09478689634274365	-0	-0	-0	0	0	0	0	-3.499375506295189e-16	0	0	0	0
0.1234875166258163	144.7293695067261	886.2494428877047	-0	1.413647803645724	0	0.09478689634274365	-0	-0	-0	0	0	0	0	-1.583747528814527e-16	0	0	0	0
0.1256926508512773	150.0578576709536	854.6681654458794	-0	1.413767383704868	0	0.09478689634274365	-0	-0	-0	0	0	0	0	3.982554007446282e-16	0	0	0	0
0.1278977850767383	154.114049880704	821.1600689169051	-0	1.413876999963951	0	0.09478689634274365	-0	-0	-0	0	0	0	0	-2.751052339030044e-16	0	0	0	0
0.1301029193021993	158.6775598170568	785.6464491130611	-0	1.414007983429131	0	0.09478689634274363	-0	-0	-0	0	0	0	0	1.882492748847819e-15	0	0	0	0
0.1323080535276603	162.9773092478541	746.7734387728108	-0	1.414156037307073	0	0.09478689634274365	-0	-0	-0	0	0	0	0	1.706459380947736e-16	0	0	0	0
0.1345131877531213	167.7780561721662	704.8853666160239	-0	1.41433990107498	0	0.09478689634274365	-0	-0	-0	0	0	0	0	4.794100854020726e-16	0	0	0	0
0.1367183219785824	171.8115045316222	659.4137843948255	-0	1.414546790344372	0	0.09478689634274365	-0	-0	-0	0	0	0	0	1.21681414601323e-15	0	0	0	0
0.1389234562040434	174.3797055386599	611.3107832013984	-0	1.414766157098802	0	0.09478689634274365	-0	-0	-0	0	0	0	0	-2.520037772155989e-16	0	0	0	0
0.1411285904295044	172.8444234447621	561.2586144186586	-0	1.414941364173013	0	0.09478689634274365	-0	-0	-0	0	0	0	0	1.744462390879306e-15	0	0	0	0
0.1433337246549654	167.722464393641	509.6140126546545	-0	1.415079039348152	0	0.09478689634274365	-0	-0	-0	0	0	0	0	-2.966844531929389e-16	0	0	0	0
0.1455388588804264	159.5504466313924	455.9159290750389	-0	1.415195724670868	0	0.09478689634274365	-0	-0	-0	0	0	0	0	3.973578826086338e-16	0	0	0	0
0.1477439931058874	148.668041109393	399.8359765767638	-0	1.415308034446285	0	0.09478689634274365	-0	-0	-0	0	0	0	0	-7.254061206523059e-16	0	0	0	0
0.1499491273313484	135.1102604840191	340.8254717483661	-0	1.415435449200724	0	0.09478689634274365	-0	-0	-0	0	0	0	0	-5.187084265184653e-16	0	0	0	0
0.1521542615568094	117.6453383873964	282.2377323344061	-0	1.415487506884365	0	0.09478689634274365	-0	-0	-0	0	0	0	0	2.340878817256954e-16	0	0	0	0
0.1543593957822704	93.10691086360879	230.6631769994329	-0	1.41511695730761	0	0.09478689634274365	-0	-0	-0	0	0	0	0	4.562037485097005e-16	0	0	0	0
0.1565645300077314	63.7160967474164	188.6647812006259	-0	1.414140927446215	0	0.09478689634274365	-0	-0	-0	0	0	0	0	3.929847441503332e-16	0	0	0	0
0.1587696642331924	34.48068407056723	153.8247358715802	-0	1.412691024508398	0	0.09478689634274365	-0	-0	-0	0	0	0	0	-2.110192708793724e-16	0	0	0	0
0.1609747984586534	9.06805327477425	124.5697109836619	-0	1.410948318590212	0	0.09478689634274365	-0	-0	-0	0	0	0	0	-4.560816870229985e-17	0	0	0	0
0.1631799326841144	-9.830513068744015	96.65161682009646	-0	1.409130270494587	0	0.09478689634274365	-0	-0	-0	0	0	0	0	6.191941990674672e-18	0	0	0	0
0.1653850669095754	-20.06840045123434	67.27286502547724	-0	1.407286988793481	0	0.09478689634274365	-0	-0	-0	0	0	0	0	9.983383582847364e-17	0	0	0	0
0.1675902011350364	-20.52895615858256	36.39945343137434	-0	1.404979054219129	0	0.09478689634274365	-0	-0	-0	0	0	0	0	-1.022985022827602e-16	0	0	0	0
0.1697953353604975	3.986060540153894	-4.235749616608484	-0	1.40195817220407	0	0.09478689634274365	-0	-0	-0	0	0	0	0	1.010479827583269e-17	0	0	0	0
0.1720004695859585	0.007585254478776095	-0.006858117177550515	-0	1.401905196569877	0	0.09478689634274365	-0	-0	-0	0	0	0	0	3.550156998255507e-20	0	0	0	0
0.1742056038114195	3.981418325383545e-08	-2.973452741162326e-08	-0	1.402430614952548	0	0.09478689634274365	-0	-0	-0	0	0	0	0	-9.180119260239194e-26	0	0	0	0
0.1764107380368805	2.117135612737217e-12	-1.344884435825748e-12	-0	1.40441246201639	0	0.09478689634274363	-0	-0	-0	0	0	0	0	4.17276990786014e-29	0	0	0	0
0.1786158722623415	-0	-0	-0	0	0	0	-0	-0	-0	0	0	0	0	0	0	0	0	0
0.1808210064878025	-0	-0	-0	0	0	0	-0	-0	-0	0	0	0	0	0	0	0	0	0
0.1830261407132635	-0	-0	-0	0	0	0	-0	-0	-0	0	0	0	0	0	0	0	0	0
0.1852312749387245	-0	-0	-0	0	0	0	-0	-0	-0	0	0	0	0	0	0	0	0	0
0.1874364091641855	-0	-0	-0	0	0	0	-0	-0	-0	0	0	0	0	0	0	0	0	0
0.1896415433896465	1.894024941662543e-14	-7.791060186391571e-15	-0	0	0	0	-0	-0	-0	0	0	0	0	1.795287458159386e-15	0	0	0	0
0.1918466776151075	1.76807927467405e-13	-6.993526376678607e-14	-0	1.451996904250042	0	0.09478689634274365	-0	-0	-0	0	0	0	0	5.587371038208952e-31	0	0	0	0
0.1940518118405685	1.646113775141111e-12	-6.280520318979768e-13	-0	1.46155559096722	0	0.09478689634274365	-0	-0	-0	0	0	0	0	-9.744048630282988e-30	0	0	0	0
0.1962569460660295	1.502982779515915e-11	-5.544199662080884e-12	-0	1.471563176291686	0	0.09478689634274366	-0	-0	-0	0	0	0	0	-2.719411616077336e-28	0	0	0	0
0.1984620802914905	1.33235294132619e-10	-4.760721925217372e-11	-0	1.481991859032429	0	0.09478689634274365	-0	-0	-0	0	0	0	0	6.860353203810849e-28	0	0	0	0
0.2006672145169515	1.205101217986183e-09	-4.177458680513469e-10	-0	1.492818752385174	0	0.09478689634274365	-0	-0	-0	0	0	0	0	1.171640088832216e-28	0	0	0	0
0.2028723487424126	1.175972876717644e-08	-3.95992250592364e-09	-0	1.504025958645094	0	0.09478689634274365	-0	-0	-0	0	0	0	0	7.723991123764706e-26	0	0	0	0
0.2050774829678735	1.170291055502387e-07	-3.83237152248883e-08	-0	1.515598496331471	0	0.09478689634274365	-0	-0	-0	0	0	0	0	7.906648755806415e-25	0	0	0	0
0.2072826171933345	1.086581319024657e-06	-3.46379218537138e-07	-0	1.527523945983179	0	0.09478689634274363	-0	-0	-0	0	0	0	0	1.73370880789959e-23	0	0	0	0
0.2094877514187956	9.031863586628786e-06	-2.805279778517899e-06	-0	1.539791565351746	0	0.09478689634274365	-0	-0	-0	0	0	0	0	1.250310972682892e-23	0	0	0	0
0.2116928856442566	6.603217572495676e-05	-2.000024073137894e-05	-0	1.552391721222204	0	0.09478689634274365	-0	-0	-0	0	0	0	0	7.838572078104803e-23	0	0	0	0
0.2138980198697176	0.0004165708257321633	-0.0001231411969192422	-0	1.565315873859797	0	0.09478689634274365	-0	-0	-0	0	0	0	0	3.057589581925595e-21	0	0	0	0
0.2161031540951786	0.002187069444971014	-0.0006314700076006379	-0	1.578556406440722	0	0.09478689634274365	-0	-0	-0	0	0	0	0	1.039397067448481e-20	0	0	0	0
0.2183082883206396	0.00883718363629908	-0.002494074786090616	-0	1.592106847421184	0	0.09478689634274365	-0	-0	-0	0	0	0	0	3.494502635690339e-20	0	0	0	0
0.2205134225461006	0.02124442643202528	-0.005865009299385073	-0	1.605961621046273	0	0.09478689634274365	-0	-0	-0	0	0	0	0	-1.975005615869897e-19	0	0	0	0
0.2227185567715616	0.002771015525836177	-0.0007488867775535703	-0	1.620115801868362	0	0.09478689634274365	-5.677160490741783e-12	1.494429567118808e-12	-0	2.16408070990111	0	-0.08956897507908836	0	1.873669616216411e-21	0	0	4.010635033695136e-29	0
0.2249236909970226	-0.06169652533477408	0.01633563509962428	-0	1.634563574131512	0	0.09478689634274365	-5.599075852477518e-11	1.490309264152204e-11	-0	2.167349646578055	0	-0.08956897507908836	0	-3.255492515741831e-19	0	0	2.877745931651649e-28	0
0.2271288252224836	-0.1017387304394854	0.02641254456839207	-0	1.649299797452891	0	0.09478689634274365	-5.154311204997081e-10	1.387910311274838e-10	-0	2.170601301961818	0	-0.08956897507908836	0	-6.534367364628731e-19	0	0	1.952966543699378e-27	0
0.2293339594479446	-0.1112761503324252	0.02834780105485468	-0	1.664320197653574	0	0.09478689634274365	-4.783171401521311e-09	1.303641679814698e-09	-0	2.173858173409401	0	-0.08956897507908834	0	-8.362122542144547e-20	0	0	4.364668135782931e-26	0
0.2315390936734056	-0.1054536128971309	0.02638270067124376	-0	1.679620720189186	0	0.09478689634274365	-4.320600265257174e-08	1.192514374143726e-08	-0	2.177141779862356	0	-0.08956897507908836	0	4.148205047614141e-19	0	0	3.557050295241453e-25	0
0.2337442278988666	-0.09319739845613151	0.02291708765487675	-0	1.695196145089396	0	0.09478689634274365	-3.773669973014459e-07	1.055334415596802e-07	-0	2.180472573285236	0	-0.08956897507908836	0	-7.466174839784279e-19	0	0	1.138105640553954e-24	0
0.2359493621243276	-0.08408431511339216	0.0203729643845313	-0	1.710986510620734	0	0.09478689634274365	-3.162370261133851e-06	8.965604012133755e-07	-0	2.183869302825038	0	-0.08956897507908836	0	-6.659757862373222e-19	0	0	1.645077979739615e-23	0
0.2381544963497886	-0.08964616376957406	0.02155930330790322	-0	1.726705665730735	0	0.09478689634274366	-2.522319155275975e-05	7.253498055550407e-06	-0	2.187350045814928	0	-0.08956897507908836	0	1.248153519768532e-18	0	0	7.831594836109841e-23	0
0.2403596305752496	-0.1088014222084304	0.02621852298078347	-0	1.742027843108013	0	0.09478689634274363	-0.0001898821906910109	5.541815272949865e-05	-0	2.190932540288704	0	-0.08956897507908836	0	-1.499788821462007e-18	0	0	4.414806032638538e-22	0
0.2425647648007107	-0.13277198439345	0.03224015754776034	-0	1.756842063346103	0	0.09478689634274365	-0.001337914725840008	0.0003965054625827637	-0	2.194632459971916	0	-0.08956897507908837	0	-8.375240094305927e-20	0	0	-1.891101552538163e-20	0
0.2447698990261717	-0.1596284564914275	0.03911008058847033	-0	1.771170632523289	0	0.09478689634274365	-0.008749006471133691	0.002634301518300123	-0	2.198460779879271	0	-0.08956897507908836	0	-3.690020224252216e-19	0	0	-1.52278039340677e-20	0
0.2469750332516327	-0.1903862172423003	0.04697656318375208	-0	1.785159922489915	0	0.09478689634274365	-0.0526172901249259	0.01610569014790029	-0	2.202422600761421	0	-0.08956897507908836	0	-1.646232831671848e-18	0	0	1.676674178003691e-19	0
0.2491801674770937	-0.227029343375891	0.05622888703288018	-0	1.798948857405764	0	0.09478689634274365	-0.2880459213914442	0.08969083757475478	-0	2.206520528061437	0	-0.08956897507908837	0	-4.391143050011979e-19	0	0	-3.569884634538327e-18	0
0.2513853017025547	-0.2730891092792804	0.0677180431344961	-0	1.812616853342319	0	0.09478689634274365	-1.416760766421565	0.4491789927590607	-0	2.210750200496656	0	-0.08956897507908836	0	-3.467716596905594e-19	0	0	6.825979317851152e-18	0
0.2535904359280157	-0.33164823709816	0.0821882943250319	-0	1.826222607485108	0	0.09478689634274365	-6.152084129535514	1.988829718176209	-0	2.215104315756004	0	-0.08956897507908836	0	-1.730261242355432e-18	0	0	-5.31656492563347e-17	0
0.2557955701534767	-0.4061292203554468	0.1004596137555735	-0	1.839801252631447	0	0.09478689634274365	-22.89393202980572	7.578781373491362	-0	2.219529754924495	0	-0.08956897507908836	0	-1.446563163741482e-18	0	0	2.155671545123791e-16	0
0.2580007043789377	-0.4996845789836634	0.1232669485938063	-0	1.853385320598189	0	0.09478689634274365	-69.07380155109608	23.66403242960143	-0	2.223961491415317	0	-0.08956897507908836	0	2.148453668323844e-18	0	0	1.977212417591657e-16	0
0.2602058386043987	-0.6143997327842687	0.1510494063089761	-0	1.867004817270161	0	0.09478689634274365	-153.2069372403208	55.54939331065486	-0	2.228285517000564	0	-0.08956897507908834	0	1.372163110701893e-18	0	0	1.745181073102518e-15	0
0.2624109728298597	-0.7504905127700183	0.1837687955612341	-0	1.880690235619328	0	0.09478689634274365	-269.8106369058659	107.0511486320796	-0	2.232474761129635	0	-0.08956897507908836	0	-1.958547529636926e-19	0	0	1.639702270763554e-15	0
0.2646161070553207	-0.9002212206033053	0.219388341269289	-0	1.894485995939676	0	0.09478689634274365	-540.3573105269356	255.7263405931217	-0	2.236386841400698	0	-0.08956897507908836	0	3.660255037563354e-18	0	0	1.391872080472412e-15	0
0.2668212412807817	-1.040433368112243	0.2520580821584718	-0	1.908462332426855	0	0.09478689634274365	-786.9268995117162	542.9498953247996	-0	2.239960554304023	0	-0.0895689750790884	0	-4.135225090409254e-18	0	0	-1.914765227803717e-14	0
0.2690263755062428	-1.14443178164887	0.2752988369776673	-0	1.922690022526753	0	0.09478689634274365	-560.3582514509302	914.2910568371875	-0	2.243551047074968	0	-0.0895689750790888	0	4.551422198882127e-18	0	0	2.067576835241306e-13	0
0.2712315097317037	-1.200156727356063	0.2865868278593081	-0	1.937197620410134	0	0.09478689634274365	-44.97650594833671	1289.490280297015	-0	2.246601321918162	0	-0.08956897507909722	0	-3.412297021865719e-19	0	0	1.04881465689093e-11	0
0.2734366439571647	-1.18522827238634	0.2807813342977951	-0	1.952025026846004	0	0.09478689634274365	-270.5763922020547	1625.967073909741	-0	2.246339191668425	0	-0.08956897507920926	0	-6.779736613436515e-18	0	0	1.511017255945077e-10	0
0.2756417781826258	-1.079029068670094	0.2532731024015863	-0	1.96724523938119	0	0.09478689634274365	68.79736940994214	1889.64741792257	-0	2.248192597385174	0	-0.08956897508064429	0	3.220564920015559e-18	0	0	2.788793453140991e-09	0
0.2778469124080867	-0.9003407273473457	0.2092825694973141	-0	1.982891229569753	0	0.09478689634274365	-126.5828313978252	2064.324094447251	-0	2.247938444624824	0	-0.08956897509933187	0	-5.873256513339686e-18	0	0	3.605821255445237e-08	0
0.2800520466335478	-0.6815469980553601	0.1568769279920934	-0	1.998981074250462	0	0.09478689634274365	102.528621214018	2150.056548290504	-0	2.249444805316243	0	-0.0895689753640813	0	3.159391944935918e-18	0	0	5.918348762637985e-07	0
0.2822571808590087	-0.4625139416553367	0.1054421090475469	-0	2.015514717616837	0	0.09478689634274366	-46.58261425512564	2156.652218224023	-0	2.249381012844519	0	-0.08956897921719267	0	9.407517955205833e-18	0	0	8.073804988304532e-06	0
0.2844623150844698	-0.2742575840186657	0.06195692484192588	-0	2.032479794500928	0	0.09478689634274365	125.8902071836003	2095.04835530608	-0	2.250847898785705	0	-0.08956903719261818	0	-1.439505231994501e-18	0	0	0.0001271944502898847	0
0.2866674493099308	-0.1335001606774475	0.029902924461632	-0	2.049856882679496	0	0.09478689634274365	17.04705581356741	1984.787828522783	-0	2.250984090570261	0	-0.08956987307281411	0	-4.430998489656637e-19	0	0	0.001650588422568172	0
0.2888725835353918	-0.04067096151096507	0.009039092065018144	-0	2.067620000312387	0	0.09478689634274365	137.9920801890102	1839.408921287817	-0	2.252754713047276	0	-0.08958072804263569	0	-1.285409811885333e-19	0	0	0.02113656450995177	0
0.2910777177608528	0.00235376488872508	-0.0005193789341768428	-0	2.085747018087516	0	0.09478689634274365	38.84481848736721	1703.963281574392	-0	2.255691098891618	0	-0.08967352274946737	0	8.574639566688498e-21	0	0	0.1542555357444003	0
0.2932828519863138	0.0002152600920437027	-4.718431143148099e-05	-0	2.104216592157091	0	0.09478689634274363	60.91177664976252	1634.01974673025	-0	2.266166480955049	0	-0.08999860630459648	0	3.728185468745556e-21	0	0	0.4675398450183035	0
0.2954879862117748	4.721882477703399e-06	-1.028161095803985e-06	-0	2.123039820277887	0	0.09478689634274365	-154.2121256261252	1825.843504531708	-0	2.291685657880894	0	-0.09090798637113287	0	-8.242092943274162e-24	0	0	0.893232006584519	0
0.2976931204372358	6.145290003864214e-08	-1.328264687223344e-08	-0	2.142259708421564	0	0.09478689634274365	-90.20952779428923	1909.03777130018	-0	2.310298229032422	0	-0.09154440256064954	0	-3.754398923626025e-25	0	0	0.7290520310510805	0
0.2998982546626968	5.081132217191572e-10	-1.089328571075958e-10	-0	2.161920097671717	0	0.09478689634274365	-105.944616202093	1856.203059405508	-0	2.326161132401125	0	-0.09210093367148089	0	2.129749772351122e-27	0	0	0.5493330178010973	0
0.3021033888881578	3.181883056158406e-12	-6.764025291880273e-13	-0	2.182036336992496	0	0.09478689634274365	-96.79263136000191	1751.208406762068	-0	2.342702178488891	0	-0.09267815258709947	0	1.505033481703392e-30	0	0	0.384459412359411	0
0.3043085231136188	1.670459954626372e-14	-3.520804092496305e-15	-0	0	0	0	-121.913802006604	1608.823722324227	-0	2.359358911731197	0	-0.0932673273991371	0	1.583377145638742e-15	0	0	0.230312041224433	0
0.3065136573390798	8.489137611864913e-17	-1.774403590780557e-17	-0	0	0	0	-112.5209300499427	1457.14587635707	-0	2.377581018905575	0	-0.09390675604709021	0	8.04659006855126e-18	0	0	0.1048379898205085	0
0.3087187915645409	5.147414149714674e-19	-1.067917023848401e-19	-0	0	0	0	-125.8359363887782	1298.358159096568	-0	2.397397471272972	0	-0.09460967938039117	0	4.879074114421768e-20	0	0	0.01484133064222249	0
0.3109239257900018	-0	-0	-0	0	0	0	-107.413929461619	1285.168513351949	-0	2.402746402541642	0	-0.09479195144163129	0	0	0	0	-0.0002439637916514469	0
0.3131290600154628	-0	-0	-0	0	0	0	-93.43684478388994	1298.562241655484	-0	2.402783445436682	0	-0.09478691336302661	0	0	0	0	-1.891842899396586e-07	0
0.3153341942409238	-0	-0	-0	0	0	0	-67.58115192523594	1300.00348974519	-0	2.403054519917879	0	-0.09478689637486734	0	0	0	0	8.799351352381657e-10	0
0.3175393284663849	-0	-0	-0	0	0	0	-48.79687699207889	1287.206068161826	-0	2.403268086639916	0	-0.09478689634279652	0	0	0	0	3.552177244156809e-12	0
0.3197444626918459	-0	-0	-0	0	0	0	-23.60202196570445	1268.980054983453	-0	2.403543131730665	0	-0.09478689634274373	0	0	0	0	9.208829330284303e-15	0
0.3219495969173068	-0	-0	-0	0	0	0	-3.921149182587223	1241.883242055886	-0	2.403774509767615	0	-0.09478689634274365	0	0	0	0	5.895326301377847e-17	0
0.3241547311427679	-0	-0	-0	0	0	0	19.23712555583299	1212.546228543977	-0	2.404047809945313	0	-0.09478689634274365	0	0	0	0	6.973847039442148e-17	0
0.3263598653682289	-0	-0	-0	0	0	0	37.87940359328812	1177.894167227336	-0	2.404285395160915	0	-0.09478689634274365	0	0	0	0	-1.265655493972243e-16	0
0.3285649995936899	-0	-0	-0	0	0	0	58.36543419410946	1142.806928896271	-0	2.404551856761012	0	-0.09478689634274365	0	0	0	0	2.934702674261087e-16	0
0.3307701338191509	-0	-0	-0	0	0	0	75.17218332976091	1104.524764553363	-0	2.404788682050697	0	-0.09478689634274365	0	0	0	0	-3.365881656737674e-16	0
0.3329752680446119	-0	-0	-0	0	0	0	92.95395893131786	1066.503883118506	-0	2.405046463434317	0	-0.09478689634274365	0	0	0	0	-4.671967145311776e-16	0
0.3351804022700729	-0	-0	-0	0	0	0	107.743509763524	1026.432305989402	-0	2.40527999799242	0	-0.09478689634274365	0	0	0	0	-6.628356670203709e-16	0
0.3373855364955339	-0	-0	-0	0	0	0	122.2159626077165	987.5715144545043	-0	2.405517953100094	0	-0.09478689634274365	0	0	0	0	-2.452173604114187e-16	0
0.3395906707209949	-0	-0	-0	0	0	0	131.942142788146	950.522538005712	-0	2.405697667857933	0	-0.09478689634274365	0	0	0	0	-7.287113061786439e-16	0
0.341795804946456	-0	-0	-0	0	0	0	139.5834017449281	917.9722671337079	-0	2.405845123909332	0	-0.09478689634274365	0	0	0	0	2.983094125039242e-17	0
0.3440009391719169	-0	-0	-0	0	0	0	144.7293695067252	886.2494428877073	-0	2.405958205103179	0	-0.09478689634274365	0	0	0	0	-7.846769771316218e-16	0
0.346206073397378	-0	-0	-0	0	0	0	150.0578576709522	854.6681654458763	-0	2.406077785162323	0	-0.09478689634274365	0	0	0	0	-9.541688948980662e-17	0
0.3484112076228389	-0	-0	-0	0	0	0	154.1140498807032	821.1600689169076	-0	2.406187401421405	0	-0.09478689634274365	0	0	0	0	3.675837564045981e-16	0
0.3506163418482999	-0	-0	-0	0	0	0	158.6775598170565	785.6464491130636	-0	2.406318384886585	0	-0.09478689634274365	0	0	0	0	8.836051436632123e-16	0
0.3528214760737609	-0	-0	-0	0	0	0	162.9773092478535	746.7734387728132	-0	2.406466438764528	0	-0.09478689634274365	0	0	0	0	-8.189940024787623e-16	0
0.3550266102992219	-0	-0	-0	0	0	0	167.7780561721651	704.8853666160207	-0	2.406650302532435	0	-0.09478689634274366	0	0	0	0	1.5878123007095e-15	0
0.357231744524683	-0	-0	-0	0	0	0	171.8115045316219	659.4137843948283	-0	2.406857191801826	0	-0.09478689634274365	0	0	0	0	-5.938690253792817e-16	0
0.359436878750144	-0	-0	-0	0	0	0	174.3797055386597	611.3107832014009	-0	2.407076558556256	0	-0.09478689634274365	0	0	0	0	-8.424672084248863e-16	0
0.3616420129756049	-0	-0	-0	0	0	0	172.8444234447621	561.2586144186604	-0	2.407251765630467	0	-0.09478689634274365	0	0	0	0	-1.744462390879306e-15	0
0.363847147201066	-0	-0	-0	0	0	0	167.7224643936414	509.6140126546571	-0	2.407389440805606	0	-0.09478689634274365	0	0	0	0	-2.083792011893748e-16	0
0.366052281426527	-0	-0	-0	0	0	0	159.5504466313928	455.9159290750414	-0	2.407506126128323	0	-0.09478689634274363	0	0	0	0	-3.057688046857625e-15	0
0.368257415651988	-0	-0	-0	0	0	0	148.6680411093901	399.8359765767582	-0	2.407618435903739	0	-0.09478689634274363	0	0	0	0	-1.649749171420637e-15	0
0.370462549877449	-0	-0	-0	0	0	0	135.1102604840188	340.8254717483672	-0	2.407745850658178	0	-0.09478689634274366	0	0	0	0	2.157977019670949e-15	0
0.37266768410291	-0	-0	-0	0	0	0	117.6453383873966	282.2377323344071	-0	2.407797908341819	0	-0.09478689634274365	0	0	0	0	8.014423707889728e-16	0
0.374872818328371	-0	-0	-0	0	0	0	93.10691086361166	230.6631769994412	-0	2.407427358765064	0	-0.09478689634274365	0	0	0	0	-1.442319847563098e-16	0
0.377077952553832	-0	-0	-0	0	0	0	63.71609674741625	188.6647812006265	-0	2.40645132890367	0	-0.09478689634274365	0	0	0	0	-3.256595636805719e-16	0
0.379283086779293	-0	-0	-0	0	0	0	34.48068407056656	153.8247358715799	-0	2.405001425965851	0	-0.09478689634274365	0	0	0	0	-3.744513349891655e-17	0
0.381488221004754	-0	-0	-0	0	0	0	9.068053274774037	124.5697109836624	-0	2.403258720047666	0	-0.09478689634274365	0	0	0	0	4.662502440551683e-17	0
0.383693355230215	-0	-0	-0	0	0	0	-9.830513068744887	96.65161682010502	-0	2.401440671952042	0	-0.09478689634274365	0	0	0	0	3.312575504145142e-17	0
0.3858984894556761	-0	-0	-0	0	0	0	-20.06840045123442	67.2728650254775	-0	2.399597390250935	0	-0.09478689634274365	0	0	0	0	-6.6171245593593e-17	0
0.388103623681137	-0	-0	-0	0	0	0	-20.52895615857825	36.39945343136643	-0	2.397289455676584	0	-0.09478689634274365	0	0	0	0	-8.851007522152064e-17	0
0.390308757906598	-0	-0	-0	0	0	0	3.986060540154339	-4.235749616608954	-0	2.394268573661523	0	-0.09478689634274365	0	0	0	0	2.153968066000201e-17	0
0.3925138921320591	-0	-0	-0	0	0	0	0.007585254478776112	-0.006858117177550528	-0	2.394215598027332	0	-0.09478689634274363	0	0	0	0	-1.227808378281652e-19	0
0.3947190263575201	-0	-0	-0	0	0	0	3.981418325383567e-08	-2.973452741162342e-08	-0	2.394741016410002	0	-0.09478689634274365	0	0	0	0	-8.849456354516752e-26	0
0.3969241605829811	-0	-0	-0	0	0	0	2.117135612737211e-12	-1.344884435825744e-12	-0	2.396722863473844	0	-0.09478689634274365	0	0	0	0	-6.006752265569479e-30	0
0.3991292948084421	-0	-0	-0	0	0	0	-0	-0	-0	0	0	0	0	0	0	0	0	0
0.401334429033903	-0	-0	-0	0	0	0	-0	-0	-0	0	0	0	0	0	0	0	0	0
0.4035395632593641	-0	-0	-0	0	0	0	-0	-0	-0	0	0	0	0	0	0	0	0	0
0.4057446974848251	-0	-0	-0	0	0	0	-0	-0	-0	0	0	0	0	0	0	0	0	0
0.4079498317102861	-0	-0	-0	0	0	0	-0	-0	-0	0	0	0	0	0	0	0	0	0
0.4101549659357471	-0	-0	-0	0	0	0	1.894024941662563e-14	-7.791060186391655e-15	-0	0	0	0	0	0	0	0	-1.795287458159405e-15	0
0.4123601001612081	-0	-0	-0	0	0	0	1.768079274674071e-13	-6.993526376678686e-14	-0	2.444307305707496	0	-0.09478689634274365	0	0	0	0	7.725724227061247e-31	0
0.4145652343866691	-0	-0	-0	0	0	0	1.646113775141135e-12	-6.28052031897986e-13	-0	2.453865992424674	0	-0.09478689634274366	0	0	0	0	3.247286319989413e-29	0
0.4167703686121301	-0	-0	-0	0	0	0	1.502982779515943e-11	-5.544199662080985e-12	-0	2.463873577749141	0	-0.09478689634274365	0	0	0	0	4.522119946153831e-29	0
0.4189755028375911	-0	-0	-0	0	0	0	1.332352941326219e-10	-4.760721925217477e-11	-0	2.474302260489885	0	-0.09478689634274365	0	0	0	0	7.53935762029224e-28	0
0.4211806370630521	-0	-0	-0	0	0	0	1.205101217986206e-09	-4.177458680513549e-10	-0	2.485129153842629	0	-0.09478689634274365	0	0	0	0	4.296980700870207e-27	0
0.4233857712885132	-0	-0	-0	0	0	0	1.175972876717662e-08	-3.959922505923699e-09	-0	2.496336360102548	0	-0.09478689634274365	0	0	0	0	1.195029205497747e-27	0
0.4255909055139742	-0	-0	-0	0	0	0	1.170291055502404e-07	-3.832371522488886e-08	-0	2.507908897788925	0	-0.09478689634274365	0	0	0	0	5.66038757356675e-25	0
0.4277960397394351	-0	-0	-0	0	0	0	1.086581319024673e-06	-3.463792185371431e-07	-0	2.519834347440633	0	-0.09478689634274365	0	0	0	0	1.194789040150787e-24	0
0.4300011739648961	-0	-0	-0	0	0	0	9.031863586628947e-06	-2.805279778517948e-06	-0	2.5321019668092	0	-0.09478689634274365	0	0	0	0	-4.447567950652276e-24	0
0.4322063081903572	-0	-0	-0	0	0	0	6.603217572495867e-05	-2.000024073137952e-05	-0	2.544702122679659	0	-0.09478689634274365	0	0	0	0	-2.14556305045096e-22	0
0.4344114424158182	-0	-0	-0	0	0	0	0.0004165708257321698	-0.0001231411969192442	-0	2.55762627531725	0	-0.09478689634274365	0	0	0	0	2.049786391607678e-21	0
0.4366165766412792	-0	-0	-0	0	0	0	0.002187069444971065	-0.0006314700076006526	-0	2.570866807898177	0	-0.09478689634274365	0	0	0	0	-1.154159067535897e-20	0
0.4388217108667402	-0	-0	-0	0	0	0	0.008837183636298653	-0.002494074786090496	-0	2.584417248878639	0	-0.09478689634274365	0	0	0	0	-4.375135062902914e-20	0
0.4410268450922012	-0	-0	-0	0	0	0	0.02124442643202597	-0.005865009299385265	-0	2.598272022503728	0	-0.09478689634274365	0	0	0	0	1.54452955156073e-19	0
