DataType=double
version=3
OpenSimVersion=4.6-2026-06-22-85aaf64
endheader
time	ground_force_r_vx	ground_force_r_vy	ground_force_r_vz	ground_force_r_px	ground_force_r_py	ground_force_r_pz	ground_force_l_vx	ground_force_l_vy	ground_force_l_vz	ground_force_l_px	ground_force_l_py	ground_force_l_pz	ground_torque_r_x	ground_torque_r_y	ground_torque_r_z	ground_torque_l_x	ground_torque_l_y	ground_torque_l_z
0	-0	-0	-0	0	0	0	0.001179414241203657	-0.0002340825615348062	-0	0.6160171959992902	0	-0.09478689634274365	0	0	0	0	-3.05105642572312e-21	0
0.002329205832118089	-0	-0	-0	0	0	0	4.832096728349622e-05	-9.459028731973662e-06	-0	0.6381315241216726	0	-0.09478689634274365	0	0	0	0	-1.120518562591324e-22	0
0.004658411664236178	-0	-0	-0	0	0	0	1.625478929244961e-06	-3.143052340016616e-07	-0	0.6607863438896256	0	-0.09478689634274365	0	0	0	0	3.264891343346284e-24	0
0.006987617496354266	-0	-0	-0	0	0	0	4.965741802575582e-08	-9.497743762929424e-09	-0	0.6839494967122941	0	-0.09478689634274365	0	0	0	0	-3.602902517005169e-25	0
0.009316823328472355	-0	-0	-0	0	0	0	1.503798414001004e-09	-2.848710965237096e-10	-0	0.707583729233097	0	-0.09478689634274365	0	0	0	0	-5.584186423168019e-27	0
0.01164602916059044	-1.07233123972034e-11	3.166991176827067e-12	-0	1.21710352672424	0	0.08956897507908836	4.944071369769935e-11	-9.28703987684889e-12	-0	0.7316474774362726	0	-0.09478689634274365	0	3.90546238449273e-29	0	0	-2.675049504521141e-28	0
0.01397523499270853	-1.334811350921599e-10	4.013574072989053e-11	-0	1.218192904926748	0	0.08956897507908836	1.933877603074153e-12	-3.606046001961288e-13	-0	0.7560952524666814	0	-0.09478689634274365	0	5.592033471155653e-28	0	0	7.972702241433345e-30	0
0.01630444082482662	-1.629878883113592e-09	4.997199818460861e-10	-0	1.219429618867137	0	0.08956897507908836	9.843211565829805e-14	-1.823885183897942e-14	-0	0	0	0	0	-1.566292546000726e-31	0	0	-9.330074743700052e-15	0
0.01863364665694471	-1.797203575452122e-08	5.62589582520755e-09	-0	1.220877555903998	0	0.08956897507908836	7.125190806413283e-15	-1.31326449449452e-15	-0	0	0	0	0	-5.563777378521101e-26	0	0	-6.753747223897659e-16	0
0.0209628524890628	-1.774228993952405e-07	5.676753863405911e-08	-0	1.222582443950069	0	0.08956897507908836	1.012471197614925e-14	-1.862670587708616e-15	-0	0	0	0	0	4.704184756467674e-25	0	0	-9.596900245833941e-16	0
0.02329205832118089	-1.549157521700326e-06	5.071551341280217e-07	-0	1.22456590575985	0	0.08956897507908836	1.38875054566789e-10	-2.573769850018817e-11	-0	0.8554456623844047	0	-0.09478689634274365	0	-1.004899801263125e-23	0	0	6.18075847882442e-28	0
0.02562126415329898	-1.184675250778673e-05	3.972232227754478e-06	-0	1.226840659646246	0	0.08956897507908836	-0.002050536642891927	0.0003867859341905792	-0	0.8780422850775653	0	-0.09478689632881472	0	7.027299314670246e-24	0	0	6.997348259116629e-16	0
0.02795046998541706	-7.886346756088308e-05	2.711045348025856e-05	-0	1.229403324635037	0	0.08956897507908836	-0.1077846143718176	0.02076477066810136	-0	0.8986347956187464	0	-0.09478689634180554	0	-2.648755705474722e-22	0	0	1.851772233988174e-15	0
0.03027967581753515	-0.0004554655122976704	0.0001607436057146686	-0	1.232224279993573	0	0.08956897507908836	-0.1921295173982248	0.03767400218368194	-0	0.9176001294015772	0	-0.09478689634064774	0	3.206622109866694e-21	0	0	5.508157327766045e-15	0
0.03260888164965325	-0.002271965307441591	0.000825323863186018	-0	1.235236638126262	0	0.08956897507908837	-0.2938388361939209	0.05831319559378424	-0	0.9356371253511157	0	-0.0947868963378604	0	3.385961985246785e-20	0	0	1.528202647352493e-14	0
0.03493808748177134	-0.009801098637896332	0.00367912148488471	-0	1.238375553178474	0	0.08956897507908836	-0.4349013022143414	0.08700779104590284	-0	0.9532109840018107	0	-0.09478689633196812	0	7.501429371193977e-21	0	0	4.069982269581414e-14	0
0.03726729331388942	-0.03702219536243121	0.01443178075343883	-0	1.241570900727798	0	0.08956897507908836	-0.642436048906448	0.1293665317640371	-0	0.9704917836649463	0	-0.09478689632069179	0	-1.703560687231813e-19	0	0	1.02151894707397e-13	0
0.0395964991460075	-0.1244864481659177	0.05109884626637917	-0	1.24454899884878	0	0.08956897507908836	-0.9360150640020087	0.1895372014732099	-0	0.9876216239978141	0	-0.09478689630096593	0	1.446658312357769e-19	0	0	2.357894809959591e-13	0
0.0419257049781256	-0.3821407163888534	0.1698673458410615	-0	1.246987217359321	0	0.08956897507908836	-1.324089503873728	0.2694176340161613	-0	1.004703177937358	0	-0.09478689626912115	0	-3.10084315787559e-19	0	0	4.929560728184192e-13	0
0.04425491081024369	-1.115442186829285	0.549471540317962	-0	1.2490135053112	0	0.08956897507908836	-1.791658396060352	0.366105338532514	-0	1.021832820209494	0	-0.09478689622168503	0	-4.606278215818938e-19	0	0	9.178463324266699e-13	0
0.04658411664236178	-3.204351937159333	1.756422756045513	-0	1.250893348335641	0	0.08956897507908836	-2.296010683322835	0.4709286948470975	-0	1.039079857310158	0	-0.09478689615671282	0	-3.75231612983987e-18	0	0	1.502782229137663e-12	0
0.04891332247447987	-9.104568866075747	5.537382146010863	-0	1.252606733389188	0	0.08956897507908836	-2.764174316128879	0.5688433586721369	-0	1.056501315513712	0	-0.09478689607551771	0	-8.265249285855712e-19	0	0	2.131528830157632e-12	0
0.05124252830659795	-24.6933888052439	16.73168833063528	-0	1.254026448405987	0	0.08956897507908836	-3.10109197714612	0.6400214343240312	-0	1.074142728244154	0	-0.09478689598367984	0	-2.117349278848117e-16	0	0	2.583722492686064e-12	0
0.05357173413871603	-57.7737662118885	44.41720345261895	-0	1.255066573152797	0	0.08956897507908836	-3.215536754246813	0.665252624915406	-0	1.092043824901274	0	-0.09478689589143574	0	-1.945331747208989e-16	0	0	2.626976011481594e-12	0
0.05590093997083413	-107.3636919238565	97.40383211252909	-0	1.255691322572624	0	0.08956897507908836	-3.04317714762695	0.630789972077977	-0	1.110246537777042	0	-0.0947868958117644	0	1.09629802607347e-16	0	0	2.182608417083701e-12	0
0.05823014580295222	-156.7937530602497	279.4935052899172	-0	1.25623548337338	0	0.08956897507908836	-2.574617945610872	0.5343291883145488	-0	1.128796474330789	0	-0.09478689575790383	0	-7.878106888445944e-17	0	0	1.409900076897324e-12	0
0.06055935163507031	124.7341420270962	679.0117658738875	-0	1.258286164875629	0	0.08956897507908836	-1.880564686767924	0.3904607047976719	-0	1.147751988742613	0	-0.09478689573841942	0	5.083017467029597e-16	0	0	6.549741230896146e-13	0
0.0628885574671884	-7.773524659933395	1164.953005320564	-0	1.258478929355334	0	0.08956897507908837	-1.086375768144528	0.2254083253291525	-0	1.167182869605673	0	-0.09478689575892121	0	-7.343993834207475e-15	0	0	1.692725550110719e-13	0
0.06521776329930649	4.631183571835999	1660.401483773391	-0	1.259307136145178	0	0.08956897507908852	-0.3451486538221105	0.07146142026709831	-0	1.187200755129026	0	-0.09478689581650236	0	-2.747612306194818e-13	0	0	8.603701771166434e-15	0
0.06754696913142458	-98.75088707212703	2103.395205994314	-0	1.259766042299775	0	0.08956897507909441	0.001914964521125847	-0.0003951391524051976	-0	1.207914149093335	0	-0.09478689605793508	0	-1.21621605685644e-11	0	0	3.858990971262469e-17	0
0.06987617496354266	-59.71537533488375	2448.836850854341	-0	1.260729353117323	0	0.08956897507932798	2.982075612602527e-08	-6.126922146917583e-09	-0	1.229405896255999	0	-0.09478689616467824	0	-5.722315443044618e-10	0	0	5.523566954574014e-22	0
0.07220538079566075	-105.0031558556787	2665.672822612919	-0	1.261399104397491	0	0.08956897508886107	1.087385667362871e-13	-2.22328344994234e-14	-0	1.251739228179929	0	-0.09478689610451495	0	-2.490469006006841e-08	0	0	1.389190041928691e-27	0
0.07453458662777884	-35.69695206147334	2749.158100470545	-0	1.262480763942016	0	0.08956897547033615	-0	-0	-0	0	0	0	0	-1.044461307595961e-06	0	0	0	0
0.07686379245989693	-40.49371052171636	2709.188638314508	-0	1.263287749112885	0	0.08956898959153933	-0	-0	-0	0	0	0	0	-3.761808017688415e-05	0	0	0	0
0.07919299829201502	38.11522449264544	2570.586334156653	-0	1.264482186328243	0	0.08956944396815165	-0	-0	-0	0	0	0	0	-0.001167207218894971	0	0	0	0
0.08152220412413309	43.49670308466634	2366.778141813047	-0	1.265712863150525	0	0.08958063991339381	-0	-0	-0	0	0	0	0	-0.02632238116518836	0	0	0	0
0.08385140995625119	70.42138360550004	2177.723473226306	-0	1.270752182800468	0	0.08971160224416816	-0	-0	-0	0	0	0	0	-0.2923330140408893	0	0	0	0
0.08618061578836927	-58.62975454766624	2193.141425770633	-0	1.287836506142891	0	0.09028625618533989	-0	-0	-0	0	0	0	0	-1.040211165749301	0	0	0	0
0.08850982162048737	-182.0559386986579	2456.326693428296	-0	1.315292817079649	0	0.09124829330626076	-0	-0	-0	0	0	0	0	-1.341704590076646	0	0	0	0
0.09083902745260546	-171.080902971249	2414.188021291749	-0	1.33515135585293	0	0.09194232300556818	-0	-0	-0	0	0	0	0	-1.007643005007666	0	0	0	0
0.09316823328472355	-187.4958192516159	2228.862854272107	-0	1.356015654328572	0	0.09267752563547568	-0	-0	-0	0	0	0	0	-0.6785951327676359	0	0	0	0
0.09549743911684164	-191.2573718671061	1968.143878608314	-0	1.377323240628141	0	0.09342956790234883	-0	-0	-0	0	0	0	0	-0.3514433396160851	0	0	0	0
0.09782664494895972	-183.5067578451804	1705.889691812409	-0	1.401872387828794	0	0.09429594431326194	-0	-0	-0	0	0	0	0	-0.09747453095898376	0	0	0	0
0.1001558507810778	-176.6792571463646	1576.601240022118	-0	1.416003109513287	0	0.09479412848057514	-0	-0	-0	0	0	0	0	0.0009577406869717827	0	0	0	0
0.1024850566131959	-142.3781386975961	1599.623224189724	-0	1.416092640953909	0	0.09478689949664727	-0	-0	-0	0	0	0	0	2.199747089321499e-07	0	0	0	0
0.104814262445314	-115.4435956606078	1577.049653586427	-0	1.416323277913096	0	0.09478689634340874	-0	-0	-0	0	0	0	0	3.540505247881206e-12	0	0	0	0
0.1071434682774321	-72.4344790994158	1547.926484436752	-0	1.416686687970431	0	0.09478689634274376	-0	-0	-0	0	0	0	0	-6.30507068170068e-15	0	0	0	0
0.1094726741095502	-44.40349955294953	1493.827401207036	-0	1.416945308588778	0	0.09478689634274365	-0	-0	-0	0	0	0	0	-2.081936123305133e-16	0	0	0	0
0.1118018799416683	-8.799714239943606	1445.464280052666	-0	1.417288569630086	0	0.09478689634274365	-0	-0	-0	0	0	0	0	-3.146504623420084e-17	0	0	0	0
0.1141310857737863	8.983476407843028	1386.50812778603	-0	1.417488605643877	0	0.09478689634274365	-0	-0	-0	0	0	0	0	4.388583401322017e-17	0	0	0	0
0.1164602916059044	35.92640867133762	1334.547827684404	-0	1.417789261924514	0	0.09478689634274365	-0	-0	-0	0	0	0	0	-1.556370041297581e-16	0	0	0	0
0.1187894974380225	51.05676049526233	1271.71528138549	-0	1.417987621981061	0	0.09478689634274365	-0	-0	-0	0	0	0	0	3.528655089640106e-16	0	0	0	0
0.1211187032701406	74.00358466852893	1213.358941637582	-0	1.418284035800791	0	0.09478689634274365	-0	-0	-0	0	0	0	0	-2.817215405847762e-16	0	0	0	0
0.1234479091022587	87.42615614666913	1145.970209103092	-0	1.418495217762777	0	0.09478689634274365	-0	-0	-0	0	0	0	0	-9.035341309093862e-17	0	0	0	0
0.1257771149343768	108.3320813414823	1081.970680627435	-0	1.418816879733177	0	0.09478689634274365	-0	-0	-0	0	0	0	0	-6.683653517573599e-16	0	0	0	0
0.1281063207664949	121.7595716275337	1010.917110092995	-0	1.419076588698649	0	0.09478689634274365	-0	-0	-0	0	0	0	0	-3.675137983487532e-16	0	0	0	0
0.130435526598613	140.189357161575	942.4946404393339	-0	1.419436031802207	0	0.09478689634274365	-0	-0	-0	0	0	0	0	-1.21932430170276e-16	0	0	0	0
0.1327647324307311	151.8192690505736	868.1553770134001	-0	1.419747137555713	0	0.09478689634274365	-0	-0	-0	0	0	0	0	8.63611688987256e-16	0	0	0	0
0.1350939382628491	166.2938279898044	795.0510342005057	-0	1.420154766420842	0	0.09478689634274365	-0	-0	-0	0	0	0	0	-1.170490444177899e-16	0	0	0	0
0.1374231440949672	171.2963921545006	717.7774437379488	-0	1.420469532068211	0	0.09478689634274365	-0	-0	-0	0	0	0	0	8.510389840447343e-17	0	0	0	0
0.1397523499270853	170.2113720361293	643.5527409044555	-0	1.420709971373757	0	0.09478689634274365	-0	-0	-0	0	0	0	0	-2.886800895055189e-16	0	0	0	0
0.1420815557592034	160.1531392870071	566.1307883300841	-0	1.420825662701336	0	0.09478689634274365	-0	-0	-0	0	0	0	0	-9.494680396574841e-17	0	0	0	0
0.1444107615913215	151.5099345512236	487.6719413599172	-0	1.421052608446358	0	0.09478689634274365	-0	-0	-0	0	0	0	0	8.695496358760736e-16	0	0	0	0
0.1467399674234396	139.2311016966597	405.5221120331091	-0	1.421319161266438	0	0.09478689634274365	-0	-0	-0	0	0	0	0	-2.059236774908663e-16	0	0	0	0
0.1490691732555577	125.7443431835795	323.9283882500063	-0	1.421716145007395	0	0.09478689634274365	-0	-0	-0	0	0	0	0	5.276229963174201e-16	0	0	0	0
0.1513983790876758	102.1071504339299	244.4385533150419	-0	1.42186314880051	0	0.09478689634274365	-0	-0	-0	0	0	0	0	6.596717097048276e-16	0	0	0	0
0.1537275849197939	65.30700025810498	180.8873403345368	-0	1.420879094401507	0	0.09478689634274365	-0	-0	-0	0	0	0	0	-4.942236864894267e-17	0	0	0	0
0.156056790751912	23.09685970430646	137.0868176785692	-0	1.418271158402751	0	0.09478689634274365	-0	-0	-0	0	0	0	0	5.907651062285479e-18	0	0	0	0
0.15838599658403	-12.64300447282128	106.5920897136932	-0	1.414750072993447	0	0.09478689634274365	-0	-0	-0	0	0	0	0	-6.779574378702988e-17	0	0	0	0
0.1607152024161481	-38.47663285324901	77.52354673501684	-0	1.410502158682655	0	0.09478689634274365	-0	-0	-0	0	0	0	0	2.036775629515371e-16	0	0	0	0
0.1630444082482662	-27.86910911185092	29.52675959743889	-0	1.406026610423395	0	0.09478689634274365	-0	-0	-0	0	0	0	0	3.508441435638314e-17	0	0	0	0
0.1653736140803843	5.76016044546622	-5.112080781006946	-0	1.405554108939606	0	0.09478689634274365	-0	-0	-0	0	0	0	0	2.988804417716553e-17	0	0	0	0
0.1677028199125024	4.290935459681615	-3.154902142806154	-0	1.405680047538445	0	0.09478689634274365	-0	-0	-0	0	0	0	0	-2.299482381495833e-17	0	0	0	0
0.1700320257446205	7.146292040344338	-4.474788482528106	-0	1.407069688538987	0	0.09478689634274365	-0	-0	-0	0	0	0	0	-4.516317163554652e-17	0	0	0	0
0.1723612315767385	7.079487992290233	-3.846267308242671	-0	1.409679599815759	0	0.09478689634274365	-0	-0	-0	0	0	0	0	-8.961997052238494e-18	0	0	0	0
0.1746904374088566	8.477987538026325	-4.076180134941844	-0	1.413646213784883	0	0.09478689634274365	-0	-0	-0	0	0	0	0	1.831280731437396e-17	0	0	0	0
0.1770196432409747	8.599901719492541	-3.736176341807565	-0	1.419032311366633	0	0.09478689634274365	-0	-0	-0	0	0	0	0	-4.659984515158311e-18	0	0	0	0
0.1793488490730928	8.984807654706067	-3.590828760193177	-0	1.425754404911056	0	0.09478689634274365	-0	-0	-0	0	0	0	0	-7.397172014496737e-18	0	0	0	0
0.1816780549052109	8.918649956144774	-3.318104745035807	-0	1.433635081843007	0	0.09478689634274365	-0	-0	-0	0	0	0	0	4.863697084772861e-17	0	0	0	0
0.184007260737329	8.94337833632907	-3.125729943627342	-0	1.442579359515173	0	0.09478689634274365	-0	-0	-0	0	0	0	0	-4.555476536959425e-17	0	0	0	0
0.1863364665694471	8.564066190771436	-2.834854575910738	-0	1.452527709616001	0	0.09478689634274363	-0	-0	-0	0	0	0	0	1.238357318979882e-16	0	0	0	0
0.1886656724015652	8.058632926446371	-2.547990176869375	-0	1.463427983691865	0	0.09478689634274365	-0	-0	-0	0	0	0	0	2.124695125635453e-17	0	0	0	0
0.1909948782336832	7.961929405054126	-2.421385008432856	-0	1.475156565575907	0	0.09478689634274365	-0	-0	-0	0	0	0	0	-2.071544476469761e-17	0	0	0	0
0.1933240840658013	7.714144236607953	-2.266607058543948	-0	1.487583546633616	0	0.09478689634274365	-0	-0	-0	0	0	0	0	-2.322538678377561e-18	0	0	0	0
0.1956532898979194	7.237289470932075	-2.061536808926635	-0	1.500643101570333	0	0.09478689634274365	-0	-0	-0	0	0	0	0	-4.849568383997892e-17	0	0	0	0
0.1979824957300375	6.556036833840811	-1.815199234465467	-0	1.514280707329062	0	0.09478689634274365	-0	-0	-0	0	0	0	0	1.268314031175758e-17	0	0	0	0
0.2003117015621556	5.877886189696103	-1.584856941650584	-0	1.528456937124967	0	0.09478689634274365	-0	-0	-0	0	0	0	0	5.372229995000071e-17	0	0	0	0
0.2026409073942737	5.394021224901289	-1.418221857260342	-0	1.543145607943892	0	0.09478689634274365	-0	-0	-0	0	0	0	0	1.32267112155163e-17	0	0	0	0
0.2049701132263918	5.094748201179329	-1.307465199697244	-0	1.558334561963572	0	0.09478689634274365	-0	-0	-0	0	0	0	0	1.689445341365409e-17	0	0	0	0
0.2072993190585099	4.743809683175554	-1.189052966778002	-0	1.574018240644304	0	0.09478689634274365	-0	-0	-0	0	0	0	0	-6.322663983631546e-18	0	0	0	0
0.209628524890628	4.248984183257869	-1.040540139562931	-0	1.590191876916705	0	0.09478689634274365	-0	-0	-0	0	0	0	0	-2.641893420828913e-17	0	0	0	0
0.2119577307227461	3.729868753701415	-0.892352465857849	-0	1.606852829251205	0	0.09478689634274365	-0	-0	-0	0	0	0	0	2.453784474444735e-18	0	0	0	0
0.2142869365548642	3.213852336971303	-0.751088735726208	-0	1.624010974989835	0	0.09478689634274365	-0	-0	-0	0	0	0	0	-1.686607208417584e-17	0	0	0	0
0.2166161423869822	2.729079016313186	-0.6230259469926654	-0	1.641682547251087	0	0.09478689634274365	-0	-0	-0	0	0	0	0	-2.017665565692322e-17	0	0	0	0
0.2189453482191003	2.241736172428006	-0.4999171176607455	-0	1.659878495408071	0	0.09478689634274365	-0	-0	-0	0	0	0	0	7.875205014345157e-18	0	0	0	0
0.2212745540512184	1.759236113693248	-0.3832922764316019	-0	1.678607840934232	0	0.09478689634274363	-0	-0	-0	0	0	0	0	2.619926485725448e-17	0	0	0	0
0.2236037598833365	1.452061864783623	-0.3094373092074682	-0	1.697883689197323	0	0.09478689634274365	-0	-0	-0	0	0	0	0	-2.868309142707932e-19	0	0	0	0
0.2259329657154546	0.8838488747854856	-0.1845787592465086	-0	1.717713941539093	0	0.09478689634274366	-0	-0	-0	0	0	0	0	-7.07010931997313e-18	0	0	0	0
0.2282621715475727	0.2193139200584617	-0.04496163923830413	-0	1.738105663111644	0	0.09478689634274366	-0	-0	-0	0	0	0	0	-2.327281078400347e-18	0	0	0	0
0.2305913773796908	0.02140175342630156	-0.004313653467190727	-0	1.759072927697327	0	0.09478689634274365	-0	-0	-0	0	0	0	0	-2.017570100419919e-19	0	0	0	0
0.2329205832118089	0.001179414241203683	-0.0002340825615348114	-0	1.780620112058334	0	0.09478689634274365	-0	-0	-0	0	0	0	0	3.175184319182224e-21	0	0	0	0
0.235249789043927	4.832096728349652e-05	-9.45902873197372e-06	-0	1.802734440180717	0	0.09478689634274365	-0	-0	-0	0	0	0	0	7.627361603818698e-24	0	0	0	0
0.237578994876045	1.625478929244977e-06	-3.143052340016649e-07	-0	1.82538925994867	0	0.09478689634274365	-0	-0	-0	0	0	0	0	-7.586926046029338e-25	0	0	0	0
0.2399082007081631	4.965741802575692e-08	-9.497743762929637e-09	-0	1.848552412771338	0	0.09478689634274365	-0	-0	-0	0	0	0	0	-3.651457750055112e-25	0	0	0	0
0.2422374065402812	1.503798414001045e-09	-2.848710965237175e-10	-0	1.872186645292141	0	0.09478689634274365	-0	-0	-0	0	0	0	0	8.150023712913631e-27	0	0	0	0
0.2445666123723993	4.94407136977004e-11	-9.287039876849087e-12	-0	1.896250393495317	0	0.09478689634274365	-1.072331239720338e-11	3.166991176827061e-12	-0	2.381706442783285	0	-0.08956897507908836	0	3.93668039816596e-28	0	0	-3.264776893856815e-29	0
0.2468958182045174	1.933877603074222e-12	-3.606046001961418e-13	-0	1.920698168525726	0	0.09478689634274365	-1.334811350921596e-10	4.013574072989043e-11	-0	2.382795820985792	0	-0.08956897507908836	0	8.765073448719796e-30	0	0	4.591768594318461e-28	0
0.2492250240366355	9.843211565830149e-14	-1.823885183898006e-14	-0	0	0	0	-1.629878883113588e-09	4.997199818460848e-10	-0	2.384032534926182	0	-0.08956897507908836	0	9.330074743700378e-15	0	0	-6.096691453089765e-27	0
0.2515542298687536	7.125190806413232e-15	-1.313264494494511e-15	-0	0	0	0	-1.797203575452117e-08	5.625895825207533e-09	-0	2.385480471963041	0	-0.08956897507908836	0	6.753747223897611e-16	0	0	4.109131059200119e-26	0
0.2538834357008717	1.012471197615043e-14	-1.862670587708833e-15	-0	0	0	0	-1.774228993952401e-07	5.676753863405899e-08	-0	2.387185360009114	0	-0.08956897507908836	0	9.596900245835059e-16	0	0	1.067571043913609e-24	0
0.2562126415329897	1.388750545667879e-10	-2.573769850018798e-11	-0	2.020048578443449	0	0.09478689634274365	-1.549157521700322e-06	5.071551341280204e-07	-0	2.389168821818894	0	-0.08956897507908836	0	4.540498420484145e-28	0	0	-1.161967679833271e-23	0
0.2585418473651078	-0.002050536642890867	0.0003867859341903792	-0	2.04264520113661	0	0.09478689632881472	-1.18467525077867e-05	3.972232227754467e-06	-0	2.39144357570529	0	-0.08956897507908836	0	-6.99736543948813e-16	0	0	-8.866344284080825e-23	0
0.2608710531972259	-0.1077846143718178	0.02076477066810139	-0	2.06323771167779	0	0.09478689634180554	-7.886346756088291e-05	2.71104534802585e-05	-0	2.394006240694081	0	-0.08956897507908836	0	-1.852018847100834e-15	0	0	-4.823285497649898e-23	0
0.263200259029344	-0.192129517398224	0.03767400218368178	-0	2.082203045460621	0	0.09478689634064774	-0.0004554655122976691	0.0001607436057146682	-0	2.396827196052617	0	-0.08956897507908836	0	-5.507285993933721e-15	0	0	-1.870050094794418e-21	0
0.2655294648614621	-0.2938388361939193	0.05831319559378392	-0	2.100240041410161	0	0.09478689633786039	-0.002271965307441579	0.0008253238631860138	-0	2.399839554185307	0	-0.08956897507908836	0	-1.528783108582599e-14	0	0	-1.062941000753024e-20	0
0.2678586706935802	-0.4349013022143381	0.08700779104590219	-0	2.117813900060855	0	0.09478689633196812	-0.009801098637896298	0.003679121484884698	-0	2.402978469237519	0	-0.08956897507908836	0	-4.070495341852672e-14	0	0	-4.413965380163358e-20	0
0.2701878765256983	-0.6424360489064442	0.1293665317640364	-0	2.13509469972399	0	0.09478689632069177	-0.037022195362431	0.01443178075343875	-0	2.406173816786843	0	-0.08956897507908836	0	-1.021577854376358e-13	0	0	1.673671566376446e-19	0
0.2725170823578164	-0.9360150640021552	0.1895372014732395	-0	2.152224540056858	0	0.09478689630096594	-0.124486448165917	0.05109884626637889	-0	2.409151914907823	0	-0.08956897507908836	0	-2.357738359435972e-13	0	0	-4.437494508503671e-19	0
0.2748462881899345	-1.324089503873717	0.269417634016159	-0	2.169306093996402	0	0.09478689626912115	-0.3821407163888509	0.1698673458410604	-0	2.411590133418365	0	-0.08956897507908836	0	-4.929393686294799e-13	0	0	2.008940846737926e-18	0
0.2771754940220525	-1.791658396060337	0.366105338532511	-0	2.186435736268538	0	0.09478689622168503	-1.115442186829277	0.549471540317958	-0	2.413616421370244	0	-0.08956897507908836	0	-9.17840941638155e-13	0	0	8.052583515331938e-19	0
0.2795046998541706	-2.296010683322921	0.4709286948471152	-0	2.203682773369202	0	0.0947868961567128	-3.204351937159444	1.756422756045574	-0	2.415496264394686	0	-0.08956897507908836	0	-1.502808027380961e-12	0	0	-3.905455963083526e-18	0
0.2818339056862887	-2.764174316128944	0.5688433586721503	-0	2.221104231572756	0	0.09478689607551771	-9.104568866076026	5.537382146011033	-0	2.417209649448233	0	-0.08956897507908836	0	-2.131502773790301e-12	0	0	1.130126664564754e-18	0
0.2841631115184068	-3.10109197714617	0.6400214343240415	-0	2.238745644303199	0	0.09478689598367986	-24.69338880524457	16.73168833063573	-0	2.418629364465031	0	-0.08956897507908836	0	-2.583725488254979e-12	0	0	-1.043404686150535e-16	0
0.2864923173505249	-3.215536754246917	0.6652526249154276	-0	2.256646740960318	0	0.09478689589143574	-57.77376621188969	44.41720345261986	-0	2.419669489211842	0	-0.08956897507908836	0	-2.626951527227593e-12	0	0	-1.435985756958495e-16	0
0.288821523182643	-3.043177147627031	0.6307899720779939	-0	2.274849453836087	0	0.0947868958117644	-107.3636919238585	97.40383211253089	-0	2.420294238631668	0	-0.08956897507908836	0	-2.182621294812116e-12	0	0	5.996689718698791e-16	0
0.2911507290147611	-2.574617945610939	0.5343291883145629	-0	2.293399390389832	0	0.09478689575790383	-156.7937530602541	279.4935052899242	-0	2.420838399432424	0	-0.08956897507908836	0	-1.409885595967446e-12	0	0	-1.540250541867309e-16	0
0.2934799348468792	-1.880564686767979	0.3904607047976832	-0	2.312354904801657	0	0.09478689573841942	124.7341420270971	679.0117658738989	-0	2.422889080934672	0	-0.08956897507908836	0	-6.549868737009256e-13	0	0	-2.547029338903983e-16	0
0.2958091406789973	-1.086375768144567	0.2254083253291606	-0	2.331785785664717	0	0.09478689575892123	-7.773524659935482	1164.953005320577	-0	2.423081845414379	0	-0.08956897507908837	0	-1.692585901508972e-13	0	0	7.355458942308008e-15	0
0.2981383465111154	-0.3451486538221289	0.07146142026710213	-0	2.35180367118807	0	0.09478689581650236	4.631183571833031	1660.401483773406	-0	2.423910052204223	0	-0.08956897507908852	0	-8.60540877175849e-15	0	0	2.747372367332138e-13	0
0.3004675523432334	0.001914964521125924	-0.0003951391524052135	-0	2.372517065152379	0	0.0947868960579351	-98.75088707213199	2103.395205994329	-0	2.424368958358819	0	-0.08956897507909441	0	-3.862176483661448e-17	0	0	1.216202453796281e-11	0
0.3027967581753515	2.98207561260277e-08	-6.126922146918085e-09	-0	2.394008812315043	0	0.09478689616467824	-59.71537533488901	2448.83685085435	-0	2.425332269176367	0	-0.08956897507932798	0	-5.52400223611039e-22	0	0	5.722315754934952e-10	0
0.3051259640074696	1.087385667363077e-13	-2.223283449942762e-14	-0	2.416342144238973	0	0.09478689610451496	-105.0031558556852	2665.672822612941	-0	2.426002020456536	0	-0.08956897508886107	0	-1.390784772252885e-27	0	0	2.490468896969026e-08	0
0.3074551698395877	-0	-0	-0	0	0	0	-35.69695206147996	2749.158100470566	-0	2.427083680001061	0	-0.08956897547033615	0	0	0	0	1.044461307306165e-06	0
0.3097843756717058	-0	-0	-0	0	0	0	-40.49371052172316	2709.188638314522	-0	2.427890665171929	0	-0.08956898959153933	0	0	0	0	3.761808017711492e-05	0
0.3121135815038239	-0	-0	-0	0	0	0	38.11522449263951	2570.586334156664	-0	2.429085102387287	0	-0.08956944396815164	0	0	0	0	0.001167207218894154	0
0.3144427873359419	-0	-0	-0	0	0	0	43.49670308466058	2366.778141813045	-0	2.430315779209569	0	-0.08958063991339379	0	0	0	0	0.02632238116518777	0
0.31677199316806	-0	-0	-0	0	0	0	70.42138360549329	2177.723473226303	-0	2.435355098859511	0	-0.08971160224416816	0	0	0	0	0.2923330140408922	0
0.3191011990001781	-0	-0	-0	0	0	0	-58.6297545476759	2193.141425770648	-0	2.452439422201936	0	-0.09028625618533991	0	0	0	0	1.040211165749323	0
0.3214304048322962	-0	-0	-0	0	0	0	-182.0559386986666	2456.326693428304	-0	2.479895733138693	0	-0.09124829330626076	0	0	0	0	1.341704590076659	0
0.3237596106644143	-0	-0	-0	0	0	0	-171.0809029712548	2414.188021291765	-0	2.499754271911974	0	-0.09194232300556818	0	0	0	0	1.007643005007675	0
0.3260888164965324	-0	-0	-0	0	0	0	-187.4958192516205	2228.862854272112	-0	2.520618570387617	0	-0.0926775256354757	0	0	0	0	0.6785951327676338	0
0.3284180223286505	-0	-0	-0	0	0	0	-191.2573718671099	1968.143878608319	-0	2.541926156687186	0	-0.09342956790234885	0	0	0	0	0.351443339616081	0
0.3307472281607686	-0	-0	-0	0	0	0	-183.5067578451837	1705.889691812427	-0	2.566475303887838	0	-0.09429594431326192	0	0	0	0	0.09747453095898719	0
0.3330764339928867	-0	-0	-0	0	0	0	-176.6792571463672	1576.601240022125	-0	2.580606025572331	0	-0.09479412848057514	0	0	0	0	-0.0009577406869709602	0
0.3354056398250048	-0	-0	-0	0	0	0	-142.3781386975986	1599.623224189732	-0	2.580695557012954	0	-0.09478689949664726	0	0	0	0	-2.199747059969428e-07	0
0.3377348456571229	-0	-0	-0	0	0	0	-115.4435956606101	1577.049653586434	-0	2.58092619397214	0	-0.09478689634340874	0	0	0	0	-3.54151587439491e-12	0
0.340064051489241	-0	-0	-0	0	0	0	-72.43447909941784	1547.926484436759	-0	2.581289604029476	0	-0.09478689634274376	0	0	0	0	5.959561128571285e-15	0
0.342393257321359	-0	-0	-0	0	0	0	-44.40349955295147	1493.827401207039	-0	2.581548224647821	0	-0.09478689634274365	0	0	0	0	1.952425387372847e-16	0
0.3447224631534771	-0	-0	-0	0	0	0	-8.799714239945246	1445.464280052668	-0	2.58189148568913	0	-0.09478689634274365	0	0	0	0	5.223896330540492e-17	0
0.3470516689855952	-0	-0	-0	0	0	0	8.983476407841188	1386.50812778604	-0	2.582091521702921	0	-0.09478689634274365	0	0	0	0	4.630937536373121e-17	0
0.3493808748177133	-0	-0	-0	0	0	0	35.92640867133606	1334.547827684414	-0	2.582392177983559	0	-0.09478689634274365	0	0	0	0	-1.329655272800258e-16	0
0.3517100806498314	-0	-0	-0	0	0	0	51.05676049526114	1271.7152813855	-0	2.582590538040105	0	-0.09478689634274365	0	0	0	0	1.857359347940796e-16	0
0.3540392864819495	-0	-0	-0	0	0	0	74.00358466852738	1213.358941637587	-0	2.582886951859835	0	-0.09478689634274365	0	0	0	0	7.85419245644655e-18	0
0.3563684923140676	-0	-0	-0	0	0	0	87.42615614666772	1145.970209103096	-0	2.583098133821821	0	-0.09478689634274365	0	0	0	0	-3.616210222284811e-17	0
0.3586976981461857	-0	-0	-0	0	0	0	108.3320813414811	1081.97068062744	-0	2.583419795792222	0	-0.09478689634274365	0	0	0	0	-5.693900438848003e-16	0
0.3610269039783037	-0	-0	-0	0	0	0	121.7595716275322	1010.917110092999	-0	2.583679504757693	0	-0.09478689634274365	0	0	0	0	1.231168167833322e-16	0
0.3633561098104219	-0	-0	-0	0	0	0	140.1893571615727	942.4946404393311	-0	2.584038947861251	0	-0.09478689634274365	0	0	0	0	3.993679976750569e-16	0
0.3656853156425399	-0	-0	-0	0	0	0	151.8192690505713	868.1553770133946	-0	2.584350053614757	0	-0.09478689634274365	0	0	0	0	3.314726647805588e-16	0
0.368014521474658	-0	-0	-0	0	0	0	166.2938279898035	795.0510342005088	-0	2.584757682479886	0	-0.09478689634274365	0	0	0	0	3.270536754193204e-17	0
0.3703437273067761	-0	-0	-0	0	0	0	171.2963921544971	717.7774437379434	-0	2.585072448127254	0	-0.09478689634274365	0	0	0	0	1.648581899121432e-15	0
0.3726729331388942	-0	-0	-0	0	0	0	170.211372036128	643.5527409044568	-0	2.585312887432801	0	-0.09478689634274365	0	0	0	0	7.094000670119748e-16	0
0.3750021389710123	-0	-0	-0	0	0	0	160.1531392870088	566.1307883300942	-0	2.58542857876038	0	-0.09478689634274365	0	0	0	0	8.681195834001259e-17	0
0.3773313448031304	-0	-0	-0	0	0	0	151.5099345512228	487.671941359918	-0	2.585655524505402	0	-0.09478689634274365	0	0	0	0	-7.181303802486628e-16	0
0.3796605506352485	-0	-0	-0	0	0	0	139.2311016966595	405.5221120331106	-0	2.585922077325482	0	-0.09478689634274365	0	0	0	0	-8.877998813821947e-17	0
0.3819897564673665	-0	-0	-0	0	0	0	125.744343183579	323.9283882500076	-0	2.586319061066439	0	-0.09478689634274365	0	0	0	0	-5.69794834755349e-16	0
0.3843189622994846	-0	-0	-0	0	0	0	102.1071504339268	244.4385533150356	-0	2.586466064859555	0	-0.09478689634274365	0	0	0	0	-7.780523793928785e-16	0
0.3866481681316027	-0	-0	-0	0	0	0	65.30700025810471	180.8873403345375	-0	2.58548201046055	0	-0.09478689634274366	0	0	0	0	1.119859788098235e-15	0
0.3889773739637208	-0	-0	-0	0	0	0	23.09685970430618	137.0868176785707	-0	2.582874074461794	0	-0.09478689634274365	0	0	0	0	1.434778931586914e-16	0
0.3913065797958389	-0	-0	-0	0	0	0	-12.64300447282063	106.5920897136841	-0	2.579352989052491	0	-0.09478689634274365	0	0	0	0	-8.889499164512203e-17	0
0.393635785627957	-0	-0	-0	0	0	0	-38.4766328532498	77.52354673501814	-0	2.5751050747417	0	-0.09478689634274365	0	0	0	0	8.874278955290641e-17	0
0.395964991460075	-0	-0	-0	0	0	0	-27.86910911185018	29.5267595974381	-0	2.57062952648244	0	-0.09478689634274365	0	0	0	0	1.797173997870252e-16	0
0.3982941972921932	-0	-0	-0	0	0	0	5.760160445466151	-5.112080781006883	-0	2.57015702499865	0	-0.09478689634274365	0	0	0	0	-4.621091144299736e-17	0
0.4006234031243112	-0	-0	-0	0	0	0	4.290935459682515	-3.154902142806815	-0	2.57028296359749	0	-0.09478689634274365	0	0	0	0	1.314749334574082e-17	0
0.4029526089564293	-0	-0	-0	0	0	0	7.146292040344783	-4.474788482528384	-0	2.571672604598031	0	-0.09478689634274365	0	0	0	0	7.879186009854387e-18	0
0.4052818147885474	-0	-0	-0	0	0	0	7.07948799228912	-3.846267308242065	-0	2.574282515874802	0	-0.09478689634274365	0	0	0	0	-7.008443435865035e-18	0
0.4076110206206655	-0	-0	-0	0	0	0	8.477987538026406	-4.076180134941883	-0	2.578249129843927	0	-0.09478689634274365	0	0	0	0	-4.460780590852746e-17	0
0.4099402264527836	-0	-0	-0	0	0	0	8.599901719492605	-3.736176341807593	-0	2.583635227425677	0	-0.09478689634274363	0	0	0	0	-1.594016044119901e-16	0
0.4122694322849017	-0	-0	-0	0	0	0	8.98480765470612	-3.590828760193198	-0	2.5903573209701	0	-0.09478689634274365	0	0	0	0	-4.836819314256533e-17	0
0.4145986381170198	-0	-0	-0	0	0	0	8.918649956144975	-3.318104745035882	-0	2.598237997902051	0	-0.09478689634274366	0	0	0	0	1.167351709325934e-16	0
0.4169278439491378	-0	-0	-0	0	0	0	8.943378336329125	-3.125729943627361	-0	2.607182275574216	0	-0.09478689634274365	0	0	0	0	4.714244935397179e-17	0
0.419257049781256	-0	-0	-0	0	0	0	8.56406619077149	-2.834854575910756	-0	2.617130625675046	0	-0.09478689634274365	0	0	0	0	5.027149877506921e-17	0
0.421586255613374	-0	-0	-0	0	0	0	8.058632926446455	-2.547990176869401	-0	2.628030899750909	0	-0.09478689634274365	0	0	0	0	9.811099290931591e-18	0
0.4239154614454921	-0	-0	-0	0	0	0	7.961929405054184	-2.421385008432874	-0	2.639759481634951	0	-0.09478689634274365	0	0	0	0	2.598692456943872e-17	0
0.4262446672776102	-0	-0	-0	0	0	0	7.714144236608013	-2.266607058543966	-0	2.652186462692661	0	-0.09478689634274365	0	0	0	0	-4.607523483795737e-17	0
0.4285738731097283	-0	-0	-0	0	0	0	7.237289470932136	-2.061536808926652	-0	2.665246017629377	0	-0.09478689634274365	0	0	0	0	9.79103236439897e-20	0
0.4309030789418464	-0	-0	-0	0	0	0	6.556036833840869	-1.815199234465483	-0	2.678883623388106	0	-0.09478689634274363	0	0	0	0	-7.156032188673775e-17	0
0.4332322847739645	-0	-0	-0	0	0	0	5.877886189696146	-1.584856941650596	-0	2.69305985318401	0	-0.09478689634274365	0	0	0	0	-3.635137676617586e-17	0
0.4355614906060826	-0	-0	-0	0	0	0	5.394021224901369	-1.418221857260363	-0	2.707748524002936	0	-0.09478689634274365	0	0	0	0	1.414754351140625e-17	0
0.4378906964382007	-0	-0	-0	0	0	0	5.094748201179543	-1.307465199697299	-0	2.722937478022617	0	-0.09478689634274365	0	0	0	0	1.076521545384874e-17	0
0.4402199022703188	-0	-0	-0	0	0	0	4.743809683175606	-1.189052966778015	-0	2.738621156703348	0	-0.09478689634274365	0	0	0	0	-2.26080745128925e-17	0
0.4425491081024369	-0	-0	-0	0	0	0	4.248984183257924	-1.040540139562944	-0	2.754794792975749	0	-0.09478689634274365	0	0	0	0	-6.699063780531393e-19	0
0.4448783139345549	-0	-0	-0	0	0	0	3.729868753701468	-0.8923524658578615	-0	2.771455745310249	0	-0.09478689634274365	0	0	0	0	2.412662826028904e-17	0
0.4472075197666731	-0	-0	-0	0	0	0	3.213852336971407	-0.7510887357262325	-0	2.788613891048878	0	-0.09478689634274365	0	0	0	0	1.451574632238557e-17	0
0.4495367255987911	-0	-0	-0	0	0	0	2.729079016313238	-0.6230259469926773	-0	2.806285463310131	0	-0.09478689634274365	0	0	0	0	4.663230490668176e-18	0
0.4518659314309091	-0	-0	-0	0	0	0	2.24173617242805	-0.4999171176607554	-0	2.824481411467115	0	-0.09478689634274365	0	0	0	0	-3.000646205698428e-18	0
0.4541951372630273	-0	-0	-0	0	0	0	1.759236113693274	-0.3832922764316076	-0	2.843210756993276	0	-0.09478689634274366	0	0	0	0	1.487263353897645e-17	0
0.4565243430951453	-0	-0	-0	0	0	0	1.452061864783681	-0.3094373092074805	-0	2.862486605256367	0	-0.09478689634274365	0	0	0	0	1.134601842905552e-17	0
0.4588535489272635	-0	-0	-0	0	0	0	0.8838488747854993	-0.1845787592465115	-0	2.882316857598137	0	-0.09478689634274363	0	0	0	0	-1.706470396082975e-17	0
0.4611827547593815	-0	-0	-0	0	0	0	0.2193139200585171	-0.0449616392383155	-0	2.902708579170688	0	-0.09478689634274366	0	0	0	0	4.260320920937742e-18	0
0.4635119605914996	-0	-0	-0	0	0	0	0.0214017534263084	-0.004313653467192107	-0	2.923675843756372	0	-0.09478689634274365	0	0	0	0	-7.663284317490282e-20	0
0.4658411664236177	-0	-0	-0	0	0	0	0.001179414241203704	-0.0002340825615348156	-0	2.945223028117378	0	-0.09478689634274365	0	0	0	0	5.306711766669752e-21	0
