DataType=double
version=3
OpenSimVersion=4.6-2026-06-22-85aaf64
endheader
time	ground_force_r_vx	ground_force_r_vy	ground_force_r_vz	ground_force_r_px	ground_force_r_py	ground_force_r_pz	ground_force_l_vx	ground_force_l_vy	ground_force_l_vz	ground_force_l_px	ground_force_l_py	ground_force_l_pz	ground_torque_r_x	ground_torque_r_y	ground_torque_r_z	ground_torque_l_x	ground_torque_l_y	ground_torque_l_z
0	-1.753917286700313e-10	4.545262559544465e-11	-0	1.15785990543895	0	0.08956897507908836	0.002032842463627177	-0.0006735668259129849	-0	0.6275990171012165	0	-0.09478689634274365	0	-1.527730155890845e-27	0	0	-2.41166343680716e-21	0
0.002262934860102815	-1.565562833150089e-09	4.099535831984589e-10	-0	1.161980776633033	0	0.08956897507908836	0.008876345581694853	-0.002876978962043097	-0	0.6392461037316255	0	-0.09478689634274366	0	9.5739802765066e-27	0	0	1.087884563509157e-19	0
0.00452586972020563	-1.383037490774312e-08	3.660527836636155e-09	-0	1.166096030233722	0	0.08956897507908836	0.02209159968698134	-0.007030169408985113	-0	0.6510839315963955	0	-0.09478689634274365	0	2.173103925724926e-26	0	0	-1.537852939544136e-19	0
0.006788804580308444	-1.200756330096621e-07	3.213161246812746e-08	-0	1.170222034398635	0	0.08956897507908836	-0.08749288879993662	0.0274804357106895	-0	0.6630070104646749	0	-0.09478689634274365	0	-3.528010895957783e-26	0	0	2.883561765460674e-20	0
0.009051739440411259	-1.019252531853158e-06	2.758278407050143e-07	-0	1.17437498259347	0	0.08956898185386834	-0.2241794520958191	0.06985152841950013	-0	0.6749119167417194	0	-0.09478689634274365	0	8.422943406933785e-17	0	0	1.448046119009528e-18	0
0.01131467430051408	-8.412513649585779e-06	2.302816505962259e-06	-0	1.178568920745472	0	0.08956897663753867	-0.2963988034987239	0.09198763751127555	-0	0.686721112104874	0	-0.09478689634274365	0	1.829870618843602e-16	0	0	2.723747970401962e-19	0
0.01357760916061689	-6.711744407118311e-05	1.858796872399335e-05	-0	1.18281768424539	0	0.08956897535655411	-0.3332647203472111	0.103198958953705	-0	0.698424783456462	0	-0.09478689634274365	0	2.934069057610509e-16	0	0	1.598632038938844e-18	0
0.01584054402071971	-0.0005142692611786096	0.0001441193096338594	-0	1.187133058817702	0	0.08956897513610051	-0.3500091492806092	0.108145962662252	-0	0.7100397547261903	0	-0.09478689634274365	0	5.157389163672629e-16	0	0	-3.021795851328082e-18	0
0.01810347888082252	-0.003756444082132593	0.001065372360905799	-0	1.191525682831486	0	0.08956897509085571	-0.3574422879750933	0.1101343932748131	-0	0.7215945480515963	0	-0.09478689634274365	0	8.602483589803248e-16	0	0	-1.034516350813427e-18	0
0.02036641374092533	-0.02592581794450231	0.007442043335070584	-0	1.196005250298366	0	0.08956897508169222	-0.3616133206749798	0.1110096418297544	-0	0.7331172637370488	0	-0.09478689634274365	0	1.442249351873094e-15	0	0	2.521707763797267e-18	0
0.02262934860102815	-0.167169551985073	0.04857218254121774	-0	1.200579832410339	0	0.08956897507969978	-0.3661693091486516	0.1119040830126055	-0	0.7446302760534665	0	-0.09478689634274365	0	2.383064905148963e-15	0	0	-2.834341757543263e-18	0
0.02489228346113096	-0.9918539742830232	0.2917343824960764	-0	1.205256828268475	0	0.08956897507923976	-0.3729775438685327	0.1133952816552182	-0	0.7561531106328199	0	-0.09478689634274365	0	3.800860788714792e-15	0	0	-3.819443126775271e-19	0
0.02715521832123378	-5.287372753645814	1.575598541974979	-0	1.210025002634727	0	0.0895689750791287	-0.383127236883673	0.1158165655327776	-0	0.7677000582597927	0	-0.09478689634274365	0	5.850088429524912e-15	0	0	8.866711867248758e-19	0
0.02941815318133659	-24.32223597205011	7.363313045499315	-0	1.214869981744871	0	0.08956897507910058	-0.3971753534941251	0.1193290552405966	-0	0.779283915201449	0	-0.09478689634274365	0	8.921340219437547e-15	0	0	1.456873720903018e-18	0
0.03168108804143941	-87.93932265088841	27.40401468590177	-0	1.219668726645145	0	0.08956897507909359	-0.4150121882019203	0.123881847785403	-0	0.7909167468051655	0	-0.09478689634274365	0	1.470897332794214e-14	0	0	1.882048929411157e-18	0
0.03394402290154223	-212.668064156036	70.20972174740538	-0	1.22439174233996	0	0.08956897507909271	-0.4359124772236108	0.1292349831357134	-0	0.8026122858420778	0	-0.09478689634274365	0	2.519801100584729e-14	0	0	9.390213523440315e-19	0
0.03620695776164504	-421.3064673194961	155.8456396003067	-0	1.229000559283576	0	0.08956897507909509	-0.4575688103958838	0.1346692224438486	-0	0.8143922544605796	0	-0.09478689634274365	0	3.568639710164404e-14	0	0	2.660668656110451e-18	0
0.03846989262174785	-810.554979441093	388.7641483315523	-0	1.23356088501063	0	0.08956897507911127	-0.4737271085696062	0.1383026779692902	-0	0.8262918985061856	0	-0.09478689634274365	0	-3.688726147416736e-13	0	0	1.424471721991635e-18	0
0.04073282748185066	-916.0417828349467	701.5281800105006	-0	1.23786891862291	0	0.0895689750793898	-0.4777046968452724	0.1381613551184833	-0	0.8383712442945011	0	-0.09478689634274365	0	-2.819767819329098e-11	0	0	2.734556106502292e-18	0
0.04299576234195349	-478.4981934834105	1024.027104768467	-0	1.241918752684211	0	0.08956897508744359	-0.4696509876365342	0.1344030707061406	-0	0.8506771528373519	0	-0.09478689634274365	0	-4.550312821516395e-09	0	0	3.275621959130779e-18	0
0.0452586972020563	-156.4282743170959	1350.244704489271	-0	1.244100083278554	0	0.08956897523107733	-0.4502479223422636	0.1274428749710743	-0	0.8632193367098733	0	-0.09478689634274365	0	-1.630182625372647e-07	0	0	-1.942540253266494e-18	0
0.04752163206215912	-209.4612498564994	1640.674929621449	-0	1.244451867822162	0	0.08956897640764985	-0.414635724610262	0.116028700426256	-0	0.8760239081269879	0	-0.09478689634274365	0	-1.235681018323277e-06	0	0	9.528377740618458e-19	0
0.04978456692226193	-37.98455815199123	1858.567643023507	-0	1.24553250124715	0	0.0895689831294109	-0.3628306775164882	0.1002928231164276	-0	0.8891397950409171	0	-0.09478689634274365	0	-6.461712826289035e-06	0	0	2.309798008817147e-18	0
0.05204750178236474	-71.99306860527619	1995.774312722278	-0	1.245684395097417	0	0.0895690159677916	-0.3001480626770296	0.08188720564042523	-0	0.9026064557440546	0	-0.09478689634274365	0	-3.127404985096445e-05	0	0	-9.925894761322508e-19	0
0.05431043664246755	41.92636050725158	2050.244066070089	-0	1.246474465946174	0	0.08956917466113364	-0.2342829289576521	0.06307761410145653	-0	0.9164315027666119	0	-0.09478689634274365	0	-0.0001647862924289126	0	0	1.057443203246388e-18	0
0.05657337150257037	14.01650877211417	2040.098012081684	-0	1.246679620475216	0	0.08956996415540801	-0.1730082484810574	0.04599068400894443	-0	0.9306065074931801	0	-0.09478689634274363	0	-0.0008940478192225474	0	0	1.545025855258147e-18	0
0.05883630636267319	94.79808181975028	1975.236977065902	-0	1.247588686573247	0	0.08957416594956195	-0.1207214636287779	0.0317036984788622	-0	0.9451199241757977	0	-0.09478689634274365	0	-0.005150938513793762	0	0	2.016799906647814e-19	0
0.061099241222776	62.56310276000797	1882.315481355192	-0	1.248509538057997	0	0.08959626650811757	-0.07967924635227278	0.02068841445665172	-0	0.9599525440480412	0	-0.09478689634274365	0	-0.02789657617975697	0	0	-3.037051653760814e-19	0
0.06336217608287882	89.25288736544567	1784.521501571724	-0	1.251771307374503	0	0.08968417362472769	-0.0495469460797581	0.0127294855408701	-0	0.9750826760251792	0	-0.09478689634274365	0	-0.1116534874751628	0	0	-2.422761631441767e-19	0
0.06562511094298164	19.63477742870217	1719.984528622565	-0	1.258295616186502	0	0.08990454797069387	-0.02874872268901562	0.007314194658629716	-0	0.9904888942830434	0	-0.09478689634274365	0	-0.2737976371035214	0	0	-3.870399550942047e-21	0
0.06788804580308444	-62.44863692284606	1787.877098138534	-0	1.275507525759449	0	0.09050244808114551	-0.01492891049999713	0.00376321514581375	-0	1.006163171814286	0	-0.09478689634274365	0	-0.5263553371664231	0	0	-1.043970727234116e-19	0
0.07015098066318726	-85.26013011006846	1798.474787989787	-0	1.289137009891983	0	0.09097660466127117	-0.00592665865653621	0.001480257436983949	-0	1.022115912765226	0	-0.09478689634274363	0	-0.4714623026633658	0	0	1.364394403068471e-19	0
0.07241391552329007	-33.8565343794471	1732.628361666476	-0	1.300888943494581	0	0.09137391386167268	-0.0006964503861521692	0.0001723046811373464	-0	1.038367649604617	0	-0.09478689634274365	0	-0.3941810211332245	0	0	5.708512569229457e-21	0
0.07467685038339289	-58.95720027264738	1657.168582834985	-0	1.312653403262983	0	0.09178709850693166	0.0002657140522626507	-6.510780642844317e-05	-0	1.0549259272438	0	-0.09478689634274365	0	-0.3364454080352798	0	0	4.247297454223862e-22	0
0.07693978524349571	-50.39472340865305	1564.664117122656	-0	1.324506067301932	0	0.09219797842144113	5.157901547873014e-05	-1.25177391799249e-05	-0	1.071786801763366	0	-0.09478689634274365	0	-0.2708609724113935	0	0	3.781253574738805e-22	0
0.07920272010359851	-63.22911784065498	1468.928107372641	-0	1.336421748503861	0	0.09261643797768078	5.44072231436804e-06	-1.307674509905511e-06	-0	1.088958513983681	0	-0.09478689634274366	0	-0.2058157303480874	0	0	1.28106479518188e-22	0
0.08146565496370133	-59.85237219225678	1371.13890422038	-0	1.34893326279755	0	0.09305331790443659	4.231667753119254e-07	-1.006646254504051e-07	-0	1.106477993372307	0	-0.09478689634274365	0	-0.1440843047315923	0	0	1.212899662112421e-24	0
0.08372858982380414	-66.89189166499095	1273.507474768955	-0	1.361916862449594	0	0.09351024009983454	2.56093980043912e-08	-6.025691455008108e-09	-0	1.124373102990113	0	-0.09478689634274365	0	-0.08858299678481941	0	0	4.581751752135748e-26	0
0.08599152468390697	-65.28719347391807	1173.829654935629	-0	1.376164407823464	0	0.09401079861077087	1.377122655104359e-09	-3.20510197999642e-10	-0	1.142627809028282	0	-0.09478689634274365	0	-0.04203094214388194	0	0	1.186398515195592e-26	0
0.08825445954400979	-70.34401287143791	1068.814858580417	-0	1.392288440020945	0	0.09458111855218002	7.468209642693726e-11	-1.720439729968501e-11	-0	1.161211174109109	0	-0.09478689634274365	0	-0.007653873428838639	0	0	-7.033679280689469e-30	0
0.09051739440411261	-60.11066817816891	1043.980888685936	-0	1.398784392236769	0	0.0948058086954006	4.973693512589773e-12	-1.135770746936901e-12	-0	1.18004987793417	0	-0.09478689634274365	0	0.0003561300539280598	0	0	4.222371026690994e-29	0
0.09278032926421542	-40.69196053380491	1058.869475581864	-0	1.398510667290627	0	0.09478714791317137	4.0407124699208e-13	-9.157983470637871e-14	-0	1.199107894383182	0	-0.09478689634274365	0	-3.598540520076752e-07	0	0	1.726991481500274e-30	0
0.09504326412431822	-20.41946018538758	1062.605532861974	-0	1.398761319194006	0	0.09478689765187272	2.621263173740306e-14	-5.892484381452858e-15	-0	0	0	0	0	-3.123517166276131e-08	0	0	-2.484614007363737e-15	0
0.09730619898442104	-3.308262798056917	1059.524832102434	-0	1.398988216973726	0	0.09478689634777074	1.117585512539312e-15	-2.488321058722289e-16	-0	0	0	0	0	-2.441828319608882e-10	0	0	-1.059324621312158e-16	0
0.09956913384452386	14.35401987628225	1051.874320835406	-0	1.399222749204637	0	0.09478689634276047	3.865344827815832e-17	-8.520382013382843e-18	-0	0	0	0	0	-1.271974972724187e-12	0	0	-3.663840395231396e-18	0
0.1018320687046267	30.07583901586235	1039.63133599483	-0	1.399439636070928	0	0.09478689634274369	1.246537361012035e-18	-2.720727685143051e-19	-0	0	0	0	0	-5.572872830337221e-15	0	0	-1.18155407625605e-19	0
0.1040950035647295	45.77774397589965	1024.60538938753	-0	1.399659582610766	0	0.09478689634274365	3.876540279196125e-20	-8.380165170980153e-21	-0	0	0	0	0	-2.449462831815116e-16	0	0	-3.674452216126336e-21	0
0.1063579384248323	59.99122010077541	1006.687498378611	-0	1.399866475056712	0	0.09478689634274365	1.260705658079025e-21	-2.700358901609596e-22	-0	0	0	0	0	-2.446281095511211e-16	0	0	-1.19498376531047e-22	0
0.1086208732849351	73.96421871714591	987.1550540067452	-0	1.400074157531312	0	0.09478689634274365	-0	-0	-0	0	0	0	0	-4.570820030158314e-17	0	0	0	0
0.1108838081450379	86.73256417638055	965.7995253315474	-0	1.400271302767329	0	0.09478689634274365	-0	-0	-0	0	0	0	0	-2.107380903181392e-17	0	0	0	0
0.1131467430051407	99.15187694897061	943.4676642142333	-0	1.400467777338782	0	0.09478689634274365	-0	-0	-0	0	0	0	0	-6.894034560253404e-16	0	0	0	0
0.1154096778652436	110.5470820248865	919.9065294377542	-0	1.400655260142277	0	0.09478689634274366	-0	-0	-0	0	0	0	0	-8.972921254974705e-16	0	0	0	0
0.1176726127253464	121.5250943002604	895.6419650176049	-0	1.400841200260488	0	0.09478689634274365	-0	-0	-0	0	0	0	0	-5.596661414697672e-16	0	0	0	0
0.1199355475854492	131.5902327276736	870.41263515744	-0	1.401019366852101	0	0.09478689634274365	-0	-0	-0	0	0	0	0	6.872989623810229e-16	0	0	0	0
0.122198482445552	141.158322921805	844.5535148500206	-0	1.401195296042359	0	0.09478689634274365	-0	-0	-0	0	0	0	0	3.776769460210519e-16	0	0	0	0
0.1244614173056548	149.8409434435356	817.7381784120342	-0	1.401364349819376	0	0.09478689634274366	-0	-0	-0	0	0	0	0	-2.853445311058786e-15	0	0	0	0
0.1267243521657576	157.9401383936272	789.8386767520744	-0	1.401532199079348	0	0.09478689634274365	-0	-0	-0	0	0	0	0	5.89980079686271e-19	0	0	0	0
0.1289872870258605	164.8201634596728	760.6422661504441	-0	1.401690032570361	0	0.09478689634274365	-0	-0	-0	0	0	0	0	-4.22575139812068e-16	0	0	0	0
0.1312502218859632	169.9551569966675	731.5056077704145	-0	1.401824182944553	0	0.09478689634274365	-0	-0	-0	0	0	0	0	7.740400597939245e-16	0	0	0	0
0.1335131567460661	173.0035549369563	703.1807429040055	-0	1.401923762622594	0	0.09478689634274365	-0	-0	-0	0	0	0	0	6.539646114905007e-16	0	0	0	0
0.1357760916061689	174.6016869493347	675.1132313522608	-0	1.40200056999094	0	0.09478689634274365	-0	-0	-0	0	0	0	0	-2.246318946758353e-16	0	0	0	0
0.1380390264662717	175.0195233727525	646.3515179267017	-0	1.402063470546925	0	0.09478689634274365	-0	-0	-0	0	0	0	0	-2.093284098814682e-16	0	0	0	0
0.1403019613263745	174.6262399044055	616.2160535984839	-0	1.402123642381629	0	0.09478689634274365	-0	-0	-0	0	0	0	0	-8.546775833319745e-16	0	0	0	0
0.1425648961864773	173.6545284265262	583.9279293348065	-0	1.402192504995783	0	0.09478689634274365	-0	-0	-0	0	0	0	0	1.613708071776706e-15	0	0	0	0
0.1448278310465801	172.513327137321	549.070889744776	-0	1.402285817463875	0	0.09478689634274365	-0	-0	-0	0	0	0	0	-6.612534995445058e-17	0	0	0	0
0.147090765906683	170.6440839869441	511.6800088953001	-0	1.402397317933994	0	0.09478689634274365	-0	-0	-0	0	0	0	0	8.52577515358455e-16	0	0	0	0
0.1493537007667858	167.0803346783503	472.3549884774312	-0	1.402505261037488	0	0.09478689634274365	-0	-0	-0	0	0	0	0	3.012718394830357e-16	0	0	0	0
0.1516166356268886	161.2885069213492	431.4303694095908	-0	1.402596073446984	0	0.09478689634274365	-0	-0	-0	0	0	0	0	-3.924895441599455e-16	0	0	0	0
0.1538795704869914	153.0633385824889	389.3787505430868	-0	1.402660201796618	0	0.09478689634274363	-0	-0	-0	0	0	0	0	2.432355288560311e-15	0	0	0	0
0.1561425053470942	142.6956545434344	346.3114194666166	-0	1.402704794497448	0	0.09478689634274365	-0	-0	-0	0	0	0	0	-2.795884794282768e-16	0	0	0	0
0.158405440207197	130.9225357147393	302.1854574236235	-0	1.402759162915667	0	0.09478689634274365	-0	-0	-0	0	0	0	0	-4.433436872938465e-16	0	0	0	0
0.1606683750672998	117.9373789595642	257.3636167535881	-0	1.402837539271406	0	0.09478689634274365	-0	-0	-0	0	0	0	0	-3.937460015216394e-16	0	0	0	0
0.1629313099274027	103.7325251484484	212.5090079650014	-0	1.402946954194578	0	0.09478689634274365	-0	-0	-0	0	0	0	0	8.503488741440038e-16	0	0	0	0
0.1651942447875055	87.59928448367042	170.4293715353725	-0	1.402982679366389	0	0.09478689634274363	-0	-0	-0	0	0	0	0	2.076840033282084e-15	0	0	0	0
0.1674571796476083	68.25491266856505	136.8952318141788	-0	1.40256179097946	0	0.09478689634274365	-0	-0	-0	0	0	0	0	2.429271358893301e-16	0	0	0	0
0.1697201145077111	47.00248935268206	112.9110641550502	-0	1.401481460289443	0	0.09478689634274365	-0	-0	-0	0	0	0	0	-3.919502576166677e-16	0	0	0	0
0.1719830493678139	27.03452370746468	93.37897246894504	-0	1.400061964695764	0	0.09478689634274365	-0	-0	-0	0	0	0	0	-1.467739764448968e-16	0	0	0	0
0.1742459842279168	10.64536952775852	75.56034167525635	-0	1.398589378857357	0	0.09478689634274365	-0	-0	-0	0	0	0	0	-1.121555267718233e-17	0	0	0	0
0.1765089190880196	-1.55353848744838	58.22435286821779	-0	1.39712629009958	0	0.09478689634274365	-0	-0	-0	0	0	0	0	6.794696528308704e-18	0	0	0	0
0.1787718539481224	-8.698200980027236	33.7467662083023	-0	1.395292876508601	0	0.09478689634274365	-0	-0	-0	0	0	0	0	9.643016744840903e-18	0	0	0	0
0.1810347888082252	3.013185904351168	-3.349281026115287	-0	1.390238351510516	0	0.09478689634274365	-0	-0	-0	0	0	0	0	-6.885029195583134e-19	0	0	0	0
0.183297723668328	0.05977570785994834	-0.05787965460942886	-0	1.390483598222611	0	0.09478689634274365	-0	-0	-0	0	0	0	0	-1.449535004380341e-19	0	0	0	0
0.1855606585284308	6.574825196081944e-05	-5.493345264973542e-05	-0	1.391354307094163	0	0.09478689634274365	-0	-0	-0	0	0	0	0	-1.53237626646666e-22	0	0	0	0
0.1878235933885336	8.756073586901e-08	-6.371529211655595e-08	-0	1.393179659573951	0	0.09478689634274365	-0	-0	-0	0	0	0	0	4.413635408268374e-25	0	0	0	0
0.1900865282486364	4.439110875589802e-10	-2.865570342963376e-10	-0	1.396117888744355	0	0.09478689634274365	-0	-0	-0	0	0	0	0	1.674254713420696e-27	0	0	0	0
0.1923494631087393	1.416583998389332e-11	-8.286560345188563e-12	-0	1.400204057885719	0	0.09478689634274365	-0	-0	-0	0	0	0	0	3.700416172784258e-29	0	0	0	0
0.1946123979688421	2.342486328097894e-12	-1.264944579268577e-12	-0	1.405330207402675	0	0.09478689634274366	-0	-0	-0	0	0	0	0	-2.63397720556933e-29	0	0	0	0
0.1968753328289449	1.544287316591965e-12	-7.818958993454139e-13	-0	1.411354419718442	0	0.09478689634274365	-0	-0	-0	0	0	0	0	2.28676818422375e-30	0	0	0	0
0.1991382676890477	2.656816474784743e-12	-1.276089363311874e-12	-0	1.418120308256634	0	0.09478689634274365	-0	-0	-0	0	0	0	0	2.675178596385182e-30	0	0	0	0
0.2014012025491505	8.494006222497815e-12	-3.902005301597104e-12	-0	1.425490821389624	0	0.09478689634274365	-0	-0	-0	0	0	0	0	-4.859229203022065e-29	0	0	0	0
0.2036641374092533	3.738317816747501e-11	-1.651274642225687e-11	-0	1.433371721838195	0	0.09478689634274365	-0	-0	-0	0	0	0	0	7.302966113970021e-29	0	0	0	0
0.2059270722693562	1.875929747210929e-10	-7.994862753551596e-11	-0	1.441698679075962	0	0.09478689634274365	-0	-0	-0	0	0	0	0	-2.590546004826124e-28	0	0	0	0
0.208190007129459	9.989982121059926e-10	-4.118056778134885e-10	-0	1.45043491898272	0	0.09478689634274365	-0	-0	-0	0	0	0	0	-1.06004314154903e-27	0	0	0	0
0.2104529419895618	5.700801898912533e-09	-2.277181453233278e-09	-0	1.459552765017167	0	0.09478689634274365	-0	-0	-0	0	0	0	0	3.790859063613857e-26	0	0	0	0
0.2127158768496646	3.678863865029563e-08	-1.42613029933975e-08	-0	1.469033063181447	0	0.09478689634274365	-0	-0	-0	0	0	0	0	-1.151999573113248e-25	0	0	0	0
0.2149788117097674	2.580396690065801e-07	-9.719659454065295e-08	-0	1.478860140572613	0	0.09478689634274365	-0	-0	-0	0	0	0	0	7.638372647213664e-25	0	0	0	0
0.2172417465698702	1.795113013950864e-06	-6.577376803522855e-07	-0	1.489021161650106	0	0.09478689634274365	-0	-0	-0	0	0	0	0	3.998884277281826e-24	0	0	0	0
0.219504681429973	1.180379244167308e-05	-4.21133062121608e-06	-0	1.499504476581585	0	0.09478689634274365	-0	-0	-0	0	0	0	0	-8.777351433796431e-23	0	0	0	0
0.2217676162900759	7.220750825597047e-05	-2.511003945255616e-05	-0	1.510298572780558	0	0.09478689634274365	-0	-0	-0	0	0	0	0	2.617636973383848e-22	0	0	0	0
0.2240305511501787	0.0004056857182930905	-0.0001376411361771976	-0	1.521392025528424	0	0.09478689634274365	-2.111711272732683e-11	5.417468653836988e-12	-0	2.0588938688718	0	-0.08956897507908834	0	3.186818384636592e-22	0	0	3.503986537729788e-28	0
0.2262934860102815	0.002032842463627325	-0.0006735668259130337	-0	1.532772961142343	0	0.09478689634274363	-1.75391728670031e-10	4.545262559544457e-11	-0	2.063033849480076	0	-0.08956897507908837	0	4.036142929405608e-20	0	0	-4.03498362712113e-27	0
0.2285564208703843	0.008876345581695113	-0.002876978962043182	-0	1.544420047772752	0	0.09478689634274363	-1.565562833150087e-09	4.099535831984583e-10	-0	2.067154720674159	0	-0.08956897507908836	0	8.461079494258879e-20	0	0	-5.295440093313462e-27	0
0.2308193557304871	0.02209159968698184	-0.00703016940898527	-0	1.556257875637522	0	0.09478689634274366	-1.38303749077431e-08	3.660527836636148e-09	-0	2.071269974274848	0	-0.08956897507908836	0	-3.419729174738528e-19	0	0	7.439330571527429e-26	0
0.2330822905905899	-0.0874928887999426	0.02748043571069139	-0	1.568180954505801	0	0.09478689634274365	-1.200756330096619e-07	3.21316124681274e-08	-0	2.075395978439762	0	-0.08956897507908836	0	-3.320330331274005e-19	0	0	-6.287447400348224e-25	0
0.2353452254506928	-0.2241794520958213	0.06985152841950081	-0	1.580085860782846	0	0.09478689634274365	-1.019252531853156e-06	2.75827840705014e-07	-0	2.079548926634596	0	-0.08956898185386834	0	1.692908351859518e-18	0	0	-8.422943364944817e-17	0
0.2376081603107956	-0.296398803498731	0.09198763751127774	-0	1.591895056146001	0	0.09478689634274365	-8.412513649585768e-06	2.302816505962256e-06	-0	2.083742864786598	0	-0.08956897663753867	0	-1.635959845890268e-18	0	0	-1.829870585253046e-16	0
0.2398710951708984	-0.3332647203472237	0.1031989589537089	-0	1.603598727497589	0	0.09478689634274365	-6.711744407118288e-05	1.858796872399328e-05	-0	2.087991628286517	0	-0.08956897535655411	0	-6.75733070424449e-19	0	0	-2.934074455232276e-16	0
0.2421340300310012	-0.3500091492806275	0.1081459626622577	-0	1.615213698767317	0	0.09478689634274365	-0.000514269261178608	0.000144119309633859	-0	2.092307002858829	0	-0.08956897513610051	0	-2.269760613597548e-18	0	0	-5.157355515862568e-16	0
0.244396964891104	-0.3574422879750905	0.1101343932748123	-0	1.626768492092723	0	0.09478689634274363	-0.003756444082132585	0.001065372360905797	-0	2.096699626872612	0	-0.08956897509085571	0	-5.011674574233641e-18	0	0	-8.601996819666743e-16	0
0.2466598997512068	-0.3616133206750089	0.1110096418297634	-0	1.638291207778175	0	0.09478689634274365	-0.02592581794450224	0.007442043335070563	-0	2.101179194339491	0	-0.08956897508169222	0	-1.162051001994328e-19	0	0	-1.442539468756271e-15	0
0.2489228346113097	-0.3661693091486494	0.1119040830126048	-0	1.649804220094593	0	0.09478689634274365	-0.1671695519850721	0.04857218254121749	-0	2.105753776451465	0	-0.08956897507969978	0	2.209133536099657e-18	0	0	-2.384060269288111e-15	0
0.2511857694714125	-0.3729775438685302	0.1133952816552174	-0	1.661327054673946	0	0.09478689634274365	-0.9918539742835824	0.2917343824962408	-0	2.110430772309601	0	-0.08956897507923976	0	-4.735011475388025e-19	0	0	-3.794683341167014e-15	0
0.2534487043315153	-0.3831272368837144	0.1158165655327902	-0	1.672874002300919	0	0.09478689634274365	-5.287372753646165	1.575598541975083	-0	2.115198946675853	0	-0.08956897507912868	0	2.21149320661463e-18	0	0	-5.780925937773529e-15	0
0.2557116391916181	-0.3971753534941227	0.1193290552405959	-0	1.684457859242575	0	0.09478689634274365	-24.32223597205084	7.363313045499537	-0	2.120043925785998	0	-0.08956897507910058	0	2.949410556504254e-18	0	0	-8.747999291318614e-15	0
0.2579745740517209	-0.4150121882019177	0.1238818477854022	-0	1.696090690846292	0	0.09478689634274365	-87.93932265089006	27.40401468590228	-0	2.124842670686272	0	-0.08956897507909359	0	6.168339429397664e-19	0	0	-1.49221519109929e-14	0
0.2602375089118237	-0.435912477223608	0.1292349831357126	-0	1.707786229883205	0	0.09478689634274365	-212.668064156039	70.20972174740635	-0	2.129565686381087	0	-0.08956897507909273	0	1.329624281234168e-18	0	0	-2.74560095612047e-14	0
0.2625004437719265	-0.4575688103958806	0.1346692224438477	-0	1.719566198501706	0	0.09478689634274365	-421.3064673195042	155.8456396003097	-0	2.134174503324703	0	-0.08956897507909509	0	2.732068071262278e-18	0	0	-3.900397435800341e-14	0
0.2647633786320293	-0.4737271085696033	0.1383026779692893	-0	1.731465842547312	0	0.09478689634274365	-810.5549794411061	388.7641483315585	-0	2.138734829051756	0	-0.08956897507911127	0	-2.740391659753411e-18	0	0	3.631391448965427e-13	0
0.2670263134921321	-0.4777046968453221	0.1381613551184977	-0	1.743545188335628	0	0.09478689634274365	-916.0417828349586	701.5281800105095	-0	2.143042862664037	0	-0.0895689750793898	0	-3.318237520102856e-18	0	0	2.820447968931796e-11	0
0.269289248352235	-0.4696509876365313	0.1344030707061397	-0	1.755851096878479	0	0.09478689634274365	-478.4981934834171	1024.027104768477	-0	2.147092696725339	0	-0.08956897508744358	0	6.701878407310472e-19	0	0	4.550318609298403e-09	0
0.2715521832123378	-0.4502479223422609	0.1274428749710736	-0	1.768393280751	0	0.09478689634274365	-156.4282743170983	1350.24470448928	-0	2.14927402731968	0	-0.08956897523107733	0	-8.203066120061854e-19	0	0	1.630182620986646e-07	0
0.2738151180724406	-0.4146357246103064	0.1160287004262685	-0	1.781197852168114	0	0.09478689634274365	-209.4612498565018	1640.674929621459	-0	2.149625811863288	0	-0.08956897640764985	0	3.461246557039436e-18	0	0	1.235681020668041e-06	0
0.2760780529325434	-0.362830677516486	0.100292823116427	-0	1.794313739082044	0	0.09478689634274365	-37.98455815199255	1858.567643023518	-0	2.150706445288277	0	-0.0895689831294109	0	6.495593410792226e-19	0	0	6.461712826485636e-06	0
0.2783409877926462	-0.3001480626770279	0.08188720564042477	-0	1.807780399785181	0	0.09478689634274365	-71.99306860527771	1995.774312722288	-0	2.150858339138544	0	-0.0895690159677916	0	-7.341898146631737e-19	0	0	3.127404985154873e-05	0
0.280603922652749	-0.2342829289576507	0.06307761410145617	-0	1.821605446807739	0	0.09478689634274365	41.92636050725041	2050.244066070097	-0	2.1516484099873	0	-0.08956917466113364	0	1.030580316070887e-18	0	0	0.0001647862924291513	0
0.2828668575128518	-0.1730082484810564	0.04599068400894416	-0	1.835780451534307	0	0.09478689634274365	14.01650877211275	2040.098012081696	-0	2.151853564516344	0	-0.08956996415540801	0	6.584604148281649e-19	0	0	0.0008940478192229364	0
0.2851297923729547	-0.1207214636287772	0.03170369847886201	-0	1.850293868216924	0	0.09478689634274365	94.79808181974902	1975.236977065914	-0	2.152762630614373	0	-0.08957416594956195	0	-5.380962384113808e-20	0	0	0.005150938513792382	0
0.2873927272330575	-0.07967924635227235	0.02068841445665161	-0	1.865126488089168	0	0.09478689634274365	62.5631027600064	1882.315481355204	-0	2.153683482099123	0	-0.08959626650811757	0	2.913013842481319e-19	0	0	0.0278965761797575	0
0.2896556620931603	-0.04954694607975782	0.01272948554087003	-0	1.880256620066306	0	0.09478689634274363	89.25288736544368	1784.52150157173	-0	2.15694525141563	0	-0.08968417362472769	0	-7.331223895418308e-19	0	0	0.1116534874751638	0
0.2919185969532631	-0.02874872268901552	0.007314194658629691	-0	1.89566283832417	0	0.09478689634274365	19.63477742869929	1719.984528622572	-0	2.163469560227629	0	-0.0899045479706939	0	-9.685839241212438e-20	0	0	0.273797637103527	0
0.2941815318133659	-0.0149289104999971	0.003763215145813741	-0	1.911337115855412	0	0.09478689634274365	-62.44863692284954	1787.877098138543	-0	2.180681469800576	0	-0.09050244808114553	0	6.842250416517359e-20	0	0	0.5263553371664293	0
0.2964444666734687	-0.005926658656536179	0.001480257436983941	-0	1.927289856806352	0	0.09478689634274366	-85.26013011007097	1798.474787989797	-0	2.194310953933109	0	-0.09097660466127117	0	7.789579763061947e-20	0	0	0.4714623026633714	0
0.2987074015335716	-0.0006964503861521928	0.0001723046811373522	-0	1.943541593645744	0	0.09478689634274365	-33.85653437944887	1732.628361666485	-0	2.206062887535707	0	-0.09137391386167268	0	-1.529628473033021e-21	0	0	0.3941810211332279	0
0.3009703363936744	0.0002657140522626481	-6.510780642844252e-05	-0	1.960099871284926	0	0.09478689634274365	-58.95720027264906	1657.168582834993	-0	2.21782734730411	0	-0.09178709850693167	0	6.355072653091107e-22	0	0	0.3364454080352814	0
0.3032332712537772	5.157901547872888e-05	-1.25177391799246e-05	-0	1.976960745804492	0	0.09478689634274365	-50.39472340865433	1564.664117122668	-0	2.229680011343059	0	-0.09219797842144113	0	-3.417861549505908e-22	0	0	0.2708609724113946	0
0.30549620611388	5.440722314368016e-06	-1.307674509905505e-06	-0	1.994132458024807	0	0.09478689634274365	-63.22911784065634	1468.928107372643	-0	2.241595692544987	0	-0.09261643797768081	0	-2.800929949278911e-23	0	0	0.2058157303480863	0
0.3077591409739828	4.23166775311802e-07	-1.006646254503758e-07	-0	2.011651937413434	0	0.09478689634274365	-59.85237219225793	1371.138904220387	-0	2.254107206838676	0	-0.09305331790443659	0	-2.35276891439328e-24	0	0	0.1440843047315926	0
0.3100220758340856	2.560939800439103e-08	-6.025691455008067e-09	-0	2.029547047031239	0	0.09478689634274365	-66.891891664992	1273.507474768959	-0	2.26709080649072	0	-0.09351024009983454	0	1.32584197283137e-25	0	0	0.08858299678482144	0
0.3122850106941885	1.377122655104354e-09	-3.205101979996408e-10	-0	2.047801753069409	0	0.09478689634274365	-65.28719347391906	1173.829654935631	-0	2.281338351864591	0	-0.09401079861077087	0	-6.717781840287807e-27	0	0	0.04203094214388169	0
0.3145479455542913	7.468209642693661e-11	-1.720439729968486e-11	-0	2.066385118150235	0	0.09478689634274365	-70.34401287143876	1068.814858580417	-0	2.297462384062071	0	-0.09458111855218002	0	-1.306813314588413e-28	0	0	0.007653873428839707	0
0.3168108804143941	4.973693512589756e-12	-1.135770746936897e-12	-0	2.085223821975296	0	0.09478689634274365	-60.11066817816983	1043.980888685941	-0	2.303958336277895	0	-0.0948058086954006	0	-2.547174636174031e-29	0	0	-0.0003561300539277029	0
0.3190738152744969	4.040712469920786e-13	-9.157983470637841e-14	-0	2.104281838424308	0	0.09478689634274365	-40.69196053380573	1058.869475581868	-0	2.303684611331754	0	-0.09478714791317139	0	1.264177283440437e-30	0	0	3.598540514762912e-07	0
0.3213367501345997	2.621263173740298e-14	-5.892484381452841e-15	-0	0	0	0	-20.41946018538828	1062.605532861976	-0	2.303935263235132	0	-0.09478689765187272	0	2.484614007363729e-15	0	0	3.123517171420874e-08	0
0.3235996849947025	1.117585512539309e-15	-2.488321058722282e-16	-0	0	0	0	-3.308262798057658	1059.524832102438	-0	2.304162161014852	0	-0.09478689634777072	0	1.059324621312155e-16	0	0	2.44182831445791e-10	0
0.3258626198548054	3.865344827815808e-17	-8.520382013382789e-18	-0	0	0	0	14.35401987628151	1051.87432083541	-0	2.304396693245764	0	-0.09478689634276047	0	3.663840395231372e-18	0	0	1.272043252359918e-12	0
0.3281255547149082	1.246537361012032e-18	-2.720727685143043e-19	-0	0	0	0	30.07583901586175	1039.631335994836	-0	2.304613580112055	0	-0.09478689634274369	0	1.181554076256047e-19	0	0	5.505422849008331e-15	0
0.330388489575011	3.876540279196131e-20	-8.380165170980165e-21	-0	0	0	0	45.77774397589904	1024.605389387533	-0	2.304833526651893	0	-0.09478689634274365	0	3.674452216126342e-21	0	0	2.700996252133439e-16	0
0.3326514244351138	1.260705658079022e-21	-2.700358901609591e-22	-0	0	0	0	59.99122010077486	1006.687498378614	-0	2.305040419097839	0	-0.09478689634274365	0	1.194983765310467e-22	0	0	1.140451714244665e-16	0
0.3349143592952166	-0	-0	-0	0	0	0	73.9642187171453	987.1550540067485	-0	2.305248101572439	0	-0.09478689634274365	0	0	0	0	-1.438154709508887e-16	0
0.3371772941553194	-0	-0	-0	0	0	0	86.73256417637998	965.7995253315505	-0	2.305445246808455	0	-0.09478689634274365	0	0	0	0	-5.683335222263576e-16	0
0.3394402290154223	-0	-0	-0	0	0	0	99.15187694896973	943.4676642142329	-0	2.305641721379909	0	-0.09478689634274365	0	0	0	0	6.640005122752997e-16	0
0.341703163875525	-0	-0	-0	0	0	0	110.5470820248859	919.9065294377573	-0	2.305829204183404	0	-0.09478689634274365	0	0	0	0	5.500926865251152e-16	0
0.3439660987356279	-0	-0	-0	0	0	0	121.5250943002594	895.6419650176042	-0	2.306015144301615	0	-0.09478689634274365	0	0	0	0	-1.297229510051614e-17	0
0.3462290335957307	-0	-0	-0	0	0	0	131.5902327276725	870.4126351574391	-0	2.306193310893226	0	-0.09478689634274365	0	0	0	0	2.812468075451873e-17	0
0.3484919684558335	-0	-0	-0	0	0	0	141.1583229218045	844.5535148500227	-0	2.306369240083485	0	-0.09478689634274365	0	0	0	0	8.682132952468442e-16	0
0.3507549033159363	-0	-0	-0	0	0	0	149.8409434435358	817.738178412041	-0	2.306538293860502	0	-0.09478689634274365	0	0	0	0	-7.666094138703095e-16	0
0.3530178381760392	-0	-0	-0	0	0	0	157.9401383936275	789.838676752081	-0	2.306706143120475	0	-0.09478689634274365	0	0	0	0	3.530544186752167e-16	0
0.3552807730361419	-0	-0	-0	0	0	0	164.8201634596723	760.6422661504469	-0	2.306863976611487	0	-0.09478689634274365	0	0	0	0	7.508165948169303e-16	0
0.3575437078962447	-0	-0	-0	0	0	0	169.9551569966681	731.5056077704218	-0	2.306998126985679	0	-0.09478689634274363	0	0	0	0	-7.079367616532383e-16	0
0.3598066427563476	-0	-0	-0	0	0	0	173.0035549369546	703.180742904003	-0	2.307097706663721	0	-0.09478689634274365	0	0	0	0	2.71819020398269e-16	0
0.3620695776164504	-0	-0	-0	0	0	0	174.6016869493342	675.1132313522628	-0	2.307174514032067	0	-0.09478689634274365	0	0	0	0	1.470522135943731e-15	0
0.3643325124765532	-0	-0	-0	0	0	0	175.0195233727521	646.3515179267039	-0	2.307237414588052	0	-0.09478689634274365	0	0	0	0	7.143920642637819e-16	0
0.366595447336656	-0	-0	-0	0	0	0	174.6262399044071	616.2160535984916	-0	2.307297586422756	0	-0.09478689634274365	0	0	0	0	1.646310057717638e-15	0
0.3688583821967588	-0	-0	-0	0	0	0	173.6545284265259	583.9279293348085	-0	2.307366449036909	0	-0.09478689634274365	0	0	0	0	7.266531551316754e-16	0
0.3711213170568616	-0	-0	-0	0	0	0	172.5133271373209	549.0708897447781	-0	2.307459761505002	0	-0.09478689634274365	0	0	0	0	8.069519368400329e-16	0
0.3733842519169644	-0	-0	-0	0	0	0	170.6440839869434	511.680008895301	-0	2.30757126197512	0	-0.09478689634274365	0	0	0	0	-1.559866312868261e-15	0
0.3756471867770673	-0	-0	-0	0	0	0	167.0803346783518	472.3549884774378	-0	2.307679205078614	0	-0.09478689634274365	0	0	0	0	-6.041103507378573e-16	0
0.3779101216371701	-0	-0	-0	0	0	0	161.2885069213469	431.4303694095867	-0	2.307770017488111	0	-0.09478689634274365	0	0	0	0	-3.066644077241246e-16	0
0.3801730564972729	-0	-0	-0	0	0	0	153.0633385824883	389.3787505430872	-0	2.307834145837744	0	-0.09478689634274365	0	0	0	0	8.198340204593914e-16	0
0.3824359913573757	-0	-0	-0	0	0	0	142.6956545434325	346.311419466612	-0	2.307878738538574	0	-0.09478689634274365	0	0	0	0	-8.067476605864727e-16	0
0.3846989262174785	-0	-0	-0	0	0	0	130.9225357147395	302.1854574236246	-0	2.307933106956794	0	-0.09478689634274365	0	0	0	0	6.20165886671298e-16	0
0.3869618610775813	-0	-0	-0	0	0	0	117.9373789595668	257.3636167535944	-0	2.308011483312533	0	-0.09478689634274365	0	0	0	0	-8.770479800598807e-16	0
0.3892247959376841	-0	-0	-0	0	0	0	103.7325251484453	212.5090079649957	-0	2.308120898235704	0	-0.09478689634274365	0	0	0	0	7.859975556796267e-18	0
0.391487730797787	-0	-0	-0	0	0	0	87.59928448367096	170.4293715353739	-0	2.308156623407516	0	-0.09478689634274366	0	0	0	0	1.802643915474814e-15	0
0.3937506656578897	-0	-0	-0	0	0	0	68.25491266856844	136.8952318141861	-0	2.307735735020587	0	-0.09478689634274365	0	0	0	0	-2.886671937037104e-16	0
0.3960136005179926	-0	-0	-0	0	0	0	47.00248935268232	112.9110641550514	-0	2.306655404330569	0	-0.09478689634274365	0	0	0	0	4.425065433985408e-16	0
0.3982765353780954	-0	-0	-0	0	0	0	27.0345237074645	93.37897246894507	-0	2.305235908736891	0	-0.09478689634274365	0	0	0	0	-1.521219128561611e-16	0
0.4005394702381982	-0	-0	-0	0	0	0	10.64536952775912	75.5603416752628	-0	2.303763322898484	0	-0.09478689634274365	0	0	0	0	-8.234222595718037e-17	0
0.4028024050983011	-0	-0	-0	0	0	0	-1.553538487448504	58.22435286821806	-0	2.302300234140707	0	-0.09478689634274365	0	0	0	0	3.97127679220173e-18	0
0.4050653399584039	-0	-0	-0	0	0	0	-8.698200980025813	33.74676620829652	-0	2.300466820549727	0	-0.09478689634274365	0	0	0	0	-3.308387393319158e-17	0
0.4073282748185067	-0	-0	-0	0	0	0	3.013185904351201	-3.349281026115302	-0	2.295412295551642	0	-0.09478689634274365	0	0	0	0	-1.982658801824558e-17	0
0.4095912096786095	-0	-0	-0	0	0	0	0.05977570785994864	-0.05787965460942914	-0	2.295657542263738	0	-0.09478689634274365	0	0	0	0	-1.961865134524217e-19	0
0.4118541445387123	-0	-0	-0	0	0	0	6.57482519608198e-05	-5.493345264973569e-05	-0	2.296528251135289	0	-0.09478689634274365	0	0	0	0	-3.284286086880296e-22	0
0.4141170793988151	-0	-0	-0	0	0	0	8.75607358690104e-08	-6.371529211655625e-08	-0	2.298353603615077	0	-0.09478689634274365	0	0	0	0	7.975133366596391e-25	0
0.4163800142589179	-0	-0	-0	0	0	0	4.439110875589793e-10	-2.865570342963371e-10	-0	2.301291832785482	0	-0.09478689634274365	0	0	0	0	-2.531955265365381e-27	0
0.4186429491190208	-0	-0	-0	0	0	0	1.41658399838935e-11	-8.286560345188671e-12	-0	2.305378001926845	0	-0.09478689634274365	0	0	0	0	4.182129379173936e-30	0
0.4209058839791235	-0	-0	-0	0	0	0	2.34248632809791e-12	-1.264944579268587e-12	-0	2.310504151443801	0	-0.09478689634274365	0	0	0	0	1.142080595207241e-29	0
0.4231688188392264	-0	-0	-0	0	0	0	1.544287316591978e-12	-7.818958993454204e-13	-0	2.316528363759568	0	-0.09478689634274365	0	0	0	0	5.013315246958483e-30	0
0.4254317536993292	-0	-0	-0	0	0	0	2.656816474784762e-12	-1.276089363311883e-12	-0	2.323294252297761	0	-0.09478689634274366	0	0	0	0	2.821676620885607e-29	0
0.427694688559432	-0	-0	-0	0	0	0	8.494006222497894e-12	-3.902005301597139e-12	-0	2.33066476543075	0	-0.09478689634274365	0	0	0	0	-2.078437863688242e-29	0
0.4299576234195348	-0	-0	-0	0	0	0	3.738317816747555e-11	-1.651274642225711e-11	-0	2.338545665879321	0	-0.09478689634274365	0	0	0	0	8.593954260084141e-29	0
0.4322205582796377	-0	-0	-0	0	0	0	1.875929747210962e-10	-7.994862753551737e-11	-0	2.346872623117088	0	-0.09478689634274365	0	0	0	0	4.586825404760889e-28	0
0.4344834931397404	-0	-0	-0	0	0	0	9.989982121060141e-10	-4.118056778134973e-10	-0	2.355608863023846	0	-0.09478689634274365	0	0	0	0	-2.489136650171269e-27	0
0.4367464279998433	-0	-0	-0	0	0	0	5.700801898912637e-09	-2.277181453233319e-09	-0	2.364726709058294	0	-0.09478689634274365	0	0	0	0	1.846289062432754e-26	0
0.4390093628599461	-0	-0	-0	0	0	0	3.678863865029613e-08	-1.42613029933977e-08	-0	2.374207007222573	0	-0.09478689634274365	0	0	0	0	2.315803789448017e-26	0
0.4412722977200489	-0	-0	-0	0	0	0	2.580396690065835e-07	-9.719659454065425e-08	-0	2.384034084613739	0	-0.09478689634274365	0	0	0	0	1.149835806262469e-24	0
0.4435352325801517	-0	-0	-0	0	0	0	1.795113013950894e-06	-6.577376803522963e-07	-0	2.394195105691233	0	-0.09478689634274366	0	0	0	0	3.158139496050196e-23	0
0.4457981674402545	-0	-0	-0	0	0	0	1.180379244167329e-05	-4.211330621216158e-06	-0	2.404678420622711	0	-0.09478689634274365	0	0	0	0	1.008563310133768e-22	0
0.4480611023003573	-0	-0	-0	0	0	0	7.22075082559719e-05	-2.511003945255667e-05	-0	2.415472516821685	0	-0.09478689634274365	0	0	0	0	3.807753347718575e-22	0
0.4503240371604602	-2.111711272732682e-11	5.417468653836985e-12	-0	2.964067812912926	0	0.08956897507908836	0.0004056857182930996	-0.0001376411361772008	-0	2.426565969569551	0	-0.09478689634274365	0	-3.301363679764564e-30	0	0	7.105231989030618e-22	0
0.452586972020563	-1.753917286700307e-10	4.54526255954445e-11	-0	2.968207793521203	0	0.08956897507908836	0.002032842463627315	-0.0006735668259130305	-0	2.437946905183469	0	-0.09478689634274366	0	1.066116910493531e-27	0	0	1.927112211538875e-20	0
