DataType=double
version=3
OpenSimVersion=4.6-2026-06-22-85aaf64
endheader
time	ground_force_r_vx	ground_force_r_vy	ground_force_r_vz	ground_force_r_px	ground_force_r_py	ground_force_r_pz	ground_force_l_vx	ground_force_l_vy	ground_force_l_vz	ground_force_l_px	ground_force_l_py	ground_force_l_pz	ground_torque_r_x	ground_torque_r_y	ground_torque_r_z	ground_torque_l_x	ground_torque_l_y	ground_torque_l_z
0	-9.220490461075977e-10	2.744991337748614e-10	-0	1.188218127964947	0	0.08956897507908836	7.409493967491368e-10	-3.126669418426246e-10	-0	0.587063315517669	0	-0.09478689634274365	0	3.868288617229693e-27	0	0	-2.865449093110598e-27	0
0.002412057789345092	-1.875634511494038e-09	5.651057355798522e-10	-0	1.197105818822601	0	0.08956897507908836	6.762946986353966e-08	-2.760824080117114e-08	-0	0.5967911044296756	0	-0.09478689634274365	0	7.082357732838797e-27	0	0	1.900446664964808e-25	0
0.004824115578690184	-4.130281662973568e-09	1.259265453927549e-09	-0	1.205617213904898	0	0.08956897507908836	5.767669930601393e-06	-2.278649509601392e-06	-0	0.6068434953062711	0	-0.09478689634274365	0	-9.811651821819378e-27	0	0	8.868530430958921e-24	0
0.007236173368035276	-9.813439080404173e-09	3.028239719605114e-09	-0	1.213748568767989	0	0.08956897507908836	0.0003909630102655002	-0.000149588473521488	-0	0.6172076737573873	0	-0.09478689634274365	0	2.528257766255103e-27	0	0	-1.450015028557672e-21	0
0.009648231157380368	-2.50686624659531e-08	7.832732016505863e-09	-0	1.221498471386336	0	0.08956897507908836	0.003003040406180804	-0.001114181552296657	-0	0.6278576011522249	0	-0.09478689634274365	0	-7.549784622694689e-26	0	0	1.941312071079285e-20	0
0.01206028894672546	-6.860235986920883e-08	2.171696956377513e-08	-0	1.228871962547988	0	0.08956897507908836	-0.05220956891796602	0.01880747114623736	-0	0.6387694994072574	0	-0.09478689634274365	0	3.42134011917485e-25	0	0	4.309521622982387e-19	0
0.01447234673607055	-2.002262849130855e-07	6.426151694211434e-08	-0	1.23588515065794	0	0.08956897507908836	-0.08224216587362213	0.02877893958068188	-0	0.6499440050885711	0	-0.09478689634274365	0	3.888078787429724e-25	0	0	-2.293677953780238e-19	0
0.01688440452541565	-6.203740152123137e-07	2.020386293438894e-07	-0	1.242545641258846	0	0.08956897507908836	-0.09724312352210794	0.03304535286483837	-0	0.6613978271985467	0	-0.09478689634274365	0	-1.488863594243944e-25	0	0	4.371491362654586e-19	0
0.01929646231476074	-2.029010782144929e-06	6.716417139032739e-07	-0	1.24882201168245	0	0.08956897507908836	-0.105672550703257	0.03483487203510995	-0	0.6731719170587485	0	-0.09478689634274365	0	-4.333727593593297e-24	0	0	8.186932329053144e-19	0
0.02170852010410583	-6.963776576927822e-06	2.348581206566813e-06	-0	1.254691115697603	0	0.08956897507908836	-0.1117147687110829	0.03568886319763448	-0	0.685299889476591	0	-0.09478689634274365	0	1.79817438554307e-24	0	0	-2.353423929355821e-19	0
0.02412057789345092	-2.492188673291609e-05	8.583635021604606e-06	-0	1.260178067780376	0	0.08956897532077633	-0.1180403426020376	0.03655493125596024	-0	0.6977743420866245	0	-0.09478689634274365	0	4.633985530401581e-17	0	0	6.984010000991099e-19	0
0.02653263568279601	-9.240886408164742e-05	3.257330689015453e-05	-0	1.265319432371408	0	0.08956897514485329	-0.1258818471295325	0.0378307933319471	-0	0.710581897529951	0	-0.09478689634274365	0	4.733097490877699e-17	0	0	1.490499549903408e-19	0
0.0289446934721411	-0.000352650012057137	0.0001274638817534073	-0	1.270152164923146	0	0.08956897513077486	-0.1355382752986967	0.03958381716788048	-0	0.7237088916549956	0	-0.09478689634274365	0	1.417307791704558e-16	0	0	-7.309433804358709e-21	0
0.0313567512614862	-0.001375758547454149	0.0005107142159991993	-0	1.274713044968416	0	0.08956897510969715	-0.1470821293413096	0.04181328789822629	-0	0.737143236033045	0	-0.09478689634274365	0	3.224352835140643e-16	0	0	5.7602770932637e-19	0
0.03376880905083129	-0.005448690748335498	0.002079271876343054	-0	1.279052365486407	0	0.08956897509966011	-0.1607436199178605	0.04456324855331704	-0	0.7508714582342391	0	-0.09478689634274365	0	8.330387811815793e-16	0	0	7.403898387749476e-19	0
0.03618086684017639	-0.02174401129107969	0.008532235251800087	-0	1.283209899894082	0	0.08956897509384454	-0.1767175454773746	0.04786626173765322	-0	0.7648813161256798	0	-0.09478689634274365	0	2.284095167842442e-15	0	0	-5.380132955436223e-20	0
0.03859292462952147	-0.08674563377191412	0.03500886237662058	-0	1.287201578133823	0	0.0895689750904624	-0.1952352203649325	0.05176398069719205	-0	0.7791584377478462	0	-0.09478689634274365	0	6.64756145937649e-15	0	0	1.162640083288525e-19	0
0.04100498241886656	-0.3427458020756394	0.1423078465842667	-0	1.291037196070454	0	0.08956897508842461	-0.2165195346608387	0.05629786839886338	-0	0.7936878150461453	0	-0.09478689634274365	0	2.016866209929898e-14	0	0	-1.331149665463867e-18	0
0.04341704020821165	-1.324762286636351	0.566095889070601	-0	1.294722262843055	0	0.0895689750873775	-0.2407388749623578	0.06149685122016293	-0	0.8084527197377426	0	-0.09478689634274365	0	6.360276294982542e-14	0	0	1.073876282792576e-18	0
0.04582909799755675	-4.917553585001473	2.163886614801966	-0	1.298263062575475	0	0.0895689750871759	-0.2681850255309666	0.06742332670229181	-0	0.8234365561829625	0	-0.09478689634274365	0	2.070688437944721e-13	0	0	5.194417192329869e-19	0
0.04824115578690184	-16.93430170677091	7.694592878714166	-0	1.30163619522545	0	0.08956897508808155	-0.2997556833828003	0.07428666804991538	-0	0.8386220703128998	0	-0.09478689634274365	0	6.690533604928332e-13	0	0	9.162933963943317e-19	0
0.05065321357624693	-50.3918907721636	23.85194719696112	-0	1.304807749708541	0	0.08956897509153972	-0.3367178274481488	0.08237938685707376	-0	0.8539897810391217	0	-0.09478689634274365	0	1.709560637223188e-12	0	0	-5.159188164455693e-19	0
0.05306527136559203	-113.2754489846011	57.06005631065216	-0	1.307717260580629	0	0.08956897510532998	-0.3798712339885889	0.09187493702026715	-0	0.8695201875925422	0	-0.09478689634274365	0	-3.551796399929136e-12	0	0	1.222077341981198e-18	0
0.05547732915493711	-212.3285566716183	117.5728126168518	-0	1.310393278485507	0	0.08956897515933408	-0.429990911890768	0.1029407709069242	-0	0.8851951492570154	0	-0.09478689634274365	0	-1.392038870276271e-10	0	0	2.565908038429778e-18	0
0.05788938694428221	-437.91037192446	290.4898398394719	-0	1.312796319489669	0	0.08956897537338877	-0.4865252785473935	0.1154322978213248	-0	0.9010027621582272	0	-0.09478689634274365	0	-3.015544644562725e-09	0	0	-3.183523156528706e-19	0
0.0603014447336273	-568.2725186286407	541.3505259938523	-0	1.314837963522023	0	0.08956897755986748	-0.5470185831931657	0.1287581824643384	-0	0.9169401031236635	0	-0.09478689634274365	0	-8.349608280273456e-08	0	0	-2.732588781226131e-18	0
0.06271350252297239	-133.9220931434234	803.8064005632605	-0	1.318241956845772	0	0.08956899999929853	-0.6095416457309754	0.1424404451602681	-0	0.9330197438823377	0	-0.09478689634274365	0	-1.019478129080334e-05	0	0	3.41591265284337e-19	0
0.06512556031231749	-147.087335999985	1066.087008934426	-0	1.318743952254033	0	0.08956913635211743	-0.6709070955479913	0.1557377404375703	-0	0.9492493034661369	0	-0.09478689634274365	0	-5.866989952045777e-05	0	0	5.433372509641787e-18	0
0.06753761810166259	-33.72868271802195	1272.765750941947	-0	1.319693923181555	0	0.08956983208182462	-0.7245839749812628	0.1671211055957242	-0	0.9656509610015359	0	-0.09478689634274365	0	-0.0003195277765387874	0	0	3.421389135787457e-18	0
0.06994967589100767	-59.4515881631968	1411.517597805049	-0	1.320006920636244	0	0.08957310338112592	-0.765518217584965	0.1754278907208688	-0	0.9822515172564792	0	-0.09478689634274365	0	-0.001630478133153297	0	0	-1.50301313234431e-18	0
0.07236173368035276	-11.27062736275785	1483.550007702867	-0	1.321003471801895	0	0.08958715733202929	-0.7916006602625656	0.1802481231033941	-0	0.9990624717343684	0	-0.09478689634274365	0	-0.007700302549552336	0	0	2.904622304194673e-18	0
0.07477379146969786	-50.44205704703854	1519.178000416686	-0	1.322541126311179	0	0.08963475479491083	-0.8032964754939379	0.1817696245367955	-0	1.016086336652888	0	-0.09478689634274365	0	-0.02772505058426746	0	0	-2.257067258880985e-18	0
0.07718584925904294	-40.54251629382391	1534.489474285328	-0	1.32579623874117	0	0.08973254945687167	-0.8028060722288104	0.1805837721290175	-0	1.033311071773028	0	-0.09478689634274366	0	-0.0641148293730185	0	0	-1.60332067299162e-17	0
0.07959790704838804	-98.04811820242068	1563.742444897581	-0	1.331391419187666	0	0.08992558158583439	-0.7933740206915525	0.1774887134354916	-0	1.050718605598195	0	-0.09478689634274366	0	-0.1154221708980299	0	0	-7.922207252248247e-18	0
0.08200996483773314	-139.6317336366842	1626.352775200387	-0	1.340748356350931	0	0.09024934883561893	-0.7772718455394797	0.1730315207438911	-0	1.068288112560278	0	-0.09478689634274365	0	-0.1480797678971405	0	0	-2.618960574496076e-18	0
0.08442202262707822	-150.3326637710516	1624.050416449016	-0	1.345236397715197	0	0.09040327097510614	-0.7568407646940636	0.1677514740310589	-0	1.085997812212393	0	-0.09478689634274365	0	-0.09876727524457048	0	0	5.960067359176424e-18	0
0.08683408041642331	-94.68340082843466	1600.659736857011	-0	1.349066402145217	0	0.09052280622755768	-0.7340232327133359	0.1620749540301729	-0	1.103828818859018	0	-0.09478689634274365	0	-0.07819734129757765	0	0	4.245951647101973e-18	0
0.0892461382057684	-92.41163200071455	1625.307027709684	-0	1.356059642440219	0	0.09076241444600526	-0.7099813330808379	0.1562420056325675	-0	1.121764133814577	0	-0.09478689634274365	0	-0.1056883428264466	0	0	4.461014745721345e-18	0
0.0916581959951135	-95.39441227016016	1675.070649683091	-0	1.364989249036487	0	0.09107015600460985	-0.6847948375942465	0.1502486586908137	-0	1.139793151956899	0	-0.09478689634274365	0	-0.1452374854705676	0	0	1.504154326911104e-18	0
0.09407025378445859	-118.1770583929477	1715.738286710876	-0	1.373225554192483	0	0.09135754096477118	-0.6581721452902687	0.1440103783783484	-0	1.157908604580475	0	-0.09478689634274365	0	-0.1620171849319412	0	0	2.598116747174398e-18	0
0.09648231157380369	-120.362353532293	1734.427668105047	-0	1.38021249559955	0	0.09159801588462689	-0.6291676576397565	0.1373036694255619	-0	1.176109908159671	0	-0.09478689634274365	0	-0.1551284465372638	0	0	2.055874903869299e-18	0
0.09889436936314878	-109.0120849019326	1741.524537246128	-0	1.38677973020202	0	0.09182195600757548	-0.5969316598446055	0.1299339857315478	-0	1.194398345163088	0	-0.09478689634274365	0	-0.1411282132821934	0	0	-2.326528908844312e-18	0
0.1013064271524939	-77.16302411893184	1741.046847640082	-0	1.394739973432204	0	0.09209166212210974	-0.5594991947868905	0.1214638770719298	-0	1.212784368751445	0	-0.09478689634274365	0	-0.1289747474760805	0	0	3.20967451911398e-18	0
0.103718484941839	-60.16898393661383	1712.555059873237	-0	1.403498753598576	0	0.0923930678305165	-0.514820967189757	0.1114458907961879	-0	1.231284429974878	0	-0.09478689634274365	0	-0.1093011299115834	0	0	3.347480459769218e-18	0
0.1061305427311841	-41.3303413141855	1652.517792045446	-0	1.41261263912728	0	0.09270729774198654	-0.4620176283553415	0.09970321022769323	-0	1.24992144494731	0	-0.09478689634274365	0	-0.08190663824262984	0	0	1.579866697618108e-18	0
0.1085426005205291	-31.66264566043847	1576.009142724032	-0	1.422070207502386	0	0.09303605341099822	-0.4014463938676529	0.08633348859083384	-0	1.268720278305323	0	-0.09478689634274365	0	-0.05272140880354177	0	0	-1.486518622139751e-18	0
0.1109546583098742	-27.86060948028888	1492.933232978169	-0	1.432033230546977	0	0.09338454487371627	-0.3340862562737431	0.07156734306556878	-0	1.287715089547349	0	-0.09478689634274365	0	-0.0259046969656572	0	0	2.937712818023248e-18	0
0.1133667160992193	-31.79013715730378	1408.113787988982	-0	1.442272706773426	0	0.0937454618108723	-0.264282515559938	0.05637449962986967	-0	1.306936986467064	0	-0.09478689634274365	0	-0.004748162264170758	0	0	4.415266425329065e-20	0
0.1157787738885644	-34.87676314757523	1325.530373202918	-0	1.452755802383777	0	0.09411589903441185	-0.202089072109526	0.04294173660744236	-0	1.326366070387234	0	-0.09478689634274365	0	0.007629724956776073	0	0	-9.988976480948744e-19	0
0.1181908316779095	-40.27595071959838	1245.981695363413	-0	1.463367697364971	0	0.09449297577061826	-0.1534827323487241	0.03251814418046205	-0	1.345955355017976	0	-0.09478689634274365	0	0.008541384405424566	0	0	5.800620266378573e-19	0
0.1206028894672546	-39.84790407034643	1185.323587163976	-0	1.472267362189029	0	0.09480868110936297	-0.1186650724101786	0.02509481401937878	-0	1.365638912615083	0	-0.09478689634274365	0	-0.001054261747179478	0	0	-3.986408901743375e-20	0
0.1230149472565997	-19.74900136893232	1193.617735985732	-0	1.471953573078739	0	0.09478894815323127	-0.09448768695358843	0.01996176800785561	-0	1.385359286037086	0	-0.09478689634274365	0	-0.0001429742069899242	0	0	-4.269534125061698e-19	0
0.1254270050459448	5.543156608345264	1186.223874812315	-0	1.472185712721366	0	0.09478691009951469	-0.07481502192300281	0.01578775494338632	-0	1.405129757449151	0	-0.09478689634274365	0	-1.2835516349481e-06	0	0	2.281912620633092e-19	0
0.1278390628352899	23.12413628304017	1170.81957235649	-0	1.472399478520896	0	0.09478689638590369	-0.05681872076909147	0.01196724401938136	-0	1.424996420765294	0	-0.09478689634274365	0	-5.158851649638424e-09	0	0	-2.145421193116929e-19	0
0.130251120624635	42.67712850002686	1149.165194101447	-0	1.472640033172354	0	0.09478689634282733	-0.04128408392250107	0.008674188456974048	-0	1.444992003398348	0	-0.09478689634274365	0	-1.242416256944034e-11	0	0	3.716071484060379e-19	0
0.1326631784139801	58.03127201250611	1122.593396451584	-0	1.472841270379218	0	0.09478689634274379	-0.0287090739403813	0.006015866334838436	-0	1.465133846700938	0	-0.09478689634274365	0	-2.316009151116237e-14	0	0	-1.32877444351579e-19	0
0.1350752362033252	73.46313836750161	1092.875272344896	-0	1.473050420930695	0	0.09478689634274365	-0.01894137488009585	0.003957757772841941	-0	1.485433779213135	0	-0.09478689634274365	0	7.392793868786902e-16	0	0	-1.78962470460287e-20	0
0.1374872939926703	86.01288215089009	1060.284702749139	-0	1.473232772876599	0	0.09478689634274365	-0.01168868046832142	0.002435109782369716	-0	1.505903064993221	0	-0.09478689634274365	0	7.485079325417485e-16	0	0	1.283027788717344e-20	0
0.1398993517820153	98.02940359814843	1026.351892147481	-0	1.473415270324207	0	0.09478689634274365	-0.006591359502710402	0.001369108234742743	-0	1.52654772580634	0	-0.09478689634274365	0	-3.977935939192841e-16	0	0	1.571844897975707e-20	0
0.1423114095713604	107.8422905939749	990.9381781017194	-0	1.473576386390162	0	0.09478689634274365	-0.003223027388637638	0.000667517828949428	-0	1.547371526946887	0	-0.09478689634274366	0	1.183845553555575e-16	0	0	-4.351743951551764e-20	0
0.1447234673607055	116.8542160679526	955.1523085284263	-0	1.473732704253227	0	0.09478689634274365	-0.001139050987028668	0.0002352432709888276	-0	1.568376165285066	0	-0.09478689634274365	0	3.618785535443179e-16	0	0	5.848037138556359e-21	0
0.1471355251500506	124.2587025445952	918.5487287902405	-0	1.473873302938597	0	0.09478689634274365	-7.817417627336811e-05	1.610137818024211e-05	-0	1.589561881175645	0	-0.09478689634274365	0	-1.239920435325025e-16	0	0	5.371876171103159e-23	0
0.1495475829393957	131.4426492390859	881.8337714477216	-0	1.474017019251265	0	0.09478689634274366	5.38007624427758e-05	-1.105314762152197e-05	-0	1.610923569078619	0	-0.09478689634274366	0	-2.460880132012964e-15	0	0	9.969014897004285e-22	0
0.1519596407287408	137.6484714065171	844.6970937926092	-0	1.47415338561487	0	0.09478689634274363	1.048519510144825e-05	-2.149167318052972e-06	-0	1.632452377323707	0	-0.09478689634274365	0	2.70747458595876e-15	0	0	-2.197630851277973e-23	0
0.1543716985180859	143.4703173118444	807.7133882843551	-0	1.474290778500277	0	0.09478689634274365	1.364133390298292e-06	-2.79045711690378e-07	-0	1.65413202302907	0	-0.09478689634274365	0	4.488713745642722e-16	0	0	9.567766480871677e-24	0
0.156783756307431	148.2929292785788	770.5439173118632	-0	1.474420236956454	0	0.09478689634274365	1.719541051635947e-07	-3.51153791590013e-08	-0	1.675944412828298	0	-0.09478689634274365	0	7.555461333185123e-16	0	0	9.712464699981001e-25	0
0.1591958140967761	152.5462702048158	733.5410895429613	-0	1.474548423778921	0	0.09478689634274366	2.186453863382805e-08	-4.458710001763718e-09	-0	1.697877168970214	0	-0.09478689634274365	0	-2.641414521007284e-15	0	0	-1.74721441051974e-25	0
0.1616078718861212	155.711672197013	696.4621826447491	-0	1.474667018966398	0	0.09478689634274365	2.730686684668183e-09	-5.561767156440077e-10	-0	1.719922414864027	0	-0.09478689634274365	0	2.793956162484424e-16	0	0	5.983214059969636e-27	0
0.1640199296754663	158.0470094512675	659.674418594671	-0	1.474779487166245	0	0.09478689634274365	3.213543021514323e-10	-6.538095453540481e-11	-0	1.742079904355133	0	-0.09478689634274365	0	2.270532489682471e-16	0	0	7.909035550288273e-28	0
0.1664319874648113	159.2429510977234	623.0029748068615	-0	1.474880367301603	0	0.09478689634274365	3.565529510966519e-11	-7.247048400608059e-12	-0	1.76434855796972	0	-0.09478689634274365	0	2.505062103084636e-16	0	0	4.839537949455748e-29	0
0.1688440452541564	159.6096655401091	586.5382234197629	-0	1.474975736506934	0	0.09478689634274365	4.122793179506677e-12	-8.372939513661876e-13	-0	1.786715238599098	0	-0.09478689634274365	0	4.453460092690383e-16	0	0	3.46671719252119e-30	0
0.1712561030435015	159.2024514619018	549.6586177147685	-0	1.475071715242394	0	0.09478689634274365	5.577409825305431e-13	-1.132096286945664e-13	-0	1.809159281681736	0	-0.09478689634274365	0	1.469894581697612e-16	0	0	-1.063430793526398e-30	0
0.1736681608328466	158.5163964686478	511.2695143595082	-0	1.475191313792972	0	0.09478689634274365	9.631367331477505e-14	-1.954485391358863e-14	-0	0	0	0	0	3.592465748979998e-16	0	0	-9.129274168876458e-15	0
0.1760802186221917	156.8174142244349	469.4241073589583	-0	1.475340496975513	0	0.09478689634274365	2.142543290514099e-14	-4.347839257284081e-15	-0	0	0	0	0	8.060681721046293e-16	0	0	-2.030850287878008e-15	0
0.1784922764115368	153.6114595384576	422.702472366376	-0	1.475536119636561	0	0.09478689634274365	5.407590423244527e-15	-1.097388263076041e-15	-0	0	0	0	0	-5.231153846966157e-16	0	0	-5.125687129120923e-16	0
0.1809043342008819	146.3182563945332	372.8575018351592	-0	1.475700001770084	0	0.09478689634274365	1.266247106927624e-15	-2.569235336113952e-16	-0	0	0	0	0	3.08778148265282e-16	0	0	-1.200236332686478e-16	0
0.183316391990227	132.1196556046332	324.7360017441479	-0	1.475658611068797	0	0.09478689634274365	2.035889773512825e-16	-4.128606208647277e-17	-0	0	0	0	0	8.259391270596231e-16	0	0	-1.92975672927212e-17	0
0.1857284497795721	114.2914827637207	280.3388743557952	-0	1.475441824640532	0	0.09478689634274365	-2.522823128321105e-12	5.154482598707192e-13	-0	1.862518523485372	0	-0.08956894181843797	0	-4.804284668345087e-16	0	0	-7.112969255557324e-22	0
0.1881405075689172	97.47228429308696	239.1632581412169	-0	1.475215218207089	0	0.09478689634274365	-2.447396443721428e-12	4.992580656068066e-13	-0	1.879182985175421	0	-0.08956897401754155	0	-2.993219044920678e-16	0	0	-2.022727264382553e-23	0
0.1905525653582623	81.11604529934625	201.33136608543	-0	1.474940277974714	0	0.09478689634274365	-4.716272740084175e-12	9.617237188110126e-13	-0	1.895729507970279	0	-0.08956897507327542	0	-3.003057677866345e-16	0	0	-1.948068121128421e-25	0
0.1929646231476074	63.92907960795647	168.7578692025676	-0	1.474459162849488	0	0.09478689634274365	-6.716050059122644e-12	1.373587851728328e-12	-0	1.911818775927515	0	-0.08956897507907245	0	4.174775418840119e-16	0	0	-7.668197248935048e-28	0
0.1953766809369525	47.13265208404352	141.8297817531354	-0	1.473769866034736	0	0.09478689634274365	-1.042157111677021e-11	2.148343424985477e-12	-0	1.927206052488535	0	-0.08956897507908836	0	-2.480236767223713e-16	0	0	-4.624725588131154e-29	0
0.1977887387262975	32.38178892697189	116.7462078634779	-0	1.473054553703053	0	0.09478689634274365	-1.531255433320628e-11	3.193976887936413e-12	-0	1.942040263848173	0	-0.08956897507908836	0	2.845204316886326e-17	0	0	-3.514093188988995e-29	0
0.2002007965156426	20.37588379532771	91.47448679106365	-0	1.472418925082399	0	0.09478689634274365	-1.918933592006749e-11	4.060309805474047e-12	-0	1.956507001315983	0	-0.08956897507908836	0	1.988532366550764e-17	0	0	-1.487296598112641e-29	0
0.2026128543049877	11.01562952649515	66.68902510964641	-0	1.471833063609625	0	0.09478689634274365	-2.535092747603258e-11	5.451830305028574e-12	-0	1.970683297648542	0	-0.08956897507908836	0	5.577962108693965e-17	0	0	-7.019414217246958e-29	0
0.2050249120943328	-1.276092615500103	12.86623453840483	-0	1.469314992367154	0	0.09478689634274363	-2.87870592452044e-11	6.302522057956194e-12	-0	1.984583377939894	0	-0.08956897507908836	0	-1.093641496491414e-17	0	0	1.55140984124508e-28	0
0.2074369698836779	0.0003123664741974964	-0.0003240918782966219	-0	1.461861865635562	0	0.09478689634274365	-3.40559910004082e-11	7.606118662822137e-12	-0	1.998120578205262	0	-0.08956897507908836	0	-2.550300095935934e-22	0	0	1.910410497711606e-29	0
0.209849027673023	9.260575954402146e-14	-7.476968804394192e-14	-0	1.461823014910899	0	0.09478689634274365	-3.703276752932818e-11	8.457280922614625e-12	-0	2.011211778465273	0	-0.08956897507908836	0	1.739359223761332e-31	0	0	1.983236196746549e-28	0
0.2122610854623681	-0	-0	-0	0	0	0	-3.947342256969459e-11	9.233580176222322e-12	-0	2.023895773644014	0	-0.08956897507908836	0	0	0	0	-4.144344577091182e-29	0
0.2146731432517132	-0	-0	-0	0	0	0	-4.078692430404824e-11	9.781456949947322e-12	-0	2.036228810514899	0	-0.08956897507908837	0	0	0	0	3.164695824373495e-28	0
0.2170852010410583	-0	-0	-0	0	0	0	-4.349390538314534e-11	1.069856913228475e-11	-0	2.048222414425096	0	-0.08956897507908834	0	0	0	0	-1.927416081883187e-28	0
0.2194972588304034	-0	-0	-0	0	0	0	-4.593873952291304e-11	1.159004919965143e-11	-0	2.05988969316652	0	-0.08956897507908747	0	0	0	0	6.605259316928755e-29	0
0.2219093166197485	-0	-0	-0	0	0	0	-5.028713669593483e-11	1.300698287496244e-11	-0	2.071243163226069	0	-0.08956897507908836	0	0	0	0	-2.529751077094638e-28	0
0.2243213744090936	-0	-0	-0	0	0	0	-5.675687113831525e-11	1.503621574289131e-11	-0	2.082306261321306	0	-0.08956897507908836	0	0	0	0	-1.840289654935757e-28	0
0.2267334321984386	-0	-0	-0	0	0	0	-6.857153138903722e-11	1.857628543429982e-11	-0	2.093127149631196	0	-0.08956897507908836	0	0	0	0	3.675875925525666e-29	0
0.2291454899877837	-0	-0	-0	0	0	0	-8.853982127544959e-11	2.447450618447059e-11	-0	2.103743867886237	0	-0.08956897507908836	0	0	0	0	1.320496364046713e-28	0
0.2315575477771288	-0	-0	-0	0	0	0	-1.211492046473493e-10	3.409891814839433e-11	-0	2.114142533675116	0	-0.08956897507908836	0	0	0	0	3.001927761827055e-28	0
0.2339696055664739	9.479368274193155e-16	-4.413340640361753e-16	-0	0	0	0	-1.776049462101114e-10	5.080205376628076e-11	-0	2.124301437862217	0	-0.08956897507908836	0	8.985198980006393e-17	0	0	6.765424786651879e-28	0
0.236381663355819	8.741044697593702e-14	-3.937890836862233e-14	-0	1.533427212606716	0	0.09478689634274365	-2.835301914803989e-10	8.228279122753189e-11	-0	2.134193340981238	0	-0.08956897507908834	0	2.533010838573741e-31	0	0	4.299967064290021e-27	0
0.2387937211451641	7.820613199962675e-12	-3.410486043958636e-12	-0	1.542491686820417	0	0.09478689634274365	-4.908991455988831e-10	1.443511306009366e-10	-0	2.143786135511311	0	-0.08956897507908836	0	-4.021254197446973e-29	0	0	1.069325122596905e-27	0
0.2412057789345092	7.409493967491566e-10	-3.126669418426329e-10	-0	1.551886431255706	0	0.09478689634274366	-9.220490461075957e-10	2.744991337748608e-10	-0	2.153041243702984	0	-0.08956897507908836	0	-1.507740558683371e-26	0	0	4.073733678146105e-27	0
0.2436178367238543	6.762946986354212e-08	-2.760824080117215e-08	-0	1.561614220167713	0	0.09478689634274365	-1.875634511494037e-09	5.651057355798518e-10	-0	2.161928934560638	0	-0.08956897507908836	0	-2.61019671424781e-25	0	0	6.546452055335091e-28	0
0.2460298945131994	5.767669930601475e-06	-2.278649509601424e-06	-0	1.571666611044308	0	0.09478689634274365	-4.130281662973557e-09	1.259265453927545e-09	-0	2.170440329642935	0	-0.08956897507908836	0	3.828668715396381e-23	0	0	-9.298969853227688e-27	0
0.2484419523025445	0.0003909630102654907	-0.0001495884735214843	-0	1.582030789495424	0	0.09478689634274365	-9.813439080404163e-09	3.028239719605111e-09	-0	2.178571684506025	0	-0.08956897507908836	0	-5.71650142859327e-22	0	0	-4.402981082840512e-26	0
0.2508540100918896	0.003003040406180928	-0.001114181552296703	-0	1.592680716890262	0	0.09478689634274365	-2.506866246595305e-08	7.832732016505848e-09	-0	2.186321587124373	0	-0.08956897507908836	0	6.059133032851486e-22	0	0	8.861908507517041e-26	0
0.2532660678812347	-0.05220956891796572	0.01880747114623725	-0	1.603592615145294	0	0.09478689634274365	-6.860235986920863e-08	2.171696956377507e-08	-0	2.193695078286026	0	-0.08956897507908836	0	-8.981214840778292e-20	0	0	6.860584566905621e-26	0
0.2556781256705797	-0.08224216587362163	0.0287789395806817	-0	1.614767120826609	0	0.09478689634274365	-2.002262849130851e-07	6.426151694211424e-08	-0	2.200708266395977	0	-0.08956897507908836	0	-2.886659918606036e-19	0	0	1.591864873480338e-24	0
0.2580901834599248	-0.09724312352210734	0.03304535286483817	-0	1.626220942936584	0	0.09478689634274365	-6.203740152123125e-07	2.02038629343889e-07	-0	2.207368756996883	0	-0.08956897507908836	0	2.45130891515453e-19	0	0	-1.411906749655763e-24	0
0.26050224124927	-0.1056725507032563	0.03483487203510972	-0	1.637995032796785	0	0.09478689634274365	-2.029010782144925e-06	6.716417139032726e-07	-0	2.213645127420487	0	-0.08956897507908836	0	2.253185267533229e-19	0	0	1.309617788877284e-23	0
0.262914299038615	-0.1117147687110823	0.03568886319763429	-0	1.650123005214628	0	0.09478689634274365	-6.963776576927802e-06	2.348581206566807e-06	-0	2.21951423143564	0	-0.08956897507908836	0	-8.171010552603134e-19	0	0	4.90970088129616e-23	0
0.2653263568279601	-0.1180403426020369	0.03655493125596006	-0	1.662597457824661	0	0.09478689634274365	-2.492188673291601e-05	8.583635021604579e-06	-0	2.225001183518414	0	-0.08956897532077633	0	8.224611108236148e-19	0	0	-4.634007523973781e-17	0
0.2677384146173052	-0.1258818471295318	0.03783079333194689	-0	1.675405013267988	0	0.09478689634274365	-9.240886408164708e-05	3.257330689015441e-05	-0	2.230142548109445	0	-0.08956897514485328	0	-5.873889785987826e-20	0	0	-4.732983851507105e-17	0
0.2701504724066503	-0.1355382752986961	0.03958381716788029	-0	1.688532007393033	0	0.09478689634274365	-0.0003526500120571354	0.0001274638817534067	-0	2.234975280661184	0	-0.08956897513077486	0	2.127391103211829e-19	0	0	-1.417254936697516e-16	0
0.2725625301959954	-0.1470821293413087	0.04181328789822605	-0	1.701966351771082	0	0.09478689634274363	-0.001375758547454145	0.0005107142159991977	-0	2.239536160706453	0	-0.08956897510969714	0	-1.745868460067479e-18	0	0	-3.22407218279633e-16	0
0.2749745879853405	-0.1607436199178596	0.04456324855331679	-0	1.715694573972276	0	0.09478689634274365	-0.005448690748335478	0.002079271876343047	-0	2.243875481224443	0	-0.08956897509966011	0	-7.651974010308467e-19	0	0	-8.330408746221979e-16	0
0.2773866457746856	-0.1767175454773739	0.04786626173765302	-0	1.729704431863717	0	0.09478689634274365	-0.0217440112910796	0.008532235251800049	-0	2.24803301563212	0	-0.08956897509384452	0	-1.590611089291982e-18	0	0	-2.283859806207059e-15	0
0.2797987035640307	-0.1952352203649317	0.05176398069719184	-0	1.743981553485883	0	0.09478689634274365	-0.08674563377191373	0.03500886237662042	-0	2.252024693871859	0	-0.0895689750904624	0	-9.220943440333839e-19	0	0	-6.647451390442898e-15	0
0.2822107613533757	-0.216519534660838	0.05629786839886318	-0	1.758510930784182	0	0.09478689634274365	-0.3427458020756373	0.1423078465842659	-0	2.25586031180849	0	-0.08956897508842461	0	-3.132627533824774e-19	0	0	-2.016857594164731e-14	0
0.2846228191427209	-0.2407388749623565	0.06149685122016261	-0	1.773275835475779	0	0.09478689634274365	-1.324762286636342	0.5660958890705974	-0	2.259545378581092	0	-0.08956897508737749	0	-1.50159901290074e-18	0	0	-6.358589029736745e-14	0
0.287034876932066	-0.2681850255309651	0.06742332670229144	-0	1.788259671921	0	0.09478689634274365	-4.917553585001615	2.163886614802029	-0	2.263086178313511	0	-0.0895689750871759	0	-3.388196049720618e-19	0	0	-2.070853070820481e-13	0
0.289446934721411	-0.2997556833827985	0.07428666804991491	-0	1.803445186050937	0	0.09478689634274365	-16.93430170677146	7.694592878714414	-0	2.266459310963487	0	-0.08956897508808154	0	5.961370259911348e-19	0	0	-6.688474506174093e-13	0
0.2918589925107561	-0.3367178274481474	0.08237938685707343	-0	1.818812896777158	0	0.09478689634274365	-50.39189077216471	23.85194719696165	-0	2.269630865446577	0	-0.08956897509153972	0	8.11659550092856e-19	0	0	-1.710003512039985e-12	0
0.2942710503001013	-0.3798712339885865	0.09187493702026658	-0	1.83434330333058	0	0.09478689634274366	-113.2754489846028	57.06005631065299	-0	2.272540376318666	0	-0.08956897510532998	0	6.778815148728687e-18	0	0	3.550310369610624e-12	0
0.2966831080894463	-0.4299909118907653	0.1029407709069236	-0	1.850018264995053	0	0.09478689634274365	-212.328556671622	117.5728126168539	-0	2.275216394223544	0	-0.08956897515933408	0	3.287303166488397e-18	0	0	1.39203347959581e-10	0
0.2990951658787914	-0.4865252785473904	0.115432297821324	-0	1.865825877896264	0	0.09478689634274365	-437.9103719244678	290.489839839477	-0	2.277619435227706	0	-0.08956897537338877	0	-1.227804860881629e-18	0	0	3.015543453714351e-09	0
0.3015072236681365	-0.5470185831931612	0.1287581824643374	-0	1.881763218861701	0	0.09478689634274365	-568.2725186286485	541.3505259938596	-0	2.27966107926006	0	-0.08956897755986748	0	-1.872155994228334e-18	0	0	8.34960836258896e-08	0
0.3039192814574816	-0.6095416457309711	0.1424404451602671	-0	1.897842859620375	0	0.09478689634274365	-133.9220931434254	803.8064005632673	-0	2.283065072583808	0	-0.08956899999929853	0	2.222795101941149e-18	0	0	1.019478128923273e-05	0
0.3063313392468267	-0.6709070955479858	0.155737740437569	-0	1.914072419204174	0	0.09478689634274365	-147.0873359999871	1066.087008934436	-0	2.283567067992069	0	-0.08956913635211743	0	-4.25040957505264e-18	0	0	5.866989952013155e-05	0
0.3087433970361718	-0.7245839749813348	0.1671211055957408	-0	1.930474076739573	0	0.09478689634274365	-33.72868271802297	1272.765750941954	-0	2.284517038919592	0	-0.08956983208182462	0	1.786537187502596e-18	0	0	0.0003195277765388159	0
0.3111554548255169	-0.7655182175850332	0.1754278907208845	-0	1.947074632994516	0	0.09478689634274366	-59.45158816319798	1411.517597805056	-0	2.284830036374281	0	-0.08957310338112592	0	1.700517135449947e-17	0	0	0.001630478133153339	0
0.3135675126148619	-0.791600660262629	0.1802481231034085	-0	1.963885587472406	0	0.09478689634274366	-11.27062736275905	1483.550007702873	-0	2.285826587539931	0	-0.08958715733202927	0	7.894283269949735e-18	0	0	0.007700302549552922	0
0.315979570404207	-0.8032964754940014	0.1817696245368099	-0	1.980909452390925	0	0.09478689634274363	-50.44205704704021	1519.178000416696	-0	2.287364242049216	0	-0.08963475479491081	0	-1.243199952486342e-17	0	0	0.02772505058426859	0
0.3183916281935522	-0.8028060722288024	0.1805837721290157	-0	1.998134187511066	0	0.09478689634274363	-40.54251629382544	1534.489474285337	-0	2.290619354479207	0	-0.08973254945687166	0	-1.453767850833452e-17	0	0	0.0641148293730201	0
0.3208036859828972	-0.7933740206916087	0.1774887134355041	-0	2.015541721336232	0	0.09478689634274363	-98.04811820242301	1563.742444897593	-0	2.296214534925704	0	-0.08992558158583439	0	-4.42058128838407e-18	0	0	0.1154221708980353	0
0.3232157437722423	-0.7772718455395352	0.1730315207439035	-0	2.033111228298315	0	0.09478689634274363	-139.6317336366862	1626.352775200397	-0	2.305571472088967	0	-0.09024934883561894	0	-6.119694704966939e-18	0	0	0.1480797678971404	0
0.3256278015615874	-0.7568407646941168	0.1677514740310707	-0	2.050820927950431	0	0.09478689634274366	-150.3326637710531	1624.050416449023	-0	2.310059513453234	0	-0.09040327097510616	0	7.643322584315568e-18	0	0	0.09876727524456881	0
0.3280398593509325	-0.7340232327133905	0.1620749540301849	-0	2.068651934597056	0	0.09478689634274365	-94.68340082843565	1600.65973685702	-0	2.313889517883255	0	-0.09052280622755766	0	-3.118742140269878e-18	0	0	0.07819734129757951	0
0.3304519171402776	-0.7099813330808951	0.1562420056325801	-0	2.086587249552613	0	0.09478689634274365	-92.41163200071566	1625.307027709692	-0	2.320882758178255	0	-0.09076241444600527	0	2.783369958950682e-18	0	0	0.1056883428264477	0
0.3328639749296227	-0.6847948375942998	0.1502486586908254	-0	2.104616267694936	0	0.09478689634274365	-95.39441227016145	1675.070649683098	-0	2.329812364774523	0	-0.09107015600460987	0	-1.758368252715349e-18	0	0	0.1452374854705693	0
0.3352760327189678	-0.6581721452903239	0.1440103783783605	-0	2.122731720318512	0	0.09478689634274365	-118.1770583929492	1715.738286710885	-0	2.338048669930519	0	-0.09135754096477117	0	2.574132808543119e-18	0	0	0.1620171849319464	0
0.3376880905083129	-0.6291676576397517	0.1373036694255609	-0	2.140933023897708	0	0.09478689634274365	-120.3623535322944	1734.427668105055	-0	2.345035611337587	0	-0.09159801588462689	0	3.402365318377993e-18	0	0	0.1551284465372623	0
0.340100148297658	-0.5969316598446599	0.1299339857315597	-0	2.159221460901125	0	0.09478689634274365	-109.012084901934	1741.524537246136	-0	2.351602845940056	0	-0.09182195600757548	0	3.223501176903684e-18	0	0	0.1411282132821951	0
0.3425122060870031	-0.559499194786947	0.1214638770719421	-0	2.177607484489483	0	0.09478689634274365	-77.16302411893311	1741.046847640089	-0	2.359563089170241	0	-0.09209166212210974	0	3.343998469239877e-18	0	0	0.1289747474760813	0
0.3449242638763482	-0.5148209671897536	0.1114458907961871	-0	2.196107545712915	0	0.09478689634274365	-60.16898393661506	1712.555059873248	-0	2.368321869336613	0	-0.0923930678305165	0	-3.446710708792815e-18	0	0	0.1093011299115837	0
0.3473363216656933	-0.4620176283553927	0.09970321022770427	-0	2.214744560685347	0	0.09478689634274366	-41.33034131418643	1652.517792045455	-0	2.377435754865317	0	-0.09270729774198651	0	5.85989516997621e-18	0	0	0.0819066382426315	0
0.3497483794550383	-0.4014463938677024	0.08633348859084451	-0	2.23354339404336	0	0.09478689634274363	-31.66264566043939	1576.00914272404	-0	2.386893323240422	0	-0.09303605341099822	0	-2.991186495485467e-18	0	0	0.05272140880354209	0
0.3521604372443835	-0.3340862562737393	0.07156734306556797	-0	2.252538205285386	0	0.09478689634274365	-27.86060948028977	1492.933232978176	-0	2.396856346285014	0	-0.09338454487371625	0	-1.590016139535942e-18	0	0	0.02590469696565758	0
0.3545724950337285	-0.2642825155599851	0.05637449962987972	-0	2.271760102205101	0	0.09478689634274365	-31.79013715730472	1408.11378798899	-0	2.407095822511462	0	-0.0937454618108723	0	-1.483279538070184e-18	0	0	0.004748162264170206	0
0.3569845528230736	-0.2020890721095698	0.04294173660745169	-0	2.291189186125271	0	0.09478689634274365	-34.87676314757614	1325.530373202923	-0	2.417578918121813	0	-0.09411589903441185	0	5.293598471689208e-19	0	0	-0.007629724956775743	0
0.3593966106124187	-0.1534827323487233	0.03251814418046188	-0	2.310778470756013	0	0.09478689634274365	-40.27595071959931	1245.98169536342	-0	2.428190813103008	0	-0.09449297577061826	0	3.488311136344184e-19	0	0	-0.008541384405424807	0
0.3618086684017638	-0.1186650724101769	0.02509481401937844	-0	2.33046202835312	0	0.09478689634274365	-39.84790407034733	1185.323587163983	-0	2.437090477927065	0	-0.09480868110936297	0	-7.907738089429967e-19	0	0	0.001054261747179419	0
0.3642207261911089	-0.09448768695358786	0.01996176800785549	-0	2.350182401775123	0	0.09478689634274365	-19.74900136893294	1193.617735985733	-0	2.436776688816776	0	-0.09478894815323127	0	2.706513571452682e-19	0	0	0.0001429742069900554	0
0.366632783980454	-0.07481502192304534	0.0157877549433953	-0	2.369952873187187	0	0.09478689634274365	5.543156608344553	1186.223874812321	-0	2.437008828459403	0	-0.09478691009951469	0	7.486202192211132e-20	0	0	1.283551634988487e-06	0
0.3690448417697991	-0.05681872076909115	0.01196724401938129	-0	2.389819536503331	0	0.09478689634274365	23.12413628303933	1170.819572356491	-0	2.437222594258933	0	-0.09478689638590369	0	3.172569575701049e-19	0	0	5.158851439028797e-09	0
0.3714568995591442	-0.04128408392254113	0.008674188456982463	-0	2.409815119136386	0	0.09478689634274365	42.67712850002619	1149.165194101448	-0	2.437463148910391	0	-0.09478689634282733	0	3.914331097689536e-19	0	0	1.24239141050359e-11	0
0.3738689573484892	-0.0287090739403815	0.006015866334838476	-0	2.429956962438975	0	0.09478689634274366	58.03127201250532	1122.593396451585	-0	2.437664386117254	0	-0.09478689634274379	0	2.990725955869802e-19	0	0	2.389660107351677e-14	0
0.3762810151378344	-0.01894137488009555	0.003957757772841877	-0	2.450256894951173	0	0.09478689634274365	73.46313836750141	1092.875272344903	-0	2.437873536668733	0	-0.09478689634274365	0	-8.18395217693649e-20	0	0	-9.455719528190502e-16	0
0.3786930729271795	-0.01168868046832137	0.002435109782369705	-0	2.470726180731258	0	0.09478689634274365	86.01288215088981	1060.284702749146	-0	2.438055888614636	0	-0.09478689634274365	0	4.162808652401999e-20	0	0	7.331452412294162e-16	0
0.3811051307165245	-0.00659135950271038	0.001369108234742738	-0	2.491370841544378	0	0.09478689634274363	98.02940359814799	1026.351892147484	-0	2.438238386062245	0	-0.09478689634274365	0	-1.025709885601543e-19	0	0	-5.030862976558615e-16	0
0.3835171885058696	-0.003223027388637718	0.0006675178289494446	-0	2.512194642684924	0	0.09478689634274366	107.8422905939746	990.9381781017223	-0	2.438399502128199	0	-0.09478689634274365	0	5.894599352610013e-20	0	0	4.456198321525734e-16	0
0.3859292462952147	-0.001139050987028599	0.0002352432709888133	-0	2.533199281023103	0	0.09478689634274365	116.854216067952	955.1523085284294	-0	2.438555819991264	0	-0.09478689634274365	0	-3.483115950142936e-21	0	0	-5.219318582338811e-16	0
0.3883413040845598	-7.817417627334052e-05	1.610137818023643e-05	-0	2.554384996913682	0	0.09478689634274365	124.2587025445951	918.5487287902466	-0	2.438696418676634	0	-0.09478689634274365	0	1.34377388461513e-22	0	0	-8.525974758563485e-16	0
0.3907533618739049	5.38007624427736e-05	-1.105314762152152e-05	-0	2.575746684816656	0	0.09478689634274365	131.4426492390862	881.8337714477292	-0	2.438840134989302	0	-0.09478689634274365	0	3.321838474464457e-22	0	0	-8.449062367952191e-16	0
0.39316541966325	1.048519510144838e-05	-2.149167318052998e-06	-0	2.597275493061744	0	0.09478689634274365	137.6484714065168	844.6970937926125	-0	2.438976501352906	0	-0.09478689634274363	0	1.002351698172685e-22	0	0	-2.143470198450625e-15	0
0.3955774774525951	1.364133390298136e-06	-2.790457116903461e-07	-0	2.618955138767108	0	0.09478689634274365	143.4703173118439	807.7133882843576	-0	2.439113894238313	0	-0.09478689634274363	0	-6.781936895843182e-24	0	0	-1.252972486795772e-15	0
0.3979895352419402	1.719541051635941e-07	-3.511537915900117e-08	-0	2.640767528566334	0	0.09478689634274365	148.2929292785793	770.5439173118706	-0	2.43924335269449	0	-0.09478689634274365	0	-1.11226664099538e-24	0	0	-2.840202683119751e-16	0
0.4004015930312853	2.186453863382797e-08	-4.458710001763701e-09	-0	2.662700284708251	0	0.09478689634274365	152.5462702048167	733.5410895429691	-0	2.439371539516958	0	-0.09478689634274365	0	-1.565296122378501e-25	0	0	5.498126959813616e-16	0
0.4028136508206304	2.730686684668174e-09	-5.561767156440058e-10	-0	2.684745530602064	0	0.09478689634274365	155.7116721970128	696.4621826447515	-0	2.439490134704435	0	-0.09478689634274365	0	-2.239790213086021e-26	0	0	-4.562178156258938e-16	0
0.4052257086099755	3.213543021514347e-10	-6.53809545354053e-11	-0	2.70690302009317	0	0.09478689634274365	158.0470094512673	659.6744185946731	-0	2.439602602904282	0	-0.09478689634274365	0	1.536362475311556e-27	0	0	-4.038754483456985e-16	0
0.4076377663993205	3.565529510966547e-11	-7.247048400608115e-12	-0	2.729171673707757	0	0.09478689634274365	159.2429510977233	623.0029748068637	-0	2.43970348303964	0	-0.09478689634274365	0	-1.345807669268961e-28	0	0	5.492611097029359e-16	0
0.4100498241886656	4.122793179506625e-12	-8.37293951366177e-13	-0	2.751538354337135	0	0.09478689634274365	159.6096655401075	586.5382234197601	-0	2.43979885224497	0	-0.09478689634274365	0	-3.475306301231204e-31	0	0	-3.193296973916682e-16	0
0.4124618819780107	5.577409825305449e-13	-1.132096286945668e-13	-0	2.773982397419773	0	0.09478689634274365	159.2024514618998	549.6586177147647	-0	2.43989483098043	0	-0.09478689634274365	0	-8.211651458051854e-31	0	0	-3.74617545047294e-16	0
0.4148739397673558	9.631367331477406e-14	-1.954485391358843e-14	-0	0	0	0	158.5163964686475	511.2695143595098	-0	2.44001442953101	0	-0.09478689634274365	0	9.129274168876365e-15	0	0	2.636985457359482e-16	0
0.4172859975567009	2.142543290514076e-14	-4.347839257284035e-15	-0	0	0	0	156.8174142244321	469.424107358954	-0	2.44016361271355	0	-0.09478689634274365	0	2.030850287877986e-15	0	0	-2.003911495949861e-16	0
0.419698055346046	5.407590423244511e-15	-1.097388263076038e-15	-0	0	0	0	153.6114595384598	422.7024723663844	-0	2.440359235374598	0	-0.09478689634274366	0	5.125687129120908e-16	0	0	1.400877538126405e-15	0
0.4221101131353911	1.266247106927612e-15	-2.569235336113927e-16	-0	0	0	0	146.3182563945352	372.8575018351673	-0	2.440523117508121	0	-0.09478689634274363	0	1.200236332686466e-16	0	0	-1.993842309788866e-15	0
0.4245221709247362	2.03588977351282e-16	-4.128606208647267e-17	-0	0	0	0	132.119655604631	324.7360017441426	-0	2.440481726806834	0	-0.09478689634274365	0	1.929756729272115e-17	0	0	-4.306220933032078e-16	0
0.4269342287140813	-2.522823128321102e-12	5.154482598707185e-13	-0	2.827341639223409	0	0.08956894181843797	114.291482763721	280.3388743557967	-0	2.440264940378569	0	-0.09478689634274365	0	7.1129693906546e-22	0	0	8.340728655894117e-16	0
0.4293462865034264	-2.447396443721425e-12	4.99258065606806e-13	-0	2.844006100913458	0	0.08956897401754156	97.47228429308456	239.1632581412115	-0	2.440038333945126	0	-0.09478689634274365	0	2.022730580742019e-23	0	0	2.952197917660609e-17	0
0.4317583442927715	-4.71627274008417e-12	9.617237188110114e-13	-0	2.860552623708316	0	0.08956897507327542	81.11604529934655	201.3313660854308	-0	2.439763393712751	0	-0.09478689634274365	0	1.948052103991484e-25	0	0	1.656554068471119e-16	0
0.4341704020821165	-6.716050059122636e-12	1.373587851728327e-12	-0	2.876641891665553	0	0.08956897507907245	63.92907960795876	168.7578692025741	-0	2.439282278587525	0	-0.09478689634274365	0	8.510808731713245e-28	0	0	-2.655590828201845e-16	0
0.4365824598714617	-1.042157111677017e-11	2.148343424985469e-12	-0	2.892029168226573	0	0.08956897507908836	47.13265208404115	141.82978175313	-0	2.438592981772773	0	-0.09478689634274365	0	6.41430579375601e-30	0	0	-2.06982895314486e-16	0
0.4389945176608068	-1.531255433320626e-11	3.193976887936408e-12	-0	2.90686337958621	0	0.08956897507908836	32.38178892697374	116.7462078634846	-0	2.43787766944109	0	-0.09478689634274366	0	-5.873049874734008e-29	0	0	5.601525395859212e-16	0
0.4414065754501518	-1.918933592006752e-11	4.060309805474053e-12	-0	2.921330117054019	0	0.08956897507908836	20.37588379532769	91.47448679106439	-0	2.437242040820436	0	-0.09478689634274366	0	-9.320399511822259e-29	0	0	2.407840931205537e-16	0
0.4438186332394969	-2.535092747603254e-11	5.451830305028566e-12	-0	2.93550641338658	0	0.08956897507908836	11.01562952649403	66.68902510964124	-0	2.436656179347661	0	-0.09478689634274365	0	1.178257678157849e-28	0	0	-1.096360756966719e-16	0
0.4462306910288421	-2.878705924520445e-11	6.302522057956205e-12	-0	2.949406493677931	0	0.08956897507908836	-1.276092615499602	12.86623453839977	-0	2.43413810810519	0	-0.09478689634274365	0	3.260187714995203e-29	0	0	6.793739826238915e-18	0
0.4486427488181871	-3.405599100040824e-11	7.606118662822146e-12	-0	2.962943693943298	0	0.08956897507908836	0.0003123664741974978	-0.0003240918782966234	-0	2.426684981373599	0	-0.09478689634274365	0	-6.290395164397778e-30	0	0	-1.671634931745189e-21	0
0.4510548066075322	-3.703276752932812e-11	8.45728092261461e-12	-0	2.97603489420331	0	0.08956897507908836	9.26057595440219e-14	-7.476968804394228e-14	-0	2.426646130648936	0	-0.09478689634274365	0	7.186878307371757e-29	0	0	6.785560432663549e-31	0
0.4534668643968773	-3.947342256969462e-11	9.233580176222333e-12	-0	2.988718889382051	0	0.08956897507908836	-0	-0	-0	0	0	0	0	1.082956361333046e-28	0	0	0	0
0.4558789221862224	-4.078692430404815e-11	9.781456949947301e-12	-0	3.001051926252937	0	0.08956897507908836	-0	-0	-0	0	0	0	0	-9.081292828877579e-28	0	0	0	0
0.4582909799755674	-4.349390538314517e-11	1.069856913228471e-11	-0	3.013045530163133	0	0.08956897507908834	-0	-0	-0	0	0	0	0	-3.164484950853846e-28	0	0	0	0
0.4607030377649126	-4.593873952291297e-11	1.159004919965141e-11	-0	3.024712808904558	0	0.08956897507908747	-0	-0	-0	0	0	0	0	-1.997569738940157e-28	0	0	0	0
0.4631150955542577	-5.028713669593475e-11	1.300698287496242e-11	-0	3.036066278964106	0	0.08956897507908836	-0	-0	-0	0	0	0	0	-2.305875759388053e-28	0	0	0	0
0.4655271533436027	-5.675687113831516e-11	1.503621574289129e-11	-0	3.047129377059343	0	0.08956897507908836	-0	-0	-0	0	0	0	0	1.584015458681391e-28	0	0	0	0
0.4679392111329478	-6.857153138903725e-11	1.857628543429983e-11	-0	3.057950265369232	0	0.08956897507908836	-0	-0	-0	0	0	0	0	-1.448357203546057e-28	0	0	0	0
0.470351268922293	-8.853982127544947e-11	2.447450618447056e-11	-0	3.068566983624274	0	0.08956897507908836	-0	-0	-0	0	0	0	0	7.581934720155572e-28	0	0	0	0
0.472763326711638	-1.211492046473491e-10	3.409891814839428e-11	-0	3.078965649413153	0	0.08956897507908836	-0	-0	-0	0	0	0	0	5.644229126120864e-28	0	0	0	0
0.4751753845009831	-1.776049462101112e-10	5.080205376628068e-11	-0	3.089124553600254	0	0.08956897507908836	9.47936827419331e-16	-4.413340640361826e-16	-0	0	0	0	0	-2.954894735186651e-28	0	0	-8.98519898000654e-17	0
0.4775874422903282	-2.835301914803983e-10	8.228279122753173e-11	-0	3.099016456719275	0	0.08956897507908836	8.741044697593893e-14	-3.937890836862319e-14	-0	2.498250328344753	0	-0.09478689634274365	0	3.969107804770031e-28	0	0	5.396158002490884e-31	0
0.4799995000796733	-4.908991455988824e-10	1.443511306009364e-10	-0	3.108609251249348	0	0.08956897507908836	7.820613199962848e-12	-3.410486043958711e-12	-0	2.507314802558454	0	-0.09478689634274365	0	1.524521943787471e-27	0	0	-3.297693391093897e-29	0
0.4824115578690184	-9.220490461075944e-10	2.744991337748604e-10	-0	3.117864359441021	0	0.08956897507908836	7.409493967491736e-10	-3.1266694184264e-10	-0	2.516709546993742	0	-0.09478689634274366	0	1.113960454622647e-27	0	0	6.81087275941788e-27	0
