DataType=double
version=3
OpenSimVersion=4.6-2026-06-22-85aaf64
endheader
time	ground_force_r_vx	ground_force_r_vy	ground_force_r_vz	ground_force_r_px	ground_force_r_py	ground_force_r_pz	ground_force_l_vx	ground_force_l_vy	ground_force_l_vz	ground_force_l_px	ground_force_l_py	ground_force_l_pz	ground_torque_r_x	ground_torque_r_y	ground_torque_r_z	ground_torque_l_x	ground_torque_l_y	ground_torque_l_z
0	-0.0001030970315573168	2.781539794314407e-05	-0	1.172730246246644	0	0.08956897328902161	-0	-0	-0	0	0	0	0	1.745311387817486e-16	0	0	0	0
0.002777777777777778	-0.0002674011435576819	7.387494281574687e-05	-0	1.182939985666373	0	0.08956897406609438	-0	-0	-0	0	0	0	0	-1.777549461789985e-16	0	0	0	0
0.005555555555555556	-0.0006610135699974545	0.0001879376868534837	-0	1.192737196249326	0	0.08956896983307945	-0	-0	-0	0	0	0	0	-7.350585797590709e-15	0	0	0	0
0.008333333333333333	-0.001555370515426007	0.0004567964280488086	-0	1.20218216911681	0	0.0895688761752802	7.064049047185139e-16	-4.042913646798416e-16	-0	0	0	0	0	-5.12676652433125e-13	0	0	-6.695792847955949e-17	0
0.01111111111111111	-0.003497899676755753	0.001063230633694488	-0	1.211379575428291	0	0.0895695547441818	5.284966562770693e-15	-2.975178984258031e-15	-0	0	0	0	0	8.645640084924133e-12	0	0	-5.009455777602119e-16	0
0.01388888888888889	-0.007560923755487581	0.002379597301070024	-0	1.22032896634379	0	0.08956950601688221	5.844263553709333e-14	-3.219623188097424e-14	-0	0.693103157699777	0	-0.09478689634274365	0	1.988903312877266e-11	0	0	0	0
0.01666666666666667	-0.0158432956556796	0.00516243265223512	-0	1.229040143841004	0	0.08956926202510644	1.078088319704247e-12	-5.782524507027527e-13	-0	0.7008098601868841	0	-0.09478689634274365	0	2.478565052851933e-11	0	0	0	0
0.01944444444444445	-0.03246385240813311	0.01094921788297003	-0	1.23750408244189	0	0.08956912093180366	3.370537307328744e-11	-1.752547569294893e-11	-0	0.7088485400236187	0	-0.09478689634274365	0	2.743159865925549e-11	0	0	0	0
0.02222222222222222	-0.06568908236090842	0.02293303087032146	-0	1.24568423780924	0	0.08956905159470868	1.877999759072563e-09	-9.447042986219996e-10	-0	0.7172305097402299	0	-0.09478689634274365	0	3.007409425659358e-11	0	0	0	0
0.025	-0.1324424075677268	0.04787821428114333	-0	1.253547465934568	0	0.08956901784970865	1.772170433488656e-07	-8.620781195527717e-08	-0	0.7259424966606554	0	-0.09478689634274365	0	3.405709221582232e-11	0	0	0	0
0.02777777777777778	-0.2684558933573813	0.1005605136613828	-0	1.261060961346312	0	0.0895690008580403	2.139178164473427e-05	-1.005736570155589e-05	-0	0.734978595081074	0	-0.09478689634274365	0	4.06821555609671e-11	0	0	0	0
0.03055555555555556	-0.5510178953846484	0.2140877240793724	-0	1.268198364280417	0	0.08956899194999658	0.0004580153467252681	-0.0002079233968669454	-0	0.7443413268714569	0	-0.09478689634274365	0	5.19310358604308e-11	0	0	0	0
0.03333333333333333	-1.151106757776904	0.464386407383995	-0	1.274940400193218	0	0.08956898711076353	-0.007520424033649481	0.003291709653280274	-0	0.7540493872501184	0	-0.09478689634274365	0	7.141748303851614e-11	0	0	0	0
0.03611111111111111	-2.451149005623477	1.0278852895696	-0	1.281275129325406	0	0.08956898448446074	-0.01170617054089873	0.004933719045531888	-0	0.7641162961008962	0	-0.09478689634274365	0	1.061548904335297e-10	0	0	0	0
0.0388888888888889	-5.294051481863439	2.310248466742077	-0	1.287200317332083	0	0.08956898324452342	-0.01419630617181395	0.005761701713291386	-0	0.7745212040418789	0	-0.09478689634274365	0	1.688193473903254e-10	0	0	0	0
0.04166666666666667	-11.45749148729142	5.210771505905956	-0	1.292718737471047	0	0.08956898310567321	-0.01638963304583385	0.006412806656446764	-0	0.7852355973901218	0	-0.09478689634274363	0	2.774203089472849e-10	0	0	2.168404344971009e-19	0
0.04444444444444445	-24.2306985835686	11.52838257965011	-0	1.297813320597003	0	0.08956898439072036	-0.01899919858290242	0.007176283755777316	-0	0.796241946183884	0	-0.09478689634274365	0	4.070233039499271e-10	0	0	0	0
0.04722222222222222	-47.80106542905429	23.97631735722963	-0	1.302463040822126	0	0.08956898870271326	-0.02251571260113308	0.008223335593998864	-0	0.8075245195790093	0	-0.09478689634274365	0	4.75131045618582e-11	0	0	0	0
0.05	-82.63372255893776	44.26446272967415	-0	1.306626146787983	0	0.08956900225622268	-0.02739358090664795	0.009695786833718658	-0	0.8190571928261419	0	-0.09478689634274365	0	-5.075871278847899e-09	0	0	0	0
0.05277777777777778	-134.9007045807134	78.59655513544475	-0	1.310285625728156	0	0.08956904344411579	-0.03413912868301084	0.01174385616871894	-0	0.8308110566558773	0	-0.09478689634274366	0	-4.806362063902725e-08	0	0	-4.336808689942018e-19	0
0.05555555555555556	-254.952436773837	170.2570045447293	-0	1.313346663490222	0	0.08956916608089371	-0.04325901710746108	0.01451528733111513	-0	0.8427461383256654	0	-0.09478689634274365	0	-5.430707794573664e-07	0	0	0	0
0.05833333333333334	-392.1673023758682	343.542703609783	-0	1.315718245384466	0	0.08956994795472477	-0.05515826221035745	0.01812385037562165	-0	0.854834773977136	0	-0.09478689634274365	0	-1.011708172171666e-05	0	0	0	0
0.06111111111111112	-223.1373700166175	561.5667086332302	-0	1.318728176726519	0	0.08957678030238632	-0.07065262168334589	0.0228073226336168	-0	0.8670740696601256	0	-0.09478689634274365	0	-0.001371034655328174	0	0	0	0
0.06388888888888888	-34.53160973517304	800.6328168798102	-0	1.321694760239164	0	0.0896170748034493	-0.09097334378410367	0.02892740634891104	-0	0.8794579199423536	0	-0.09478689634274365	0	-0.008707234726850199	0	0	0	0
0.06666666666666667	-117.607059393989	1039.105444801344	-0	1.325434271460441	0	0.08974424510423315	-0.1168269554489514	0.03666649474343107	-0	0.8919889995231866	0	-0.09478689634274365	0	-0.03037596864309222	0	0	0	0
0.06944444444444445	-75.55206508326016	1264.136869348971	-0	1.33285141282666	0	0.08997973284820056	-0.148724256551826	0.04612151533536366	-0	0.9046913001892564	0	-0.09478689634274365	0	-0.06705062454489319	0	0	0	0
0.07222222222222223	-238.8788983790736	1544.137367889551	-0	1.345760677523765	0	0.09044286718306743	-0.1868410105625105	0.05726929909512234	-0	0.9175989063122379	0	-0.09478689634274365	0	-0.09070468129214149	0	0	0	0
0.07500000000000001	-210.4831809481163	1664.855428501067	-0	1.348472163207491	0	0.09052861360504347	-0.2304595667371463	0.06980323254895159	-0	0.9307445778017372	0	-0.09478689634274365	0	-0.02656617556767316	0	0	0	0
0.07777777777777779	-203.4335236372642	1641.852647617053	-0	1.345254668065399	0	0.09041557041440404	-0.278887535306684	0.0834288755563465	-0	0.9441577496971104	0	-0.09478689634274363	0	0.01376005539705716	0	0	3.469446951953614e-18	0
0.08055555555555557	-161.0805740057796	1605.836623599887	-0	1.344503530201064	0	0.09038394697701123	-0.3309672594632309	0.09774732073378362	-0	0.9578531226126852	0	-0.09478689634274365	0	0.0196765436394255	0	0	0	0
0.08333333333333333	-184.2333687246873	1574.392493225271	-0	1.344286755104758	0	0.09038250461499472	-0.384757224455642	0.1121987411336577	-0	0.9718263943291926	0	-0.09478689634274365	0	0.01942009640174547	0	0	0	0
0.08611111111111111	-161.7683080392839	1549.457344601467	-0	1.344720283336484	0	0.09039443658430948	-0.4375973773085805	0.12606804119178	-0	0.9860684989630775	0	-0.09478689634274365	0	0.01767022799322859	0	0	0	0
0.08888888888888889	-172.8763155855792	1529.679771612131	-0	1.344749682907927	0	0.09039851754157353	-0.4865391353563318	0.1385969096424352	-0	1.000566130080818	0	-0.09478689634274365	0	0.01672276487224345	0	0	0	0
0.09166666666666667	-145.6623628758898	1518.937459665489	-0	1.346006805052406	0	0.09043686605127897	-0.5284154715437048	0.1489955773319966	-0	1.015305022747823	0	-0.09478689634274365	0	0.01271743861899566	0	0	0	0
0.09444444444444446	-140.4191875249466	1523.098510956454	-0	1.349189125258192	0	0.09054640728417952	-0.5600853855365252	0.1564797123855634	-0	1.030273901727752	0	-0.09478689634274365	0	0.001793205562504951	0	0	0	0
0.09722222222222222	-119.9525016048501	1536.782299915545	-0	1.355116379573887	0	0.09074748649881874	-0.5787215548235476	0.1603497731726917	-0	1.045464787300364	0	-0.09478689634274365	0	-0.02036754479231817	0	0	0	0
0.1	-117.687871115544	1546.709250809746	-0	1.362543563684221	0	0.0910041393789788	-0.5826069590111174	0.1601989919451372	-0	1.060875066392461	0	-0.09478689634274365	0	-0.04860829304746517	0	0	0	0
0.1027777777777778	-107.1041651159355	1530.302428027655	-0	1.370126134327511	0	0.09126418211513072	-0.5714389273588459	0.1560153871726198	-0	1.076501830557798	0	-0.09478689634274365	0	-0.06877670121193624	0	0	0	0
0.1055555555555556	-101.5412304139599	1475.607689469901	-0	1.376233863489199	0	0.09147408641249259	-0.5471249585364354	0.1484105952996226	-0	1.092333122669218	0	-0.09478689634274365	0	-0.07102607034334696	0	0	0	0
0.1083333333333333	-78.54065053391207	1399.65104201637	-0	1.38174425428688	0	0.09165946810666391	-0.5130257577004376	0.1383714369891932	-0	1.108348889333038	0	-0.09478689634274365	0	-0.06506689412268507	0	0	0	0
0.1111111111111111	-64.97416849164475	1319.522016898452	-0	1.386905357752131	0	0.09183487409632916	-0.4732637061534705	0.127047848710818	-0	1.124519404385861	0	-0.09478689634274365	0	-0.05660525848910503	0	0	0	0
0.1138888888888889	-47.50648050615808	1241.579978945987	-0	1.392011805948573	0	0.09200736935565261	-0.4316995016786421	0.1154679983056848	-0	1.140811975309937	0	-0.09478689634274365	0	-0.04781107026129394	0	0	0	0
0.1166666666666667	-37.22983644674726	1167.527573679131	-0	1.396853596333443	0	0.09217245271165198	-0.3908710608984259	0.1042599586232321	-0	1.157199375705785	0	-0.09478689634274365	0	-0.03905617020106122	0	0	0	0
0.1194444444444445	-25.60686257590644	1098.833833615917	-0	1.401716154314401	0	0.09233790287799061	-0.3522894916788817	0.0937728352378671	-0	1.173658508742393	0	-0.09478689634274365	0	-0.03105904912089485	0	0	0	0
0.1222222222222222	-19.09251997254906	1034.600690719413	-0	1.406495754233338	0	0.09250201200392642	-0.3164059772343559	0.08407667704263792	-0	1.190177735552498	0	-0.09478689634274363	0	-0.02375154733294615	0	0	6.938893903907228e-18	0
0.125	-11.81957959047223	978.1581958822555	-0	1.411741510849518	0	0.09268242637733433	-0.2832476526615589	0.07514377554166049	-0	1.206750781205783	0	-0.09478689634274365	0	-0.01747322748921687	0	0	0	0
0.1277777777777778	-8.618146304307817	931.9736708171965	-0	1.417737749486223	0	0.09289084866762798	-0.2527272584443381	0.0669324500096922	-0	1.223378269914192	0	-0.09478689634274365	0	-0.01192941509902357	0	0	0	0
0.1305555555555556	-5.966834034072074	895.6443696341394	-0	1.424822964783132	0	0.09313816392285153	-0.2247762410767566	0.05941711012901747	-0	1.240062360377977	0	-0.09478689634274365	0	-0.00668902580426145	0	0	0	0
0.1333333333333333	-4.81704068846326	866.0799683215948	-0	1.432991311731871	0	0.09342462672022343	-0.1996800047860368	0.05267812482985948	-0	1.256799942433407	0	-0.09478689634274365	0	-0.001523883200761744	0	0	0	0
0.1361111111111111	-2.273443631548561	843.9172642933634	-0	1.442489726567261	0	0.09375805258971545	-0.1779217711019734	0.0468518001340001	-0	1.273580406020018	0	-0.09478689634274365	0	0.00318978638649367	0	0	0	0
0.1388888888888889	0.2268268372412796	828.044979852397	-0	1.45327068993656	0	0.09413752263534994	-0.1606495679394953	0.04225598013289646	-0	1.290365566126553	0	-0.09478689634274363	0	0.006165331527808262	0	0	1.734723475976807e-18	0
0.1416666666666667	-1.527584981090035	806.8287004452421	-0	1.464816602138173	0	0.09454673021898506	-0.1484263775310749	0.03903811076146189	-0	1.307109256963459	0	-0.09478689634274365	0	0.004460848168563375	0	0	0	0
0.1444444444444445	-1.439364742011095	797.008625592237	-0	1.472440712810314	0	0.0948164939316687	-0.1408171136335272	0.03706548218575084	-0	1.323775946997945	0	-0.09478689634274365	0	-0.0008862184073083479	0	0	0	0
0.1472222222222222	11.43768428489331	822.1578322769392	-0	1.471891247597918	0	0.09478947671353807	-0.1371901597769669	0.03615413650584425	-0	1.340343627767589	0	-0.09478689634274365	0	-0.0001125912279797969	0	0	0	0
0.15	25.55848475264536	833.8939723633007	-0	1.472037151518395	0	0.09478693744837854	-0.1360007432209408	0.03586829775479455	-0	1.356833562948238	0	-0.09478689634274365	0	-2.450364872785826e-06	0	0	0	0
0.1527777777777778	37.47507664030692	843.3019890374347	-0	1.472219365146806	0	0.09478689673183872	-0.1359260329497712	0.03583932576584552	-0	1.373282989629758	0	-0.09478689634274365	0	-3.061549813665465e-08	0	0	0	0
0.1555555555555556	49.42761781509835	856.0661629803366	-0	1.472395313429311	0	0.09478689634545677	-0.1365649944066916	0.03596703184359705	-0	1.389720874321053	0	-0.09478689634274365	0	-2.773239415887474e-10	0	0	0	0
0.1583333333333334	58.34765907305825	868.0847492122618	-0	1.472527094508241	0	0.09478689634275972	-0.1376784861732865	0.03619619812843466	-0	1.406168568285296	0	-0.09478689634274365	0	-2.089883821554395e-12	0	0	0	0
0.1611111111111111	66.93469423758494	874.2092532654356	-0	1.472655293710125	0	0.09478689634274375	-0.1391077459156833	0.03649211805917317	-0	1.422638759748599	0	-0.09478689634274365	0	-1.4210854715202e-14	0	0	0	0
0.1638888888888889	75.30507802776138	875.3180975987108	-0	1.472781785428842	0	0.09478689634274365	-0.1407323492568099	0.03682996009887406	-0	1.439140600252955	0	-0.09478689634274365	0	0	0	0	0	0
0.1666666666666667	83.40561009453378	872.4968330268475	-0	1.472905696018695	0	0.09478689634274363	-0.1425482294950697	0.0372143371700183	-0	1.455676202985742	0	-0.09478689634274365	0	8.881784197001252e-16	0	0	0	0
0.1694444444444445	91.10316213106385	866.2582205613758	-0	1.473025381172181	0	0.09478689634274365	-0.1445676145612972	0.03765275624764484	-0	1.472245528400441	0	-0.09478689634274365	0	0	0	0	0	0
0.1722222222222222	98.45345989789637	857.1862514834854	-0	1.473141540358365	0	0.09478689634274365	-0.146749857040818	0.03813605169959303	-0	1.48884714464727	0	-0.09478689634274365	0	0	0	0	0	0
0.175	105.2859195239786	845.5417592417645	-0	1.473252005558065	0	0.09478689634274365	-0.1490204553097737	0.03864562579356069	-0	1.505479869933075	0	-0.09478689634274365	0	0	0	0	0	0
0.1777777777777778	111.6526732563097	831.6382371203753	-0	1.473357626076166	0	0.09478689634274365	-0.1512250840182281	0.03914125691848374	-0	1.522143738698196	0	-0.09478689634274365	0	0	0	0	0	0
0.1805555555555556	117.3865782582077	815.60299261464	-0	1.473456282869567	0	0.09478689634274365	-0.1531748577438088	0.03957407855805136	-0	1.538839523329036	0	-0.09478689634274365	0	0	0	0	0	0
0.1833333333333333	122.4940227201811	797.626030567976	-0	1.473548285582587	0	0.09478689634274363	-0.154659171944024	0.03989013902092262	-0	1.555568853098607	0	-0.09478689634274365	0	1.77635683940025e-15	0	0	0	0
0.1861111111111111	126.9943884034628	777.7301700266192	-0	1.473634505189429	0	0.09478689634274365	-0.1554565117970096	0.04003295279301284	-0	1.572333750326557	0	-0.09478689634274365	0	0	0	0	0	0
0.1888888888888889	131.1455314407658	756.0414322167433	-0	1.473719471190707	0	0.09478689634274363	-0.1554055152953658	0.03996207445374179	-0	1.589135972596281	0	-0.09478689634274365	0	1.77635683940025e-15	0	0	0	0
0.1916666666666667	134.8992057369144	732.6883093404707	-0	1.473802949148854	0	0.09478689634274365	-0.154408394724244	0.03965401433943851	-0	1.605976245751156	0	-0.09478689634274365	0	0	0	0	0	0
0.1944444444444444	138.2749258652038	707.8346378304485	-0	1.473885755766529	0	0.09478689634274365	-0.1524698205911349	0.03911214676746719	-0	1.622852792421525	0	-0.09478689634274365	0	0	0	0	0	0
0.1972222222222222	141.1846471386288	681.5838204418196	-0	1.473967075983164	0	0.09478689634274366	-0.1496454337233765	0.03835243001591331	-0	1.639762542154642	0	-0.09478689634274365	0	-1.77635683940025e-15	0	0	0	0
0.2	143.60375829758	654.0846303624807	-0	1.47404701943855	0	0.09478689634274365	-0.1460317672401502	0.03740042051935467	-0	1.656700932138672	0	-0.09478689634274365	0	0	0	0	0	0
0.2027777777777778	145.4373989052822	625.4249610357465	-0	1.474124636640621	0	0.09478689634274365	-0.1417398363350933	0.03628464165946464	-0	1.673662812168544	0	-0.09478689634274365	0	0	0	0	0	0
0.2055555555555556	146.6649662748478	595.7337455755496	-0	1.474200152475915	0	0.09478689634274365	-0.1368535429258225	0.03502573771625478	-0	1.69064322726275	0	-0.09478689634274365	0	0	0	0	0	0
0.2083333333333333	146.262193004343	563.1372051667959	-0	1.474263481291405	0	0.09478689634274365	-0.1314727166787575	0.03364837614844547	-0	1.707637061238655	0	-0.09478689634274365	0	0	0	0	0	0
0.2111111111111111	144.0791381758033	525.6640772178707	-0	1.474325032997094	0	0.09478689634274365	-0.1257554671772986	0.03219250352379716	-0	1.724638182938271	0	-0.09478689634274365	0	0	0	0	0	0
0.2138888888888889	141.5909506755076	485.864385355611	-0	1.474408610103859	0	0.09478689634274365	-0.1198059852367206	0.0306832366586729	-0	1.741640490159337	0	-0.09478689634274365	0	0	0	0	0	0
0.2166666666666667	138.8862328546009	447.0724927577564	-0	1.474498462624727	0	0.09478689634274365	-0.1134823445783754	0.02908059698037411	-0	1.758643370313676	0	-0.09478689634274365	0	0	0	0	0	0
0.2194444444444445	135.3617442857738	409.573473169328	-0	1.47457745703315	0	0.09478689634274365	-0.1066585699692466	0.02734964669555543	-0	1.775648640503714	0	-0.09478689634274365	0	0	0	0	0	0
0.2222222222222222	131.1506336884855	373.0230891888257	-0	1.474652183137782	0	0.09478689634274363	-0.09937421230361983	0.02549978847085753	-0	1.79265852546953	0	-0.09478689634274365	0	1.77635683940025e-15	0	0	0	0
0.225	125.4580017776846	336.1974766578353	-0	1.474712269736209	0	0.09478689634274365	-0.09166466572796868	0.02353912526741444	-0	1.809674865752092	0	-0.09478689634274365	0	0	0	0	0	0
0.2277777777777778	117.6457704087745	297.153464159338	-0	1.474763516525233	0	0.09478689634274365	-0.08324338528043985	0.02139148485807599	-0	1.82670756269634	0	-0.09478689634274363	0	0	0	0	1.734723475976807e-18	0
0.2305555555555555	107.8296886515146	256.8417946442575	-0	1.4748028745415	0	0.09478689634274365	-0.07368325847464097	0.01894421925413785	-0	1.843774934332654	0	-0.09478689634274365	0	0	0	0	0	0
0.2333333333333333	95.41670369477472	217.9280116802011	-0	1.474755031175386	0	0.09478689634274365	-0.06232636374323321	0.01602554399036508	-0	1.860918713972262	0	-0.09478689634248982	0	0	0	0	3.018418848199644e-16	0
0.2361111111111111	80.77116550890746	181.863419015396	-0	1.474569503299166	0	0.09478689634274365	-0.04923712518819952	0.01265462049422836	-0	1.878188325060125	0	-0.09478689634183299	0	0	0	0	8.196568423990414e-16	0
0.2388888888888889	64.9254802473568	149.7636074895224	-0	1.47421573629255	0	0.09478689634274365	-0.03545920920186842	0.009105748661792881	-0	1.895633557246691	0	-0.09478689633918022	0	0	0	0	2.212639793608417e-15	0
0.2416666666666667	49.24599489726115	121.8256202436594	-0	1.473706855026439	0	0.09478689634274365	-0.02254016400200855	0.005781413122553651	-0	1.91330149508148	0	-0.0947868963252681	0	0	0	0	6.599755464353763e-15	0
0.2444444444444445	35.31627038137152	97.23622414862128	-0	1.473139596356933	0	0.09478689634274365	-0.01234815870019024	0.003163642556640648	-0	1.9312034912889	0	-0.09478689624446138	0	0	0	0	1.936710340710857e-14	0
0.2472222222222222	23.59827928987444	75.13478011436071	-0	1.472570042584037	0	0.09478689634274365	-0.005640992749975644	0.001444109819141074	-0	1.94932839798114	0	-0.09478689569468077	0	0	0	0	5.520811672404813e-14	0
0.25	14.04342270292805	54.2292282178267	-0	1.472032729717939	0	0.09478689634274366	-0.001954786771319295	0.0005002431320557876	-0	1.96763804412065	0	-0.09478689081725239	0	-2.220446049250313e-16	0	0	1.531855968028156e-13	0
0.2527777777777778	6.636709313638184	33.35548662285449	-0	1.471550784686473	0	0.09478689634274365	-0.000330678799932165	8.463379059178013e-05	-0	1.98607948241369	0	-0.09478680000482563	0	0	0	0	4.199243017655348e-13	0
0.2555555555555556	1.433201346570971	11.63085272817358	-0	1.4710562868338	0	0.09478689634274365	1.981869159994538e-05	-5.076715281201051e-06	-0	2.004660355386982	0	-0.09479166943362102	0	0	0	0	1.141788484769075e-12	0
0.2583333333333333	0.3789436802333231	-2.493081069591244	-0	1.469264779981424	0	0.09478689634274365	2.911634875718593e-05	-7.470551183055126e-06	-0	2.023227647713762	0	-0.09479666109237064	0	0	0	0	3.082292400812339e-12	0
0.2611111111111111	0.009417993338232448	-0.01024480935845048	-0	1.464794798150893	0	0.09478689634274365	1.973851292862353e-05	-5.074540857725228e-06	-0	2.042332586582564	0	-0.09483068273218064	0	0	0	0	8.307056850691879e-12	0
0.2638888888888889	6.015038524134183e-07	-5.402245444890527e-07	-0	1.465677175389717	0	0.09478689634274365	1.068892405567081e-05	-2.753194696543351e-06	-0	2.065079958090675	0	-0.0950345041141626	0	0	0	0	2.279675470540385e-11	0
0.2666666666666667	4.008504411501538e-11	-2.977621209555777e-11	-0	1.467923570486578	0	0.09478689634274365	1.148226306743739e-06	-2.937989429988339e-07	-0	2.237759329540932	0	-0.1018831443280742	0	0	0	0	1.313475356612447e-10	0
0.2694444444444444	4.452055699482239e-14	-2.894980417433097e-14	-0	1.472081832667193	0	0.09478689634274365	-4.445668940022238e-06	1.158503565733607e-06	-0	1.967831120493107	0	-0.08936558297730855	0	0	0	0	-5.218576952868032e-12	0
0.2722222222222223	-0	-0	-0	0	0	0	-1.349393405071791e-05	3.535062336493271e-06	-0	1.984192738198749	0	-0.08956700793552344	0	0	0	0	-1.089187660182277e-13	0
0.275	-0	-0	-0	0	0	0	-3.806118426889669e-05	1.008746072693286e-05	-0	1.995386087975371	0	-0.08956894649979713	0	0	0	0	-2.783902953675714e-15	0
0.2777777777777778	-0	-0	-0	0	0	0	-0.0001030970315573165	2.781539794314399e-05	-0	2.006063579579977	0	-0.08956897328902162	0	0	0	0	-1.745311387817486e-16	0
0.2805555555555556	-0	-0	-0	0	0	0	-0.0002674011435576812	7.387494281574666e-05	-0	2.016273318999705	0	-0.08956897406609438	0	0	0	0	1.777549461789985e-16	0
0.2833333333333333	-0	-0	-0	0	0	0	-0.0006610135699974523	0.0001879376868534831	-0	2.026070529582658	0	-0.08956896983307945	0	0	0	0	7.350585797590709e-15	0
0.2861111111111111	7.064049047185243e-16	-4.042913646798476e-16	-0	0	0	0	-0.001555370515426003	0.0004567964280488072	-0	2.035515502450143	0	-0.08956887617528021	0	6.695792847956046e-17	0	0	5.126766253280707e-13	0
0.2888888888888889	5.284966562770791e-15	-2.975178984258086e-15	-0	0	0	0	-0.003497899676755737	0.001063230633694483	-0	2.044712908761624	0	-0.0895695547441818	0	5.009455777602211e-16	0	0	-8.645640139134242e-12	0
0.2916666666666667	5.844263553709471e-14	-3.2196231880975e-14	-0	1.52643649103311	0	0.09478689634274365	-0.007560923755487566	0.002379597301070019	-0	2.053662299677122	0	-0.08956950601688221	0	0	0	0	-1.988903312877266e-11	0
0.2944444444444445	1.078088319704275e-12	-5.782524507027678e-13	-0	1.534143193520217	0	0.09478689634274365	-0.01584329565567953	0.005162432652235097	-0	2.062373477174337	0	-0.08956926202510644	0	0	0	0	-2.478565052851933e-11	0
0.2972222222222222	3.370537307328821e-11	-1.752547569294933e-11	-0	1.542181873356952	0	0.09478689634274365	-0.03246385240813305	0.01094921788297001	-0	2.070837415775222	0	-0.08956912093180365	0	0	0	0	-2.743159822557462e-11	0
0.3	1.877999759072696e-09	-9.447042986220662e-10	-0	1.550563843073563	0	0.09478689634274365	-0.06568908236090816	0.02293303087032137	-0	2.079017571142574	0	-0.08956905159470868	0	0	0	0	-3.007409425659358e-11	0
0.3027777777777778	1.772170433488644e-07	-8.620781195527659e-08	-0	1.559275829993988	0	0.09478689634274363	-0.1324424075677264	0.04787821428114317	-0	2.0868807992679	0	-0.08956901784970865	0	0	0	0	-3.405709221582232e-11	0
0.3055555555555556	2.139178164473536e-05	-1.00573657015564e-05	-0	1.568311928414406	0	0.09478689634274365	-0.2684558933573801	0.1005605136613823	-0	2.094394294679645	0	-0.08956900085804029	0	0	0	0	-4.06821555609671e-11	0
0.3083333333333333	0.000458015346725266	-0.0002079233968669444	-0	1.57767466020479	0	0.09478689634274365	-0.5510178953846455	0.2140877240793713	-0	2.101531697613751	0	-0.0895689919499966	0	0	0	0	-5.19310427993247e-11	0
0.3111111111111111	-0.007520424033649458	0.003291709653280264	-0	1.587382720583451	0	0.09478689634274366	-1.151106757776898	0.4643864073839928	-0	2.10827373352655	0	-0.08956898711076351	0	1.084202172485504e-19	0	0	-7.141748303851614e-11	0
0.3138888888888889	-0.01170617054089869	0.004933719045531869	-0	1.597449629434229	0	0.09478689634274365	-2.451149005623461	1.027885289569593	-0	2.114608462658738	0	-0.08956898448446074	0	0	0	0	-1.06154862677954e-10	0
0.3166666666666667	-0.0141963061718139	0.005761701713291363	-0	1.607854537375211	0	0.09478689634274363	-5.294051481863601	2.310248466742148	-0	2.120533650665415	0	-0.08956898324452341	0	-2.168404344971009e-19	0	0	-1.68819236368023e-10	0
0.3194444444444445	-0.01638963304583379	0.006412806656446739	-0	1.618568930723455	0	0.09478689634274366	-11.4574914872917	5.210771505906084	-0	2.126052070804381	0	-0.08956898310567321	0	2.168404344971009e-19	0	0	-2.774203089472849e-10	0
0.3222222222222222	-0.01899919858290235	0.007176283755777288	-0	1.629575279517217	0	0.09478689634274365	-24.23069858356912	11.52838257965035	-0	2.131146653930335	0	-0.08956898439072036	0	0	0	0	-4.070228598607173e-10	0
0.325	-0.02251571260113302	0.008223335593998838	-0	1.640857852912342	0	0.09478689634274365	-47.80106542905517	23.97631735723007	-0	2.135796374155459	0	-0.08956898870271325	0	0	0	0	-4.75131045618582e-11	0
0.3277777777777778	-0.02739358090664787	0.009695786833718627	-0	1.652390526159475	0	0.09478689634274365	-82.63372255893879	44.2644627296747	-0	2.139959480121315	0	-0.08956900225622268	0	0	0	0	5.075872167026318e-09	0
0.3305555555555555	-0.03413912868301072	0.01174385616871889	-0	1.66414438998921	0	0.09478689634274365	-134.9007045807152	78.59655513544584	-0	2.143618959061488	0	-0.08956904344411579	0	0	0	0	4.806361886267041e-08	0
0.3333333333333334	-0.04325901710746092	0.01451528733111508	-0	1.676079471658998	0	0.09478689634274365	-254.9524367738416	170.2570045447323	-0	2.146679996823555	0	-0.08956916608089371	0	0	0	0	5.430707794573664e-07	0
0.3361111111111111	-0.05515826221035718	0.01812385037562156	-0	1.688168107310468	0	0.09478689634274365	-392.1673023758736	343.5427036097877	-0	2.149051578717798	0	-0.08956994795472477	0	0	0	0	1.011708172171666e-05	0
0.3388888888888889	-0.0706526216833455	0.02280732263361667	-0	1.700407402993458	0	0.09478689634274365	-223.1373700166202	561.5667086332362	-0	2.152061510059852	0	-0.08957678030238632	0	0	0	0	0.001371034655328174	0
0.3416666666666667	-0.09097334378410318	0.02892740634891089	-0	1.712791253275686	0	0.09478689634274365	-34.53160973517378	800.6328168798165	-0	2.155028093572497	0	-0.0896170748034493	0	0	0	0	0.008707234726850643	0
0.3444444444444444	-0.1168269554489509	0.03666649474343093	-0	1.725322332856519	0	0.09478689634274365	-117.6070593939903	1039.10544480135	-0	2.158767604793773	0	-0.08974424510423315	0	0	0	0	0.03037596864309045	0
0.3472222222222222	-0.1487242565518254	0.04612151533536345	-0	1.738024633522589	0	0.09478689634274365	-75.55206508326151	1264.136869348979	-0	2.166184746159994	0	-0.08997973284820057	0	0	0	0	0.06705062454489408	0
0.35	-0.1868410105625098	0.05726929909512212	-0	1.75093223964557	0	0.09478689634274365	-238.8788983790761	1544.137367889562	-0	2.179094010857098	0	-0.09044286718306743	0	0	0	0	0.09070468129213793	0
0.3527777777777778	-0.2304595667371452	0.06980323254895125	-0	1.76407791113507	0	0.09478689634274365	-210.4831809481178	1664.855428501077	-0	2.181805496540824	0	-0.09052861360504347	0	0	0	0	0.02656617556768026	0
0.3555555555555556	-0.2788875353066826	0.08342887555634605	-0	1.777491083030443	0	0.09478689634274365	-203.4335236372651	1641.852647617061	-0	2.178588001398733	0	-0.09041557041440404	0	0	0	0	-0.01376005539705361	0
0.3583333333333334	-0.3309672594632291	0.09774732073378309	-0	1.791186455946018	0	0.09478689634274365	-161.0805740057802	1605.836623599895	-0	2.177836863534397	0	-0.09038394697701123	0	0	0	0	-0.01967654363942373	0
0.3611111111111111	-0.3847572244556406	0.1121987411336573	-0	1.805159727662526	0	0.09478689634274365	-184.233368724688	1574.392493225278	-0	2.177620088438091	0	-0.09038250461499474	0	0	0	0	-0.01942009640174902	0
0.3638888888888889	-0.4375973773085786	0.1260680411917794	-0	1.819401832296411	0	0.09478689634274365	-161.7683080392845	1549.457344601474	-0	2.178053616669817	0	-0.09039443658430948	0	0	0	0	-0.01767022799323215	0
0.3666666666666667	-0.4865391353563973	0.1385969096424539	-0	1.83389946341415	0	0.09478689634274365	-172.8763155855797	1529.679771612137	-0	2.17808301624126	0	-0.09039851754157355	0	0	0	0	-0.016722764872247	0
0.3694444444444445	-0.5284154715437019	0.1489955773319958	-0	1.848638356081155	0	0.09478689634274365	-145.6623628758904	1518.937459665496	-0	2.179340138385739	0	-0.09043686605127896	0	0	0	0	-0.01271743861899566	0
0.3722222222222222	-0.5600853855365213	0.1564797123855624	-0	1.863607235061084	0	0.09478689634274365	-140.4191875249472	1523.098510956461	-0	2.182522458591525	0	-0.09054640728417954	0	0	0	0	-0.001793205562506728	0
0.375	-0.5787215548235435	0.1603497731726906	-0	1.878798120633697	0	0.09478689634274365	-119.9525016048507	1536.782299915551	-0	2.188449712907219	0	-0.09074748649881874	0	0	0	0	0.02036754479231817	0
0.3777777777777778	-0.5826069590111139	0.1601989919451363	-0	1.894208399725793	0	0.09478689634274365	-117.6878711155448	1546.709250809753	-0	2.195876897017553	0	-0.0910041393789788	0	0	0	0	0.04860829304746694	0
0.3805555555555556	-0.5714389273588427	0.156015387172619	-0	1.909835163891131	0	0.09478689634274365	-107.1041651159363	1530.302428027661	-0	2.203459467660843	0	-0.09126418211513071	0	0	0	0	0.06877670121193624	0
0.3833333333333334	-0.5471249585364321	0.1484105952996217	-0	1.92566645600255	0	0.09478689634274365	-101.5412304139607	1475.607689469907	-0	2.209567196822531	0	-0.09147408641249261	0	0	0	0	0.07102607034334696	0
0.3861111111111111	-0.5130257577004346	0.1383714369891923	-0	1.94168222266637	0	0.09478689634274365	-78.54065053391272	1399.651042016376	-0	2.215077587620212	0	-0.09165946810666391	0	0	0	0	0.06506689412268507	0
0.3888888888888889	-0.4732637061534676	0.1270478487108172	-0	1.957852737719194	0	0.09478689634274365	-64.9741684916454	1319.522016898458	-0	2.220238691085464	0	-0.09183487409632915	0	0	0	0	0.05660525848910591	0
0.3916666666666667	-0.4316995016786864	0.1154679983056967	-0	1.974145308643271	0	0.09478689634274365	-47.50648050615855	1241.579978945992	-0	2.225345139281907	0	-0.09200736935565261	0	0	0	0	0.04781107026129394	0
0.3944444444444445	-0.3908710608984236	0.1042599586232315	-0	1.990532709039118	0	0.09478689634274366	-37.22983644674771	1167.527573679136	-0	2.230186929666775	0	-0.09217245271165196	0	0	0	0	0.039056170201063	0
0.3972222222222223	-0.3522894916788796	0.09377283523786654	-0	2.006991842075726	0	0.09478689634274366	-25.60686257590681	1098.833833615922	-0	2.235049487647733	0	-0.0923379028779906	0	6.938893903907228e-18	0	0	0.03105904912089485	0
0.4	-0.3164059772343545	0.08407667704263755	-0	2.02351106888583	0	0.09478689634274365	-19.0925199725494	1034.600690719418	-0	2.239829087566671	0	-0.09250201200392642	0	0	0	0	0.02375154733294638	0
0.4027777777777778	-0.2832476526615573	0.07514377554166007	-0	2.040084114539116	0	0.09478689634274365	-11.81957959047251	978.1581958822597	-0	2.245074844182851	0	-0.09268242637733434	0	0	0	0	0.01747322748921665	0
0.4055555555555556	-0.2527272584443837	0.06693245000970426	-0	2.056711603247525	0	0.09478689634274365	-8.618146304308096	931.9736708172002	-0	2.251071082819555	0	-0.09289084866762796	0	0	0	0	0.01192941509902379	0
0.4083333333333333	-0.2247762410767544	0.05941711012901689	-0	2.07339569371131	0	0.09478689634274366	-5.966834034072331	895.6443696341431	-0	2.258156298116464	0	-0.09313816392285151	0	3.469446951953614e-18	0	0	0.00668902580426145	0
0.4111111111111111	-0.1996800047860358	0.05267812482985922	-0	2.090133275766739	0	0.09478689634274365	-4.817040688463549	866.0799683215996	-0	2.266324645065204	0	-0.09342462672022342	0	0	0	0	0.0015238832007618	0
0.4138888888888889	-0.1779217711019715	0.04685180013399961	-0	2.106913739353351	0	0.09478689634274365	-2.273443631548845	843.9172642933688	-0	2.275823059900595	0	-0.09375805258971547	0	0	0	0	-0.003189786386493781	0
0.4166666666666667	-0.1606495679394943	0.04225598013289619	-0	2.123698899459886	0	0.09478689634274366	0.2268268372409759	828.0449798524004	-0	2.286604023269893	0	-0.09413752263534995	0	1.734723475976807e-18	0	0	-0.006165331527808363	0
0.4194444444444445	-0.1484263775310749	0.03903811076146189	-0	2.140442590296791	0	0.09478689634274365	-1.527584981090379	806.8287004452453	-0	2.298149935471506	0	-0.09454673021898506	0	0	0	0	-0.004460848168563569	0
0.4222222222222223	-0.1408171136335265	0.03706548218575065	-0	2.157109280331277	0	0.09478689634274365	-1.439364742011452	797.0086255922402	-0	2.305774046143647	0	-0.09481649393166869	0	0	0	0	0.0008862184073083756	0
0.425	-0.1371901597769662	0.03615413650584407	-0	2.173676961100922	0	0.09478689634274365	11.43768428489299	822.1578322769424	-0	2.305224580931251	0	-0.09478947671353807	0	0	0	0	0.0001125912279795749	0
0.4277777777777778	-0.1360007432209396	0.03586829775479423	-0	2.190166896281571	0	0.09478689634274365	25.55848475264498	833.8939723633019	-0	2.305370484851727	0	-0.09478693744837856	0	0	0	0	2.450364873229915e-06	0
0.4305555555555556	-0.1359260329497706	0.03583932576584536	-0	2.20661632296309	0	0.09478689634274365	37.47507664030645	843.3019890374361	-0	2.305552698480138	0	-0.09478689673183871	0	0	0	0	3.061549769256544e-08	0
0.4333333333333333	-0.136564994406691	0.03596703184359689	-0	2.223054207654386	0	0.09478689634274365	49.42761781509809	856.0661629803395	-0	2.305728646762643	0	-0.09478689634545677	0	0	0	0	2.773239415887474e-10	0
0.4361111111111111	-0.1376784861732863	0.03619619812843462	-0	2.239501901618628	0	0.09478689634274365	58.34765907305789	868.0847492122646	-0	2.305860427841574	0	-0.09478689634275972	0	0	0	0	2.089883821554395e-12	0
0.4388888888888889	-0.1391077459156827	0.036492118059173	-0	2.255972093081931	0	0.09478689634274365	66.93469423758486	874.2092532654406	-0	2.305988627043457	0	-0.09478689634274373	0	0	0	0	1.332267629550188e-14	0
0.4416666666666667	-0.1407323492568087	0.03682996009887377	-0	2.272473933586288	0	0.09478689634274365	75.30507802776128	875.3180975987134	-0	2.306115118762175	0	-0.09478689634274366	0	0	0	0	1.77635683940025e-15	0
0.4444444444444444	-0.1425482294950685	0.03721433717001798	-0	2.289009536319075	0	0.09478689634274365	83.40561009453337	872.4968330268499	-0	2.306239029352027	0	-0.09478689634274365	0	0	0	0	0	0
0.4472222222222222	-0.1445676145612967	0.03765275624764469	-0	2.305578861733774	0	0.09478689634274365	91.10316213106348	866.2582205613785	-0	2.306358714505513	0	-0.09478689634274365	0	0	0	0	0	0
0.45	-0.1467498570408173	0.03813605169959285	-0	2.322180477980602	0	0.09478689634274365	98.45345989789583	857.1862514834879	-0	2.306474873691698	0	-0.09478689634274363	0	0	0	0	-1.77635683940025e-15	0
0.4527777777777778	-0.1490204553098473	0.03864562579357979	-0	2.338813203266409	0	0.09478689634274365	105.2859195239784	845.5417592417673	-0	2.306585338891397	0	-0.09478689634274365	0	0	0	0	0	0
0.4555555555555556	-0.1512250840182267	0.03914125691848338	-0	2.355477072031529	0	0.09478689634274365	111.6526732563094	831.6382371203777	-0	2.306690959409499	0	-0.09478689634274365	0	0	0	0	0	0
0.4583333333333334	-0.1531748577438081	0.03957407855805117	-0	2.372172856662369	0	0.09478689634274365	117.3865782582076	815.6029926146427	-0	2.306789616202899	0	-0.09478689634274365	0	0	0	0	0	0
0.4611111111111111	-0.1546591719440228	0.0398901390209223	-0	2.38890218643194	0	0.09478689634274365	122.4940227201812	797.6260305679814	-0	2.30688161891592	0	-0.09478689634274365	0	0	0	0	0	0
0.4638888888888889	-0.1554565117970087	0.04003295279301262	-0	2.405667083659889	0	0.09478689634274365	126.9943884034628	777.7301700266215	-0	2.306967838522762	0	-0.09478689634274365	0	0	0	0	0	0
0.4666666666666667	-0.1554055152953656	0.03996207445374174	-0	2.422469305929613	0	0.09478689634274365	131.1455314407654	756.0414322167451	-0	2.30705280452404	0	-0.09478689634274366	0	0	0	0	1.77635683940025e-15	0
0.4694444444444444	-0.1544083947242426	0.03965401433943815	-0	2.439309579084489	0	0.09478689634274365	134.8992057369139	732.6883093404723	-0	2.307136282482187	0	-0.09478689634274365	0	0	0	0	0	0
0.4722222222222222	-0.1524698205911341	0.03911214676746698	-0	2.456186125754857	0	0.09478689634274365	138.2749258652043	707.8346378304548	-0	2.307219089099861	0	-0.09478689634274365	0	0	0	0	0	0
0.475	-0.1496454337233757	0.03835243001591312	-0	2.473095875487975	0	0.09478689634274365	141.1846471386289	681.5838204418217	-0	2.307300409316497	0	-0.09478689634274365	0	0	0	0	0	0
0.4777777777777778	-0.1460317672401489	0.03740042051935433	-0	2.490034265472005	0	0.09478689634274365	143.6037582975804	654.084630362483	-0	2.307380352771882	0	-0.09478689634274365	0	0	0	0	0	0
0.4805555555555556	-0.1417398363350925	0.03628464165946443	-0	2.506996145501877	0	0.09478689634274365	145.437398905281	625.424961035744	-0	2.307457969973953	0	-0.09478689634274365	0	0	0	0	0	0
0.4833333333333334	-0.1368535429258218	0.03502573771625461	-0	2.523976560596083	0	0.09478689634274365	146.664966274848	595.7337455755545	-0	2.307533485809248	0	-0.09478689634274365	0	0	0	0	0	0
0.4861111111111112	-0.1314727166787567	0.0336483761484453	-0	2.540970394571988	0	0.09478689634274365	146.2621930043422	563.1372051667939	-0	2.307596814624738	0	-0.09478689634274365	0	0	0	0	0	0
0.4888888888888889	-0.1257554671772973	0.03219250352379684	-0	2.557971516271604	0	0.09478689634274365	144.0791381758024	525.6640772178682	-0	2.307658366330427	0	-0.09478689634274365	0	0	0	0	0	0
0.4916666666666667	-0.11980598523672	0.03068323665867274	-0	2.57497382349267	0	0.09478689634274365	141.5909506755075	485.8643853556123	-0	2.307741943437191	0	-0.09478689634274365	0	0	0	0	0	0
0.4944444444444445	-0.1134823445783755	0.02908059698037412	-0	2.591976703647008	0	0.09478689634274365	138.8862328545995	447.0724927577533	-0	2.307831795958059	0	-0.09478689634274366	0	0	0	0	1.77635683940025e-15	0
0.4972222222222222	-0.1066585699693142	0.02734964669557277	-0	2.608981973837047	0	0.09478689634274365	135.3617442857724	409.5734731693249	-0	2.307910790366482	0	-0.09478689634274365	0	0	0	0	0	0
0.5	-0.09937421230361984	0.02549978847085753	-0	2.625991858802862	0	0.09478689634274365	131.1506336884852	373.0230891888272	-0	2.307985516471114	0	-0.09478689634274365	0	0	0	0	0	0
0.5027777777777778	-0.09166466572796778	0.02353912526741421	-0	2.643008199085426	0	0.09478689634274365	125.4580017776845	336.1974766578368	-0	2.308045603069542	0	-0.09478689634274365	0	0	0	0	0	0
0.5055555555555555	-0.08324338528043941	0.02139148485807587	-0	2.660040896029673	0	0.09478689634274363	117.645770408774	297.1534641593382	-0	2.308096849858565	0	-0.09478689634274365	0	0	0	0	0	0
0.5083333333333333	-0.07368325847464098	0.01894421925413785	-0	2.677108267665986	0	0.09478689634274365	107.8296886515142	256.841794644258	-0	2.308136207874833	0	-0.09478689634274365	0	0	0	0	0	0
0.5111111111111111	-0.06232636374323294	0.01602554399036501	-0	2.694252047305596	0	0.09478689634248982	95.4167036947748	217.9280116802022	-0	2.308088364508718	0	-0.09478689634274365	0	-3.018418848199644e-16	0	0	0	0
0.5138888888888888	-0.04923712518819894	0.01265462049422821	-0	2.711521658393458	0	0.094786896341833	80.77116550890497	181.8634190153917	-0	2.307902836632498	0	-0.09478689634274365	0	-8.187894806610529e-16	0	0	0	0
0.5166666666666667	-0.03545920920186822	0.009105748661792827	-0	2.728966890580023	0	0.09478689633918022	64.92548024735866	149.7636074895275	-0	2.307549069625882	0	-0.09478689634274365	0	-2.212639793608417e-15	0	0	0	0
0.5194444444444445	-0.02254016400200846	0.005781413122553628	-0	2.746634828414812	0	0.09478689632526811	49.24599489726257	121.8256202436641	-0	2.307040188359771	0	-0.09478689634274365	0	-6.599321783484768e-15	0	0	0	0
0.5222222222222223	-0.01234815870019034	0.003163642556640673	-0	2.764536824622233	0	0.09478689624446139	35.31627038137326	97.23622414862605	-0	2.306472929690266	0	-0.09478689634274365	0	-1.936688656667407e-14	0	0	0	0
0.525	-0.005640992749975607	0.001444109819141065	-0	2.782661731314472	0	0.09478689569468075	23.59827928987464	75.13478011436133	-0	2.305903375917369	0	-0.09478689634274365	0	-5.520833356448263e-14	0	0	0	0
0.5277777777777778	-0.001954786771319192	0.0005002431320557609	-0	2.800971377453983	0	0.09478689081725239	14.043422702928	54.22922821782693	-0	2.305366063051272	0	-0.09478689634274365	0	-1.531855968028156e-13	0	0	0	0
0.5305555555555557	-0.0003306787999321637	8.463379059177979e-05	-0	2.819412815747023	0	0.09478680000482563	6.636709313637387	33.35548662285049	-0	2.304884118019805	0	-0.09478689634274365	0	-4.199243017655348e-13	0	0	0	0
0.5333333333333334	1.981869159993123e-05	-5.076715281197427e-06	-0	2.837993688720315	0	0.09479166943362104	1.433201346570593	11.63085272817051	-0	2.304389620167133	0	-0.09478689634274365	0	-1.141788485192592e-12	0	0	0	0
0.5361111111111111	2.911634875718583e-05	-7.470551183055099e-06	-0	2.856560981047095	0	0.09479666109237064	0.3789436802333024	-2.493081069591042	-0	2.302598113314757	0	-0.09478689634274365	0	-3.082292400812339e-12	0	0	0	0
0.538888888888889	1.973851292862433e-05	-5.074540857725435e-06	-0	2.875665919915896	0	0.09483068273218064	0.009417993338232211	-0.01024480935845022	-0	2.298128131484226	0	-0.09478689634274365	0	-8.307056850691879e-12	0	0	0	0
0.5416666666666667	1.068892405567078e-05	-2.753194696543343e-06	-0	2.898413291424006	0	0.09503450411416259	6.01503852413422e-07	-5.40224544489056e-07	-0	2.299010508723049	0	-0.09478689634274365	0	-2.279675470519209e-11	0	0	0	0
0.5444444444444445	1.148226306743734e-06	-2.937989429988327e-07	-0	3.071092662874267	0	0.1018831443280742	4.008504411501563e-11	-2.977621209555796e-11	-0	2.301256903819911	0	-0.09478689634274365	0	-1.313475356612182e-10	0	0	0	0
0.5472222222222223	-4.445668940022237e-06	1.158503565733607e-06	-0	2.801164453826439	0	0.08936558297730854	4.452055699482274e-14	-2.894980417433121e-14	-0	2.305415166000525	0	-0.09478689634274365	0	5.218576952815093e-12	0	0	0	0
0.55	-1.349393405071788e-05	3.535062336493264e-06	-0	2.817526071532082	0	0.08956700793552344	-0	-0	-0	0	0	0	0	1.089187660182277e-13	0	0	0	0
0.5527777777777778	-3.806118426889662e-05	1.008746072693285e-05	-0	2.828719421308705	0	0.08956894649979713	-0	-0	-0	0	0	0	0	2.783902953675714e-15	0	0	0	0
0.5555555555555556	-0.0001030970315573163	2.781539794314395e-05	-0	2.83939691291331	0	0.08956897328902162	-0	-0	-0	0	0	0	0	1.745311387817486e-16	0	0	0	0
