DataType=double
version=3
OpenSimVersion=4.6-2026-06-22-85aaf64
endheader
time	ground_force_r_vx	ground_force_r_vy	ground_force_r_vz	ground_force_r_px	ground_force_r_py	ground_force_r_pz	ground_force_l_vx	ground_force_l_vy	ground_force_l_vz	ground_force_l_px	ground_force_l_py	ground_force_l_pz	ground_torque_r_x	ground_torque_r_y	ground_torque_r_z	ground_torque_l_x	ground_torque_l_y	ground_torque_l_z
0	-6.777304292983537e-08	1.749429741942224e-08	-0	1.286954425980998	0	0.0946772955781244	2.77998820439059e-12	-1.621993139150522e-12	-0	0.5778242908197109	0	-0.09478689634274365	0	-4.537803129019725e-14	0	0	0	0
0.003125	-3.793197381906119e-08	9.857922546099786e-09	-0	1.277840912137495	0	0.0935690690701049	5.917751058218193e-12	-3.424617569697445e-12	-0	0.5853481919482878	0	-0.09478689634274365	0	-1.511493926986757e-13	0	0	0	0
0.00625	-5.83850066623754e-08	1.537923833104072e-08	-0	1.201294591221998	0	0.09009638965536584	7.374227022444169e-12	-4.235549302349123e-12	-0	0.5929505617862181	0	-0.09478689634274365	0	-5.761255604020617e-14	0	0	0	0
0.009375	-2.93321868341488e-07	7.879236479601286e-08	-0	1.196453971623912	0	0.08956383285003282	5.685347837901671e-12	-3.243661612937593e-12	-0	0.6006311020870896	0	-0.09478689634274365	0	-5.427416582178357e-16	0	0	0	0
0.0125	-1.533381857341085e-06	4.233641568149604e-07	-0	1.205383251408241	0	0.08956864138604162	2.243265269088524e-12	-1.272330251168333e-12	-0	0.6083920766461938	0	-0.09478689634274363	0	-1.48365046961422e-15	0	0	-5.048709793414476e-29	0
0.015625	-7.453285245933356e-06	2.128343058132999e-06	-0	1.213704798778664	0	0.08956900938447247	4.834220872044648e-13	-2.727669589428336e-13	-0	0.6162430084018473	0	-0.09478689634274365	0	1.347194361784058e-15	0	0	0	0
0.01875	-3.358556725391693e-05	9.955581648720099e-06	-0	1.221760245338979	0	0.08956912453923239	1.440852179988494e-13	-8.084404977049888e-14	-0	0.6241996011394484	0	-0.09478689634274365	0	3.630133972487202e-14	0	0	0	0
0.021875	-0.0001397530523810264	4.305970603644548e-05	-0	1.229708165568984	0	0.08956902436886105	1.453797762118033e-13	-8.092425813787105e-14	-0	0.6322890691532083	0	-0.09478689634274366	0	5.973580767678569e-14	0	0	3.155443620884047e-30	0
0.025	-0.0005392596150132392	0.000172678999427073	-0	1.237624917981873	0	0.08956898901526121	5.582843278211689e-13	-3.068139552135504e-13	-0	0.6405740327013354	0	-0.09478689634274365	0	7.267929612092203e-14	0	0	0	0
0.028125	-0.001946181664346241	0.0006470453220889892	-0	1.245508326249888	0	0.08956897908766455	8.016311224143764e-12	-4.322218120850147e-12	-0	0.6491288475676119	0	-0.09478689634274365	0	8.116554303660983e-14	0	0	0	0
0.03125	-0.006673460207004512	0.002303279991091518	-0	1.253256287836279	0	0.08956897633071936	3.924446030539376e-10	-2.06422580347711e-10	-0	0.6580052003704925	0	-0.09478689634274365	0	9.163210554913315e-14	0	0	0	0
0.034375	-0.02210394284633801	0.007926923995990503	-0	1.260766343710742	0	0.08956897551330806	5.23666814647817e-08	-2.674409908133276e-08	-0	0.6672328988329876	0	-0.09478689634274365	0	1.093357175629972e-13	0	0	0	0
0.0375	-0.07178164618144227	0.02678751464199454	-0	1.267959991608955	0	0.08956897524936941	6.205324654865468e-06	-3.065585945209097e-06	-0	0.6768255210229798	0	-0.09478689634274365	0	1.417416531368509e-13	0	0	0	0
0.040625	-0.2309779565161826	0.08985724023944229	-0	1.274786911537211	0	0.08956897515544011	-9.067654560843975e-05	4.319759240122388e-05	-0	0.6867910842325387	0	-0.09478689634274365	0	2.027371326374094e-13	0	0	0	0
0.04375	-0.7406053261541378	0.3009062455933516	-0	1.281219262172512	0	0.08956897511871896	-0.0001523650647014018	6.976651976987877e-05	-0	0.6971591405076549	0	-0.09478689634274365	0	3.237687895563113e-13	0	0	0	0
0.04687500000000001	-2.363640051184805	1.004727817689047	-0	1.287242842769214	0	0.08956897510329452	-0.0001973793892874259	8.665931547159545e-05	-0	0.7079322333653532	0	-0.09478689634274365	0	5.816735981767351e-13	0	0	0	0
0.05	-7.404747869340148	3.300699717626561	-0	1.292843824443	0	0.08956897509697941	-0.0002546320300859426	0.0001072530486817613	-0	0.7190206273907834	0	-0.09478689634274365	0	1.172728580911553e-12	0	0	0	0
0.05312499999999999	-21.97832075018231	10.31822857427053	-0	1.298007986905657	0	0.08956897509595052	-0.0003489038191167818	0.000141353982235005	-0	0.7303241180999727	0	-0.09478689634274365	0	2.563949053069337e-12	0	0	0	0
0.05624999999999999	-56.7771320418744	28.43883906039992	-0	1.302651775413132	0	0.08956897510245745	-0.0005173158192183818	0.000202170218526381	-0	0.7417834872779467	0	-0.09478689634274365	0	4.775735362727573e-12	0	0	0	0
0.059375	-114.046323790258	62.3275908668108	-0	1.306741483781664	0	0.08956897513493776	-0.0008317157813788638	0.0003143687623000202	-0	0.7533711942852681	0	-0.09478689634274365	0	-1.096367441277835e-11	0	0	0	0
0.0625	-242.0111282790258	152.9522503354951	-0	1.310132281778572	0	0.0895689752676484	-0.001433854964860979	0.0005250425495978535	-0	0.7651160691141885	0	-0.09478689634274365	0	-5.49079004485975e-10	0	0	0	0
0.065625	-441.1349290994027	391.995496050287	-0	1.312643400009404	0	0.08956897655193499	-0.00258926287540021	0.0009201853403780143	-0	0.7770400365362297	0	-0.09478689634274365	0	-2.86909696001203e-08	0	0	0	0
0.06875000000000001	-119.7166918660491	717.8574093761172	-0	1.316205680278984	0	0.08956899740800095	-0.004788954662806949	0.001657939780486787	-0	0.7891033983521305	0	-0.09478689634274363	0	-7.895962752968444e-06	0	0	5.421010862427522e-20	0
0.07187499999999999	-72.92203470822631	1051.336060530195	-0	1.317137515274056	0	0.08956922880157211	-0.008871573158502738	0.003006411476976382	-0	0.8012820392912139	0	-0.09478689634274365	0	-9.097421913217829e-05	0	0	0	0
0.075	-48.82278602438771	1311.760426614966	-0	1.317819758681568	0	0.08957128256772583	-0.01615600411463856	0.005378071853540171	-0	0.8136290563019266	0	-0.09478689634274365	0	-0.0009205813705941424	0	0	0	0
0.078125	-53.05106692403434	1468.350838004503	-0	1.318790039934278	0	0.08958799092561391	-0.02864846444632611	0.009385629471264163	-0	0.8262140926346166	0	-0.09478689634274365	0	-0.008608824545677685	0	0	0	0
0.08125	-91.40685966465978	1554.831207554007	-0	1.321689135441826	0	0.08967605804954944	-0.04921086638689635	0.01588067419906894	-0	0.8390860318853706	0	-0.09478689634274365	0	-0.04848859809568928	0	0	0	0
0.08437500000000001	-154.0128877624746	1630.283230555425	-0	1.328109806032733	0	0.08989097090526292	-0.08151797708713053	0.02591814222115173	-0	0.8522798326908928	0	-0.09478689634274365	0	-0.1185154778278772	0	0	0	0
0.08750000000000001	-251.8513367549277	1766.543393165242	-0	1.340515873751331	0	0.09032463543539973	-0.1294597469713225	0.04055452760228975	-0	0.8658225041927047	0	-0.09478689634274365	0	-0.1574717983721818	0	0	0	0
0.09062500000000001	-239.2555384642544	1742.747299541788	-0	1.342859040324211	0	0.0904003838034145	-0.1961048224835847	0.06051934915306516	-0	0.8797416420298573	0	-0.09478689634274365	0	-0.05765931199806218	0	0	0	0
0.09375	-195.8032045461938	1648.30291405629	-0	1.341555348245974	0	0.09034671916790901	-0.2829283474527027	0.08601198543869369	-0	0.8940558246791512	0	-0.09478689634274365	0	-0.01035666932034474	0	0	0	0
0.096875	-182.4298061205786	1586.549875106164	-0	1.341547906321057	0	0.09034352250559824	-0.3884661321310817	0.1163688244781686	-0	0.9087692608081762	0	-0.09478689634274365	0	-0.0005683097958453232	0	0	0	0
0.1	-169.7029123709956	1545.369700477156	-0	1.342002301021872	0	0.09035604718296933	-0.5067657618639436	0.1496944654721	-0	0.9238745410143203	0	-0.09478689634274365	0	0.001765699556553812	0	0	0	0
0.103125	-158.6881992082383	1511.061477451251	-0	1.342390662173713	0	0.0903663346697893	-0.627272784418622	0.1828812249732407	-0	0.9393666149239889	0	-0.09478689634274363	0	0.002962788614730982	0	0	6.938893903907228e-18	0
0.10625	-144.2087473907239	1478.983845893262	-0	1.342847959938029	0	0.0903780206810782	-0.7362774879630758	0.2120673795037711	-0	0.9552407694357926	0	-0.09478689634274365	0	0.003140622897245038	0	0	0	0
0.109375	-128.4459447649729	1441.94806086702	-0	1.343249335179954	0	0.09038740820332382	-0.8196515794126505	0.2334610087896246	-0	0.9714893811745472	0	-0.09478689634274365	0	0.003105926622774646	0	0	0	0
0.1125	-104.8541943140173	1393.462854818622	-0	1.343651876332957	0	0.0903949046789176	-0.8677207031414435	0.2447176257192182	-0	0.9880899105234608	0	-0.09478689634274365	0	0.002864956865423096	0	0	0	0
0.115625	-72.66431063343198	1347.003260694655	-0	1.346044978763056	0	0.09046930528140658	-0.8770845244252955	0.2452822112610962	-0	1.005011427142886	0	-0.09478689634274365	0	-0.004303041739619928	0	0	0	0
0.11875	-43.23334536450921	1321.404984599939	-0	1.353046761708527	0	0.09070456039422461	-0.8496666340788163	0.2359478117502456	-0	1.022221915466729	0	-0.09478689634274365	0	-0.02929901763836007	0	0	0	0
0.121875	-42.16939328961361	1291.856132883818	-0	1.361913544533967	0	0.09101182147378942	-0.7922763544989607	0.218723488945794	-0	1.03969206674458	0	-0.09478689634274365	0	-0.05960150883221393	0	0	0	0
0.125	-45.2742792756605	1234.563773552735	-0	1.369182045233028	0	0.09126403590467665	-0.7147380194060231	0.1963458970166326	-0	1.057395363817172	0	-0.09478689634274366	0	-0.07071654990891663	0	0	-1.387778780781446e-17	0
0.128125	-40.4624263482592	1168.090003960982	-0	1.375037938588028	0	0.09146469674427368	-0.6271211844012392	0.1715696605195309	-0	1.075301765810215	0	-0.09478689634274365	0	-0.06846393226402236	0	0	0	0
0.13125	-35.63107485526304	1107.799271981046	-0	1.38025534281757	0	0.09164303775427082	-0.5375509154698644	0.146576532753021	-0	1.093381020857844	0	-0.09478689634274365	0	-0.0622893680444232	0	0	0	0
0.134375	-30.48908747457742	1055.135998003798	-0	1.38497728257422	0	0.09180398563881974	-0.4520279066237279	0.1229325857287066	-0	1.111603980349609	0	-0.09478689634274365	0	-0.05487766702072783	0	0	0	0
0.1375	-24.69905509533514	1009.938518848083	-0	1.389553605184445	0	0.09195971940574496	-0.3740059281768072	0.1014986646368495	-0	1.129949275364863	0	-0.09478689634274365	0	-0.04774297920903203	0	0	0	0
0.140625	-18.89460580020576	973.7229762798656	-0	1.394496198119203	0	0.09212846424889956	-0.3051393482666947	0.08266008090993704	-0	1.148399823220461	0	-0.09478689634274366	0	-0.04174628884080445	0	0	-3.469446951953614e-18	0
0.14375	-13.87512508332736	948.2805523388835	-0	1.40035673127798	0	0.09232993993774621	-0.2456458321383769	0.06642917335593808	-0	1.166948866964207	0	-0.09478689634274365	0	-0.03684063764965617	0	0	0	0
0.146875	-11.2634082353384	930.1169636768066	-0	1.407163078271138	0	0.09256574723516067	-0.1950494097288829	0.05264819032422317	-0	1.185595441994491	0	-0.09478689634274365	0	-0.03173639443963849	0	0	0	0
0.15	-9.559689880139207	915.0410974325903	-0	1.414840593110289	0	0.09283282096452354	-0.1525704986714278	0.04109208104898199	-0	1.204346876310992	0	-0.09478689634274365	0	-0.02549358524433787	0	0	0	0
0.153125	-10.58435149926587	895.9121816803454	-0	1.422880111399893	0	0.09311388241668637	-0.1172540641537038	0.03149490088453748	-0	1.223215956395713	0	-0.09478689634274365	0	-0.01767549285132952	0	0	0	0
0.15625	-12.29673965726139	868.6151239626028	-0	1.430901922185103	0	0.09339493094482468	-0.08807481482597271	0.02357616016590272	-0	1.242226299904532	0	-0.09478689634274365	0	-0.009282704389902863	0	0	0	0
0.159375	-7.076976794318563	847.5328944490916	-0	1.440136225387029	0	0.09371686050964818	-0.06460199193946219	0.01722619976178344	-0	1.261391506074427	0	-0.09478689634274365	0	-0.001836286741724424	0	0	0	0
0.1625	1.47699595599009	838.1762281832106	-0	1.451643876825055	0	0.09411878464266896	-0.04713652104252966	0.01253113454815949	-0	1.280661046233953	0	-0.09478689634274365	0	0.003700549876906128	0	0	0	0
0.165625	1.349125830542317	820.8693157724242	-0	1.464480656037207	0	0.09457228864666407	-0.0349626039303085	0.009282057084986426	-0	1.299963551420905	0	-0.09478689634274365	0	0.003553199880006241	0	0	0	0
0.16875	5.907803024305462	824.265815161154	-0	1.471315409133924	0	0.09481147488771056	-0.02662827603047239	0.007069736968133612	-0	1.31924129883638	0	-0.09478689634274365	0	-0.0007663463985491115	0	0	0	0
0.171875	24.5745789499459	855.4625130483997	-0	1.470913535819927	0	0.09478742909922561	-0.02083088999639436	0.005534945712258459	-0	1.338459788591406	0	-0.09478689634274365	0	-2.636412372813979e-05	0	0	0	0
0.175	42.41695896647951	871.8564776263825	-0	1.47115326155415	0	0.09478689896576334	-0.01637661558784678	0.004351574286304736	-0	1.3576647864285	0	-0.09478689634274365	0	-1.878195430293772e-07	0	0	0	0
0.178125	57.07726814406873	880.615705438827	-0	1.47136552945663	0	0.09478689635053367	-0.0127018576973651	0.003369560611064455	-0	1.376925248915685	0	-0.09478689634274365	0	-7.607088292616027e-10	0	0	0	0
0.18125	71.01590943936446	882.840034317407	-0	1.471568255390227	0	0.09478689634276179	-0.009775842379460685	0.002586496579633541	-0	1.396262342993432	0	-0.09478689634274365	0	-2.311040248059726e-12	0	0	0	0
0.184375	82.92021251832669	880.200788324834	-0	1.471745309713132	0	0.09478689634274369	-0.007529534441617351	0.001986208264081571	-0	1.41567478234885	0	-0.09478689634274365	0	-7.105427357601002e-15	0	0	0	0
0.1875	93.74148915781696	873.6130079439242	-0	1.471908972102165	0	0.09478689634274365	-0.005814012563528568	0.001528676594196591	-0	1.435162312344062	0	-0.09478689634274365	0	0	0	0	0	0
0.190625	103.0157635931343	863.9136668825022	-0	1.472052691785798	0	0.09478689634274365	-0.00449736678850244	0.001178366664567255	-0	1.454727263994919	0	-0.09478689634274365	0	0	0	0	0	0
0.19375	111.1987620643648	851.6271297297764	-0	1.472182265403381	0	0.09478689634274365	-0.003466215128580098	0.0009049024859674768	-0	1.474371391306977	0	-0.09478689634274365	0	0	0	0	0	0
0.196875	118.0228877426679	837.2136804141142	-0	1.472293450479837	0	0.09478689634274365	-0.002638929843479999	0.0006864834303075085	-0	1.494093689149312	0	-0.09478689634274365	0	0	0	0	0	0
0.2	123.6707721371984	821.4733673975521	-0	1.472387405526227	0	0.09478689634274365	-0.001953984886466117	0.0005067941757197951	-0	1.51388009521917	0	-0.09478689634274365	0	0	0	0	0	0
0.203125	128.4468009358922	804.4947036763418	-0	1.472468523469324	0	0.09478689634274365	-0.001395958967569836	0.0003613558643547144	-0	1.533713380948387	0	-0.09478689634274365	0	0	0	0	0	0
0.20625	133.0509257473531	785.2384492788268	-0	1.472550219319995	0	0.09478689634274365	-0.0009862769907204936	0.0002550172300220024	-0	1.553583541943542	0	-0.09478689634274365	0	0	0	0	0	0
0.209375	137.3187920002441	763.0014183761754	-0	1.47263292130422	0	0.09478689634274366	-0.0007071608104331732	0.0001827043618337072	-0	1.573481712899338	0	-0.09478689634274365	0	-1.77635683940025e-15	0	0	0	0
0.2125	141.1551259002585	738.1881815051374	-0	1.472715514138704	0	0.09478689634274365	-0.0005134056821686235	0.0001325349120570103	-0	1.593404717825227	0	-0.09478689634274365	0	0	0	0	0	0
0.215625	144.4228098157289	711.1822112628316	-0	1.472795948442717	0	0.09478689634274365	-0.0003745221976407155	9.657758568413631e-05	-0	1.613355007188869	0	-0.09478689634274363	0	0	0	0	6.776263578034403e-21	0
0.21875	147.086883669442	682.3364061003019	-0	1.472873902069014	0	0.09478689634274365	-0.0002734853548233976	7.04303374254927e-05	-0	1.633336026832108	0	-0.09478689634274365	0	0	0	0	0	0
0.221875	149.038183553035	651.8738671352113	-0	1.472948002108288	0	0.09478689634274365	-0.0001993645553379233	5.126518554893211e-05	-0	1.653350217707308	0	-0.09478689634274365	0	0	0	0	0	0
0.225	150.2971803893703	620.0108825658098	-0	1.473019200157564	0	0.09478689634274365	-0.0001448791986047677	3.719529199317111e-05	-0	1.673398090127589	0	-0.09478689634274365	0	0	0	0	0	0
0.228125	150.7671610022363	586.9267975250916	-0	1.473086365955282	0	0.09478689634274365	-0.0001048678361841865	2.687989384010285e-05	-0	1.69347870308478	0	-0.09478689634274365	0	0	0	0	0	0
0.23125	150.4515787285079	552.8453743891235	-0	1.473149994249492	0	0.09478689634274365	-7.561494747498207e-05	1.935211212047534e-05	-0	1.71358812369876	0	-0.09478689634274365	0	0	0	0	0	0
0.234375	149.2874957074476	517.9704054919985	-0	1.473209286323118	0	0.09478689634274365	-5.436198621862297e-05	1.389373409492346e-05	-0	1.73372035178462	0	-0.09478689634274366	0	0	0	0	-8.470329472543003e-22	0
0.2375	147.2988783439702	482.5623105261162	-0	1.473264772803035	0	0.09478689634274365	-3.906653048449712e-05	9.973170617902532e-06	-0	1.753864921128534	0	-0.09478689634274365	0	0	0	0	0	0
0.240625	142.8062091710324	445.2170751058984	-0	1.473286609134217	0	0.09478689634274365	-2.816712362430278e-05	7.184696633523812e-06	-0	1.77400859312331	0	-0.09478689634274365	0	0	0	0	0	0
0.24375	134.9174177347188	405.0290927957586	-0	1.47325721964733	0	0.09478689634274363	-2.048232609384776e-05	5.221983969496681e-06	-0	1.794134268190582	0	-0.09478689634274365	0	1.77635683940025e-15	0	0	0	0
0.246875	124.8883075449136	365.9764398568125	-0	1.473168196837568	0	0.09478689634274365	-1.510380223516264e-05	3.850312275081572e-06	-0	1.81422329552205	0	-0.09478689634274365	0	0	0	0	0	0
0.25	112.5283305465544	332.8640174233497	-0	1.472949739486279	0	0.09478689634274365	-1.13510962305598e-05	2.894371552873345e-06	-0	1.834256919730451	0	-0.09478689634274365	0	0	0	0	0	0
0.253125	98.01306664911854	305.9007723841355	-0	1.472586755186407	0	0.09478689634274365	-8.70870657924272e-06	2.221743806668527e-06	-0	1.854220241129108	0	-0.09478689634274365	0	0	0	0	0	0
0.25625	82.78623371952166	283.5736287273899	-0	1.472140650438198	0	0.09478689634274365	-6.777882009127409e-06	1.730157467507496e-06	-0	1.874116082144339	0	-0.09478689634274365	0	0	0	0	0	0
0.259375	67.26059762322183	262.7664126918397	-0	1.471663880312633	0	0.09478689634274365	-5.296464990604366e-06	1.35242490360183e-06	-0	1.893966753057011	0	-0.09478689634274365	0	0	0	0	0	0
0.2625	52.32777911949679	238.7896428478126	-0	1.471233603063025	0	0.09478689634274365	-4.10453563387146e-06	1.047597491813939e-06	-0	1.913829915821415	0	-0.09478689634274365	0	0	0	0	0	0
0.265625	39.30748717859386	210.9378924655867	-0	1.470899782850417	0	0.09478689634274365	-3.132145795865348e-06	7.983075644008815e-07	-0	1.933754518896148	0	-0.09478689634274365	0	0	0	0	0	0
0.26875	28.29955156427982	180.4400472075864	-0	1.470650967922911	0	0.09478689634274366	-2.365784860838835e-06	6.018541528800784e-07	-0	1.953737719465605	0	-0.09478689634274365	0	0	0	0	0	0
0.271875	19.42320292051997	147.9583829301031	-0	1.470490955596603	0	0.09478689634274365	-1.778575591030939e-06	4.515823592543814e-07	-0	1.973766878702728	0	-0.09478689634274365	0	0	0	0	0	0
0.275	12.74156171061046	114.5330386659777	-0	1.470429769791483	0	0.09478689634274365	-1.345223672130481e-06	3.409568349833937e-07	-0	1.993811016542476	0	-0.09478689634274365	0	0	0	0	0	0
0.278125	7.574708519032641	80.3393763846878	-0	1.470440773710332	0	0.09478689634274365	-1.038587247427928e-06	2.629158735148794e-07	-0	2.013825379599004	0	-0.09478689634274365	0	0	0	0	0	0
0.28125	3.284094930120592	44.6763223045626	-0	1.470469587291616	0	0.09478689634274365	-8.272485361189847e-07	2.093074841006632e-07	-0	2.033756008979426	0	-0.09478689634274365	0	0	0	0	0	0
0.284375	1.328798723622139	-2.688332008976086	-0	1.466512757039256	0	0.09478689634274366	-6.801144168172648e-07	1.721167338693198e-07	-0	2.053558435540369	0	-0.09478689634274365	0	-2.775557561562891e-17	0	0	0	0
0.2875	1.576688218809172e-05	-1.416331126361781e-05	-0	1.463904131351436	0	0.09478689634274365	-5.678694474688997e-07	1.438277957572135e-07	-0	2.073218800442069	0	-0.09478689634274365	0	0	0	0	0	0
0.290625	3.704538919635409e-12	-2.531039191343306e-12	-0	1.466151276488409	0	0.09478689634274363	-4.750231264907737e-07	1.204615462711442e-07	-0	2.09274362883564	0	-0.09478689634274365	0	5.048709793414476e-29	0	0	0	0
0.29375	-0	-0	-0	0	0	0	-3.951635871999772e-07	1.003600705488469e-07	-0	2.112158695009502	0	-0.09478689634274365	0	0	0	0	0	0
0.296875	1.34313149669181e-14	-8.153237757259489e-15	-0	0	0	0	-3.257940912989148e-07	8.289266871201358e-08	-0	2.131472531252583	0	-0.09478689634274366	0	1.273112659516007e-15	0	0	-6.617444900424221e-24	0
0.3	3.340631646326597e-14	-2.015238007259591e-14	-0	1.485991304459414	0	0.09478689634274363	-2.64863412846113e-07	6.754164715964684e-08	-0	2.150686021553108	0	-0.09478689634274365	0	3.944304526105059e-31	0	0	0	0
0.303125	9.443349295894695e-14	-5.651423090865037e-14	-0	1.493213972453439	0	0.09478689634274365	-2.099000652888012e-07	5.366652611445653e-08	-0	2.169811444168638	0	-0.09478680497091904	0	0	0	0	2.220673292308194e-16	0
0.30625	2.742548003878606e-13	-1.627704454017292e-13	-0	1.500508804606358	0	0.09478689634274365	-1.586808984578423e-07	4.068814201304003e-08	-0	2.18886581817772	0	-0.09478577581561849	0	0	0	0	1.753679590262881e-15	0
0.309375	8.561015313342246e-13	-5.03767722998454e-13	-0	1.507878176749484	0	0.09478689634274365	-1.106526002783132e-07	2.846050314278858e-08	-0	2.207722211397231	0	-0.09477641519165554	0	0	0	0	9.366556989914896e-15	0
0.3125	2.779988204390636e-12	-1.621993139150548e-12	-0	1.515324290819712	0	0.09478689634274365	-6.777304292983521e-08	1.74942974194222e-08	-0	2.224454425980998	0	-0.0946772955781244	0	0	0	0	4.537803129102443e-14	0
0.315625	5.917751058218314e-12	-3.424617569697515e-12	-0	1.522848191948289	0	0.09478689634274365	-3.793197381906172e-08	9.857922546099925e-09	-0	2.215340912137496	0	-0.0935690690701049	0	0	0	0	1.511493926986757e-13	0
0.31875	7.374227022444344e-12	-4.235549302349223e-12	-0	1.530450561786219	0	0.09478689634274365	-5.838500666237495e-08	1.537923833104061e-08	-0	2.138794591221997	0	-0.09009638965536582	0	0	0	0	5.761255604020617e-14	0
0.321875	5.685347837901832e-12	-3.243661612937685e-12	-0	1.53813110208709	0	0.09478689634274365	-2.933218683414875e-07	7.879236479601272e-08	-0	2.133953971623913	0	-0.08956383285003283	0	0	0	0	5.427416516003908e-16	0
0.325	2.243265269088635e-12	-1.272330251168397e-12	-0	1.545892076646195	0	0.09478689634274366	-1.533381857341082e-06	4.233641568149595e-07	-0	2.142883251408241	0	-0.08956864138604162	0	-2.524354896707238e-29	0	0	1.48365046961422e-15	0
0.328125	4.834220872044617e-13	-2.727669589428319e-13	-0	1.553743008401848	0	0.09478689634274365	-7.453285245933341e-06	2.128343058132994e-06	-0	2.151204798778664	0	-0.08956900938447249	0	0	0	0	-1.347194361784058e-15	0
0.33125	1.440852179988879e-13	-8.084404977052045e-14	-0	1.56169960113945	0	0.09478689634274366	-3.358556725391684e-05	9.955581648720074e-06	-0	2.15926024533898	0	-0.08956912453923239	0	-3.155443620884047e-30	0	0	-3.630133972487202e-14	0
0.334375	1.453797762118026e-13	-8.092425813787071e-14	-0	1.569789069153209	0	0.09478689634274365	-0.0001397530523810259	4.305970603644531e-05	-0	2.167208165568985	0	-0.08956902436886105	0	0	0	0	-5.973580767678569e-14	0
0.3375	5.58284327821166e-13	-3.068139552135487e-13	-0	1.578074032701336	0	0.09478689634274365	-0.0005392596150132375	0.0001726789994270724	-0	2.175124917981874	0	-0.0895689890152612	0	0	0	0	-7.267929612092203e-14	0
0.340625	8.016311224143733e-12	-4.32221812085013e-12	-0	1.586628847567613	0	0.09478689634274365	-0.001946181664346235	0.0006470453220889872	-0	2.183008326249888	0	-0.08956897908766455	0	0	0	0	-8.116557014166415e-14	0
0.34375	3.924446030539367e-10	-2.064225803477105e-10	-0	1.595505200370493	0	0.09478689634274365	-0.006673460207004489	0.00230327999109151	-0	2.19075628783628	0	-0.08956897633071938	0	0	0	0	-9.16322139693504e-14	0
0.346875	5.236668146478139e-08	-2.674409908133261e-08	-0	1.604732898832989	0	0.09478689634274363	-0.0221039428463379	0.007926923995990463	-0	2.198266343710744	0	-0.08956897551330807	0	8.271806125530277e-25	0	0	-1.093361512438662e-13	0
0.35	6.20532465486545e-06	-3.065585945209088e-06	-0	1.614325521022981	0	0.09478689634274365	-0.07178164618144194	0.02678751464199441	-0	2.205459991608956	0	-0.0895689752493694	0	0	0	0	-1.417416531368509e-13	0
0.353125	-9.06765456084398e-05	4.319759240122391e-05	-0	1.62429108423254	0	0.09478689634274365	-0.2309779565161814	0.0898572402394418	-0	2.212286911537212	0	-0.08956897515544011	0	0	0	0	-2.027371326374094e-13	0
0.35625	-0.0001523650647014015	6.976651976987864e-05	-0	1.634659140507656	0	0.09478689634274365	-0.7406053261543488	0.3009062455934374	-0	2.218719262172513	0	-0.08956897511871897	0	0	0	0	-3.237687895563113e-13	0
0.359375	-0.0001973793892874253	8.665931547159522e-05	-0	1.645432233365354	0	0.09478689634274365	-2.363640051184948	1.004727817689107	-0	2.224742842769215	0	-0.08956897510329452	0	0	0	0	-5.816458426011195e-13	0
0.3625	-0.0002546320300859418	0.000107253048681761	-0	1.656520627390785	0	0.09478689634274365	-7.404747869340423	3.300699717626684	-0	2.230343824443001	0	-0.08956897509697942	0	0	0	0	-1.172839603214015e-12	0
0.365625	-0.0003489038191167808	0.0001413539822350045	-0	1.667824118099974	0	0.09478689634274365	-21.97832075018286	10.31822857427079	-0	2.235507986905658	0	-0.08956897509595052	0	0	0	0	-2.563949053069337e-12	0
0.36875	-0.0005173158192183799	0.0002021702185263803	-0	1.679283487277948	0	0.09478689634274365	-56.77713204187555	28.4388390604005	-0	2.240151775413133	0	-0.08956897510245744	0	0	0	0	-4.774847184307873e-12	0
0.371875	-0.0008317157813788607	0.000314368762300019	-0	1.690871194285269	0	0.09478689634274365	-114.0463237902595	62.32759086681165	-0	2.244241483781664	0	-0.08956897513493776	0	0	0	0	1.096367441277835e-11	0
0.375	-0.001433854964860974	0.0005250425495978517	-0	1.702616069114189	0	0.09478689634274365	-242.0111282790306	152.9522503354981	-0	2.247632281778572	0	-0.0895689752676484	0	0	0	0	5.49079004485975e-10	0
0.378125	-0.002589262875400201	0.0009201853403780112	-0	1.714540036536231	0	0.09478689634274365	-441.1349290994096	391.9954960502931	-0	2.250143400009404	0	-0.08956897655193499	0	0	0	0	2.86909696001203e-08	0
0.38125	-0.004788954662806932	0.001657939780486781	-0	1.726603398352132	0	0.09478689634274365	-119.716691866051	717.8574093761247	-0	2.253705680278986	0	-0.08956899740800094	0	0	0	0	7.895962754744801e-06	0
0.384375	-0.008871573158502708	0.003006411476976371	-0	1.738782039291215	0	0.09478689634274365	-72.92203470822773	1051.336060530202	-0	2.254637515274057	0	-0.08956922880157211	0	0	0	0	9.097421913217829e-05	0
0.3875	-0.0161560041146385	0.005378071853540152	-0	1.751129056301927	0	0.09478689634274365	-48.82278602438905	1311.760426614975	-0	2.255319758681569	0	-0.08957128256772583	0	0	0	0	0.0009205813705941424	0
0.390625	-0.028648464446326	0.009385629471264126	-0	1.763714092634617	0	0.09478689634274365	-53.05106692403578	1468.350838004509	-0	2.256290039934278	0	-0.08958799092561388	0	0	0	0	0.008608824545680349	0
0.39375	-0.04921086638689613	0.01588067419906886	-0	1.776586031885371	0	0.09478689634274365	-91.40685966466165	1554.831207554015	-0	2.259189135441827	0	-0.08967605804954944	0	0	0	0	0.04848859809569106	0
0.396875	-0.08151797708713011	0.0259181422211516	-0	1.789779832690894	0	0.09478689634274365	-154.012887762477	1630.283230555432	-0	2.265609806032733	0	-0.08989097090526293	0	0	0	0	0.118515477827879	0
0.4	-0.1294597469713217	0.0405545276022895	-0	1.803322504192706	0	0.09478689634274365	-251.8513367549306	1766.543393165253	-0	2.278015873751332	0	-0.09032463543539974	0	0	0	0	0.1574717983721783	0
0.403125	-0.1961048224835835	0.06051934915306481	-0	1.817241642029858	0	0.09478689634274366	-239.255538464256	1742.747299541797	-0	2.280359040324212	0	-0.09040038380341449	0	3.469446951953614e-18	0	0	0.05765931199806928	0
0.40625	-0.2829283474527011	0.08601198543869318	-0	1.831555824679152	0	0.09478689634274365	-195.8032045461949	1648.302914056298	-0	2.279055348245975	0	-0.09034671916790903	0	0	0	0	0.01035666932034118	0
0.409375	-0.3884661321310794	0.1163688244781679	-0	1.846269260808177	0	0.09478689634274365	-182.4298061205795	1586.549875106171	-0	2.279047906321058	0	-0.09034352250559825	0	0	0	0	0.0005683097958382177	0
0.4125	-0.5067657618639406	0.1496944654720991	-0	1.861374541014322	0	0.09478689634274365	-169.7029123709964	1545.369700477163	-0	2.279502301021874	0	-0.09035604718296934	0	0	0	0	-0.001765699556557365	0
0.415625	-0.6272727844186928	0.1828812249732614	-0	1.876866614923989	0	0.09478689634274365	-158.688199208239	1511.061477451258	-0	2.279890662173713	0	-0.0903663346697893	0	0	0	0	-0.002962788614729206	0
0.41875	-0.7362774879630709	0.2120673795037697	-0	1.892740769435793	0	0.09478689634274365	-144.2087473907245	1478.983845893269	-0	2.28034795993803	0	-0.0903780206810782	0	0	0	0	-0.003140622897245038	0
0.421875	-0.8196515794127057	0.2334610087896404	-0	1.908989381174548	0	0.09478689634274365	-128.4459447649733	1441.948060867026	-0	2.280749335179955	0	-0.09038740820332382	0	0	0	0	-0.00310592662277287	0
0.425	-0.8677207031414933	0.2447176257192322	-0	1.925589910523461	0	0.09478689634274365	-104.8541943140178	1393.462854818629	-0	2.281151876332957	0	-0.0903949046789176	0	0	0	0	-0.00286495686542132	0
0.428125	-0.8770845244252892	0.2452822112610945	-0	1.942511427142887	0	0.09478689634274365	-72.66431063343231	1347.00326069466	-0	2.283544978763058	0	-0.09046930528140658	0	0	0	0	0.004303041739619928	0
0.43125	-0.849666634078859	0.2359478117502575	-0	1.95972191546673	0	0.09478689634274365	-43.23334536450957	1321.404984599945	-0	2.290546761708529	0	-0.09070456039422461	0	0	0	0	0.02929901763836096	0
0.434375	-0.7922763544989995	0.2187234889458048	-0	1.977192066744581	0	0.09478689634274365	-42.1693932896141	1291.856132883825	-0	2.299413544533968	0	-0.09101182147378942	0	0	0	0	0.05960150883221393	0
0.4375	-0.714738019406017	0.196345897016631	-0	1.994895363817173	0	0.09478689634274365	-45.27427927566103	1234.56377355274	-0	2.306682045233029	0	-0.09126403590467665	0	0	0	0	0.07071654990891663	0
0.440625	-0.6271211844012764	0.1715696605195411	-0	2.012801765810216	0	0.09478689634274363	-40.46242634825971	1168.090003960987	-0	2.312537938588029	0	-0.0914646967442737	0	-1.387778780781446e-17	0	0	0.06846393226402192	0
0.44375	-0.53755091546986	0.1465765327530198	-0	2.030881020857845	0	0.09478689634274365	-35.63107485526353	1107.799271981051	-0	2.317755342817571	0	-0.09164303775427082	0	0	0	0	0.06228936804442364	0
0.446875	-0.4520279066237234	0.1229325857287053	-0	2.04910398034961	0	0.09478689634274365	-30.48908747457783	1055.135998003803	-0	2.322477282574221	0	-0.09180398563881974	0	0	0	0	0.05487766702072872	0
0.45	-0.3740059281768048	0.1014986646368489	-0	2.067449275364863	0	0.09478689634274363	-24.69905509533557	1009.938518848088	-0	2.327053605184446	0	-0.09195971940574497	0	-6.938893903907228e-18	0	0	0.04774297920903203	0
0.453125	-0.3051393482667297	0.0826600809099465	-0	2.085899823220462	0	0.09478689634274365	-18.89460580020612	973.7229762798706	-0	2.331996198119204	0	-0.09212846424889955	0	0	0	0	0.04174628884080489	0
0.45625	-0.2456458321383745	0.06642917335593743	-0	2.104448866964209	0	0.09478689634274365	-13.87512508332771	948.2805523388886	-0	2.337856731277981	0	-0.09232993993774621	0	0	0	0	0.03684063764965662	0
0.459375	-0.1950494097289195	0.05264819032423304	-0	2.123095441994491	0	0.09478689634274365	-11.26340823533876	930.1169636768104	-0	2.344663078271139	0	-0.09256574723516067	0	0	0	0	0.03173639443963872	0
0.4625	-0.1525704986714264	0.0410920810489816	-0	2.141846876310994	0	0.09478689634274365	-9.559689880139553	915.041097432593	-0	2.352340593110291	0	-0.09283282096452354	0	0	0	0	0.02549358524433787	0
0.465625	-0.1172540641537037	0.03149490088453744	-0	2.160715956395714	0	0.09478689634274365	-10.58435149926621	895.9121816803492	-0	2.360380111399894	0	-0.09311388241668637	0	0	0	0	0.01767549285132963	0
0.46875	-0.08807481482597224	0.0235761601659026	-0	2.179726299904533	0	0.09478689634274365	-12.29673965726176	868.6151239626058	-0	2.368401922185102	0	-0.09339493094482468	0	0	0	0	0.009282704389902863	0
0.471875	-0.06460199193946217	0.01722619976178344	-0	2.198891506074427	0	0.09478689634274365	-7.076976794318915	847.5328944490956	-0	2.377636225387031	0	-0.09371686050964818	0	0	0	0	0.001836286741724535	0
0.475	-0.04713652104252969	0.0125311345481595	-0	2.218161046233954	0	0.09478689634274365	1.476995955989731	838.1762281832134	-0	2.389143876825056	0	-0.09411878464266896	0	0	0	0	-0.003700549876906101	0
0.478125	-0.03496260393030853	0.009282057084986433	-0	2.237463551420905	0	0.09478689634274365	1.349125830541886	820.8693157724267	-0	2.401980656037208	0	-0.09457228864666407	0	0	0	0	-0.003553199880006241	0
0.48125	-0.02662827603047226	0.007069736968133576	-0	2.256741298836381	0	0.09478689634274365	5.907803024305124	824.2658151611571	-0	2.408815409133925	0	-0.09481147488771056	0	0	0	0	0.0007663463985492225	0
0.484375	-0.02083088999639428	0.005534945712258437	-0	2.275959788591407	0	0.09478689634274365	24.57457894994558	855.462513048405	-0	2.408413535819928	0	-0.09478742909922559	0	0	0	0	2.63641237276957e-05	0
0.4875	-0.0163766155878468	0.004351574286304742	-0	2.2951647864285	0	0.09478689634274365	42.41695896647919	871.8564776263859	-0	2.408653261554151	0	-0.09478689896576332	0	0	0	0	1.878195421411988e-07	0
0.490625	-0.01270185769736512	0.00336956061106446	-0	2.314425248915686	0	0.09478689634274365	57.07726814406847	880.6157054388323	-0	2.40886552945663	0	-0.09478689635053367	0	0	0	0	7.607088292616027e-10	0
0.49375	-0.00977584237946064	0.002586496579633529	-0	2.333762342993433	0	0.09478689634274366	71.01590943936399	882.840034317408	-0	2.409068255390228	0	-0.09478689634276179	0	1.084202172485504e-19	0	0	2.311928426479426e-12	0
0.496875	-0.007529534441617282	0.001986208264081552	-0	2.353174782348851	0	0.09478689634274365	82.9202125183262	880.2007883248348	-0	2.409245309713132	0	-0.09478689634274369	0	0	0	0	7.105427357601002e-15	0
0.5	-0.00581401256352857	0.001528676594196592	-0	2.372662312344063	0	0.09478689634274365	93.7414891578164	873.6130079439254	-0	2.409408972102166	0	-0.09478689634274366	0	0	0	0	0	0
0.503125	-0.004497366788502417	0.00117836666456725	-0	2.392227263994919	0	0.09478689634274365	103.015763593134	863.9136668825053	-0	2.409552691785799	0	-0.09478689634274365	0	0	0	0	0	0
0.50625	-0.003466215128580066	0.0009049024859674686	-0	2.411871391306977	0	0.09478689634274365	111.1987620643646	851.6271297297794	-0	2.409682265403382	0	-0.09478689634274365	0	0	0	0	0	0
0.509375	-0.002638929843479991	0.0006864834303075063	-0	2.431593689149313	0	0.09478689634274366	118.0228877426681	837.2136804141204	-0	2.409793450479838	0	-0.09478689634274365	0	0	0	0	0	0
0.5125	-0.001953984886466123	0.0005067941757197967	-0	2.451380095219172	0	0.09478689634274365	123.6707721371982	821.4733673975544	-0	2.409887405526229	0	-0.09478689634274365	0	0	0	0	0	0
0.515625	-0.001395958967569829	0.0003613558643547125	-0	2.471213380948388	0	0.09478689634274365	128.4468009358928	804.4947036763483	-0	2.409968523469324	0	-0.09478689634274365	0	0	0	0	0	0
0.51875	-0.0009862769907204895	0.0002550172300220014	-0	2.491083541943543	0	0.09478689634274365	133.050925747352	785.2384492788253	-0	2.410050219319996	0	-0.09478689634274365	0	0	0	0	0	0
0.521875	-0.00070716081043317	0.0001827043618337063	-0	2.510981712899339	0	0.09478689634274365	137.3187920002437	763.0014183761779	-0	2.410132921304221	0	-0.09478689634274365	0	0	0	0	0	0
0.525	-0.0005134056821686256	0.0001325349120570108	-0	2.530904717825228	0	0.09478689634274365	141.1551259002582	738.1881815051399	-0	2.410215514138705	0	-0.09478689634274363	0	0	0	0	-1.77635683940025e-15	0
0.528125	-0.0003745221976407144	9.657758568413602e-05	-0	2.550855007188869	0	0.09478689634274365	144.4228098157299	711.1822112628382	-0	2.410295948442718	0	-0.09478689634274365	0	0	0	0	0	0
0.53125	-0.0002734853548233945	7.043033742549191e-05	-0	2.57083602683211	0	0.09478689634274365	147.0868836694412	682.3364061002994	-0	2.410373902069015	0	-0.09478689634274365	0	0	0	0	0	0
0.534375	-0.0001993645553379209	5.126518554893148e-05	-0	2.590850217707309	0	0.09478689634274365	149.0381835530341	651.8738671352087	-0	2.410448002108288	0	-0.09478689634274365	0	0	0	0	0	0
0.5375	-0.0001448791986047674	3.719529199317103e-05	-0	2.61089809012759	0	0.09478689634274365	150.2971803893694	620.0108825658075	-0	2.410519200157564	0	-0.09478689634274365	0	0	0	0	0	0
0.540625	-0.0001048678361841854	2.687989384010255e-05	-0	2.63097870308478	0	0.09478689634274365	150.7671610022362	586.9267975250935	-0	2.410586365955282	0	-0.09478689634274365	0	0	0	0	0	0
0.54375	-7.561494747498254e-05	1.935211212047546e-05	-0	2.651088123698761	0	0.09478689634274365	150.4515787285079	552.8453743891255	-0	2.410649994249493	0	-0.09478689634274365	0	0	0	0	0	0
0.546875	-5.43619862186223e-05	1.389373409492329e-05	-0	2.671220351784622	0	0.09478689634274365	149.2874957074488	517.9704054920043	-0	2.41070928632312	0	-0.09478689634274365	0	0	0	0	0	0
0.55	-3.906653048449745e-05	9.973170617902613e-06	-0	2.691364921128534	0	0.09478689634274365	147.2988783439698	482.5623105261179	-0	2.410764772803036	0	-0.09478689634274365	0	0	0	0	0	0
0.553125	-2.816712362430274e-05	7.184696633523801e-06	-0	2.711508593123311	0	0.09478689634274365	142.8062091710308	445.2170751058962	-0	2.410786609134218	0	-0.09478689634274365	0	0	0	0	0	0
0.55625	-2.048232609384748e-05	5.221983969496609e-06	-0	2.731634268190584	0	0.09478689634274366	134.9174177347183	405.0290927957597	-0	2.41075721964733	0	-0.09478689634274365	0	4.235164736271502e-22	0	0	0	0
0.559375	-1.510380223516243e-05	3.850312275081519e-06	-0	2.751723295522051	0	0.09478689634274365	124.8883075449152	365.9764398568182	-0	2.41066819683757	0	-0.09478689634274365	0	0	0	0	0	0
0.5625	-1.135109623055977e-05	2.894371552873337e-06	-0	2.771756919730451	0	0.09478689634274365	112.5283305465562	332.8640174233561	-0	2.41044973948628	0	-0.09478689634274365	0	0	0	0	0	0
0.565625	-8.708706579242698e-06	2.221743806668522e-06	-0	2.791720241129109	0	0.09478689634274365	98.01306664911968	305.9007723841409	-0	2.410086755186408	0	-0.09478689634274365	0	0	0	0	0	0
0.56875	-6.777882009127337e-06	1.730157467507479e-06	-0	2.81161608214434	0	0.09478689634274365	82.78623371952169	283.573628727391	-0	2.409640650438198	0	-0.09478689634274365	0	0	0	0	0	0
0.5718749999999999	-5.296464990604353e-06	1.352424903601826e-06	-0	2.831466753057011	0	0.09478689634274365	67.26059762322285	262.7664126918447	-0	2.409163880312634	0	-0.09478689634274365	0	0	0	0	0	0
0.575	-4.104535633871417e-06	1.047597491813928e-06	-0	2.851329915821416	0	0.09478689634274365	52.32777911949537	238.7896428478094	-0	2.408733603063026	0	-0.09478689634274365	0	0	0	0	0	0
0.578125	-3.132145795865335e-06	7.983075644008784e-07	-0	2.871254518896149	0	0.09478689634274365	39.30748717859258	210.9378924655832	-0	2.408399782850418	0	-0.09478689634274365	0	0	0	0	0	0
0.58125	-2.365784860838812e-06	6.018541528800727e-07	-0	2.891237719465606	0	0.09478689634274365	28.29955156427875	180.4400472075831	-0	2.408150967922912	0	-0.09478689634274365	0	0	0	0	0	0
0.584375	-1.778575591030919e-06	4.515823592543763e-07	-0	2.91126687870273	0	0.09478689634274365	19.42320292051976	147.9583829301037	-0	2.407990955596605	0	-0.09478689634274365	0	0	0	0	0	0
0.5875	-1.345223672130468e-06	3.409568349833906e-07	-0	2.931311016542478	0	0.09478689634274365	12.74156171061029	114.5330386659782	-0	2.407929769791484	0	-0.09478689634274365	0	0	0	0	0	0
0.590625	-1.038587247427926e-06	2.629158735148788e-07	-0	2.951325379599005	0	0.09478689634274365	7.574708519032542	80.33937638468845	-0	2.407940773710333	0	-0.09478689634274365	0	0	0	0	0	0
0.59375	-8.272485361189829e-07	2.093074841006628e-07	-0	2.971256008979426	0	0.09478689634274365	3.284094930120519	44.67632230456283	-0	2.407969587291618	0	-0.09478689634274365	0	0	0	0	0	0
0.596875	-6.801144168172633e-07	1.721167338693194e-07	-0	2.99105843554037	0	0.09478689634274365	1.328798723622152	-2.688332008976102	-0	2.404012757039256	0	-0.09478689634274365	0	0	0	0	0	0
0.6000000000000001	-5.678694474688977e-07	1.43827795757213e-07	-0	3.01071880044207	0	0.09478689634274365	1.576688218809181e-05	-1.416331126361789e-05	-0	2.401404131351437	0	-0.09478689634274365	0	0	0	0	0	0
0.6031249999999999	-4.750231264907756e-07	1.204615462711447e-07	-0	3.030243628835641	0	0.09478689634274365	3.704538919635444e-12	-2.53103919134333e-12	-0	2.403651276488409	0	-0.09478689634274363	0	0	0	0	-5.048709793414476e-29	0
0.60625	-3.951635871999731e-07	1.003600705488458e-07	-0	3.049658695009504	0	0.09478689634274365	-0	-0	-0	0	0	0	0	0	0	0	0	0
0.609375	-3.257940912989145e-07	8.289266871201349e-08	-0	3.068972531252584	0	0.09478689634274365	1.343131496691823e-14	-8.153237757259568e-15	-0	0	0	0	0	0	0	0	-1.273112659516019e-15	0
0.6125	-2.648634128461142e-07	6.754164715964716e-08	-0	3.088186021553109	0	0.09478689634274365	3.340631646326639e-14	-2.015238007259617e-14	-0	2.423491304459415	0	-0.09478689634274365	0	0	0	0	0	0
0.615625	-2.099000652887989e-07	5.366652611445595e-08	-0	3.10731144416864	0	0.09478680497091904	9.443349295894868e-14	-5.65142309086514e-14	-0	2.43071397245344	0	-0.09478689634274365	0	-2.220673292308194e-16	0	0	0	0
0.61875	-1.586808984578419e-07	4.068814201303995e-08	-0	3.126365818177721	0	0.09478577581561849	2.742548003878662e-13	-1.627704454017325e-13	-0	2.438008804606359	0	-0.09478689634274363	0	-1.753679590262881e-15	0	0	-6.310887241768094e-30	0
0.621875	-1.10652600278314e-07	2.846050314278881e-08	-0	3.145222211397232	0	0.09477641519165556	8.561015313342367e-13	-5.037677229984612e-13	-0	2.445378176749486	0	-0.09478689634274365	0	-9.366556989914896e-15	0	0	0	0
0.625	-6.777304292983428e-08	1.749429741942196e-08	-0	3.161954425981	0	0.09467729557812439	2.779988204390675e-12	-1.621993139150571e-12	-0	2.452824290819713	0	-0.09478689634274365	0	-4.537803129102443e-14	0	0	0	0
