DataType=double
version=3
OpenSimVersion=4.6-2026-06-22-85aaf64
endheader
time	ground_force_r_vx	ground_force_r_vy	ground_force_r_vz	ground_force_r_px	ground_force_r_py	ground_force_r_pz	ground_force_l_vx	ground_force_l_vy	ground_force_l_vz	ground_force_l_px	ground_force_l_py	ground_force_l_pz	ground_torque_r_x	ground_torque_r_y	ground_torque_r_z	ground_torque_l_x	ground_torque_l_y	ground_torque_l_z
0	-84.26944539984575	24.40319872606106	-0	1.199138102130945	0	0.08956897507908834	3.138435125094815	10.09917362191095	-0	0.7764609172518413	0	-0.09478689634274365	0	-1.191179298098348e-15	0	0	-5.99036445419373e-18	0
0.002625090021028475	-100.936993989465	30.40761723773241	-0	1.209919578534409	0	0.08956897507908836	-0.005718617386150425	-1.442008763818595	-0	0.7751422388351972	0	-0.09478689634274365	0	-5.642832933384274e-16	0	0	1.03655366248053e-20	0
0.005250180042056951	-116.1799976936948	36.58578555084662	-0	1.220391369735508	0	0.08956897507908836	0.04249369612180563	-0.06924086947603778	-0	0.7730650689349452	0	-0.09478689634274365	0	3.363076569672662e-16	0	0	-3.216134503840289e-20	0
0.007875270063085426	-135.9484699817949	45.00263748746859	-0	1.230418455217537	0	0.08956897507908836	0.00114816915856823	-0.001201254894746539	-0	0.7730907624037499	0	-0.09478689634274365	0	-4.81330655894542e-16	0	0	2.312345423284525e-21	0
0.0105003600841139	-167.6988317007014	58.92465456827345	-0	1.239851110637461	0	0.08956897507908837	2.628651646812764e-05	-2.468878521281508e-05	-0	0.7747852607716849	0	-0.09478689634274365	0	4.25568968251595e-15	0	0	-1.982483326087063e-22	0
0.01312545010514238	-219.338709862551	83.17759085463744	-0	1.24853548001481	0	0.08956897507908922	1.033343862991184e-06	-8.633236123776577e-07	-0	0.7772206622858748	0	-0.09478689634274365	0	7.29479802874087e-15	0	0	-2.381040851803093e-24	0
0.01575054012617085	-298.760792590273	125.9126093320602	-0	1.256259426408187	0	0.08956897507909016	9.651734550589212e-08	-7.192631807166731e-08	-0	0.7805422177759368	0	-0.09478689634274365	0	8.082259275169296e-15	0	0	-5.298562135236609e-26	0
0.01837563014719933	-408.3685343016991	201.2509760974356	-0	1.262817217147987	0	0.08956897507909188	2.106087787547245e-08	-1.416337341494899e-08	-0	0.7848193903941787	0	-0.09478689634274365	0	-2.308724943503266e-15	0	0	1.38342570242927e-26	0
0.0210007201682278	-527.8090430093098	330.0438058177251	-0	1.267999458814215	0	0.0895689750791	8.537445296175499e-09	-5.264605563153352e-09	-0	0.7900084509147487	0	-0.09478689634274366	0	-1.789182570895942e-13	0	0	1.484333856463491e-25	0
0.02362581018925628	-582.6691122383538	536.8533620291466	-0	1.271588127489071	0	0.08956897507918421	5.036066747394412e-09	-2.895822613577026e-09	-0	0.7960108416385977	0	-0.09478689634274365	0	-5.020069356846216e-12	0	0	-3.481389284094427e-26	0
0.02625090021028476	-156.5039051664085	789.9797089040803	-0	1.275750055198381	0	0.08956897508022559	4.933296034016858e-09	-2.680417052039645e-09	-0	0.8026989275681842	0	-0.09478689634274366	0	-6.487855575435731e-10	0	0	1.12063248072074e-25	0
0.02887599023131323	-173.6266493050076	1036.355162222695	-0	1.276353977893456	0	0.08956897508856995	5.812947901644046e-09	-3.013872993027224e-09	-0	0.8099591738634424	0	-0.09478689634274365	0	-5.959588130381971e-09	0	0	1.006620395520606e-26	0
0.0315010802523417	-121.570816507056	1259.991496006291	-0	1.277109432346543	0	0.08956897514014221	4.977005670442577e-09	-2.478349698964143e-09	-0	0.8177249987290373	0	-0.09478689634274365	0	-3.693524956351235e-08	0	0	1.587973563858213e-26	0
0.03412617027337018	-135.8610536966866	1437.836809876435	-0	1.277425076713146	0	0.08956897542605104	3.38743362715449e-09	-1.626334537624767e-09	-0	0.8259614961813382	0	-0.09478689634274365	0	-2.11424252575835e-07	0	0	1.921758546820328e-26	0
0.03675126029439866	-107.0631845011644	1563.600296305621	-0	1.277910970874953	0	0.0895689768962015	2.011992483052633e-09	-9.340381895190081e-10	-0	0.8346486864079599	0	-0.09478689634274365	0	-1.148823628483261e-06	0	0	4.815585589476648e-27	0
0.03937635031542714	-113.0502738985317	1637.484132711011	-0	1.278194176435073	0	0.08956898383027449	1.167950612209341e-09	-5.254798336480218e-10	-0	0.8437685565241341	0	-0.09478689634274365	0	-5.540211852516041e-06	0	0	3.323808573687096e-27	0
0.04200144033645561	-85.37482775130906	1664.656787407954	-0	1.278642146004892	0	0.08956901346773431	7.072196652047429e-10	-3.090170518025865e-10	-0	0.8533007108499736	0	-0.09478689634274366	0	-2.369788853262647e-05	0	0	7.060080380282026e-27	0
0.04462653035748408	-80.55094416368205	1652.662768806516	-0	1.278951913966892	0	0.08956912547533188	4.760603808644522e-10	-2.024022842008624e-10	-0	0.8632230217600128	0	-0.09478689634274365	0	-8.670707002053472e-05	0	0	1.018457683196926e-27	0
0.04725162037851256	-53.30320663508768	1609.908322757722	-0	1.279395305509744	0	0.08956949789007783	3.652490247864856e-10	-1.51368022960908e-10	-0	0.8735114632465872	0	-0.09478689634274365	0	-0.0002742105845733198	0	0	-2.921850668102845e-27	0
0.04987671039954104	-43.16467671546682	1544.844964018822	-0	1.279743197815736	0	0.08957057020813194	3.259626245988736e-10	-1.318588193717675e-10	-0	0.8841461599040626	0	-0.09478689634274365	0	-0.0007388796129224439	0	0	-9.253409131377997e-28	0
0.05250180042056951	-19.50990704905752	1464.93918741214	-0	1.280228882207047	0	0.08957325511960315	3.358971259158935e-10	-1.326834604063708e-10	-0	0.895130540247668	0	-0.09478689634274365	0	-0.001723818105512227	0	0	9.166754973735775e-28	0
0.05512689044159799	-8.863818714198086	1376.936765714064	-0	1.280705700420142	0	0.08957904360072441	3.910683537811375e-10	-1.507172524155119e-10	-0	0.9064931889877595	0	-0.09478689634274365	0	-0.003465263517185225	0	0	2.469806199796177e-27	0
0.05775198046262646	9.030527316269973	1285.569855149197	-0	1.281385982403004	0	0.08958983697592543	4.923772025699898e-10	-1.85163635433759e-10	-0	0.9182217308605251	0	-0.09478689634274363	0	-0.006087381321636181	0	0	-5.323030210185863e-27	0
0.06037707048365493	18.88406454286906	1194.060688062256	-0	1.282183196329706	0	0.08960713837949812	6.493364707846783e-10	-2.386203042490819e-10	-0	0.9302735702044359	0	-0.09478689634274365	0	-0.009389329656965545	0	0	3.571129515501186e-27	0
0.06300216050468341	34.38852457919123	1103.222355757114	-0	1.28325739152245	0	0.08963200987142647	8.686289374711413e-10	-3.12378144838309e-10	-0	0.9426237116573032	0	-0.09478689634274363	0	-0.0132953976326628	0	0	-8.407791079400368e-27	0
0.06562725052571189	45.27960528758135	1013.926991100524	-0	1.284544867313665	0	0.08966551445692493	1.154131035562642e-09	-4.068073915904102e-10	-0	0.9552442086882882	0	-0.09478689634274365	0	-0.01795708678693065	0	0	-4.580823462626566e-27	0
0.06825234054674037	58.14250574752941	927.4840620438979	-0	1.286267831735191	0	0.08971260309089982	1.504135201156841e-09	-5.204840146010433e-10	-0	0.9681064712048889	0	-0.09478689634274365	0	-0.02442278797541172	0	0	-8.7383175264766e-27	0
0.07087743056776885	67.5292117781303	847.136169842991	-0	1.289018598113549	0	0.08979586774330131	1.915644409705006e-09	-6.518150416223473e-10	-0	0.9811823777940218	0	-0.09478689634274365	0	-0.03667234236779111	0	0	2.043334126924985e-27	0
0.07350252058879732	70.1759046648542	783.3990384954426	-0	1.294636538977901	0	0.08998155930636731	2.377712477140458e-09	-7.967515072529986e-10	-0	0.9944473077186079	0	-0.09478689634274363	0	-0.06399654523117597	0	0	-2.109493860779577e-26	0
0.0761276106098258	52.64943015452614	752.9893816860049	-0	1.304874142979006	0	0.09033921055999702	2.865772809054603e-09	-9.470557281720057e-10	-0	1.007879037566067	0	-0.09478689634274365	0	-0.1072622109257801	0	0	-1.728903242797851e-26	0
0.07875270063085427	27.7534177302974	748.969483861242	-0	1.317668069758854	0	0.09079130793611138	3.318848482666988e-09	-1.083013854250964e-09	-0	1.021461510347873	0	-0.09478689634274365	0	-0.1384359305407999	0	0	-2.546750963883096e-26	0
0.08137779065188275	12.64757557011215	746.7181661856888	-0	1.329903751673904	0	0.09122077795261313	3.678215114937163e-09	-1.186458617045541e-09	-0	1.035183260951067	0	-0.09478689634274365	0	-0.1426340419688624	0	0	1.119213875898208e-26	0
0.08400288067291121	4.425327469011595	739.1879647865919	-0	1.341500133551879	0	0.09162582370177795	3.937795460950123e-09	-1.256618110889427e-09	-0	1.049038382821909	0	-0.09478689634274365	0	-0.132946607566952	0	0	2.136077653128508e-26	0
0.0866279706939397	-3.837017456214266	728.9852430972815	-0	1.352722974916904	0	0.0920183143891269	4.108671205884587e-09	-1.298018930435333e-09	-0	1.063021541617353	0	-0.09478689634274366	0	-0.1172939135491434	0	0	4.077491242562399e-26	0
0.08925306071496818	-11.14779178778381	717.4440035507181	-0	1.363493856375593	0	0.09239498517595134	4.208539324574734e-09	-1.317042706386022e-09	-0	1.077125949840198	0	-0.09478689634274366	0	-0.09824569663901624	0	0	4.735306710137596e-26	0
0.09187815073599664	-17.6859192509386	705.5914793891566	-0	1.373782175900477	0	0.09275477428603929	4.255900781371826e-09	-1.320043439961956e-09	-0	1.091343579462957	0	-0.09478689634274365	0	-0.07813488961101375	0	0	-1.184946700261211e-26	0
0.09450324075702511	-23.28263387554384	693.6960054295579	-0	1.38356040329519	0	0.09309665606368338	4.269866831785837e-09	-1.313347654962393e-09	-0	1.105663801552622	0	-0.09478689634274365	0	-0.05861909905472866	0	0	5.326048043600511e-28	0
0.09712833077805359	-27.91758906032856	681.9150696034299	-0	1.392814115802903	0	0.09342014613038085	4.257246669020248e-09	-1.299300876047973e-09	-0	1.120074554779433	0	-0.09478689634274365	0	-0.04091667967870868	0	0	-1.267671961481564e-26	0
0.09975342079908207	-31.64682722438667	670.3273153903563	-0	1.401536354154346	0	0.09372506448215059	4.190523400764672e-09	-1.269773380906044e-09	-0	1.134561151251394	0	-0.09478689634274365	0	-0.02587681047560425	0	0	-4.609754944258363e-27	0
0.1023785108201106	-34.28528689137421	658.4303356607091	-0	1.409813943614801	0	0.09401446881410158	3.922139742167376e-09	-1.180700799239098e-09	-0	1.149106658929735	0	-0.09478689634274365	0	-0.01398501075294747	0	0	2.000629970963429e-26	0
0.105003600841139	-35.69976812041054	644.7466759482328	-0	1.417948808080112	0	0.09429907882197537	3.07306641686551e-09	-9.197128574413854e-10	-0	1.163691933539667	0	-0.09478689634274365	0	-0.005487672844975026	0	0	-1.820354225920616e-26	0
0.1076286908621675	-36.38722960452655	629.4177534116318	-0	1.426014947796135	0	0.09458180406951347	1.156193533945832e-09	-3.442496713680785e-10	-0	1.178301241032746	0	-0.09478689634274365	0	-0.0007939167612954218	0	0	5.217495746849751e-27	0
0.110253780883196	-35.99856731558531	622.0448649193449	-0	1.431926484168793	0	0.09478828325459965	-1.596320606252335e-09	4.731244024092502e-10	-0	1.19292654021006	0	-0.09478689634274365	0	-5.544071849336704e-06	0	0	-6.102392413975932e-27	0
0.1128788709042245	-32.80068606425247	633.8034941867496	-0	1.432859487260166	0	0.09481666274123275	-3.756983526765693e-09	1.10891524303058e-09	-0	1.207562772306056	0	-0.09478689634274365	0	-0.0003683765336095665	0	0	-1.904564389144408e-26	0
0.1155039609252529	-27.45404399107132	648.6333073330647	-0	1.432431778660242	0	0.09479572489075935	-4.487253228972114e-09	1.319301541825475e-09	-0	1.222214926511582	0	-0.09478689634274366	0	-0.0001877529966098093	0	0	-8.654982367844603e-26	0
0.1181290509462814	-22.02392818498021	659.065865612042	-0	1.432385376575748	0	0.09478855077031841	-4.258709015505039e-09	1.247297782423963e-09	-0	1.236889904399684	0	-0.09478689634274363	0	-5.069549956539483e-05	0	0	4.705985585284189e-26	0
0.1207541409673099	-16.5069761934287	666.5746526300893	-0	1.432497043513549	0	0.09478715735422411	-3.680381857708631e-09	1.07379348387015e-09	-0	1.251588091310657	0	-0.09478689634274365	0	-1.057070183064686e-05	0	0	2.351237997779403e-26	0
0.1233792309883383	-10.98787714292068	671.941416962126	-0	1.432637093247858	0	0.09478693411202561	-3.053979417129091e-09	8.876296710443701e-10	-0	1.266308034874738	0	-0.09478689634274365	0	-1.919307986502695e-06	0	0	1.107505991381261e-26	0
0.1260043210093668	-5.371325753216171	675.5755847971122	-0	1.432779913760995	0	0.09478690151317994	-2.489639136538057e-09	7.208511142495998e-10	-0	1.281046699755835	0	-0.09478689634274365	0	-3.184524071182866e-07	0	0	6.616569466617201e-27	0
0.1286294110303953	0.2426334246462631	677.6328510668498	-0	1.432919939025075	0	0.09478689702087724	-2.026965629853586e-09	5.846448247333089e-10	-0	1.295803840579277	0	-0.09478689634274365	0	-4.937000513000169e-08	0	0	-7.342624471705115e-27	0
0.1312545010514238	5.881775879272001	678.2677665517474	-0	1.433057214978595	0	0.09478689642726171	-1.687484790038555e-09	4.847775589101416e-10	-0	1.310586055506608	0	-0.09478689634274365	0	-7.137676622465324e-09	0	0	-1.232457299307455e-26	0
0.1338795910724523	11.4926067445598	677.5132829323143	-0	1.433191173423339	0	0.09478689635259498	-1.454475799839759e-09	4.160222642894666e-10	-0	1.325396547793955	0	-0.09478689634274366	0	-9.508347733143928e-10	0	0	-9.413206021037608e-27	0
0.1365046810934807	17.10559073826178	675.5015936799094	-0	1.433322527051311	0	0.09478689634379774	-1.294768395530128e-09	3.685958203251825e-10	-0	1.340225707273322	0	-0.09478689634274365	0	-1.148969555678655e-10	0	0	1.795521914948185e-27	0
0.1391297711145092	22.68102285371044	672.3160481711386	-0	1.433450921034596	0	0.0947868963428454	-1.189585093241102e-09	3.369375561582249e-10	-0	1.355062182739675	0	-0.09478689634274363	0	-1.240089724686687e-11	0	0	1.036491487929442e-26	0
0.1417548611355377	28.23152788092181	668.0769872012312	-0	1.433576764528791	0	0.09478689634275271	-1.129837360786763e-09	3.182917851215623e-10	-0	1.369894830277538	0	-0.09478689634274365	0	-1.224164142105771e-12	0	0	1.890608851429013e-27	0
0.1443799511565662	33.72759407645086	662.8566767500984	-0	1.433699789807365	0	0.09478689634274449	-1.112735633884255e-09	3.116963358112688e-10	-0	1.384712646915517	0	-0.09478689634274366	0	-1.252956498916139e-13	0	0	-2.118489821297714e-26	0
0.1470050411775946	39.17797660556817	656.7541742625164	-0	1.433820305776012	0	0.09478689634274373	-1.138996292918246e-09	3.171650428606479e-10	-0	1.399504846857194	0	-0.09478689634274365	0	-1.363219872727428e-14	0	0	-2.388931231214769e-27	0
0.1496301311986231	44.55944449679417	649.8377159809642	-0	1.433938084408461	0	0.09478689634274366	-1.216074006476921e-09	3.365563425229897e-10	-0	1.414261432649589	0	-0.09478689634274365	0	-2.122312394726705e-15	0	0	-3.203675791435947e-27	0
0.1522552212196516	49.88214199243259	642.1826128444269	-0	1.434053431860402	0	0.09478689634274366	-1.356432562213804e-09	3.730431383807052e-10	-0	1.428973935770352	0	-0.09478689634274365	0	-7.161386243802115e-16	0	0	-5.951711360808742e-27	0
0.1548803112406801	55.12469380528061	633.8474288462349	-0	1.434166107664635	0	0.09478689634274365	-1.584690781277907e-09	4.330234132991001e-10	-0	1.443635415893038	0	-0.09478689634274365	0	-3.123549175385589e-16	0	0	6.590244637432315e-27	0
0.1575054012617085	60.28440152436235	624.9060137704342	-0	1.434276166095074	0	0.09478689634274365	-1.94155759221232e-09	5.270831464446123e-10	-0	1.458240611686713	0	-0.09478689634274365	0	2.672950409556035e-17	0	0	-3.528510946549465e-27	0
0.160130491282737	65.34718913028442	615.4028906494115	-0	1.434383461989691	0	0.09478689634274365	-2.49522330580306e-09	6.72931893686781e-10	-0	1.472785046852213	0	-0.09478689634274366	0	2.300241421287985e-16	0	0	-3.343413359186248e-26	0
0.1627555813037655	70.30973726624168	605.3863532196204	-0	1.43448803951557	0	0.09478689634274365	-3.366316589317592e-09	9.018502662544837e-10	-0	1.487265615463633	0	-0.09478689634274365	0	3.804485871942769e-16	0	0	-1.326014051620869e-27	0
0.1653806713247939	75.15704718459648	594.8895869367391	-0	1.434589726904111	0	0.09478689634274365	-4.763246670426581e-09	1.267644174350741e-09	-0	1.501680866915978	0	-0.09478689634274365	0	2.535375101124531e-16	0	0	-1.193405171189158e-26	0
0.1680057613458224	79.88242201122256	583.9479302595204	-0	1.434688508775208	0	0.09478689634274365	-7.062452703977158e-09	1.867105665224208e-09	-0	1.516031933901802	0	-0.09478689634274365	0	2.629807255851148e-16	0	0	1.726783621397304e-26	0
0.1706308513668509	84.47027881751643	572.5837240389134	-0	1.434784206478537	0	0.09478689634274365	-1.095268891395684e-08	2.876488728028831e-09	-0	1.530322004678455	0	-0.09478689634274365	0	-2.516464592751921e-16	0	0	1.258572166169106e-26	0
0.1732559413878794	88.91170450087291	560.8201244633584	-0	1.434876778371846	0	0.09478689634274365	-1.771900050663902e-08	4.622962818536792e-09	-0	1.544557339792308	0	-0.09478689634274365	0	6.819646320301541e-16	0	0	-3.523901316435321e-26	0
0.1758810314089079	93.18976747136767	548.6793512213536	-0	1.434966006238984	0	0.09478689634274365	-2.981123959760359e-08	7.727018536517176e-09	-0	1.558746321287141	0	-0.09478689634274365	0	7.186856939559921e-16	0	0	9.910326606339297e-26	0
0.1785061214299364	97.2849578218613	536.1948101422462	-0	1.435051594285536	0	0.09478689634274365	-5.195667193528201e-08	1.33793759102918e-08	-0	1.572899843477682	0	-0.09478689634274365	0	1.331833310639356e-16	0	0	2.132707006119158e-25	0
0.1811312114509648	101.1779809008352	523.3743965302776	-0	1.43513330951457	0	0.09478689634274365	-9.339196231735328e-08	2.38936772545782e-08	-0	1.587029945208295	0	-0.09478689634274365	0	-3.318588667391035e-16	0	0	3.620138707959535e-25	0
0.1837563014719933	104.865509992848	510.2045192386361	-0	1.435211350104386	0	0.09478689634274365	-1.722479010940199e-07	4.378559444785186e-08	-0	1.601150059337334	0	-0.09478689634274365	0	-1.173474797744527e-17	0	0	-6.160526953672818e-25	0
0.1863813914930217	108.3088589782135	496.6957098601616	-0	1.435285076421744	0	0.09478689634274365	-3.241043505675737e-07	8.186442635438499e-08	-0	1.615276610568105	0	-0.09478689634274365	0	3.847965205360082e-17	0	0	-3.163505700217652e-24	0
0.1890064815140502	111.4395745033221	482.9341263107503	-0	1.435352861978392	0	0.09478689634274365	-6.186404226383106e-07	1.552800654636647e-07	-0	1.629427002410275	0	-0.09478689634274365	0	7.728245551865622e-16	0	0	5.484791621345945e-25	0
0.1916315715350787	114.2354420990012	468.9543213266689	-0	1.435414213695827	0	0.09478689634274365	-1.191029323392495e-06	2.971130376983152e-07	-0	1.643616106211015	0	-0.09478689634274365	0	1.024584378520378e-16	0	0	3.332696801879364e-24	0
0.1942566615561072	116.7163818982937	454.6971881936007	-0	1.43547009218923	0	0.09478689634274365	-2.299616045799844e-06	5.702480970313053e-07	-0	1.657855416362021	0	-0.09478689634274365	0	-8.11082987458005e-16	0	0	-7.252143895544613e-24	0
0.1968817515771357	118.8742923185958	440.0968035563357	-0	1.435520968234582	0	0.09478689634274365	-4.424980349870086e-06	1.091030263378699e-06	-0	1.672159687016498	0	-0.09478689634274365	0	-1.134735347592274e-16	0	0	-7.29857101798753e-24	0
0.1995068415981641	120.6910313800316	425.1149366600578	-0	1.435567012082035	0	0.09478689634274366	-8.426163685811121e-06	2.066263591153627e-06	-0	1.686548029139657	0	-0.09478689634274365	0	-1.509669469028112e-15	0	0	-4.020676272505752e-23	0
0.2021319316191926	122.1433531109094	409.7049636981123	-0	1.435608411519327	0	0.09478689634274365	-1.575392007394758e-05	3.843182773169241e-06	-0	1.701042767017897	0	-0.09478689634274365	0	7.321489680666511e-16	0	0	4.134469030040189e-23	0
0.2047570216402211	123.2092059103089	393.8367666313367	-0	1.435645362041951	0	0.09478689634274365	-2.865834118424269e-05	6.956895610176899e-06	-0	1.715670649514386	0	-0.09478689634274365	0	-6.680117282114481e-16	0	0	1.092802735551638e-22	0
0.2073821116612496	123.8260053513601	377.5090476593818	-0	1.435676846366579	0	0.09478689634274365	-5.021561416575403e-05	1.213338040588094e-05	-0	1.730461367490698	0	-0.09478689634274365	0	-3.24905947580272e-16	0	0	2.329720623960557e-23	0
0.210007201682278	123.8878537536602	360.7659021606449	-0	1.43570032043795	0	0.09478689634274366	-8.37914144838754e-05	2.015767906343808e-05	-0	1.745448532951399	0	-0.09478689634274365	0	-2.326340715474993e-15	0	0	5.445676831749528e-22	0
0.2126322917033065	123.2804226176239	343.7482609981473	-0	1.435711735422078	0	0.09478689634274365	-0.0001313140128516921	3.146525739646341e-05	-0	1.760661285712953	0	-0.09478689634274365	0	1.860339137185409e-17	0	0	5.056727155653349e-22	0
0.215257381724335	121.9285180169041	326.9230266918254	-0	1.435704326107034	0	0.09478689634274365	-0.0001901008593226973	4.54249129431299e-05	-0	1.776086892784307	0	-0.09478689570624169	0	2.195521802080035e-16	0	0	2.370363646749281e-15	0
0.2178824717453635	119.9925381431009	310.4359251305904	-0	1.435680716555159	0	0.09478689634274365	-0.0002500490251802356	5.969017851623841e-05	-0	1.791712915320117	0	-0.09478688888841956	0	1.956644017186523e-16	0	0	3.228344275139164e-14	0
0.2205075617663919	117.8333856498648	293.7619650046137	-0	1.435657673054099	0	0.09478689634274365	-0.0002945011192402139	7.03543504600503e-05	-0	1.807554307843048	0	-0.09478681283221974	0	7.212115571478496e-16	0	0	3.669733405946381e-13	0
0.2231326517874204	115.3871399469654	276.7176658759529	-0	1.435636316352832	0	0.09478689634274365	-0.0003067491383679215	7.345732981613898e-05	-0	1.823603300557314	0	-0.09478591627098196	0	-7.641862975964964e-16	0	0	3.726136446882464e-12	0
0.2257577418084489	112.1779622506363	259.6368862386719	-0	1.435597303666008	0	0.09478689634274365	-0.0002788145651268342	6.703430950001808e-05	-0	1.839649316384006	0	-0.09477483329580039	0	8.233872605036098e-16	0	0	3.275032312090817e-11	0
0.2283828318294774	108.040070362951	242.536364122074	-0	1.435534163559894	0	0.09478689634274365	-0.0002216152016606582	5.358032091136529e-05	-0	1.852784115880665	0	-0.09463391816112827	0	-5.500864736835273e-16	0	0	2.313809195051038e-10	0
0.2310079218505058	103.1108951177382	225.1505044440866	-0	1.43545538885847	0	0.09478689634274365	-0.0001946600331239407	4.742984135776474e-05	-0	1.833259128194937	0	-0.09322810859742961	0	-3.706018334767721e-16	0	0	9.003372895823064e-10	0
0.2336330118715343	97.46322161330059	207.3028462083334	-0	1.435366827211964	0	0.09478689634274365	-0.000522574750325029	0.0001283263928139358	-0	1.765098552048459	0	-0.09021993636091387	0	-8.747225470485697e-16	0	0	4.073413872533706e-10	0
0.2362581018925628	91.13449066269776	188.8974689620714	-0	1.435272329266654	0	0.09478689634274365	-0.003147773210650868	0.0007778217324871813	-0	1.756067609069038	0	-0.0895952836816319	0	-4.169798217049717e-16	0	0	-1.261107471713202e-10	0
0.2388831919135913	84.13644828401878	169.9045305904055	-0	1.435174094460693	0	0.09478689634274363	-0.0184527078757756	0.004591856904568555	-0	1.763714733337683	0	-0.08956892125035182	0	1.3592509075823e-15	0	0	4.409272297823757e-12	0
0.2415082819346198	76.45773088091831	150.3783850621544	-0	1.435071854535672	0	0.09478689634274365	-0.09281297741733216	0.02328059641975666	-0	1.77254715255463	0	-0.08956897507390105	0	-4.111697080002467e-16	0	0	3.53492518841035e-15	0
0.2441333719556482	68.09871818025424	130.4033340169223	-0	1.434965058169959	0	0.09478689634274365	-0.396085323237051	0.1002353832794377	-0	1.781798340485039	0	-0.08956897507908805	0	-4.150772572538905e-16	0	0	8.973358861647013e-19	0
0.2467584619766767	59.0852103568212	110.1191118678573	-0	1.43485280880959	0	0.09478689634274365	-1.42720655287038	0.3647587690635549	-0	1.791460359794476	0	-0.08956897507908834	0	3.449514353861046e-16	0	0	2.608689898800849e-17	0
0.2493835519977052	49.51624853462534	90.38450793777081	-0	1.434709055243731	0	0.09478689634274365	-4.327496713651621	1.118405958841991	-0	1.801512667124	0	-0.08956897507908836	0	3.340126770355676e-18	0	0	-8.265750970316599e-18	0
0.2520086420187336	39.53048167523137	73.2136412616987	-0	1.434438502124507	0	0.09478689634274365	-11.01256536531683	2.8841011558992	-0	1.811910989336614	0	-0.08956897507908836	0	-4.818719330346845e-17	0	0	1.624349540655981e-17	0
0.2546337320397621	29.41649030712437	58.76635102249573	-0	1.433999837323287	0	0.09478689634274365	-23.49688456917052	6.256893099494018	-0	1.82259591682078	0	-0.08956897507908836	0	-1.814955224493477e-16	0	0	-9.935506318309823e-18	0
0.2572588220607906	19.54186911746821	43.97261104990896	-0	1.433527188406851	0	0.09478689634274365	-42.08250973176242	11.4512979360647	-0	1.833480749741477	0	-0.08956897507908837	0	-9.517555644031142e-17	0	0	-5.21324251860434e-16	0
0.2598839120818191	10.58042075859476	27.38129650298024	-0	1.433128671829748	0	0.09478689634274365	-63.8747633165753	17.87517613014721	-0	1.844459977598635	0	-0.08956897507908836	0	5.364358409986698e-17	0	0	-4.435122395802191e-16	0
0.2625090021028476	3.138435125094831	10.099173621911	-0	1.432733422508961	0	0.09478689634274365	-84.26944539984655	24.4031987260613	-0	1.855410607388064	0	-0.08956897507908834	0	-1.058671673744235e-17	0	0	9.657581311538602e-16	0
0.265134092123876	-0.005718617386150457	-1.442008763818603	-0	1.431414744092316	0	0.09478689634274365	-100.9369939894659	30.40761723773267	-0	1.866192083791529	0	-0.08956897507908836	0	-4.19411502057275e-21	0	0	-6.963258145976878e-16	0
0.2677591821449045	0.04249369612180597	-0.06924086947603833	-0	1.429337574192064	0	0.09478689634274365	-116.179997693696	36.58578555084701	-0	1.876663874992627	0	-0.08956897507908836	0	-1.035489923352287e-19	0	0	3.325708877395392e-16	0
0.270384272165933	0.001148169158568236	-0.001201254894746546	-0	1.429363267660869	0	0.09478689634274365	-135.9484699817965	45.00263748746912	-0	1.886690960474656	0	-0.08956897507908836	0	4.494950128114654e-21	0	0	3.048832200554409e-17	0
0.2730093621869615	2.628651646812786e-05	-2.468878521281529e-05	-0	1.431057766028804	0	0.09478689634274365	-167.6988317007038	58.92465456827428	-0	1.89612361589458	0	-0.08956897507908837	0	-1.430112636693651e-22	0	0	-4.162606639072783e-15	0
0.2756344522079899	1.033343862991201e-06	-8.633236123776715e-07	-0	1.433493167542994	0	0.09478689634274365	-219.3387098625543	83.17759085463869	-0	1.904807985271929	0	-0.0895689750790892	0	4.887239590546444e-24	0	0	-4.677219121315679e-15	0
0.2782595422290184	9.651734550589282e-08	-7.192631807166784e-08	-0	1.436814723033056	0	0.09478689634274365	-298.7607925902773	125.912609332062	-0	1.912531931665306	0	-0.08956897507909016	0	-2.607541404202131e-25	0	0	-7.783382604818441e-15	0
0.2808846322500469	2.106087787547281e-08	-1.416337341494923e-08	-0	1.441091895651298	0	0.09478689634274365	-408.3685343017041	201.250976097438	-0	1.919089722405106	0	-0.08956897507909188	0	1.291961851734668e-25	0	0	1.906852945206069e-15	0
0.2835097222710753	8.537445296175613e-09	-5.264605563153422e-09	-0	1.446280956171868	0	0.09478689634274365	-527.8090430093151	330.0438058177284	-0	1.924271964071335	0	-0.08956897507909999	0	6.781157280124281e-27	0	0	1.837144758194619e-13	0
0.2861348122921039	5.036066747394466e-09	-2.895822613577057e-09	-0	1.452283346895717	0	0.09478689634274365	-582.6691122383581	536.8533620291505	-0	1.92786063274619	0	-0.08956897507918421	0	2.990444469715927e-26	0	0	5.023920947194961e-12	0
0.2887599023131323	4.933296034016908e-09	-2.680417052039673e-09	-0	1.458971432825304	0	0.09478689634274366	-156.50390516641	789.979708904085	-0	1.9320225604555	0	-0.08956897508022557	0	-6.012770461962734e-26	0	0	6.487878103120179e-10	0
0.2913849923341608	5.812947901644125e-09	-3.013872993027265e-09	-0	1.466231679120561	0	0.09478689634274366	-173.6266493050089	1036.3551622227	-0	1.932626483150575	0	-0.08956897508856995	0	-6.967873788966485e-26	0	0	5.95958850524146e-09	0
0.2940100823551893	4.977005670442655e-09	-2.478349698964182e-09	-0	1.473997503986156	0	0.09478689634274365	-121.570816507057	1259.991496006296	-0	1.933381937603662	0	-0.08956897514014221	0	-1.981310564648088e-26	0	0	3.693524978524098e-08	0
0.2966351723762177	3.387433627154548e-09	-1.626334537624795e-09	-0	1.482234001438457	0	0.09478689634274363	-135.8610536966875	1437.836809876441	-0	1.933697581970266	0	-0.08956897542605104	0	7.115103755550331e-26	0	0	2.114242522940582e-07	0
0.2992602623972462	2.011992483052672e-09	-9.340381895190263e-10	-0	1.490921191665079	0	0.09478689634274365	-107.0631845011654	1563.600296305627	-0	1.934183476132072	0	-0.0895689768962015	0	6.571276753687377e-27	0	0	1.148823628704987e-06	0
0.3018853524182747	1.167950612209352e-09	-5.254798336480271e-10	-0	1.500041061781254	0	0.09478689634274365	-113.0502738985327	1637.484132711016	-0	1.934466681692192	0	-0.08956898383027449	0	-2.406919229771631e-27	0	0	5.540211853003602e-06	0
0.3045104424393031	7.072196652047645e-10	-3.090170518025959e-10	-0	1.509573216107093	0	0.09478689634274363	-85.37482775130985	1664.656787407959	-0	1.934914651262011	0	-0.08956901346773431	0	6.317652933539701e-27	0	0	2.36978885332892e-05	0
0.3071355324603317	4.760603808644885e-10	-2.024022842008779e-10	-0	1.519495527017132	0	0.09478689634274365	-80.55094416368284	1652.66276880652	-0	1.935224419224011	0	-0.08956912547533188	0	-3.107152454132082e-27	0	0	8.670707002030918e-05	0
0.3097606224813601	3.65249024786484e-10	-1.513680229609073e-10	-0	1.529783968503707	0	0.09478689634274365	-53.30320663508844	1609.908322757726	-0	1.935667810766864	0	-0.08956949789007783	0	-1.825096763578313e-27	0	0	0.0002742105845733598	0
0.3123857125023886	3.259626245988719e-10	-1.318588193717668e-10	-0	1.540418665161182	0	0.09478689634274365	-43.16467671546754	1544.844964018826	-0	1.936015703072855	0	-0.08957057020813196	0	2.64074201702717e-27	0	0	0.0007388796129222094	0
0.3150108025234171	3.358971259158916e-10	-1.326834604063701e-10	-0	1.551403045504788	0	0.09478689634274365	-19.50990704905809	1464.939187412144	-0	1.936501387464167	0	-0.08957325511960314	0	-5.488301048941252e-28	0	0	0.001723818105512429	0
0.3176358925444456	3.910683537811361e-10	-1.507172524155114e-10	-0	1.562765694244879	0	0.09478689634274365	-8.863818714198569	1376.936765714067	-0	1.936978205677261	0	-0.08957904360072441	0	5.931506155031114e-28	0	0	0.003465263517185242	0
0.320260982565474	4.923772025699881e-10	-1.851636354337584e-10	-0	1.574494236117644	0	0.09478689634274365	9.030527316269618	1285.5698551492	-0	1.937658487660123	0	-0.08958983697592543	0	-2.918636723388539e-27	0	0	0.006087381321636326	0
0.3228860725865025	6.493364707846745e-10	-2.386203042490805e-10	-0	1.586546075461555	0	0.09478689634274365	18.88406454286876	1194.06068806226	-0	1.938455701586825	0	-0.0896071383794981	0	2.885229682498975e-28	0	0	0.009389329656965439	0
0.325511162607531	8.686289374711413e-10	-3.12378144838309e-10	-0	1.598896216914423	0	0.09478689634274365	34.38852457919099	1103.222355757117	-0	1.93952989677957	0	-0.08963200987142646	0	-3.646856998551463e-27	0	0	0.01329539763266198	0
0.3281362526285594	1.154131035562634e-09	-4.068073915904076e-10	-0	1.611516713945407	0	0.09478689634274365	45.27960528758115	1013.926991100527	-0	1.940817372570784	0	-0.08966551445692493	0	6.052205032544376e-27	0	0	0.01795708678693082	0
0.3307613426495879	1.504135201156837e-09	-5.204840146010418e-10	-0	1.624378976462008	0	0.09478689634274365	58.14250574752928	927.4840620439005	-0	1.94254033699231	0	-0.08971260309089982	0	6.778896888615668e-27	0	0	0.02442278797541179	0
0.3333864326706164	1.915644409704991e-09	-6.518150416223424e-10	-0	1.637454883051141	0	0.09478689634274363	67.52921177813013	847.1361698429931	-0	1.945291103370668	0	-0.08979586774330131	0	2.66266350940778e-26	0	0	0.03667234236779089	0
0.3360115226916449	2.377712477140438e-09	-7.967515072529917e-10	-0	1.650719812975727	0	0.09478689634274365	70.17590466485399	783.3990384954456	-0	1.95090904423502	0	-0.08998155930636731	0	-3.813484166448659e-27	0	0	0.06399654523117722	0
0.3386366127126734	2.865772809054598e-09	-9.470557281720041e-10	-0	1.664151542823186	0	0.09478689634274365	52.64943015452582	752.9893816860084	-0	1.961146648236125	0	-0.09033921055999702	0	9.939388944477906e-27	0	0	0.1072622109257817	0
0.3412617027337018	3.318848482666979e-09	-1.083013854250961e-09	-0	1.677734015604992	0	0.09478689634274365	27.75341773029698	748.9694838612456	-0	1.973940575015974	0	-0.0907913079361114	0	-1.765427312628641e-26	0	0	0.1384359305408015	0
0.3438867927547303	3.678215114937189e-09	-1.186458617045549e-09	-0	1.691455766208186	0	0.09478689634274365	12.64757557011175	746.7181661856921	-0	1.986176256931023	0	-0.09122077795261314	0	-1.19314617269852e-26	0	0	0.1426340419688637	0
0.3465118827757588	3.937795460949791e-09	-1.256618110889322e-09	-0	1.705310888079028	0	0.09478689634274366	4.425327469011211	739.1879647865956	-0	1.997772638808998	0	-0.09162582370177795	0	-4.140577419454312e-26	0	0	0.1329466075669523	0
0.3491369727967872	4.108671205884575e-09	-1.298018930435329e-09	-0	1.719294046874472	0	0.09478689634274365	-3.837017456214628	728.9852430972848	-0	2.008995480174024	0	-0.09201831438912692	0	-2.344662581561919e-26	0	0	0.117293913549144	0
0.3517620628178157	4.208539324574411e-09	-1.317042706385921e-09	-0	1.733398455097317	0	0.09478689634274366	-11.14779178778416	717.4440035507213	-0	2.019766361632712	0	-0.09239498517595134	0	-7.474136983489386e-26	0	0	0.09824569663901676	0
0.3543871528388442	4.255900781371819e-09	-1.320043439961954e-09	-0	1.747616084720076	0	0.09478689634274366	-17.68591925093902	705.5914793891604	-0	2.030054681157596	0	-0.09275477428603926	0	-6.534311014715769e-26	0	0	0.07813488961101445	0
0.3570122428598727	4.269866831785613e-09	-1.313347654962324e-09	-0	1.761936306809741	0	0.09478689634274365	-23.28263387554426	693.696005429561	-0	2.039832908552309	0	-0.09309665606368338	0	-7.40302507889393e-28	0	0	0.05861909905472904	0
0.3596373328809012	4.257246669020205e-09	-1.299300876047961e-09	-0	1.776347060036552	0	0.09478689634274365	-27.91758906032887	681.915069603432	-0	2.049086621060022	0	-0.09342014613038085	0	5.578360031375045e-27	0	0	0.04091667967870889	0
0.3622624229019296	4.190523400764663e-09	-1.269773380906041e-09	-0	1.790833656508513	0	0.09478689634274365	-31.64682722438709	670.3273153903599	-0	2.057808859411465	0	-0.09372506448215059	0	-1.180493312663221e-26	0	0	0.02587681047560493	0
0.3648875129229581	3.92213974216737e-09	-1.180700799239097e-09	-0	1.805379164186854	0	0.09478689634274365	-34.28528689137454	658.4303356607116	-0	2.06608644887192	0	-0.0940144688141016	0	1.184699829626062e-26	0	0	0.01398501075294801	0
0.3675126029439866	3.073066416865508e-09	-9.197128574413849e-10	-0	1.819964438796786	0	0.09478689634274365	-35.69976812041092	644.7466759482352	-0	2.074221313337231	0	-0.09429907882197539	0	-1.928399812629998e-26	0	0	0.005487672844974764	0
0.3701376929650151	1.15619353394583e-09	-3.44249671368078e-10	-0	1.834573746289866	0	0.09478689634274365	-36.38722960452687	629.4177534116342	-0	2.082287453053254	0	-0.09458180406951347	0	-3.502094642960381e-27	0	0	0.0007939167612960381	0
0.3727627829860435	-1.596320606252297e-09	4.731244024092388e-10	-0	1.849199045467179	0	0.09478689634274365	-35.99856731558568	622.044864919348	-0	2.088198989425913	0	-0.09478828325459963	0	-1.254515435613116e-27	0	0	5.544071849896746e-06	0
0.375387873007072	-3.756983526765688e-09	1.108915243030578e-09	-0	1.863835277563174	0	0.09478689634274365	-32.80068606425284	633.8034941867527	-0	2.089131992517284	0	-0.09481666274123275	0	-1.280765411445083e-26	0	0	0.000368376533609402	0
0.3780129630281005	-4.487253228972366e-09	1.319301541825549e-09	-0	1.878487431768701	0	0.09478689634274365	-27.45404399107156	648.6333073330658	-0	2.088704283917362	0	-0.09479572489075937	0	1.532008304866501e-27	0	0	0.0001877529966093903	0
0.380638053049129	-4.258709015505022e-09	1.247297782423958e-09	-0	1.893162409656804	0	0.09478689634274363	-22.02392818498054	659.0658656120443	-0	2.088657881832867	0	-0.09478855077031841	0	-3.922217330139793e-26	0	0	5.069549956549947e-05	0
0.3832631430701574	-3.680381857708618e-09	1.073793483870147e-09	-0	1.907860596567775	0	0.09478689634274365	-16.50697619342901	666.5746526300917	-0	2.088769548770668	0	-0.09478715735422412	0	1.446319947565524e-26	0	0	1.057070183043027e-05	0
0.3858882330911859	-3.053979417129082e-09	8.876296710443676e-10	-0	1.922580540131857	0	0.09478689634274365	-10.98787714292097	671.9414169621283	-0	2.088909598504978	0	-0.09478693411202563	0	1.783547495224668e-26	0	0	1.919307986216501e-06	0
0.3885133231122144	-2.489639136538054e-09	7.20851114249599e-10	-0	1.937319205012954	0	0.09478689634274365	-5.371325753216432	675.5755847971133	-0	2.089052419018114	0	-0.09478690151317994	0	-2.254321846956466e-26	0	0	3.18452407125082e-07	0
0.3911384131332428	-2.026965629853584e-09	5.846448247333081e-10	-0	1.952076345836395	0	0.09478689634274365	0.24263342464601	677.6328510668521	-0	2.089192444282195	0	-0.09478689702087724	0	4.769522815871059e-27	0	0	4.937000513132415e-08	0
0.3937635031542713	-1.687484790038552e-09	4.847775589101409e-10	-0	1.966858560763728	0	0.09478689634274365	5.881775879271724	678.2677665517497	-0	2.089329720235714	0	-0.09478689642726171	0	9.75147133724049e-27	0	0	7.137676668196134e-09	0
0.3963885931752998	-1.454475799839755e-09	4.160222642894654e-10	-0	1.981669053051074	0	0.09478689634274365	11.49260674455958	677.5132829323163	-0	2.089463678680458	0	-0.09478689635259499	0	4.541267484234554e-27	0	0	9.50835094830964e-10	0
0.3990136831963283	-1.294768395530126e-09	3.68595820325182e-10	-0	1.996498212530441	0	0.09478689634274365	17.10559073826166	675.5015936799114	-0	2.08959503230843	0	-0.09478689634379774	0	-3.510923018837555e-27	0	0	1.148969450249057e-10	0
0.4016387732173567	-1.189585093241101e-09	3.369375561582246e-10	-0	2.011334687996795	0	0.09478689634274365	22.68102285371025	672.3160481711404	-0	2.089723426291715	0	-0.0947868963428454	0	5.286194072100078e-27	0	0	1.240092036649747e-11	0
0.4042638632383853	-1.129837360786762e-09	3.182917851215619e-10	-0	2.026167335534657	0	0.09478689634274365	28.23152788092157	668.0769872012332	-0	2.08984926978591	0	-0.09478689634275271	0	-3.606009955318383e-27	0	0	1.224020982496626e-12	0
0.4068889532594137	-1.112735633884254e-09	3.116963358112686e-10	-0	2.040985152172637	0	0.09478689634274365	33.72759407645071	662.8566767501004	-0	2.089972295064484	0	-0.09478689634274449	0	-1.791885025763855e-27	0	0	1.253629750720836e-13	0
0.4095140432804422	-1.138996292918244e-09	3.171650428606474e-10	-0	2.055777352114314	0	0.09478689634274365	39.17797660556803	656.7541742625183	-0	2.090092811033132	0	-0.09478689634274373	0	2.446798513530559e-28	0	0	1.348484689445973e-14	0
0.4121391333014707	-1.21607400647692e-09	3.365563425229894e-10	-0	2.070533937906709	0	0.09478689634274366	44.55944449679409	649.8377159809678	-0	2.090210589665581	0	-0.09478689634274366	0	1.254561858642004e-26	0	0	1.819224281753674e-15	0
0.4147642233224991	-1.356432562213802e-09	3.730431383807047e-10	-0	2.085246441027471	0	0.09478689634274366	49.8821419924324	642.1826128444287	-0	2.090325937117521	0	-0.09478689634274365	0	2.930851692851696e-26	0	0	2.764166696011179e-16	0
0.4173893133435276	-1.584690781277905e-09	4.330234132990995e-10	-0	2.099907921150157	0	0.09478689634274365	55.12469380528027	633.8474288462347	-0	2.090438612921754	0	-0.09478689634274365	0	-9.163346293266371e-27	0	0	-2.559664945006482e-16	0
0.4200144033645561	-1.941557592212311e-09	5.270831464446098e-10	-0	2.114513116943832	0	0.09478689634274365	60.28440152436199	624.9060137704338	-0	2.090548671352193	0	-0.09478689634274365	0	6.589651670326643e-27	0	0	2.636571370024492e-16	0
0.4226394933855846	-2.495223305803057e-09	6.729318936867801e-10	-0	2.129057552109332	0	0.09478689634274365	65.34718913028429	615.4028906494132	-0	2.09065596724681	0	-0.09478689634274365	0	-1.712069498213316e-26	0	0	8.144841818817549e-17	0
0.4252645834066131	-3.366316589317585e-09	9.01850266254482e-10	-0	2.143538120720752	0	0.09478689634274365	70.30973726624156	605.386353219622	-0	2.09076054477269	0	-0.09478689634274365	0	-1.803143715910533e-26	0	0	-6.89760268773029e-17	0
0.4278896734276415	-4.763246670426558e-09	1.267644174350734e-09	-0	2.157953372173096	0	0.09478689634274363	75.15704718459639	594.8895869367408	-0	2.09086223216123	0	-0.09478689634274365	0	-7.81848903110181e-26	0	0	-3.419486098011789e-16	0
0.43051476344867	-7.062452703977152e-09	1.867105665224206e-09	-0	2.172304439158922	0	0.09478689634274365	79.88242201122276	583.9479302595239	-0	2.090961014032328	0	-0.09478689634274365	0	-2.412944062953052e-26	0	0	-5.668815964475471e-17	0
0.4331398534696985	-1.095268891395682e-08	2.876488728028827e-09	-0	2.186594509935575	0	0.09478689634274365	84.4702788175167	572.5837240389171	-0	2.091056711735656	0	-0.09478689634274365	0	-8.315392208903836e-26	0	0	-8.006526879273642e-16	0
0.4357649434907269	-1.771900050663905e-08	4.6229628185368e-09	-0	2.200829845049427	0	0.09478689634274365	88.91170450087273	560.8201244633599	-0	2.091149283628965	0	-0.09478689634274365	0	-3.728134353476658e-26	0	0	-4.294328048389973e-16	0
0.4383900335117554	-2.981123959760354e-08	7.727018536517165e-09	-0	2.21501882654426	0	0.09478689634274365	93.1897674713682	548.6793512213575	-0	2.091238511496103	0	-0.09478689634274365	0	5.966065616596158e-26	0	0	-6.175731223922461e-16	0
0.4410151235327839	-5.195667193528195e-08	1.337937591029179e-08	-0	2.229172348734801	0	0.09478689634274363	97.28495782186161	536.1948101422502	-0	2.091324099542656	0	-0.09478689634274365	0	-7.892736555317477e-25	0	0	-6.971877185720665e-16	0
0.4436402135538123	-9.339196231735293e-08	2.389367725457811e-08	-0	2.243302450465414	0	0.09478689634274365	101.1779809008354	523.374396530281	-0	2.091405814771689	0	-0.09478689634274365	0	5.08230409593484e-25	0	0	2.038630642212945e-17	0
0.4462653035748408	-1.722479010940197e-07	4.37855944478518e-08	-0	2.257422564594454	0	0.09478689634274365	104.8655099928482	510.2045192386375	-0	2.091483855361505	0	-0.09478689634274365	0	1.19621554896024e-24	0	0	6.179109739235051e-16	0
0.4488903935958693	-3.241043505675734e-07	8.186442635438489e-08	-0	2.271549115825224	0	0.09478689634274365	108.3088589782141	496.6957098601657	-0	2.091557581678863	0	-0.09478689634274365	0	-4.745737619412176e-25	0	0	1.805143857617796e-16	0
0.4515154836168978	-6.186404226383115e-07	1.552800654636649e-07	-0	2.285699507667394	0	0.09478689634274365	111.4395745033228	482.9341263107543	-0	2.091625367235512	0	-0.09478689634274365	0	-2.869130576506428e-24	0	0	-6.553575767675637e-17	0
0.4541405736379263	-1.191029323392492e-06	2.971130376983146e-07	-0	2.299888611468134	0	0.09478689634274365	114.2354420990013	468.9543213266702	-0	2.091686718952946	0	-0.09478689634274365	0	4.303206616729447e-25	0	0	-4.72871731294829e-16	0
0.4567656636589548	-2.29961604579984e-06	5.702480970313043e-07	-0	2.31412792161914	0	0.09478689634274365	116.7163818982935	454.6971881935998	-0	2.091742597446349	0	-0.09478689634274365	0	2.860717069587825e-24	0	0	-7.716827578769058e-16	0
0.4593907536799832	-4.424980349870078e-06	1.091030263378697e-06	-0	2.328432192273618	0	0.09478689634274365	118.8742923185958	440.0968035563391	-0	2.091793473491702	0	-0.09478689634274365	0	2.58637823329622e-23	0	0	1.724142678850446e-16	0
0.4620158437010117	-8.426163685811132e-06	2.066263591153629e-06	-0	2.342820534396776	0	0.09478689634274365	120.6910313800314	425.1149366600587	-0	2.091839517339154	0	-0.09478689634274365	0	5.074618710735382e-23	0	0	-3.420772541476933e-16	0
0.4646409337220402	-1.575392007394749e-05	3.843182773169221e-06	-0	2.357315272275016	0	0.09478689634274365	122.1433531109097	409.7049636981135	-0	2.091880916776446	0	-0.09478689634274365	0	-2.329410841275011e-23	0	0	5.391442169512857e-16	0
0.4672660237430687	-2.865834118424257e-05	6.956895610176872e-06	-0	2.371943154771505	0	0.09478689634274365	123.2092059103099	393.8367666313406	-0	2.091917867299071	0	-0.09478689634274363	0	-1.696884640761338e-23	0	0	-1.327929103948085e-15	0
0.4698911137640971	-5.021561416575395e-05	1.213338040588092e-05	-0	2.386733872747817	0	0.09478689634274365	123.8260053513592	377.5090476593801	-0	2.091949351623698	0	-0.09478689634274365	0	-1.076126012979759e-22	0	0	-6.181457824328024e-16	0
0.4725162037851256	-8.379141448387523e-05	2.015767906343804e-05	-0	2.401721038208519	0	0.09478689634274365	123.8878537536613	360.7659021606487	-0	2.091972825695069	0	-0.09478689634274365	0	-3.03734565507605e-22	0	0	9.509192232240274e-18	0
0.4751412938061541	-0.0001313140128516918	3.146525739646335e-05	-0	2.416933790970072	0	0.09478689634274365	123.2804226176243	343.7482609981483	-0	2.091984240679196	0	-0.09478689634274363	0	-7.867240324265694e-22	0	0	-1.746231832004823e-15	0
0.4777663838271825	-0.0001901008593226969	4.542491294312982e-05	-0	2.432359398041426	0	0.0947868957062417	121.9285180169052	326.9230266918294	-0	2.091976831364154	0	-0.09478689634274365	0	-2.370361345831266e-15	0	0	-5.056217967749368e-16	0
0.480391473848211	-0.0002500490251802338	5.969017851623798e-05	-0	2.447985420577237	0	0.09478688888841956	119.9925381431007	310.4359251305913	-0	2.091953221812278	0	-0.09478689634274365	0	-3.22834429122511e-14	0	0	-2.073307653312601e-18	0
0.4830165638692395	-0.0002945011192402132	7.035435046005014e-05	-0	2.463826813100168	0	0.09478681283221974	117.8333856498641	293.7619650046119	-0	2.091930178311218	0	-0.09478689634274365	0	-3.669733396312468e-13	0	0	2.889157516167779e-16	0
0.485641653890268	-0.0003067491383679214	7.345732981613894e-05	-0	2.479875805814434	0	0.09478591627098196	115.3871399469658	276.7176658759537	-0	2.091908821609951	0	-0.09478689634274365	0	-3.726136448745001e-12	0	0	2.591226432141827e-16	0
0.4882667439112964	-0.0002788145651268354	6.703430950001837e-05	-0	2.495921821641125	0	0.0947748332958004	112.1779622506367	259.6368862386728	-0	2.091869808923128	0	-0.09478689634274365	0	-3.275032311417809e-11	0	0	1.855189794571857e-17	0
0.4908918339323249	-0.0002216152016606596	5.358032091136562e-05	-0	2.509056621137784	0	0.09463391816112827	108.0400703629513	242.5363641220748	-0	2.091806668817013	0	-0.09478689634274365	0	-2.313809195055999e-10	0	0	-8.726259669618202e-16	0
0.4935169239533534	-0.0001946600331239387	4.742984135776426e-05	-0	2.489531633452056	0	0.09322810859742958	103.1108951177388	225.1505044440879	-0	2.091727894115589	0	-0.09478689634274365	0	-9.003372895841073e-10	0	0	-3.280529149708813e-16	0
0.4961420139743818	-0.0005225747503250268	0.0001283263928139352	-0	2.421371057305577	0	0.09021993636091388	97.46322161330065	207.3028462083344	-0	2.091639332469082	0	-0.09478689634274366	0	-4.073413872414691e-10	0	0	5.098803493895185e-16	0
0.4987671039954104	-0.00314777321065086	0.0007778217324871795	-0	2.412340114326157	0	0.08959528368163192	91.13449066269665	188.8974689620695	-0	2.091544834523773	0	-0.09478689634274365	0	1.261107473133979e-10	0	0	1.558139454516625e-16	0
0.5013921940164389	-0.01845270787577558	0.004591856904568549	-0	2.419987238594802	0	0.08956892125035182	84.13644828401854	169.904530590406	-0	2.091446599717813	0	-0.09478689634274365	0	-4.409272210787572e-12	0	0	1.967962671807084e-18	0
0.5040172840374673	-0.09281297741733187	0.02328059641975658	-0	2.428819657811749	0	0.08956897507390105	76.45773088091859	150.378385062155	-0	2.091344359792792	0	-0.09478689634274365	0	-3.535007740105717e-15	0	0	-1.823050460707928e-16	0
0.5066423740584958	-0.3960853232370495	0.1002353832794374	-0	2.438070845742158	0	0.08956897507908804	68.09871818025451	130.4033340169229	-0	2.091237563427078	0	-0.09478689634274365	0	-8.801216655189284e-18	0	0	2.509565297514594e-16	0
0.5092674640795243	-1.427206552870778	0.3647587690636567	-0	2.447732865051595	0	0.08956897507908836	59.08521035682133	110.1191118678577	-0	2.091125314066709	0	-0.09478689634274365	0	-4.383764559465949e-19	0	0	2.317544239970466e-16	0
0.5118925541005528	-4.327496713651604	1.118405958841987	-0	2.457785172381119	0	0.08956897507908836	49.51624853462668	90.38450793777359	-0	2.09098156050085	0	-0.09478689634274365	0	-4.444549843909385e-18	0	0	-3.94589737713903e-16	0
0.5145176441215812	-11.01256536531694	2.88410115589923	-0	2.468183494593733	0	0.08956897507908836	39.53048167523023	73.21364126169658	-0	2.090711007381626	0	-0.09478689634274365	0	-4.748178725021176e-17	0	0	-2.777203622844525e-17	0
0.5171427341426097	-23.49688456917089	6.256893099494115	-0	2.478868422077899	0	0.08956897507908836	29.41649030712337	58.76635102249374	-0	2.090272342580406	0	-0.09478689634274365	0	-7.673495774563044e-17	0	0	1.455496190898248e-16	0
0.5197678241636381	-42.08250973176313	11.45129793606489	-0	2.489753254998597	0	0.08956897507908836	19.54186911746838	43.97261104990933	-0	2.08979969366397	0	-0.09478689634274363	0	7.513969474747047e-17	0	0	-3.359508603704561e-16	0
0.5223929141846666	-63.87476331657606	17.87517613014742	-0	2.500732482855755	0	0.08956897507908836	10.58042075859476	27.38129650298039	-0	2.089401177086867	0	-0.09478689634274366	0	1.513394360289099e-16	0	0	3.951999678423034e-17	0
0.5250180042056951	-84.26944539984754	24.40319872606159	-0	2.511683112645184	0	0.08956897507908837	3.138435125094828	10.09917362191106	-0	2.089005927766079	0	-0.09478689634274365	0	7.66786871709205e-16	0	0	-1.993170574345925e-17	0
