DataType=double
version=3
OpenSimVersion=4.6-2026-06-22-85aaf64
endheader
time	ground_force_r_vx	ground_force_r_vy	ground_force_r_vz	ground_force_r_px	ground_force_r_py	ground_force_r_pz	ground_force_l_vx	ground_force_l_vy	ground_force_l_vz	ground_force_l_px	ground_force_l_py	ground_force_l_pz	ground_torque_r_x	ground_torque_r_y	ground_torque_r_z	ground_torque_l_x	ground_torque_l_y	ground_torque_l_z
0	-0	-0	-0	0	0	0	-0	-0	-0	0	0	0	0	0	0	0	0	0
0.003846153846153846	-0	-0	-0	0	0	0	-0	-0	-0	0	0	0	0	0	0	0	0	0
0.007692307692307692	-0	-0	-0	0	0	0	-0	-0	-0	0	0	0	0	0	0	0	0	0
0.01153846153846154	-4.029548137885827e-12	1.032403369271461e-12	-0	1.218748644230313	0	0.08956897507908836	-0	-0	-0	0	0	0	0	0	0	0	0	0
0.01538461538461538	-5.546828698702758e-11	1.449124658657043e-11	-0	1.229266926298576	0	0.08956897507908836	-0	-0	-0	0	0	0	0	0	0	0	0	0
0.01923076923076923	-5.974060251818075e-10	1.610484046445318e-10	-0	1.238589576413996	0	0.08956897507908836	-0	-0	-0	0	0	0	0	0	0	0	0	0
0.02307692307692307	-5.565799836615371e-09	1.564945013628443e-09	-0	1.246963178568477	0	0.08956897507908836	1.660875701348334e-21	-9.899361672702495e-22	-0	0	0	0	0	0	0	0	-1.574292529418862e-22	0
0.02692307692307692	-4.660996960809023e-08	1.378521512380021e-08	-0	1.254653120635997	0	0.08956897507908836	3.525790090903388e-17	-2.011351443500776e-17	-0	0	0	0	0	0	0	0	-3.341986998727321e-18	0
0.03076923076923077	-3.597220925417456e-07	1.124935738743023e-07	-0	1.261916588834992	0	0.08956897507908834	1.143764126607257e-12	-6.237609150864677e-13	-0	0.467577600627308	0	-0.09478689634274365	0	-6.617444900424221e-24	0	0	0	0
0.03461538461538461	-2.627671598639705e-06	8.710625421490782e-07	-0	1.268861510075488	0	0.08956897507908837	-2.87745392843858e-10	1.500181185523774e-10	-0	0.4792613024594175	0	-0.09478689634274365	0	2.646977960169689e-23	0	0	0	0
0.03846153846153846	-1.863186611998935e-05	6.556568222512055e-06	-0	1.275468909022676	0	0.08956897507908836	-5.673265818739294e-10	2.830990265585721e-10	-0	0.491195720010647	0	-0.09478689634274365	0	0	0	0	0	0
0.0423076923076923	-0.0001307281181206388	4.887076052031483e-05	-0	1.281707376042881	0	0.08956897507908837	-8.487104364915739e-10	4.061961800244128e-10	-0	0.5032636202177562	0	-0.09478689634274365	0	1.694065894508601e-21	0	0	0	0
0.04615384615384615	-0.0009223605691961132	0.0003667043044776474	-0	1.287511349089519	0	0.08956897507908836	-1.40585676021329e-09	6.469209652147298e-10	-0	0.5153708178402052	0	-0.09478689634274363	0	0	0	0	2.584939414228211e-26	0
0.05	-0.006614159545936495	0.002800305689799925	-0	1.292842739295194	0	0.08956897507908836	-2.76886230285157e-09	1.229744433846136e-09	-0	0.527375074795292	0	-0.09478689634274365	0	0	0	0	0	0
0.05384615384615385	-0.04876984197407501	0.02199548532179958	-0	1.297709292783445	0	0.08956897507908836	-6.539506241455183e-09	2.825201149122012e-09	-0	0.5389643739885656	0	-0.09478689634274365	0	0	0	0	0	0
0.0576923076923077	-0.3703274600212791	0.1777558386115425	-0	1.302123191394759	0	0.08956897507908836	-1.834850519893435e-08	7.784017127365354e-09	-0	0.5499430828417361	0	-0.09478689634274365	0	0	0	0	0	0
0.06153846153846153	-2.818434343555209	1.439641193241254	-0	1.306071153400307	0	0.08956897507908834	-6.029944944309809e-08	2.525869302004771e-08	-0	0.5604653469248151	0	-0.09478689634274365	0	-5.551115123125783e-17	0	0	0	0
0.06538461538461537	-19.66954738717521	10.71989378358361	-0	1.309572563178734	0	0.08956897507908836	-2.272078962090825e-07	9.423470473059426e-08	-0	0.5706724482362293	0	-0.09478689634274365	0	0	0	0	0	0
0.06923076923076922	-90.87352440969693	54.77644883451819	-0	1.312386604054655	0	0.08956897507908849	-9.550549860265989e-07	3.936549898887812e-07	-0	0.5805352436338381	0	-0.09478689634274365	0	0	0	0	0	0
0.07307692307692307	-284.2455215984681	221.8465763113187	-0	1.314277284130581	0	0.08956897507908949	-4.358928591954523e-06	1.790257091073573e-06	-0	0.59012262188979	0	-0.09478689634274365	0	-1.06581410364015e-14	0	0	0	0
0.07692307692307693	-297.7730035602865	756.8952097087406	-0	1.316947163653123	0	0.08956897507911821	-2.095594552707405e-05	8.550705904240334e-06	-0	0.5997527348651892	0	-0.09478689634274365	0	-1.231015289704374e-11	0	0	0	0
0.08076923076923077	-23.41911271297561	1284.609529077382	-0	1.319047520006081	0	0.08956897508031347	-0.0001013425447812543	4.08663328176376e-05	-0	0.6096321162867248	0	-0.09478689634274365	0	-1.081134737290768e-09	0	0	0	0
0.08461538461538461	-226.2468446445189	1532.84794375294	-0	1.318783698712634	0	0.0895689751168155	-0.0004676686723458442	0.0001861082699072133	-0	0.6197385624786675	0	-0.09478689634274365	0	-3.707180695755596e-08	0	0	0	0
0.08846153846153845	-62.32631937139094	1506.441628386464	-0	1.320230608443765	0	0.08956897610976053	-0.001964545619151992	0.0007718414741640352	-0	0.6301262062820283	0	-0.09478689634274366	0	-1.067138338584073e-06	0	0	-2.710505431213761e-20	0
0.0923076923076923	-253.1485325696219	1379.874339006484	-0	1.319702082918467	0	0.08956899719268847	-0.007301539386063529	0.00282889124014087	-0	0.6409447617801866	0	-0.09478689634274365	0	-1.984604495319786e-05	0	0	0	0
0.09615384615384615	-126.4028247181826	1259.203343333531	-0	1.321241622680785	0	0.08956933393241011	-0.02353453044136756	0.00897308798469784	-0	0.6523093430730608	0	-0.09478689634274365	0	-0.0002683300390877719	0	0	0	0
0.09999999999999999	-255.6024044207864	1197.251371588666	-0	1.320985205192031	0	0.08957283876494317	-0.06485767276114954	0.02429617241636804	-0	0.6642849722246849	0	-0.09478689634274365	0	-0.00227049002529256	0	0	0	0
0.1038461538461538	-145.1321721846228	1160.610229977452	-0	1.323343058011353	0	0.08959748173327815	-0.1512045709250281	0.05559991834686035	-0	0.676925153429568	0	-0.09478689634274365	0	-0.01366710157614115	0	0	0	0
0.1076923076923077	-229.9286326423432	1173.409479777715	-0	1.325864541220386	0	0.08968489752881514	-0.2980269858953007	0.1075789146839944	-0	0.690253548797253	0	-0.09478689634274365	0	-0.04371674434960937	0	0	0	0
0.1115384615384615	-152.5704725044009	1191.099190845479	-0	1.332090066573211	0	0.08985359719732243	-0.5008218869287022	0.1774973169529434	-0	0.7042915964756926	0	-0.09478689634274366	0	-0.0832241035363861	0	0	-6.938893903907228e-18	0
0.1153846153846154	-240.9141024261803	1255.723029139366	-0	1.341869256413239	0	0.09019745997868696	-0.7264149370664841	0.2526012854853621	-0	0.7190741098136009	0	-0.09478689634274365	0	-0.1160821233277787	0	0	0	0
0.1192307692307692	-173.7585971350812	1242.276338894264	-0	1.347850408327042	0	0.0903773568307024	-0.9200762750168622	0.3136057651071149	-0	0.7346280493662477	0	-0.09478689634274365	0	-0.07711005189122844	0	0	0	0
0.1230769230769231	-189.1128291450512	1204.04374492574	-0	1.348533927492812	0	0.09039991883483459	-1.031552948504855	0.3445756576481698	-0	0.7509532054114645	0	-0.09478689634274365	0	-0.04109064296164178	0	0	0	0
0.1269230769230769	-129.6055122880259	1174.747682671745	-0	1.350515705762136	0	0.09044649960089247	-1.04167106325318	0.341043057876851	-0	0.7680360826203166	0	-0.09478689634274366	0	-0.0306049336394949	0	0	-1.387778780781446e-17	0
0.1307692307692308	-141.3606715746759	1156.205904328192	-0	1.351208764077652	0	0.09046950418296365	-0.9665380515451273	0.3099174613979871	-0	0.7858845405696093	0	-0.09478689634274365	0	-0.02294390222912845	0	0	0	0
0.1346153846153846	-96.60127615633802	1133.684319825504	-0	1.352907314940982	0	0.09051104787088862	-0.8407925880568954	0.2637395457952173	-0	0.8045013118328632	0	-0.09478689634274365	0	-0.02029784417104707	0	0	0	0
0.1384615384615384	-103.0600816521613	1115.953431306823	-0	1.353575652484601	0	0.09053268414896576	-0.6956081763022672	0.2134561520139772	-0	0.8238573305379404	0	-0.09478689634274363	0	-0.01691255928044733	0	0	1.387778780781446e-17	0
0.1423076923076923	-69.19223873945242	1090.820436129917	-0	1.355141916379285	0	0.0905734957216769	-0.5540014370897502	0.1664975922446331	-0	0.8438997750993374	0	-0.09478689634274365	0	-0.01620520975625261	0	0	0	0
0.1461538461538461	-66.28435216622366	1056.489679847999	-0	1.35596973372419	0	0.09059885197388678	-0.4299021976559079	0.1267856533037558	-0	0.8645524522263432	0	-0.09478689634274365	0	-0.01427625881736017	0	0	0	0
0.15	-31.53398824358853	1018.227654120974	-0	1.359411774398452	0	0.09070539365285323	-0.3284211772275784	0.09526821551124789	-0	0.8857300895208603	0	-0.09478689634274363	0	-0.01909992369559532	0	0	6.938893903907228e-18	0
0.1538461538461539	-24.75881608131284	997.2709014023328	-0	1.3662496379712	0	0.09093975483830634	-0.2486373820329545	0.07105843333450583	-0	0.9073762179715301	0	-0.09478689634274365	0	-0.03299633258056245	0	0	0	0
0.1576923076923077	-18.00231669417656	978.2423810839067	-0	1.375631925501241	0	0.09126261042520158	-0.1876652571290722	0.05288941270738108	-0	0.9294530583037446	0	-0.09478689634274365	0	-0.04876379206858683	0	0	0	0
0.1615384615384615	-32.30818528476789	955.9981544723316	-0	1.383683274851375	0	0.0915451987707127	-0.1418667098345004	0.03946179896105108	-0	0.9519236766103486	0	-0.09478689634274365	0	-0.05334101728365104	0	0	0	0
0.1653846153846154	-29.96704628003161	934.94122102042	-0	1.390770175444394	0	0.09178837173014447	-0.1076582515849613	0.02958340157640018	-0	0.9747480633503178	0	-0.09478689634274365	0	-0.05052674633658505	0	0	0	0
0.1692307692307692	-34.54374881919796	915.5970304992677	-0	1.396262306098427	0	0.09197789489829103	-0.08201283127056411	0.02228386278899741	-0	0.9978895218963476	0	-0.09478689634274365	0	-0.04323207425089981	0	0	0	0
0.1730769230769231	-23.72476325387117	905.6669069533914	-0	1.402474993958867	0	0.09218804742102545	-0.06266934448808166	0.01685141759257449	-0	1.021316543759871	0	-0.09478689634274365	0	-0.03708555940363123	0	0	0	0
0.1769230769230769	-18.37804291753185	913.2061000711133	-0	1.410457265454166	0	0.09246274154309114	-0.04794888237736829	0.0127653808032858	-0	1.045019105898288	0	-0.09478689634274365	0	-0.03206063966374328	0	0	0	0
0.1807692307692307	-15.83053791459504	918.0946565804085	-0	1.419423942363829	0	0.09277350756810759	-0.03667138666005666	0.009666849154913485	-0	1.068999954870536	0	-0.09478689634274365	0	-0.0242207490049593	0	0	0	0
0.1846153846153846	-19.09143674684979	908.9657120677139	-0	1.427609758483244	0	0.09305901370940359	-0.02799336966562897	0.007305133098220159	-0	1.093272567648419	0	-0.09478689634274365	0	-0.01364116066452215	0	0	0	0
0.1884615384615384	-12.52401864340779	899.1455685410821	-0	1.436324877001294	0	0.09336064029638906	-0.0212555453780834	0.005489882413926259	-0	1.117849137490278	0	-0.09478689634274363	0	-0.003284478804558066	0	0	0	0
0.1923076923076923	-7.128102020915025	890.4875521305761	-0	1.446463460612024	0	0.09371389230935673	-0.01598194347080964	0.004085904612126769	-0	1.142727306144938	0	-0.09478689634274365	0	0.005867003940560278	0	0	0	0
0.1961538461538462	-2.536572066876215	875.5573105191019	-0	1.458070107151696	0	0.09412059475196161	-0.01185342873740068	0.003001893209875068	-0	1.167887762643959	0	-0.09478689634274365	0	0.01118056267269077	0	0	0	0
0.2	-1.218358365204872	854.0578443980899	-0	1.470482665538524	0	0.09455872445126465	-0.008684925712141901	0.00218302671341026	-0	1.193249720295657	0	-0.09478689634274365	0	0.007437771993929046	0	0	0	0
0.2038461538461538	9.527090409713168	856.5303308154517	-0	1.477462716973432	0	0.09480084446742378	-0.006315959848171292	0.001579293867218565	-0	1.218736223820223	0	-0.09478689634274365	0	-0.0007480427676886947	0	0	0	0
0.2076923076923077	30.73775248847285	879.7363705547127	-0	1.477384982389633	0	0.0947869331195197	-0.004556834067486919	0.001134046346167385	-0	1.244378082782094	0	-0.09478689634274365	0	-2.945657882058583e-06	0	0	0	0
0.2115384615384615	48.57770807429375	886.0710349723522	-0	1.477649095964471	0	0.09478689635635057	-0.003244772233405171	0.0008030021852504998	-0	1.270238071836434	0	-0.09478689634274365	0	-1.536207605568052e-09	0	0	0	0
0.2153846153846154	58.26465223186803	884.6633848567883	-0	1.477813908743975	0	0.09478689634274726	-0.002268662855016956	0.000557959107308161	-0	1.296338687957023	0	-0.09478689634274365	0	-5.488942633746774e-13	0	0	0	0
0.2192307692307692	66.5433220770397	879.5235105783657	-0	1.477960134696247	0	0.09478689634274366	-0.001550952053247702	0.0003790141887748892	-0	1.322684655301249	0	-0.09478689634274365	0	-8.881784197001252e-16	0	0	0	0
0.223076923076923	70.80954629231051	872.8747320129274	-0	1.478051419339879	0	0.09478689634274365	-0.001032431760744159	0.0002507230582873061	-0	1.349272281258834	0	-0.09478689634274365	0	0	0	0	0	0
0.2269230769230769	75.13730696134148	866.6366372350602	-0	1.478139015319308	0	0.09478689634274365	-0.0006671871361202313	0.0001610761590108397	-0	1.376091133470238	0	-0.09478689634274365	0	0	0	0	0	0
0.2307692307692307	78.34055928411192	860.482407210537	-0	1.478206482670763	0	0.09478689634274365	-0.0004185061113570444	0.0001005178395328926	-0	1.40311422681048	0	-0.09478689634274365	0	0	0	0	0	0
0.2346153846153846	79.67818625017239	857.0930229770172	-0	1.478239480092517	0	0.09478689634274365	-0.0002555883370018837	6.112766622187868e-05	-0	1.43030781960598	0	-0.09478689634274365	0	0	0	0	0	0
0.2384615384615384	75.2819948319376	860.1105880271185	-0	1.478179914337435	0	0.09478689634274365	-0.0001529303252319224	3.645492547215045e-05	-0	1.457635885054362	0	-0.09478689634274365	0	0	0	0	0	0
0.2423076923076923	71.72685892716207	869.6526883352097	-0	1.47812615133023	0	0.09478689634274365	-9.027833176727711e-05	2.146631401295548e-05	-0	1.485067139183324	0	-0.09478689634274365	0	0	0	0	0	0
0.2461538461538461	73.14745581945438	880.4389649382854	-0	1.478141090838065	0	0.09478689634274365	-5.249453663694533e-05	1.245437757195193e-05	-0	1.512606356416396	0	-0.09478689634274365	0	0	0	0	0	0
0.25	79.44324965328536	890.8413289211195	-0	1.478219900308574	0	0.09478689634274365	-2.996056545552383e-05	7.091833874611191e-06	-0	1.540265337475824	0	-0.09478689634274365	0	0	0	0	0	0
0.2538461538461538	88.08122046943257	899.3857930159863	-0	1.478324236155287	0	0.09478689634274365	-1.687317763694731e-05	3.984617649980322e-06	-0	1.568040881972044	0	-0.09478689634274365	0	0	0	0	0	0
0.2576923076923077	98.86710639188061	905.0618566079514	-0	1.478451162364396	0	0.09478689634274365	-9.441079627156019e-06	2.22430807065755e-06	-0	1.595923377637993	0	-0.09478689634274365	0	0	0	0	0	0
0.2615384615384616	109.9194833632725	906.8770519546141	-0	1.478575215818544	0	0.09478689634274365	-5.247022230223212e-06	1.233341010224912e-06	-0	1.623902728190833	0	-0.09478689634274365	0	0	0	0	0	0
0.2653846153846153	121.1471859149532	904.3757404358156	-0	1.478697259371246	0	0.09478689634274365	-2.870517121253772e-06	6.731760996975566e-07	-0	1.651975152982969	0	-0.09478689634274365	0	0	0	0	0	0
0.2692307692307692	131.2222918846147	897.0379412798851	-0	1.478800905939483	0	0.09478689634274365	-1.50331543729527e-06	3.516980757221639e-07	-0	1.680158532257086	0	-0.09478689634274363	0	0	0	0	2.646977960169689e-23	0
0.2730769230769231	142.9538105232878	882.4617576307165	-0	1.478936296203605	0	0.09478689634274363	-6.94837915662072e-07	1.621727125260242e-07	-0	1.708465117565706	0	-0.09478689634274366	0	1.77635683940025e-15	0	0	-1.323488980084844e-23	0
0.2769230769230769	157.9877330559669	857.0590817308369	-0	1.479142320162958	0	0.09478689634274365	-1.9904994264293e-07	4.640213970799937e-08	-0	1.736866101548288	0	-0.09478689634274365	0	0	0	0	0	0
0.2807692307692307	172.5473219356645	823.024541942941	-0	1.479363942245127	0	0.09478689634274365	8.480666688989706e-09	-1.979972427705591e-09	-0	1.765287511231537	0	-0.09478689634274365	0	0	0	0	0	0
0.2846153846153846	181.9960122977542	783.8164342101642	-0	1.479522042610935	0	0.09478689634274363	4.626998471631277e-10	-1.085941196446247e-10	-0	1.79358260930675	0	-0.09478689634274365	0	0	0	0	0	0
0.2884615384615384	186.7460356800667	739.3016397902503	-0	1.479626231966637	0	0.09478689634274365	1.124238724093924e-11	-2.662670372525976e-12	-0	1.821581872999647	0	-0.09478689634274365	0	0	0	0	0	0
0.2923076923076923	186.4574264334879	687.9798780562447	-0	1.479679014391195	0	0.09478689634274363	1.270686549664993e-12	-3.044840768492456e-13	-0	1.849155424986596	0	-0.09478689634274363	0	3.552713678800501e-15	0	0	-2.524354896707238e-29	0
0.2961538461538462	176.0753928078453	630.3665595305047	-0	1.479573955945942	0	0.09478689634274365	1.087648274652129e-12	-2.638804901775551e-13	-0	1.876232063478885	0	-0.09478689634274365	0	0	0	0	0	0
0.3	153.2356658412588	570.5287133401441	-0	1.479210712350134	0	0.09478689634274365	2.564204643631451e-12	-6.290042138341578e-13	-0	1.902911071135274	0	-0.09478689634274363	0	0	0	0	-5.048709793414476e-29	0
0.3038461538461538	128.2440230140452	512.1405318998271	-0	1.478764586959655	0	0.09478689634274365	5.271745757557343e-12	-1.303461782953986e-12	-0	1.929381095320692	0	-0.09478689634274365	0	0	0	0	0	0
0.3076923076923077	107.7378479191746	456.4573323706272	-0	1.478389288153287	0	0.09478689634274365	5.449737256389102e-12	-1.353344479691074e-12	-0	1.955852469439378	0	-0.09478689634274365	0	0	0	0	0	0
0.3115384615384615	91.47221070334669	405.524500879084	-0	1.478084354790629	0	0.09478689634274365	2.561345489240204e-12	-6.366704714064448e-13	-0	1.982495813606935	0	-0.09478689634274365	0	0	0	0	0	0
0.3153846153846153	78.3366303721113	359.8676816427673	-0	1.477831807023008	0	0.09478689634274365	6.45686549522238e-13	-1.602652570293855e-13	-0	2.009371648146253	0	-0.09478689634274363	0	0	0	0	-1.262177448353619e-29	0
0.3192307692307692	67.84504907488468	318.1511604750626	-0	1.47764148907455	0	0.09478689634274365	1.152378344289706e-13	-2.852746163441265e-14	-0	2.03647330885782	0	-0.09478689634274365	0	0	0	0	0	0
0.323076923076923	59.40813412122439	278.7662431603171	-0	1.477519494960174	0	0.09478689634274365	2.790430116104653e-14	-6.889664013157746e-15	-0	0	0	0	0	0	0	0	-2.644962101668819e-15	0
0.3269230769230769	50.57259915085851	235.2254492651929	-0	1.477436587070571	0	0.09478689634274365	1.594111892736214e-14	-3.928782067199163e-15	-0	0	0	0	0	0	0	0	-1.511009187355224e-15	0
0.3307692307692308	39.76187914950429	180.0825864510568	-0	1.477408777037837	0	0.09478689634274365	2.633516399574068e-14	-6.486886893254353e-15	-0	0	0	0	0	0	0	0	-2.496228459833426e-15	0
0.3346153846153846	28.4349759712088	112.5365290747704	-0	1.477656549230725	0	0.09478689634274365	5.564452568056812e-14	-1.372091482565212e-14	-0	0	0	0	0	0	0	0	-5.274371887725148e-15	0
0.3384615384615384	12.5350405850852	31.41378402714316	-0	1.478941905099942	0	0.09478689634274365	-3.439871241560756e-13	8.502555222079002e-14	-0	2.170240108480742	0	-0.09478689634274365	0	0	0	0	0	0
0.3423076923076923	0.001220858080181406	-0.004602450165423782	-0	1.472685743393101	0	0.09478689634274365	-4.470593849291786e-13	1.107952280428993e-13	-0	2.195713826348091	0	-0.09478689634274365	0	0	0	0	0	0
0.3461538461538461	2.83511266288025e-12	-2.415982630944911e-12	-0	1.467293141343941	0	0.09478689634274365	-4.372941791515054e-13	1.084584295185754e-13	-0	2.221028698615413	0	-0.09478689634274365	0	0	0	0	0	0
0.35	-0	-0	-0	0	0	0	-2.44900527934882e-13	6.060058100480838e-14	-0	2.246546379105677	0	-0.09478689634274365	0	0	0	0	0	0
0.3538461538461538	-0	-0	-0	0	0	0	-2.328267525027373e-13	5.736082560563525e-14	-0	2.272381465402996	0	-0.09478689634274365	0	0	0	0	0	0
0.3576923076923076	-0	-0	-0	0	0	0	-0	-0	-0	0	0	0	0	0	0	0	0	0
0.3615384615384615	-0	-0	-0	0	0	0	-0	-0	-0	0	0	0	0	0	0	0	0	0
0.3653846153846153	-0	-0	-0	0	0	0	-0	-0	-0	0	0	0	0	0	0	0	0	0
0.3692307692307692	-0	-0	-0	0	0	0	-0	-0	-0	0	0	0	0	0	0	0	0	0
0.373076923076923	-0	-0	-0	0	0	0	-0	-0	-0	0	0	0	0	0	0	0	0	0
0.3769230769230769	-0	-0	-0	0	0	0	-0	-0	-0	0	0	0	0	0	0	0	0	0
0.3807692307692307	-0	-0	-0	0	0	0	-0	-0	-0	0	0	0	0	0	0	0	0	0
0.3846153846153846	-0	-0	-0	0	0	0	-0	-0	-0	0	0	0	0	0	0	0	0	0
0.3884615384615384	-0	-0	-0	0	0	0	-0	-0	-0	0	0	0	0	0	0	0	0	0
0.3923076923076922	-0	-0	-0	0	0	0	-0	-0	-0	0	0	0	0	0	0	0	0	0
0.3961538461538461	-0	-0	-0	0	0	0	-4.02954813788582e-12	1.032403369271459e-12	-0	2.372594798076467	0	-0.08956897507908836	0	0	0	0	0	0
0.4	-0	-0	-0	0	0	0	-5.546828698702748e-11	1.44912465865704e-11	-0	2.383113080144729	0	-0.08956897507908836	0	0	0	0	0	0
0.4038461538461538	-0	-0	-0	0	0	0	-5.974060251818062e-10	1.610484046445314e-10	-0	2.392435730260149	0	-0.08956897507908836	0	0	0	0	0	0
0.4076923076923076	1.66087570134833e-21	-9.899361672702467e-22	-0	0	0	0	-5.565799836615358e-09	1.564945013628439e-09	-0	2.400809332414631	0	-0.08956897507908836	0	1.574292529418858e-22	0	0	0	0
0.4115384615384615	3.525790090903384e-17	-2.011351443500774e-17	-0	0	0	0	-4.660996960809005e-08	1.378521512380015e-08	-0	2.408499274482151	0	-0.08956897507908836	0	3.341986998727318e-18	0	0	0	0
0.4153846153846154	1.143764126607255e-12	-6.237609150864664e-13	-0	1.621423754473462	0	0.09478689634274363	-3.597220925417443e-07	1.124935738743019e-07	-0	2.415762742681146	0	-0.08956897507908836	0	1.262177448353619e-29	0	0	0	0
0.4192307692307692	-2.877453928438579e-10	1.500181185523774e-10	-0	1.633107456305571	0	0.09478689634274365	-2.627671598639702e-06	8.71062542149077e-07	-0	2.422707663921642	0	-0.08956897507908836	0	0	0	0	0	0
0.423076923076923	-5.673265818739282e-10	2.830990265585716e-10	-0	1.645041873856801	0	0.09478689634274365	-1.863186611998929e-05	6.556568222512033e-06	-0	2.429315062868829	0	-0.08956897507908836	0	0	0	0	0	0
0.4269230769230769	-8.487104364915718e-10	4.061961800244118e-10	-0	1.65710977406391	0	0.09478689634274365	-0.0001307281181206383	4.887076052031464e-05	-0	2.435553529889035	0	-0.08956897507908834	0	0	0	0	1.694065894508601e-21	0
0.4307692307692307	-1.405856760213286e-09	6.469209652147282e-10	-0	1.669216971686359	0	0.09478689634274365	-0.0009223605691961088	0.0003667043044776458	-0	2.441357502935673	0	-0.08956897507908834	0	0	0	0	1.355252715606881e-20	0
0.4346153846153846	-2.768862302851564e-09	1.229744433846133e-09	-0	1.681221228641446	0	0.09478689634274365	-0.006614159545936472	0.002800305689799915	-0	2.446688893141347	0	-0.08956897507908836	0	0	0	0	0	0
0.4384615384615385	-6.539506241455169e-09	2.825201149122006e-09	-0	1.692810527834719	0	0.09478689634274365	-0.04876984197407476	0.02199548532179947	-0	2.451555446629599	0	-0.08956897507908836	0	0	0	0	0	0
0.4423076923076923	-1.834850519893431e-08	7.784017127365336e-09	-0	1.70378923668789	0	0.09478689634274365	-0.3703274600212764	0.1777558386115412	-0	2.455969345240912	0	-0.08956897507908836	0	0	0	0	0	0
0.4461538461538461	-6.029944944309795e-08	2.525869302004765e-08	-0	1.714311500770968	0	0.09478689634274365	-2.818434343555352	1.439641193241326	-0	2.459917307246461	0	-0.08956897507908834	0	0	0	0	5.551115123125783e-17	0
0.45	-2.27207896209082e-07	9.423470473059404e-08	-0	1.724518602082383	0	0.09478689634274365	-19.66954738717583	10.71989378358395	-0	2.463418717024887	0	-0.08956897507908836	0	0	0	0	0	0
0.4538461538461538	-9.550549860265964e-07	3.936549898887802e-07	-0	1.734381397479992	0	0.09478689634274365	-90.87352440969865	54.77644883451922	-0	2.466232757900809	0	-0.08956897507908849	0	0	0	0	0	0
0.4576923076923076	-4.358928591954511e-06	1.790257091073568e-06	-0	1.743968775735944	0	0.09478689634274365	-284.2455215984751	221.8465763113242	-0	2.468123437976735	0	-0.08956897507908951	0	0	0	0	7.105427357601002e-15	0
0.4615384615384615	-2.095594552707398e-05	8.550705904240307e-06	-0	1.753598888711343	0	0.09478689634274365	-297.7730035602913	756.8952097087505	-0	2.470793317499277	0	-0.08956897507911819	0	0	0	0	1.231015289704374e-11	0
0.4653846153846153	-0.000101342544781254	4.086633281763746e-05	-0	1.763478270132878	0	0.09478689634274366	-23.41911271297707	1284.609529077396	-0	2.472893673852236	0	-0.08956897508031346	0	0	0	0	1.081135181379977e-09	0
0.4692307692307692	-0.0004676686723458424	0.0001861082699072127	-0	1.773584716324821	0	0.09478689634274365	-226.2468446445221	1532.847943752952	-0	2.472629852558788	0	-0.0895689751168155	0	0	0	0	3.707180695755596e-08	0
0.4730769230769231	-0.001964545619151984	0.0007718414741640318	-0	1.783972360128182	0	0.09478689634274365	-62.32631937139288	1506.441628386471	-0	2.474076762289919	0	-0.08956897610976054	0	0	0	0	1.067138337695894e-06	0
0.4769230769230769	-0.00730153938606349	0.002828891240140855	-0	1.79479091562634	0	0.09478689634274363	-253.1485325696257	1379.874339006495	-0	2.473548236764621	0	-0.08956899719268847	0	-1.084202172485504e-19	0	0	1.984604494964515e-05	0
0.4807692307692307	-0.02353453044136744	0.008973087984697793	-0	1.806155496919214	0	0.09478689634274365	-126.4028247181848	1259.203343333539	-0	2.475087776526939	0	-0.08956933393241011	0	0	0	0	0.0002683300390877719	0
0.4846153846153846	-0.06485767276114915	0.02429617241636789	-0	1.818131126070839	0	0.09478689634274365	-255.602404420789	1197.251371588672	-0	2.474831359038185	0	-0.08957283876494317	0	0	0	0	0.00227049002529256	0
0.4884615384615384	-0.1512045709250271	0.05559991834685999	-0	1.830771307275721	0	0.09478689634274365	-145.1321721846251	1160.610229977462	-0	2.477189211857507	0	-0.08959748173327814	0	0	0	0	0.0136671015761447	0
0.4923076923076923	-0.2980269858952985	0.1075789146839936	-0	1.844099702643407	0	0.09478689634274365	-229.928632642345	1173.409479777717	-0	2.47971069506654	0	-0.08968489752881516	0	0	0	0	0.04371674434960937	0
0.4961538461538461	-0.5008218869287808	0.1774973169529712	-0	1.858137750321846	0	0.09478689634274365	-152.5704725044031	1191.099190845486	-0	2.485936220419365	0	-0.08985359719732243	0	0	0	0	0.08322410353638787	0
0.4999999999999999	-0.7264149370664782	0.2526012854853601	-0	1.872920263659754	0	0.09478689634274365	-240.9141024261827	1255.723029139372	-0	2.495715410259393	0	-0.09019745997868697	0	0	0	0	0.1160821233277787	0
0.5038461538461538	-0.9200762750169102	0.3136057651071313	-0	1.888474203212402	0	0.09478689634274365	-173.7585971350828	1242.27633889427	-0	2.501696562173195	0	-0.0903773568307024	0	0	0	0	0.07711005189123199	0
0.5076923076923077	-1.031552948504846	0.3445756576481669	-0	1.904799359257619	0	0.09478689634274365	-189.1128291450527	1204.043744925747	-0	2.502380081338966	0	-0.09039991883483461	0	0	0	0	0.04109064296163467	0
0.5115384615384615	-1.041671063253212	0.3410430578768612	-0	1.921882236466471	0	0.09478689634274365	-129.605512288027	1174.747682671752	-0	2.504361859608291	0	-0.09044649960089249	0	0	0	0	0.03060493363949668	0
0.5153846153846153	-0.966538051545155	0.309917461397996	-0	1.939730694415763	0	0.09478689634274365	-141.3606715746769	1156.205904328198	-0	2.505054917923806	0	-0.09046950418296365	0	0	0	0	0.02294390222913023	0
0.5192307692307692	-0.8407925880569547	0.2637395457952359	-0	1.958347465679017	0	0.09478689634274365	-96.6012761563388	1133.684319825512	-0	2.506753468787137	0	-0.09051104787088864	0	0	0	0	0.02029784417104707	0
0.523076923076923	-0.6956081763022928	0.213456152013985	-0	1.977703484384094	0	0.09478689634274366	-103.060081652162	1115.953431306829	-0	2.507421806330755	0	-0.09053268414896577	0	0	0	0	0.01691255928044733	0
0.5269230769230768	-0.554001437089746	0.1664975922446318	-0	1.997745928945492	0	0.09478689634274365	-69.19223873945296	1090.820436129924	-0	2.508988070225439	0	-0.0905734957216769	0	0	0	0	0.01620520975625261	0
0.5307692307692307	-0.4299021976559349	0.1267856533037638	-0	2.018398606072497	0	0.09478689634274365	-66.28435216622418	1056.489679848006	-0	2.509815887570345	0	-0.09059885197388678	0	0	0	0	0.01427625881736105	0
0.5346153846153846	-0.3284211772275757	0.0952682155112471	-0	2.039576243367014	0	0.09478689634274365	-31.53398824358887	1018.22765412098	-0	2.513257928244605	0	-0.09070539365285321	0	0	0	0	0.01909992369559621	0
0.5384615384615384	-0.2486373820329525	0.07105843333450527	-0	2.061222371817684	0	0.09478689634274365	-24.75881608131321	997.2709014023392	-0	2.520095791817353	0	-0.09093975483830635	0	0	0	0	0.03299633258056245	0
0.5423076923076923	-0.1876652571290708	0.05288941270738069	-0	2.083299212149899	0	0.09478689634274365	-18.002316694177	978.2423810839127	-0	2.529478079347394	0	-0.09126261042520156	0	0	0	0	0.0487637920685875	0
0.5461538461538461	-0.1418667098344991	0.03946179896105069	-0	2.105769830456502	0	0.09478689634274365	-32.30818528476843	955.9981544723364	-0	2.53752942869753	0	-0.09154519877071271	0	0	0	0	0.05334101728365104	0
0.5499999999999999	-0.1076582515849606	0.02958340157639998	-0	2.128594217196472	0	0.09478689634274366	-29.96704628003216	934.9412210204255	-0	2.544616329290548	0	-0.09178837173014448	0	1.734723475976807e-18	0	0	0.05052674633658505	0
0.5538461538461538	-0.08201283127056344	0.02228386278899723	-0	2.151735675742501	0	0.09478689634274365	-34.54374881919856	915.597030499275	-0	2.55010845994458	0	-0.09197789489829103	0	0	0	0	0.04323207425089937	0
0.5576923076923077	-0.06266934448808145	0.01685141759257444	-0	2.175162697606023	0	0.09478689634274365	-23.72476325387162	905.6669069533978	-0	2.556321147805021	0	-0.09218804742102546	0	0	0	0	0.03708555940363123	0
0.5615384615384615	-0.04794888237736798	0.01276538080328572	-0	2.198865259744442	0	0.09478689634274365	-18.37804291753234	913.2061000711195	-0	2.564303419300319	0	-0.09246274154309117	0	0	0	0	0.03206063966374328	0
0.5653846153846154	-0.03667138666005633	0.009666849154913396	-0	2.22284610871669	0	0.09478689634274365	-15.83053791459556	918.0946565804147	-0	2.573270096209983	0	-0.09277350756810758	0	0	0	0	0.02422074900495974	0
0.5692307692307692	-0.02799336966562868	0.007305133098220083	-0	2.247118721494573	0	0.09478689634274365	-19.09143674685031	908.9657120677193	-0	2.581455912329397	0	-0.09305901370940359	0	0	0	0	0.01364116066452192	0
0.573076923076923	-0.02125554537808327	0.005489882413926228	-0	2.271695291336431	0	0.09478689634274365	-12.52401864340825	899.1455685410862	-0	2.590171030847447	0	-0.09336064029638907	0	0	0	0	0.003284478804557844	0
0.5769230769230769	-0.01598194347080955	0.004085904612126747	-0	2.296573459991091	0	0.09478689634274365	-7.128102020915479	890.4875521305801	-0	2.600309614458177	0	-0.09371389230935674	0	0	0	0	-0.005867003940560278	0
0.5807692307692307	-0.01185342873740057	0.003001893209875037	-0	2.321733916490113	0	0.09478689634274365	-2.536572066876722	875.5573105191093	-0	2.611916260997849	0	-0.09412059475196159	0	0	0	0	-0.01118056267269091	0
0.5846153846153845	-0.008684925712141901	0.00218302671341026	-0	2.34709587414181	0	0.09478689634274365	-1.218358365205464	854.0578443980971	-0	2.624328819384677	0	-0.09455872445126463	0	0	0	0	-0.007437771993929337	0
0.5884615384615384	-0.00631595984817122	0.001579293867218547	-0	2.372582377666377	0	0.09478689634274365	9.527090409712729	856.5303308154547	-0	2.631308870819586	0	-0.09480084446742378	0	0	0	0	0.0007480427676886947	0
0.5923076923076922	-0.004556834067486921	0.001134046346167386	-0	2.398224236628247	0	0.09478689634274365	30.73775248847235	879.7363705547158	-0	2.631231136235786	0	-0.0947869331195197	0	0	0	0	2.945657882502672e-06	0
0.5961538461538461	-0.003244772233405155	0.0008030021852504955	-0	2.424084225682588	0	0.09478689634274363	48.57770807429332	886.0710349723563	-0	2.631495249810625	0	-0.09478689635635057	0	-5.421010862427522e-20	0	0	1.536206717389632e-09	0
0.6	-0.002268662855016946	0.0005579591073081585	-0	2.450184841803178	0	0.09478689634274365	58.26465223186765	884.6633848567925	-0	2.63166006259013	0	-0.09478689634274726	0	0	0	0	5.480060849549773e-13	0
0.6038461538461538	-0.001550952053247706	0.0003790141887748903	-0	2.476530809147403	0	0.09478689634274365	66.54332207703887	879.5235105783677	-0	2.631806288542401	0	-0.09478689634274365	0	0	0	0	0	0
0.6076923076923076	-0.001032431760744155	0.000250723058287305	-0	2.503118435104987	0	0.09478689634274365	70.80954629230983	872.8747320129312	-0	2.631897573186032	0	-0.09478689634274365	0	0	0	0	0	0
0.6115384615384615	-0.0006671871361202226	0.0001610761590108376	-0	2.529937287316392	0	0.09478689634274365	75.13730696134068	866.6366372350609	-0	2.631985169165462	0	-0.09478689634274365	0	0	0	0	0	0
0.6153846153846153	-0.0004185061113570464	0.0001005178395328931	-0	2.556960380656635	0	0.09478689634274365	78.34055928411141	860.4824072105407	-0	2.632052636516916	0	-0.09478689634274365	0	0	0	0	0	0
0.6192307692307691	-0.0002555883370018829	6.112766622187847e-05	-0	2.584153973452134	0	0.09478689634274365	79.67818625017181	857.0930229770204	-0	2.63208563393867	0	-0.09478689634274365	0	0	0	0	0	0
0.6230769230769231	-0.0001529303252319218	3.64549254721503e-05	-0	2.611482038900516	0	0.09478689634274365	75.28199483193714	860.1105880271257	-0	2.632026068183589	0	-0.09478689634274365	0	0	0	0	0	0
0.6269230769230769	-9.027833176727674e-05	2.146631401295539e-05	-0	2.638913293029478	0	0.09478689634274365	71.72685892716154	869.652688335214	-0	2.631972305176384	0	-0.09478689634274365	0	0	0	0	0	0
0.6307692307692307	-5.249453663694514e-05	1.245437757195189e-05	-0	2.66645251026255	0	0.09478689634274365	73.1474558194531	880.4389649382859	-0	2.631987244684218	0	-0.09478689634274366	0	0	0	0	8.881784197001252e-16	0
0.6346153846153846	-2.996056545552413e-05	7.091833874611264e-06	-0	2.694111491321978	0	0.09478689634274365	79.44324965328468	890.841328921127	-0	2.632066054154728	0	-0.09478689634274365	0	0	0	0	0	0
0.6384615384615384	-1.687317763694726e-05	3.984617649980308e-06	-0	2.721887035818198	0	0.09478689634274365	88.08122046943231	899.3857930159929	-0	2.632170390001441	0	-0.09478689634274365	0	0	0	0	0	0
0.6423076923076922	-9.441079627155836e-06	2.224308070657507e-06	-0	2.749769531484148	0	0.09478689634274365	98.86710639188048	905.0618566079585	-0	2.63229731621055	0	-0.09478689634274365	0	0	0	0	0	0
0.6461538461538461	-5.247022230223097e-06	1.233341010224885e-06	-0	2.777748882036988	0	0.09478689634274365	109.9194833632725	906.8770519546179	-0	2.632421369664697	0	-0.09478689634274365	0	0	0	0	0	0
0.6499999999999999	-2.870517121253761e-06	6.731760996975537e-07	-0	2.805821306829123	0	0.09478689634274365	121.1471859149525	904.3757404358165	-0	2.632543413217399	0	-0.09478689634274365	0	0	0	0	0	0
0.6538461538461537	-1.50331543729527e-06	3.51698075722164e-07	-0	2.834004686103239	0	0.09478689634274365	131.2222918846144	897.0379412798885	-0	2.632647059785636	0	-0.09478689634274365	0	0	0	0	0	0
0.6576923076923076	-6.94837915662089e-07	1.621727125260282e-07	-0	2.86231127141186	0	0.09478689634274365	142.9538105232858	882.4617576307152	-0	2.632782450049758	0	-0.09478689634274365	0	0	0	0	0	0
0.6615384615384614	-1.990499426429301e-07	4.640213970799941e-08	-0	2.890712255394442	0	0.09478689634274365	157.9877330559666	857.0590817308401	-0	2.632988474009111	0	-0.09478689634274365	0	0	0	0	0	0
0.6653846153846152	8.480666688990231e-09	-1.979972427705714e-09	-0	2.919133665077691	0	0.09478689634274365	172.5473219356632	823.0245419429403	-0	2.63321009609128	0	-0.09478689634274365	0	0	0	0	0	0
0.6692307692307692	4.626998471631783e-10	-1.085941196446366e-10	-0	2.947428763152903	0	0.09478689634274365	181.9960122977522	783.8164342101622	-0	2.633368196457089	0	-0.09478689634274366	0	0	0	0	0	0
0.673076923076923	1.124238724093922e-11	-2.662670372525973e-12	-0	2.9754280268458	0	0.09478689634274365	186.7460356800663	739.3016397902531	-0	2.633472385812791	0	-0.09478689634274365	0	0	0	0	0	0
0.6769230769230768	1.270686549665013e-12	-3.044840768492503e-13	-0	3.00300157883275	0	0.09478689634274366	186.4574264334875	687.9798780562469	-0	2.633525168237348	0	-0.09478689634274365	0	-2.524354896707238e-29	0	0	0	0
0.6807692307692308	1.087648274652127e-12	-2.638804901775545e-13	-0	3.030078217325039	0	0.09478689634274365	176.0753928078452	630.3665595305066	-0	2.633420109792096	0	-0.09478689634274365	0	0	0	0	0	0
0.6846153846153846	2.564204643631688e-12	-6.290042138342159e-13	-0	3.056757224981427	0	0.09478689634274365	153.2356658412595	570.5287133401467	-0	2.633056866196288	0	-0.09478689634274365	0	0	0	0	0	0
0.6884615384615385	5.27174575755733e-12	-1.303461782953983e-12	-0	3.083227249166846	0	0.09478689634274366	128.2440230140455	512.1405318998302	-0	2.632610740805809	0	-0.09478689634274365	0	0	0	0	0	0
0.6923076923076923	5.449737256389664e-12	-1.353344479691213e-12	-0	3.109698623285532	0	0.09478689634274365	107.7378479191752	456.4573323706335	-0	2.632235441999441	0	-0.09478689634274365	0	0	0	0	0	0
0.6961538461538461	2.561345489240182e-12	-6.366704714064392e-13	-0	3.136341967453089	0	0.09478689634274363	91.47221070334732	405.5245008790903	-0	2.631930508636784	0	-0.09478689634274365	0	0	0	0	0	0
0.7	6.456865495222367e-13	-1.602652570293851e-13	-0	3.163217801992407	0	0.09478689634274365	78.33663037210992	359.8676816427642	-0	2.631677960869161	0	-0.09478689634274365	0	0	0	0	0	0
0.7038461538461538	1.152378344289718e-13	-2.852746163441295e-14	-0	3.190319462703973	0	0.09478689634274365	67.84504907488581	318.1511604750693	-0	2.631487642920704	0	-0.09478689634274365	0	0	0	0	0	0
0.7076923076923076	2.790430116104283e-14	-6.889664013156831e-15	-0	0	0	0	59.40813412122443	278.7662431603226	-0	2.631365648806329	0	-0.09478689634274365	0	2.644962101668468e-15	0	0	0	0
0.7115384615384615	1.594111892736412e-14	-3.928782067199653e-15	-0	0	0	0	50.57259915085803	235.2254492651939	-0	2.631282740916724	0	-0.09478689634274365	0	1.511009187355412e-15	0	0	0	0
0.7153846153846153	2.633516399574103e-14	-6.486886893254441e-15	-0	0	0	0	39.76187914950292	180.0825864510531	-0	2.63125493088399	0	-0.09478689634274363	0	2.49622845983346e-15	0	0	-4.440892098500626e-16	0
0.7192307692307691	5.564452568056636e-14	-1.372091482565169e-14	-0	0	0	0	28.43497597120849	112.5365290747709	-0	2.631502703076879	0	-0.09478689634274365	0	5.274371887724981e-15	0	0	0	0
0.723076923076923	-3.439871241560749e-13	8.502555222078987e-14	-0	3.324086262326897	0	0.09478689634274365	12.53504058508519	31.41378402714315	-0	2.632788058946097	0	-0.09478689634274365	0	0	0	0	0	0
0.7269230769230768	-4.470593849291861e-13	1.107952280429012e-13	-0	3.349559980194244	0	0.09478689634274365	0.001220858080181469	-0.004602450165423951	-0	2.626531897239254	0	-0.09478689634274365	0	0	0	0	0	0
0.7307692307692307	-4.372941791515103e-13	1.084584295185766e-13	-0	3.374874852461568	0	0.09478689634274365	2.835112662880282e-12	-2.415982630944938e-12	-0	2.621139295190095	0	-0.09478689634274366	0	0	0	0	5.048709793414476e-29	0
0.7346153846153846	-2.449005279348784e-13	6.060058100480747e-14	-0	3.40039253295183	0	0.09478689634274365	-0	-0	-0	0	0	0	0	0	0	0	0	0
0.7384615384615384	-2.328267525027402e-13	5.736082560563597e-14	-0	3.42622761924915	0	0.09478689634274365	-0	-0	-0	0	0	0	0	0	0	0	0	0
0.7423076923076922	-0	-0	-0	0	0	0	-0	-0	-0	0	0	0	0	0	0	0	0	0
0.7461538461538461	-0	-0	-0	0	0	0	-0	-0	-0	0	0	0	0	0	0	0	0	0
0.7499999999999999	-0	-0	-0	0	0	0	-0	-0	-0	0	0	0	0	0	0	0	0	0
0.7538461538461538	-0	-0	-0	0	0	0	-0	-0	-0	0	0	0	0	0	0	0	0	0
0.7576923076923077	-0	-0	-0	0	0	0	-0	-0	-0	0	0	0	0	0	0	0	0	0
0.7615384615384615	-0	-0	-0	0	0	0	-0	-0	-0	0	0	0	0	0	0	0	0	0
0.7653846153846153	-0	-0	-0	0	0	0	-0	-0	-0	0	0	0	0	0	0	0	0	0
0.7692307692307692	-0	-0	-0	0	0	0	-0	-0	-0	0	0	0	0	0	0	0	0	0
