DataType=double
version=3
OpenSimVersion=4.6-2026-06-22-85aaf64
endheader
time	ground_force_r_vx	ground_force_r_vy	ground_force_r_vz	ground_force_r_px	ground_force_r_py	ground_force_r_pz	ground_force_l_vx	ground_force_l_vy	ground_force_l_vz	ground_force_l_px	ground_force_l_py	ground_force_l_pz	ground_torque_r_x	ground_torque_r_y	ground_torque_r_z	ground_torque_l_x	ground_torque_l_y	ground_torque_l_z
0	-2.859306157954324e-12	7.053938930957586e-13	-0	1.305016558252174	0	0.09478689634274365	-0	-0	-0	0	0	0	0	0	0	0	0	0
0.003571428571428572	-1.056599527362503e-11	2.625528053459957e-12	-0	1.205394650718885	0	0.09038324414782127	-0	-0	-0	0	0	0	0	-6.979854612334812e-18	0	0	0	0
0.007142857142857144	-1.24789091779218e-10	3.128882983516493e-11	-0	1.194514039901561	0	0.08960563333642566	-0	-0	-0	0	0	0	0	1.020200690599729e-17	0	0	0	0
0.01071428571428571	-1.503062742846521e-09	3.837120263791215e-10	-0	1.203059890023273	0	0.08956973818070704	-0	-0	-0	0	0	0	0	6.549231347812459e-18	0	0	0	0
0.01428571428571429	-1.59634095297526e-08	4.188812498365265e-09	-0	1.211911761337729	0	0.08956898781331288	1.977565941276292e-19	-1.217714129640653e-19	-0	0	0	0	0	1.87981240298468e-18	0	0	-1.874473378866962e-20	0
0.01785714285714286	-1.472369255627502e-07	4.00664681777267e-08	-0	1.220221746462775	0	0.08956897624564274	5.001142721222216e-16	-2.970273737145606e-16	-0	0	0	0	0	2.159340099818653e-18	0	0	-4.74042796711757e-17	0
0.02142857142857143	-1.18356245974718e-06	3.36505104152778e-07	-0	1.228141105826798	0	0.08956897507908836	2.657285015990014e-12	-1.520240802454214e-12	-0	0.5018168793284402	0	-0.09478689634274365	0	0	0	0	0	0
0.025	-8.414068785893701e-06	2.513755784934595e-06	-0	1.235774794042663	0	0.08956897507908836	5.517341781899566e-09	-3.037998235607943e-09	-0	0.511560177566354	0	-0.09478689634274365	0	0	0	0	0	0
0.02857142857142857	-5.408158229062106e-05	1.70355542319384e-05	-0	1.243213881127454	0	0.08956897507908836	-1.170439459005603e-07	6.199023017116929e-08	-0	0.5215852610724476	0	-0.09478689634274365	0	0	0	0	0	0
0.03214285714285714	-0.000320971788029688	0.0001067495489072107	-0	1.250482459837819	0	0.08956897507908836	-1.87403799592207e-07	9.543897552655108e-08	-0	0.5318507454521902	0	-0.09478689634274365	0	0	0	0	0	0
0.03571428571428572	-0.001798874121406459	0.0006321918037014958	-0	1.257519062124009	0	0.08956897507908836	-2.717151870118318e-07	1.330934631353301e-07	-0	0.5422957307610226	0	-0.09478689634274365	0	0	0	0	0	0
0.03928571428571428	-0.009704623661732617	0.003606238809584078	-0	1.264254216604641	0	0.08956897507908836	-4.376588772764197e-07	2.063750982654614e-07	-0	0.552852929047821	0	-0.09478689634274365	0	0	0	0	0	0
0.04285714285714286	-0.05125717866533037	0.02016181536082079	-0	1.270608026123043	0	0.08956897507908836	-8.248436494974028e-07	3.749860027238756e-07	-0	0.5634537521878278	0	-0.09478689634274365	0	0	0	0	0	0
0.04642857142857143	-0.2677695176789957	0.111620492511129	-0	1.276533637100123	0	0.08956897507908834	-1.839580223564899e-06	8.087020686541535e-07	-0	0.573993758225448	0	-0.09478689634274365	0	-3.469446951953614e-18	0	0	0	0
0.05	-1.3895851536636	0.6139338866710137	-0	1.282021505834538	0	0.08956897507909156	-4.771723446882537e-06	2.042579366313919e-06	-0	0.5842484327850394	0	-0.09478689634274365	0	5.551115123125783e-17	0	0	0	0
0.05357142857142858	-7.03764723256154	3.294339561427153	-0	1.287067802148019	0	0.08956897507909037	-1.40086695683016e-05	5.890664577150196e-06	-0	0.5940821254328924	0	-0.09478689634274365	0	2.220446049250313e-16	0	0	0	0
0.05714285714285715	-31.79098725733664	15.91992686735188	-0	1.291559432973234	0	0.08956897507909035	-4.534708405098438e-05	1.882924198216576e-05	-0	0.6036258120483876	0	-0.09478689634274365	0	0	0	0	0	0
0.06071428571428571	-100.8720219427558	55.47472659613616	-0	1.295469310287369	0	0.08956897507909282	-0.0001574155375364605	6.46297345407208e-05	-0	0.6130520195036818	0	-0.09478689634274365	0	1.77635683940025e-15	0	0	0	0
0.06428571428571428	-266.2639682196008	174.1055560481807	-0	1.29858937232003	0	0.08956897507910991	-0.0005679171035372061	0.0002304576123743146	-0	0.622487131223197	0	-0.09478689634274365	0	-9.947598300641403e-14	0	0	0	0
0.06785714285714287	-509.7433661790403	554.0689050139889	-0	1.300585164673739	0	0.08956897507945194	-0.002050515306311933	0.0008220996195555092	-0	0.6320037622307971	0	-0.09478689634274365	0	-1.671907057243516e-11	0	0	0	0
0.07142857142857144	227.0359760939115	1017.070459289473	-0	1.304923192567552	0	0.08956897508867587	-0.007089523648961844	0.002810132904232189	-0	0.6416531009721289	0	-0.09478689634274365	0	-5.472227115888018e-09	0	0	0	0
0.07500000000000001	-200.9376487995176	1355.933615081774	-0	1.30350462562138	0	0.0895689752320767	-0.02242766318535371	0.008791338248064148	-0	0.6515492112053904	0	-0.09478689634274365	0	-9.342749507368353e-08	0	0	0	0
0.07857142857142857	159.2421474886398	1476.522522770787	-0	1.305797055533953	0	0.08956897757962344	-0.06306748823406466	0.02441783950959643	-0	0.6618316253884639	0	-0.09478689634274365	0	-2.010783580530529e-06	0	0	0	0
0.08214285714285714	-210.3081081215424	1469.177548391673	-0	1.304403768177864	0	0.08956901221271962	-0.1551408887302754	0.05922404517523187	-0	0.672600710528951	0	-0.09478689634274365	0	-2.910624962026986e-05	0	0	0	0
0.08571428571428572	53.47611817736864	1387.454976658218	-0	1.306676200326762	0	0.08956948855251572	-0.3310905793832725	0.1244432513254319	-0	0.6839118294957195	0	-0.09478689634274365	0	-0.0003911852557223483	0	0	0	0
0.08928571428571429	-227.3589388070417	1337.704592419807	-0	1.3055239890835	0	0.08957416165767165	-0.6118350564967806	0.2262532295386834	-0	0.69580001972464	0	-0.09478689634274365	0	-0.003267631227473089	0	0	0	0
0.09285714285714286	-24.2228752043058	1293.802911950485	-0	1.308632039431129	0	0.08960611099220474	-0.9808806172537735	0.3565935880330388	-0	0.7083025070645245	0	-0.09478689634274365	0	-0.01969319547388082	0	0	0	0
0.09642857142857143	-223.185310861226	1309.475590632891	-0	1.310473556855084	0	0.08970059191122633	-1.373908382686254	0.4908035374804181	-0	0.7214420458595876	0	-0.09478689634274365	0	-0.0529444645936259	0	0	0	0
0.1	-72.74649797346008	1318.43145115481	-0	1.31743860030623	0	0.08988174821006854	-1.692070340787802	0.5941272694445987	-0	0.735220590026565	0	-0.09478689634274365	0	-0.09526015060345117	0	0	0	0
0.1035714285714286	-236.4907729052662	1374.014971883528	-0	1.325495201668583	0	0.09018850884349242	-1.849054690547834	0.6385794266606044	-0	0.7496327641726322	0	-0.09478689634274365	0	-0.1139546265331539	0	0	0	0
0.1071428571428571	-117.0239432946571	1348.664234992711	-0	1.331100232001602	0	0.09034550328909501	-1.810360516213377	0.6150626973568826	-0	0.7646810083280418	0	-0.09478689634274365	0	-0.07535121941471346	0	0	0	0
0.1107142857142857	-189.3830021985314	1314.22782488325	-0	1.331029480953803	0	0.09035730977652282	-1.610619033332248	0.5380322342576744	-0	0.7803691689570488	0	-0.09478689634274365	0	-0.03924811597102362	0	0	0	0
0.1142857142857143	-89.7166536641692	1277.309110610767	-0	1.333057392900005	0	0.09039683941563491	-1.319550786432346	0.4325975504517536	-0	0.7967307790131718	0	-0.09478689634274365	0	-0.02903828404246944	0	0	0	0
0.1178571428571429	-137.537712800067	1258.02853528506	-0	1.332830898127237	0	0.09039884878553103	-1.00966933979979	0.3241270241456021	-0	0.8137977195860042	0	-0.09478689634274365	0	-0.01920590519132226	0	0	0	0
0.1214285714285714	-66.58202431043179	1232.632439466628	-0	1.33469392863924	0	0.0904402842855011	-0.7288398893796771	0.2290380048827466	-0	0.8315512962082021	0	-0.09478689634274365	0	-0.01803661111501853	0	0	0	0
0.125	-95.59320770194415	1209.965624793666	-0	1.334688498319909	0	0.09044602333066561	-0.5023479067248363	0.1547430898863919	-0	0.849939859109779	0	-0.09478689634274365	0	-0.01357664843084017	0	0	0	0
0.1285714285714286	-38.14309440407542	1168.67137597854	-0	1.336385770486186	0	0.09048579595212357	-0.3343404956980297	0.1011820485294919	-0	0.8688853119250005	0	-0.09478689634274365	0	-0.01376481367453986	0	0	0	0
0.1321428571428571	-45.14131339934389	1128.579037891239	-0	1.338200320654889	0	0.09054962774980267	-0.21741232867872	0.06479352981020244	-0	0.8883089720207987	0	-0.09478689634274365	0	-0.01643435690184614	0	0	0	0
0.1357142857142857	1.26442264636282	1095.702345547715	-0	1.344976981954416	0	0.09076975734214046	-0.1389632380857356	0.04083946341382601	-0	0.9081691570857161	0	-0.09478689634274365	0	-0.03371044863924222	0	0	0	0
0.1392857142857143	-18.70357154633684	1069.491773819386	-0	1.352642445306829	0	0.09104149281654353	-0.08780284308810866	0.02546423756200662	-0	0.9284382419335421	0	-0.09478689634274365	0	-0.05147597443773688	0	0	0	0
0.1428571428571429	-8.207838818554592	1035.38313251897	-0	1.36075774532894	0	0.09131881754510471	-0.05520301823182394	0.01581023848069382	-0	0.9490866641893544	0	-0.09478689634274365	0	-0.06137666352279114	0	0	0	0
0.1464285714285714	-25.48114066318271	1006.933039358715	-0	1.366776886333644	0	0.09153131947459153	-0.03469227752235762	0.009819913511377247	-0	0.9700801475969846	0	-0.09478689634274365	0	-0.06007737017712156	0	0	0	0
0.15	-15.70870926996637	980.2467420107802	-0	1.372623238070955	0	0.09172920083705335	-0.02180875695863266	0.006104929953187051	-0	0.9913946341440204	0	-0.09478689634274365	0	-0.05540383906779645	0	0	0	0
0.1535714285714286	-21.93050142398569	961.9961549740826	-0	1.377541190274039	0	0.09189979788528289	-0.01370864610325551	0.003797001786685047	-0	1.013010365847772	0	-0.09478689634274365	0	-0.04900959651469572	0	0	0	0
0.1571428571428571	-11.11687981785321	954.6260514920568	-0	1.383829561252537	0	0.0921133039464881	-0.008602118807250385	0.002358764291315201	-0	1.03490753613534	0	-0.09478689634274365	0	-0.04454961205363772	0	0	0	0
0.1607142857142857	-15.43206058468798	953.8803394579628	-0	1.390385433124921	0	0.09234134989550766	-0.005383765992081245	0.001462265991288822	-0	1.057068714913257	0	-0.09478689634274365	0	-0.03903496460774081	0	0	0	0
0.1642857142857143	-9.949251825949258	954.6907949709739	-0	1.397993952140458	0	0.09260362306910455	-0.003361177114170083	0.0009045881596436737	-0	1.079485147158749	0	-0.09478689634274365	0	-0.03217343647956172	0	0	0	0
0.1678571428571428	-15.16065379838487	950.0838827137723	-0	1.405336425872093	0	0.09286019542385393	-0.00209333624619365	0.0005583214541254299	-0	1.102154822949008	0	-0.09478689634274365	0	-0.02289501145164619	0	0	0	0
0.1714285714285714	-13.02409496196962	935.9432708417387	-0	1.412630320203957	0	0.09311308167433699	-0.001298839638221531	0.0003432758126937594	-0	1.125086183432389	0	-0.09478689634274363	0	-0.01264458762906018	0	0	2.710505431213761e-20	0
0.175	-7.180492788641439	925.8821340814796	-0	1.420937523849898	0	0.09340116223479514	-0.0007999494567814008	0.0002094756193743418	-0	1.148285222797145	0	-0.09478689634274363	0	-0.002999370622071229	0	0	1.355252715606881e-20	0
0.1785714285714286	6.287471169018766	922.1593400068649	-0	1.4321995042283	0	0.09379216260889034	-0.0004871107133618889	0.0001264067827505589	-0	1.171738764437178	0	-0.09478689634274365	0	0.005712022818797458	0	0	0	0
0.1821428571428572	5.570948375210977	901.9018449975639	-0	1.444831710897964	0	0.09423773351533096	-0.0002936695671959334	7.55809607142071e-05	-0	1.195414841283788	0	-0.09478689634274365	0	0.00984346781126999	0	0	0	0
0.1857142857142857	3.772634752651632	866.3171245743117	-0	1.457827988158755	0	0.09469831441850111	-0.000178140563006841	4.555844071117261e-05	-0	1.219213964190436	0	-0.09478689634274365	0	0.003017326887052307	0	0	0	0
0.1892857142857143	18.96637036114068	879.0516259040349	-0	1.460692116182439	0	0.09479203982384039	-0.0001105685621111183	2.816430152194457e-05	-0	1.243041782413415	0	-0.09478689634274365	0	-0.0002785587571147996	0	0	0	0
0.1928571428571429	43.09318165323076	892.9149782338608	-0	1.460882437235105	0	0.09478690842601875	-6.963865916555282e-05	1.767762595518674e-05	-0	1.26693590762399	0	-0.09478689634274365	0	-9.551007496000352e-07	0	0	0	0
0.1964285714285715	57.0985511706188	895.7200781524347	-0	1.461091876871506	0	0.09478689635219761	-4.386119061915136e-05	1.108614310163842e-05	-0	1.290969050337931	0	-0.09478689634274365	0	-1.030879381858085e-09	0	0	0	0
0.2	70.12471912512001	892.7693031029279	-0	1.461289449734267	0	0.0947868963427492	-2.75104497433102e-05	6.918440083780887e-06	-0	1.315161135814571	0	-0.09478689634274365	0	-8.002487561498128e-13	0	0	0	0
0.2035714285714286	77.57412544348392	885.9540895679608	-0	1.461415945228431	0	0.09478689634274366	-1.719103538611269e-05	4.300140274184584e-06	-0	1.339509078613089	0	-0.09478689634274365	0	-2.664535259100376e-15	0	0	0	0
0.2071428571428571	84.63017598505897	878.3284090385116	-0	1.461534183482048	0	0.09478689634274365	-1.074366803892695e-05	2.673378585983622e-06	-0	1.363987594597583	0	-0.09478689634274365	0	0	0	0	0	0
0.2107142857142857	88.58679083629124	869.9802811017048	-0	1.461607490333684	0	0.09478689634274365	-6.751491470404453e-06	1.672015914443174e-06	-0	1.388565622652518	0	-0.09478689634274365	0	0	0	0	0	0
0.2142857142857143	92.95977399036917	862.6523546820247	-0	1.461680730524674	0	0.09478689634274366	-4.282847018764795e-06	1.056211568134095e-06	-0	1.413216066123801	0	-0.09478689634274365	0	-1.77635683940025e-15	0	0	0	0
0.2178571428571429	95.83262341126247	855.493892686678	-0	1.461728139851206	0	0.09478689634274365	-2.751528880608587e-06	6.760900996570894e-07	-0	1.437916502991176	0	-0.09478689634274365	0	0	0	0	0	0
0.2214285714285714	99.7068878353541	849.3921412888633	-0	1.461783582628764	0	0.09478689634274365	-1.792546274153114e-06	4.389868200736623e-07	-0	1.462661965485923	0	-0.09478689634274365	0	0	0	0	0	0
0.225	102.9099682850266	843.1159036725857	-0	1.461824718054229	0	0.09478689634274365	-1.184507093041056e-06	2.891499023838764e-07	-0	1.487450836512961	0	-0.09478689634274365	0	0	0	0	0	0
0.2285714285714286	107.0720007722321	836.8710911976749	-0	1.461875037127354	0	0.09478689634274365	-7.92626579127446e-07	1.928728640293477e-07	-0	1.512282073351205	0	-0.09478689634274365	0	0	0	0	0	0
0.2321428571428572	110.9353984468851	829.0401588083557	-0	1.461918832423334	0	0.09478689634274365	-5.34935472666861e-07	1.297405566213923e-07	-0	1.537161419890386	0	-0.09478689634274365	0	0	0	0	0	0
0.2357142857142857	115.9083942248643	819.3526593208745	-0	1.46197822474907	0	0.09478689634274365	-3.608277113737715e-07	8.719698332866602e-08	-0	1.562115776977922	0	-0.09478689634274363	0	0	0	0	0	0
0.2392857142857143	120.8367983859255	806.6165705735639	-0	1.462038516640843	0	0.09478689634274365	-2.385491064119901e-07	5.741761414255897e-08	-0	1.587169257081788	0	-0.09478689634274365	0	0	0	0	0	0
0.2428571428571429	126.9678837787661	791.5433153652084	-0	1.462118529246691	0	0.09478689634274365	-1.471300965002051e-07	3.528139444872733e-08	-0	1.612312103439688	0	-0.09478689634274365	0	0	0	0	0	0
0.2464285714285714	133.1222343598141	773.7196096622033	-0	1.462201533213237	0	0.09478689634274366	-8.078280736178986e-08	1.932202115004894e-08	-0	1.637508686774894	0	-0.09478689634274365	0	-1.77635683940025e-15	0	0	0	0
0.25	139.5646364857303	752.7746498882721	-0	1.462294486486635	0	0.09478689634274365	-3.935854082638477e-08	9.408464118694485e-09	-0	1.662687259541971	0	-0.09478689634274365	0	0	0	0	0	0
0.2535714285714286	144.8955356027273	727.4390498393225	-0	1.462379975565981	0	0.09478689634274363	-1.743733802381059e-08	4.175130941425838e-09	-0	1.687776965674773	0	-0.09478689634274365	0	1.77635683940025e-15	0	0	0	0
0.2571428571428571	149.1252708721312	697.104963258663	-0	1.462463486671898	0	0.09478689634274365	-7.734176833759213e-09	1.857640434245414e-09	-0	1.712752450794427	0	-0.09478689634274365	0	0	0	0	0	0
0.2607142857142857	151.1694678687267	661.1718934200939	-0	1.462531340008495	0	0.09478689634274365	-3.997331530646248e-09	9.637143005819761e-10	-0	1.737599768410243	0	-0.09478689634274365	0	0	0	0	0	0
0.2642857142857143	151.5506325048617	620.790304744939	-0	1.462592747547932	0	0.09478689634274365	-2.445892797970556e-09	5.919752677048697e-10	-0	1.762298044043439	0	-0.09478689634274365	0	0	0	0	0	0
0.2678571428571428	146.5315576933923	576.1230614236866	-0	1.462570997175153	0	0.09478689634274365	-1.649766381753609e-09	4.007802103796846e-10	-0	1.786831291145096	0	-0.09478689634274365	0	0	0	0	0	0
0.2714285714285715	134.4103567593618	528.8380082436835	-0	1.46241040705799	0	0.09478689634274365	-1.156956295529482e-09	2.819943752625187e-10	-0	1.811209187288678	0	-0.09478689634274365	0	0	0	0	0	0
0.275	118.7929195930202	482.1269820754748	-0	1.462158593321912	0	0.09478689634274365	-8.145837110130804e-10	1.990600969421678e-10	-0	1.835464267522678	0	-0.09478689634274365	0	0	0	0	0	0
0.2785714285714286	102.9529415231682	438.7627022819496	-0	1.461870590461676	0	0.09478689634274365	-5.646709631714222e-10	1.381977572114624e-10	-0	1.859663998660019	0	-0.09478689634274365	0	0	0	0	0	0
0.2821428571428571	88.28339313654011	398.9062653529917	-0	1.461583157841763	0	0.09478689634274363	-3.811559718594329e-10	9.330078851254595e-11	-0	1.883884590800965	0	-0.09478689634274365	0	1.77635683940025e-15	0	0	0	0
0.2857142857142858	76.59207849002667	361.6305974259313	-0	1.461362299540046	0	0.09478689634274365	-2.495993572802262e-10	6.102365470785971e-11	-0	1.908196709865488	0	-0.09478689634274365	0	0	0	0	0	0
0.2892857142857143	67.2486046520707	326.774085071676	-0	1.461201504113734	0	0.09478689634274365	-1.588056364516159e-10	3.873146311400216e-11	-0	1.9326484379299	0	-0.09478689634274365	0	0	0	0	0	0
0.2928571428571429	59.68412701693573	294.5763487556237	-0	1.461090007090683	0	0.09478689634274365	-1.00255893106392e-10	2.437436195109965e-11	-0	1.957226710964688	0	-0.09478689634274365	0	0	0	0	0	0
0.2964285714285714	52.79059422579483	261.8131604040332	-0	1.461019561015791	0	0.09478689634274365	-6.458656118550476e-11	1.565079361521937e-11	-0	1.981880741104317	0	-0.09478689634274365	0	0	0	0	0	0
0.3	46.3894551767006	224.4149386209008	-0	1.46102599115316	0	0.09478689634274365	-4.416147982846522e-11	1.067392734708016e-11	-0	2.006474482781342	0	-0.09478689634274365	0	0	0	0	0	0
0.3035714285714285	40.10940730419583	179.763592098335	-0	1.461151730992547	0	0.09478689634274363	-3.280146436411092e-11	7.918456134499749e-12	-0	2.030863722380104	0	-0.09478689634274365	0	4.440892098500626e-16	0	0	0	0
0.3071428571428572	32.6276175743901	125.1092148479679	-0	1.461466262445503	0	0.09478689634274365	-2.698056829332455e-11	6.514250200133668e-12	-0	2.05493356008557	0	-0.09478689634274365	0	0	0	0	0	0
0.3107142857142857	18.34815394672266	57.97715119412615	-0	1.461882276045804	0	0.09478689634274363	-2.387197321596085e-11	5.770162602044073e-12	-0	2.078624188119937	0	-0.09478689634274363	0	2.220446049250313e-16	0	0	4.03896783473158e-28	0
0.3142857142857143	-0.4288669546631924	-1.906834635114258	-0	1.460980665937256	0	0.09478689634274365	-2.218775455140896e-11	5.368737030537359e-12	-0	2.102023459343785	0	-0.09478689634274365	0	0	0	0	0	0
0.3178571428571429	4.739825663595996e-06	-5.24690825783376e-06	-0	1.452393532726687	0	0.09478689634274365	-2.028888966379053e-11	4.909654749340536e-12	-0	2.125279245287944	0	-0.09478689634274365	0	0	0	0	0	0
0.3214285714285715	6.425876891139443e-14	-5.339828253017854e-14	-0	1.453288694022038	0	0.09478689634274366	-1.863732858185151e-11	4.503316018626173e-12	-0	2.148589831381491	0	-0.09478689634274365	0	-7.888609052210118e-31	0	0	0	0
0.325	-0	-0	-0	0	0	0	-1.576353655594849e-11	3.797578612688671e-12	-0	2.172108132476351	0	-0.09478689634274365	0	0	0	0	0	0
0.3285714285714286	-0	-0	-0	0	0	0	-1.257631745141076e-11	3.020353456994712e-12	-0	2.195767175731399	0	-0.09478689634274365	0	0	0	0	0	0
0.3321428571428571	-0	-0	-0	0	0	0	-9.726643923078993e-12	2.331829215525285e-12	-0	2.219403219859782	0	-0.09478689634274365	0	0	0	0	0	0
0.3357142857142857	-0	-0	-0	0	0	0	-7.721812465061778e-12	1.851626053358578e-12	-0	2.242835006856691	0	-0.09478689634274365	0	0	0	0	0	0
0.3392857142857143	-0	-0	-0	0	0	0	-6.402388278476158e-12	1.538840502568482e-12	-0	2.265920062073112	0	-0.09478689634274365	0	0	0	0	0	0
0.3428571428571429	-0	-0	-0	0	0	0	-5.511918872103314e-12	1.330204479260731e-12	-0	2.288602959020549	0	-0.09478689634274365	0	0	0	0	0	0
0.3464285714285714	-0	-0	-0	0	0	0	-4.917285117518095e-12	1.192914500958185e-12	-0	2.310886966786775	0	-0.09478689634274365	0	0	0	0	0	0
0.35	-0	-0	-0	0	0	0	-4.582014117997976e-12	1.117936561012373e-12	-0	2.332873003401084	0	-0.09478689634274365	0	0	0	0	0	0
0.3535714285714286	-0	-0	-0	0	0	0	-3.5803842966323e-12	8.785069496942049e-13	-0	2.354681702127927	0	-0.09478689634274365	0	0	0	0	0	0
0.3571428571428572	-0	-0	-0	0	0	0	-2.859306157954346e-12	7.053938930957641e-13	-0	2.376445129680746	0	-0.09478689634274366	0	0	0	0	-5.048709793414476e-29	0
0.3607142857142857	-0	-0	-0	0	0	0	-1.056599527362505e-11	2.62552805345996e-12	-0	2.276823222147457	0	-0.09038324414782127	0	0	0	0	6.979854612334812e-18	0
0.3642857142857143	-0	-0	-0	0	0	0	-1.247890917792177e-10	3.128882983516488e-11	-0	2.265942611330134	0	-0.08960563333642566	0	0	0	0	-1.020200690599729e-17	0
0.3678571428571429	-0	-0	-0	0	0	0	-1.503062742846519e-09	3.837120263791207e-10	-0	2.274488461451846	0	-0.08956973818070704	0	0	0	0	-6.549231347812459e-18	0
0.3714285714285714	1.977565941276285e-19	-1.217714129640649e-19	-0	0	0	0	-1.596340952975256e-08	4.188812498365257e-09	-0	2.283340332766301	0	-0.08956898781331288	0	1.874473378866955e-20	0	0	-1.87981240298468e-18	0
0.375	5.001142721222201e-16	-2.970273737145598e-16	-0	0	0	0	-1.472369255627501e-07	4.006646817772668e-08	-0	2.291650317891346	0	-0.08956897624564274	0	4.740427967117557e-17	0	0	-2.159340099818653e-18	0
0.3785714285714286	2.657285015990011e-12	-1.520240802454212e-12	-0	1.573245450757013	0	0.09478689634274365	-1.183562459747176e-06	3.365051041527768e-07	-0	2.299569677255371	0	-0.08956897507908836	0	0	0	0	0	0
0.3821428571428572	5.51734178189955e-09	-3.037998235607934e-09	-0	1.582988748994926	0	0.09478689634274363	-8.414068785893678e-06	2.513755784934588e-06	-0	2.307203365471236	0	-0.08956897507908836	0	1.033975765691285e-25	0	0	0	0
0.3857142857142857	-1.170439459005601e-07	6.199023017116917e-08	-0	1.59301383250102	0	0.09478689634274365	-5.408158229062082e-05	1.703555423193833e-05	-0	2.314642452556026	0	-0.08956897507908836	0	0	0	0	0	0
0.3892857142857143	-1.874037995922066e-07	9.543897552655089e-08	-0	1.603279316880762	0	0.09478689634274365	-0.0003209717880296865	0.0001067495489072102	-0	2.32191103126639	0	-0.08956897507908836	0	0	0	0	0	0
0.3928571428571428	-2.717151870118311e-07	1.330934631353296e-07	-0	1.613724302189595	0	0.09478689634274365	-0.001798874121406456	0.0006321918037014945	-0	2.32894763355258	0	-0.08956897507908836	0	0	0	0	0	0
0.3964285714285715	-4.376588772764188e-07	2.06375098265461e-07	-0	1.624281500476393	0	0.09478689634274365	-0.009704623661732586	0.003606238809584067	-0	2.335682788033213	0	-0.08956897507908836	0	0	0	0	0	0
0.4	-8.248436494974007e-07	3.749860027238746e-07	-0	1.6348823236164	0	0.09478689634274363	-0.05125717866533013	0.0201618153608207	-0	2.342036597551615	0	-0.08956897507908836	0	-1.323488980084844e-23	0	0	0	0
0.4035714285714286	-1.839580223564894e-06	8.087020686541511e-07	-0	1.64542232965402	0	0.09478689634274365	-0.267769517678994	0.1116204925111283	-0	2.347962208528696	0	-0.08956897507908836	0	0	0	0	0	0
0.4071428571428571	-4.771723446882525e-06	2.042579366313914e-06	-0	1.655677004213612	0	0.09478689634274365	-1.389585153663796	0.6139338866711005	-0	2.35345007726311	0	-0.08956897507909158	0	0	0	0	-8.326672684688674e-17	0
0.4107142857142858	-1.400866956830156e-05	5.89066457715018e-06	-0	1.665510696861465	0	0.09478689634274365	-7.037647232561731	3.294339561427241	-0	2.358496373576592	0	-0.08956897507909035	0	0	0	0	-2.220446049250313e-16	0
0.4142857142857143	-4.534708405098424e-05	1.88292419821657e-05	-0	1.67505438347696	0	0.09478689634274365	-31.79098725733747	15.9199268673523	-0	2.362988004401806	0	-0.08956897507909035	0	0	0	0	-4.440892098500626e-16	0
0.4178571428571429	-0.00015741553753646	6.462973454072057e-05	-0	1.684480590932254	0	0.09478689634274365	-100.8720219427576	55.47472659613716	-0	2.366897881715941	0	-0.08956897507909282	0	0	0	0	0	0
0.4214285714285714	-0.0005679171035372041	0.0002304576123743138	-0	1.693915702651769	0	0.09478689634274365	-266.2639682196075	174.1055560481851	-0	2.370017943748603	0	-0.08956897507910989	0	0	0	0	1.030286966852145e-13	0
0.425	-0.002050515306311924	0.0008220996195555057	-0	1.70343233365937	0	0.09478689634274365	-509.7433661790485	554.0689050139979	-0	2.372013736102312	0	-0.08956897507945194	0	0	0	0	1.671907057243516e-11	0
0.4285714285714286	-0.007089523648961812	0.002810132904232176	-0	1.713081672400701	0	0.09478689634274365	227.0359760939128	1017.070459289482	-0	2.376351763996124	0	-0.08956897508867587	0	0	0	0	5.472227115888018e-09	0
0.4321428571428572	-0.0224276631853536	0.008791338248064107	-0	1.722977782633963	0	0.09478689634274365	-200.9376487995197	1355.933615081783	-0	2.374933197049952	0	-0.0895689752320767	0	0	0	0	9.342749507368353e-08	0
0.4357142857142857	-0.06306748823406431	0.02441783950959629	-0	1.733260196817036	0	0.09478689634274363	159.2421474886397	1476.522522770798	-0	2.377225626962524	0	-0.08956897757962344	0	-8.673617379884035e-19	0	0	2.010783580530529e-06	0
0.4392857142857143	-0.1551408887302745	0.05922404517523152	-0	1.744029281957523	0	0.09478689634274365	-210.3081081215447	1469.177548391679	-0	2.375832339606436	0	-0.08956901221271962	0	0	0	0	2.910624961671715e-05	0
0.4428571428571428	-0.3310905793833773	0.1244432513254712	-0	1.755340400924291	0	0.09478689634274365	53.47611817736746	1387.454976658225	-0	2.378104771755334	0	-0.08956948855251572	0	0	0	0	0.0003911852557223483	0
0.4464285714285715	-0.611835056496862	0.2262532295387135	-0	1.767228591153212	0	0.09478689634274365	-227.3589388070442	1337.704592419814	-0	2.376952560512071	0	-0.08957416165767165	0	0	0	0	0.003267631227476642	0
0.45	-0.9808806172537656	0.3565935880330359	-0	1.779731078493096	0	0.09478689634274365	-24.22287520430723	1293.802911950492	-0	2.3800606108597	0	-0.08960611099220475	0	0	0	0	0.01969319547388126	0
0.4535714285714286	-1.373908382686299	0.490803537480434	-0	1.79287061728816	0	0.09478689634274365	-223.1853108612288	1309.475590632901	-0	2.381902128283656	0	-0.08970059191122631	0	0	0	0	0.052944464593633	0
0.4571428571428572	-1.692070340787834	0.5941272694446097	-0	1.806649161455137	0	0.09478689634274365	-72.74649797346197	1318.431451154821	-0	2.388867171734803	0	-0.08988174821006856	0	0	0	0	0.09526015060345294	0
0.4607142857142857	-1.849054690547894	0.6385794266606253	-0	1.821061335601205	0	0.09478689634274365	-236.4907729052691	1374.014971883539	-0	2.396923773097155	0	-0.09018850884349243	0	0	0	0	0.1139546265331575	0
0.4642857142857143	-1.810360516213459	0.6150626973569104	-0	1.836109579756614	0	0.09478689634274365	-117.0239432946583	1348.664234992719	-0	2.402528803430175	0	-0.09034550328909502	0	0	0	0	0.07535121941471346	0
0.4678571428571429	-1.610619033332292	0.538032234257689	-0	1.851797740385621	0	0.09478689634274365	-189.3830021985328	1314.227824883259	-0	2.402458052382376	0	-0.09035730977652282	0	0	0	0	0.03924811597103073	0
0.4714285714285714	-1.319550786432385	0.4325975504517663	-0	1.868159350441744	0	0.09478689634274365	-89.71665366416993	1277.309110610774	-0	2.404485964328577	0	-0.09039683941563492	0	0	0	0	0.02903828404246589	0
0.475	-1.009669339799827	0.3241270241456142	-0	1.885226291014576	0	0.09478689634274365	-137.5377128000679	1258.028535285067	-0	2.404259469555809	0	-0.09039884878553103	0	0	0	0	0.01920590519132226	0
0.4785714285714286	-0.7288398893796921	0.2290380048827513	-0	1.902979867636774	0	0.09478689634274365	-66.58202431043227	1232.632439466634	-0	2.406122500067812	0	-0.0904402842855011	0	0	0	0	0.01803661111501942	0
0.4821428571428572	-0.502347906724852	0.1547430898863968	-0	1.921368430538351	0	0.09478689634274365	-95.59320770194472	1209.965624793672	-0	2.406117069748482	0	-0.09044602333066561	0	0	0	0	0.01357664843084194	0
0.4857142857142857	-0.3343404956980468	0.1011820485294971	-0	1.940313883353573	0	0.09478689634274366	-38.14309440407571	1168.671375978546	-0	2.407814341914758	0	-0.09048579595212357	0	0	0	0	0.01376481367453986	0
0.4892857142857143	-0.2174123286787183	0.06479352981020194	-0	1.959737543449372	0	0.09478689634274365	-45.14131339934425	1128.579037891244	-0	2.409628892083462	0	-0.09054962774980264	0	0	0	0	0.01643435690184791	0
0.4928571428571429	-0.1389632380857346	0.04083946341382572	-0	1.979597728514288	0	0.09478689634274365	1.264422646362608	1095.702345547721	-0	2.416405553382988	0	-0.09076975734214048	0	0	0	0	0.03371044863924251	0
0.4964285714285714	-0.08780284308810808	0.02546423756200645	-0	1.999866813362114	0	0.09478689634274365	-18.70357154633723	1069.49177381939	-0	2.424071016735402	0	-0.09104149281654353	0	0	0	0	0.05147597443773755	0
0.5	-0.05520301823182357	0.01581023848069372	-0	2.020515235617926	0	0.09478689634274365	-8.207838818554979	1035.383132518977	-0	2.432186316757512	0	-0.09131881754510471	0	0	0	0	0.06137666352279159	0
0.5035714285714286	-0.03469227752237762	0.009819913511382913	-0	2.041508719025557	0	0.09478689634274365	-25.48114066318323	1006.933039358721	-0	2.438205457762217	0	-0.09153131947459156	0	0	0	0	0.06007737017712156	0
0.5071428571428571	-0.02180875695863253	0.006104929953187013	-0	2.062823205572593	0	0.09478689634274365	-15.70870926996676	980.2467420107846	-0	2.444051809499526	0	-0.09172920083705334	0	0	0	0	0.05540383906779711	0
0.5107142857142857	-0.01370864610325545	0.003797001786685028	-0	2.084438937276345	0	0.09478689634274365	-21.93050142398614	961.9961549740879	-0	2.448969761702612	0	-0.09189979788528289	0	0	0	0	0.04900959651469661	0
0.5142857142857142	-0.00860211880725039	0.002358764291315203	-0	2.106336107563912	0	0.09478689634274365	-11.11687981785363	954.626051492063	-0	2.45525813268111	0	-0.0921133039464881	0	0	0	0	0.04454961205363794	0
0.5178571428571429	-0.005383765992081256	0.001462265991288825	-0	2.12849728634183	0	0.09478689634274363	-15.43206058468843	953.8803394579686	-0	2.461814004553494	0	-0.09234134989550766	0	-1.084202172485504e-19	0	0	0.03903496460774081	0
0.5214285714285715	-0.003361177114170067	0.0009045881596436693	-0	2.150913718587322	0	0.09478689634274365	-9.949251825949666	954.6907949709785	-0	2.46942252356903	0	-0.09260362306910455	0	0	0	0	0.03217343647956172	0
0.525	-0.002093336246193638	0.000558321454125427	-0	2.17358339437758	0	0.09478689634274365	-15.16065379838532	950.0838827137763	-0	2.476764997300666	0	-0.09286019542385393	0	0	0	0	0.02289501145164619	0
0.5285714285714286	-0.001298839638221525	0.0003432758126937579	-0	2.19651475486096	0	0.09478689634274365	-13.02409496197007	935.9432708417443	-0	2.484058891632529	0	-0.09311308167433699	0	0	0	0	0.0126445876290604	0
0.5321428571428571	-0.0007999494567813973	0.0002094756193743409	-0	2.219713794225717	0	0.09478689634274363	-7.180492788641843	925.8821340814852	-0	2.492366095278469	0	-0.09340116223479512	0	-1.355252715606881e-20	0	0	0.002999370622071118	0
0.5357142857142857	-0.000487110713361887	0.0001264067827505584	-0	2.24316733586575	0	0.09478689634274365	6.287471169018379	922.1593400068689	-0	2.503628075656872	0	-0.09379216260889034	0	0	0	0	-0.005712022818797569	0
0.5392857142857144	-0.0002936695671959357	7.558096071420767e-05	-0	2.26684341271236	0	0.09478689634274365	5.570948375210526	901.9018449975687	-0	2.516260282326537	0	-0.09423773351533095	0	0	0	0	-0.009843467811270101	0
0.5428571428571429	-0.0001781405630068403	4.555844071117242e-05	-0	2.290642535619009	0	0.09478689634274363	3.772634752651212	866.3171245743147	-0	2.529256559587329	0	-0.09469831441850114	0	-3.388131789017201e-21	0	0	-0.003017326887051974	0
0.5464285714285715	-0.0001105685621111193	2.816430152194481e-05	-0	2.314470353841986	0	0.09478689634274365	18.96637036114022	879.051625904039	-0	2.53212068761101	0	-0.09479203982384039	0	0	0	0	0.0002785587571147996	0
0.55	-6.963865916555257e-05	1.767762595518667e-05	-0	2.338364479052563	0	0.09478689634274365	43.0931816532304	892.914978233865	-0	2.532311008663677	0	-0.09478690842601875	0	0	0	0	9.551007496000352e-07	0
0.5535714285714286	-4.386119061915074e-05	1.108614310163827e-05	-0	2.362397621766504	0	0.09478689634274366	57.09855117061835	895.7200781524369	-0	2.532520448300077	0	-0.09478689635219761	0	8.470329472543003e-22	0	0	1.030879381858085e-09	0
0.5571428571428572	-2.75104497433101e-05	6.918440083780862e-06	-0	2.386589707243143	0	0.09478689634274365	70.1247191251197	892.7693031029339	-0	2.532718021162839	0	-0.0947868963427492	0	0	0	0	8.002487561498128e-13	0
0.5607142857142857	-1.719103538611242e-05	4.300140274184517e-06	-0	2.410937650041661	0	0.09478689634274365	77.57412544348389	885.9540895679667	-0	2.532844516657004	0	-0.09478689634274365	0	0	0	0	8.881784197001252e-16	0
0.5642857142857143	-1.074366803892692e-05	2.673378585983615e-06	-0	2.435416166026156	0	0.09478689634274363	84.63017598505863	878.328409038515	-0	2.532962754910621	0	-0.09478689634274365	0	0	0	0	0	0
0.5678571428571428	-6.751491470404435e-06	1.672015914443169e-06	-0	2.459994194081089	0	0.09478689634274365	88.58679083629048	869.9802811017056	-0	2.533036061762256	0	-0.09478689634274365	0	0	0	0	0	0
0.5714285714285714	-4.282847018764728e-06	1.056211568134079e-06	-0	2.484644637552373	0	0.09478689634274365	92.95977399036889	862.652354682028	-0	2.533109301953246	0	-0.09478689634274363	0	0	0	0	-1.77635683940025e-15	0
0.575	-2.751528880608541e-06	6.76090099657078e-07	-0	2.509345074419749	0	0.09478689634274365	95.83262341126216	855.493892686681	-0	2.533156711279778	0	-0.09478689634274365	0	0	0	0	0	0
0.5785714285714285	-1.792546274153131e-06	4.389868200736664e-07	-0	2.534090536914495	0	0.09478689634274365	99.70688783535313	849.3921412888623	-0	2.533212154057336	0	-0.09478689634274365	0	0	0	0	0	0
0.5821428571428572	-1.184507093041036e-06	2.891499023838716e-07	-0	2.558879407941534	0	0.09478689634274365	102.9099682850258	843.1159036725892	-0	2.533253289482801	0	-0.09478689634274366	0	0	0	0	1.77635683940025e-15	0
0.5857142857142857	-7.926265791274441e-07	1.928728640293472e-07	-0	2.583710644779778	0	0.09478689634274366	107.0720007722314	836.8710911976741	-0	2.533303608555925	0	-0.09478689634274365	0	1.323488980084844e-23	0	0	0	0
0.5892857142857143	-5.349354726668596e-07	1.29740556621392e-07	-0	2.608589991318958	0	0.09478689634274365	110.9353984468852	829.0401588083621	-0	2.533347403851906	0	-0.09478689634274366	0	0	0	0	1.77635683940025e-15	0
0.5928571428571429	-3.608277113737705e-07	8.719698332866578e-08	-0	2.633544348406494	0	0.09478689634274365	115.9083942248635	819.3526593208776	-0	2.533406796177642	0	-0.09478689634274365	0	0	0	0	0	0
0.5964285714285714	-2.385491064119893e-07	5.741761414255876e-08	-0	2.658597828510361	0	0.09478689634274365	120.8367983859246	806.6165705735633	-0	2.533467088069415	0	-0.09478689634274365	0	0	0	0	0	0
0.6000000000000001	-1.471300965002049e-07	3.528139444872728e-08	-0	2.68374067486826	0	0.09478689634274365	126.9678837787654	791.5433153652118	-0	2.533547100675263	0	-0.09478689634274365	0	0	0	0	0	0
0.6035714285714285	-8.078280736179087e-08	1.932202115004918e-08	-0	2.708937258203466	0	0.09478689634274365	133.1222343598144	773.7196096622097	-0	2.53363010464181	0	-0.09478689634274365	0	0	0	0	0	0
0.6071428571428572	-3.935854082638467e-08	9.408464118694462e-09	-0	2.734115830970544	0	0.09478689634274365	139.5646364857301	752.7746498882747	-0	2.533723057915206	0	-0.09478689634274363	0	0	0	0	-1.77635683940025e-15	0
0.6107142857142858	-1.743733802381057e-08	4.175130941425833e-09	-0	2.759205537103344	0	0.09478689634274365	144.8955356027272	727.4390498393257	-0	2.533808546994552	0	-0.09478689634274365	0	0	0	0	0	0
0.6142857142857143	-7.734176833758927e-09	1.857640434245345e-09	-0	2.784181022222999	0	0.09478689634274365	149.1252708721312	697.1049632586661	-0	2.53389205810047	0	-0.09478689634274365	0	0	0	0	0	0
0.6178571428571429	-3.997331530646253e-09	9.637143005819775e-10	-0	2.809028339838815	0	0.09478689634274365	151.1694678687264	661.1718934200967	-0	2.533959911437067	0	-0.09478689634274365	0	0	0	0	0	0
0.6214285714285714	-2.445892797970573e-09	5.919752677048741e-10	-0	2.833726615472011	0	0.09478689634274365	151.5506325048632	620.7903047449464	-0	2.534021318976504	0	-0.09478689634274365	0	0	0	0	0	0
0.625	-1.649766381753606e-09	4.007802103796837e-10	-0	2.858259862573668	0	0.09478689634274365	146.5315576933916	576.1230614236888	-0	2.533999568603725	0	-0.09478689634274365	0	0	0	0	0	0
0.6285714285714286	-1.156956295529483e-09	2.81994375262519e-10	-0	2.88263775871725	0	0.09478689634274365	134.4103567593629	528.8380082436902	-0	2.533838978486563	0	-0.09478689634274365	0	0	0	0	0	0
0.6321428571428571	-8.145837110130763e-10	1.990600969421668e-10	-0	2.906892838951251	0	0.09478689634274365	118.7929195930201	482.1269820754762	-0	2.533587164750485	0	-0.09478689634274365	0	0	0	0	0	0
0.6357142857142857	-5.646709631714108e-10	1.381977572114596e-10	-0	2.931092570088591	0	0.09478689634274365	102.9529415231679	438.7627022819503	-0	2.533299161890248	0	-0.09478689634274365	0	0	0	0	0	0
0.6392857142857142	-3.811559718594332e-10	9.330078851254603e-11	-0	2.955313162229537	0	0.09478689634274365	88.28339313653936	398.9062653529884	-0	2.533011729270334	0	-0.09478689634274365	0	0	0	0	0	0
0.6428571428571429	-2.495993572802257e-10	6.102365470785958e-11	-0	2.97962528129406	0	0.09478689634274365	76.59207849002715	361.630597425937	-0	2.532790870968618	0	-0.09478689634274365	0	0	0	0	0	0
0.6464285714285715	-1.588056364516177e-10	3.87314631140026e-11	-0	3.004077009358472	0	0.09478689634274366	67.24860465206991	326.774085071677	-0	2.532630075542306	0	-0.09478689634274365	0	3.231174267785264e-27	0	0	0	0
0.65	-1.002558931063901e-10	2.43743619510992e-11	-0	3.028655282393261	0	0.09478689634274366	59.68412701693598	294.5763487556294	-0	2.532518578519255	0	-0.09478689634274365	0	1.615587133892632e-27	0	0	0	0
0.6535714285714286	-6.458656118550478e-11	1.565079361521938e-11	-0	3.053309312532888	0	0.09478689634274365	52.79059422579454	261.8131604040344	-0	2.532448132444363	0	-0.09478689634274365	0	0	0	0	0	0
0.6571428571428571	-4.416147982846455e-11	1.067392734707999e-11	-0	3.077903054209914	0	0.09478689634274366	46.38945517670045	224.4149386209011	-0	2.532454562581733	0	-0.09478689634274365	0	8.077935669463161e-28	0	0	0	0
0.6607142857142857	-3.280146436411125e-11	7.918456134499828e-12	-0	3.102292293808676	0	0.09478689634274365	40.10940730419649	179.7635920983404	-0	2.53258030242112	0	-0.09478689634274365	0	0	0	0	0	0
0.6642857142857144	-2.698056829332451e-11	6.514250200133658e-12	-0	3.126362131514142	0	0.09478689634274365	32.62761757439009	125.1092148479688	-0	2.532894833874076	0	-0.09478689634274365	0	0	0	0	0	0
0.6678571428571429	-2.387197321596082e-11	5.770162602044066e-12	-0	3.150052759548509	0	0.09478689634274365	18.34815394672241	57.97715119412646	-0	2.533310847474376	0	-0.09478689634274365	0	0	0	0	0	0
0.6714285714285715	-2.21877545514088e-11	5.36873703053732e-12	-0	3.173452030772358	0	0.09478689634274365	-0.4288669546632665	-1.906834635114621	-0	2.532409237365828	0	-0.09478689634274365	0	0	0	0	0	0
0.675	-2.028888966379062e-11	4.909654749340556e-12	-0	3.196707816716515	0	0.09478689634274365	4.739825663596034e-06	-5.246908257833799e-06	-0	2.52382210415526	0	-0.09478689634274365	0	0	0	0	0	0
0.6785714285714286	-1.863732858185148e-11	4.503316018626165e-12	-0	3.220018402810063	0	0.09478689634274365	6.425876891139463e-14	-5.339828253017868e-14	-0	2.524717265450611	0	-0.09478689634274365	0	0	0	0	0	0
0.6821428571428572	-1.576353655594847e-11	3.797578612688665e-12	-0	3.243536703904924	0	0.09478689634274365	-0	-0	-0	0	0	0	0	0	0	0	0	0
0.6857142857142857	-1.257631745141072e-11	3.020353456994705e-12	-0	3.26719574715997	0	0.09478689634274365	-0	-0	-0	0	0	0	0	0	0	0	0	0
0.6892857142857143	-9.726643923078966e-12	2.331829215525279e-12	-0	3.290831791288354	0	0.09478689634274365	-0	-0	-0	0	0	0	0	0	0	0	0	0
0.6928571428571428	-7.721812465061684e-12	1.851626053358556e-12	-0	3.314263578285263	0	0.09478689634274365	-0	-0	-0	0	0	0	0	0	0	0	0	0
0.6964285714285714	-6.402388278476145e-12	1.538840502568479e-12	-0	3.337348633501684	0	0.09478689634274365	-0	-0	-0	0	0	0	0	0	0	0	0	0
0.7	-5.511918872103266e-12	1.330204479260719e-12	-0	3.360031530449122	0	0.09478689634274366	-0	-0	-0	0	0	0	0	1.009741958682895e-28	0	0	0	0
0.7035714285714285	-4.91728511751809e-12	1.192914500958184e-12	-0	3.382315538215347	0	0.09478689634274365	-0	-0	-0	0	0	0	0	0	0	0	0	0
0.7071428571428571	-4.582014117997969e-12	1.117936561012371e-12	-0	3.404301574829657	0	0.09478689634274365	-0	-0	-0	0	0	0	0	0	0	0	0	0
0.7107142857142857	-3.580384296632293e-12	8.785069496942035e-13	-0	3.426110273556499	0	0.09478689634274365	-0	-0	-0	0	0	0	0	0	0	0	0	0
0.7142857142857143	-2.859306157954341e-12	7.053938930957629e-13	-0	3.447873701109318	0	0.09478689634274366	-0	-0	-0	0	0	0	0	5.048709793414476e-29	0	0	0	0
