inDegrees=no
num_controls=19
num_derivatives=0
num_input_controls=0
num_iterations=158
num_multipliers=0
num_parameters=0
num_slacks=0
num_states=38
objective=1.542644
objective_contact=0.375169
objective_control_effort=0.799785
objective_state_tracking=0.367690
solver_duration=26.224392
status=Solve_Succeeded
success=true
DataType=double
version=3
OpenSimVersion=4.6-2026-06-22-85aaf64
endheader
time	/jointset/groundPelvis/pelvis_tilt/value	/jointset/groundPelvis/pelvis_tx/value	/jointset/groundPelvis/pelvis_ty/value	/jointset/hip_l/hip_flexion_l/value	/jointset/hip_r/hip_flexion_r/value	/jointset/lumbar/lumbar/value	/jointset/knee_l/knee_angle_l/value	/jointset/knee_r/knee_angle_r/value	/jointset/ankle_l/ankle_angle_l/value	/jointset/ankle_r/ankle_angle_r/value	/jointset/groundPelvis/pelvis_tilt/speed	/jointset/groundPelvis/pelvis_tx/speed	/jointset/groundPelvis/pelvis_ty/speed	/jointset/hip_l/hip_flexion_l/speed	/jointset/hip_r/hip_flexion_r/speed	/jointset/lumbar/lumbar/speed	/jointset/knee_l/knee_angle_l/speed	/jointset/knee_r/knee_angle_r/speed	/jointset/ankle_l/ankle_angle_l/speed	/jointset/ankle_r/ankle_angle_r/speed	/hamstrings_r/activation	/bifemsh_r/activation	/glut_max_r/activation	/iliopsoas_r/activation	/rect_fem_r/activation	/vasti_r/activation	/gastroc_r/activation	/soleus_r/activation	/tib_ant_r/activation	/hamstrings_l/activation	/bifemsh_l/activation	/glut_max_l/activation	/iliopsoas_l/activation	/rect_fem_l/activation	/vasti_l/activation	/gastroc_l/activation	/soleus_l/activation	/tib_ant_l/activation	/lumbarAct	/hamstrings_r	/bifemsh_r	/glut_max_r	/iliopsoas_r	/rect_fem_r	/vasti_r	/gastroc_r	/soleus_r	/tib_ant_r	/hamstrings_l	/bifemsh_l	/glut_max_l	/iliopsoas_l	/rect_fem_l	/vasti_l	/gastroc_l	/soleus_l	/tib_ant_l
0	-0.340381986850184	0.06574560542185483	0.8928690224637698	0.141317013964333	0.6847016310657769	0.2316104316653843	-0.3221325601010182	-0.3485545785030342	-0.01079759013153329	0.0989762781370135	0.09035022414072995	1.302942682775577	-0.08615127137477649	-0.2036314791984204	-0.7296362307976256	0.4302722267626336	-2.196306450019786	0.7108870152187463	-1.803361200363028	-1.075243421681396	0.03577752347555811	0.02807415139289431	0.01000002403825959	0.04059716036662868	0.01000015690343646	0.01000000083921479	0.0259183882729715	0.01000005230448053	0.08410808700861584	0.0100005247621112	0.01000051717700739	0.01000000844978231	0.09697713936887781	0.06763673066721103	0.02450083470589351	0.2175539514169039	0.3726227414065634	0.009999993924274612	-0.0005170057178217217	0.009999994531184617	0.01000000512400195	0.01000002874159844	0.01000007545292821	0.1358817405915084	0.3945559833197403	0.009999996543181075	0.01000013445751458	0.1744496893298766	0.01000000335660163	0.01000011348147598	0.01000000491588097	0.07765149774384354	0.06503131597025354	0.01000004619123875	0.1372772603039101	0.2404885787598945	0.009999996566255762
0.009793520833333333	-0.3396315131801374	0.07868793728655382	0.8919785146949162	0.1405830041433084	0.6760594330804657	0.2363908770095399	-0.3459690360079309	-0.3412127873153047	-0.02881777735489096	0.09013300462591217	0.0709912631599536	1.341012596434459	-0.09476808003354155	0.02835425516761382	-1.078600384371502	0.5382102223973819	-2.637327120416771	0.7905847129192358	-1.893382681354027	-0.829978279683574	0.02349160526724031	0.01936534045344451	0.01173667087607005	0.02611206235661377	0.05983434808236335	0.1663327847097488	0.01822462880571922	0.01000007428434503	0.1089940182134086	0.0100002658851067	0.01000030305967305	0.01000001184843115	0.08068133682464575	0.06129682512791478	0.02554822435241179	0.1836687756455608	0.3213130692790929	0.009999994570247219	0.0003588082600237549	0.009999994435818942	0.0100000035249761	0.01648808703923004	0.01000004026945091	0.09305264331690474	0.3008265349072954	0.009999994890253135	0.01000006487772941	0.1118721346178348	0.009999999789202485	0.01000005969271912	0.01000002410891924	0.04382576808445528	0.04375904338461136	0.04070610253484225	0.1190412837078474	0.1969369494274477	0.009999994101575765
0.01958704166666667	-0.3388331702665665	0.09203000978363572	0.8910311523325563	0.1413752669355174	0.6627258264121445	0.2420003024254181	-0.3731206748151401	-0.3330271382406124	-0.04821088315091602	0.08077489618595508	0.1001259206116961	1.384576374924851	-0.09776192590320763	0.1080587983243775	-1.687699988020103	0.5995637585478385	-2.873317906208842	0.883216844566896	-2.08373402971251	-1.180381285299035	0.01703504252210779	0.0148656364227658	0.01584838622686686	0.01842163144740323	0.06287850528209141	0.1919553686730688	0.01426880543716883	0.01000005000970592	0.09505404990035385	0.01000013598636623	0.01000016993771777	0.01000002322615906	0.05590106788664709	0.04789835370388783	0.04090967399062991	0.1546765961249074	0.2706258674819594	0.009999993644766595	0.001234622237869232	0.009999994340453263	0.01000000192595026	0.02297614533686164	0.01000000508597362	0.05022354604230106	0.2070970864948507	0.009999993237325196	0.009999995297944242	0.04929457990579291	0.009999996221803342	0.01000000590396225	0.01000004330195752	0.01000003842506703	0.02248677079896918	0.07141215887844574	0.1008053071117848	0.153385320095001	0.009999991636895769
0.0293805625	-0.3379707048243626	0.1057219962075267	0.890075796928925	0.1428778700693056	0.6446525661255811	0.2483172012623419	-0.4018086640602683	-0.3261660017583496	-0.06962392539357241	0.07351746928964273	0.06983333524187106	1.405030951225423	-0.0927353845383317	0.2148997534272161	-1.964702120422272	0.683684533185509	-2.995331352050295	0.6002378226250411	-2.256298137081628	-0.4057334676397181	0.01579297497948691	0.01247597991357073	0.03406288660652024	0.01430694844804701	0.05216295101464705	0.2072337541497472	0.03147626876990257	0.07322780021297404	0.0703841667455426	0.03671361373227142	0.01635056232423978	0.01139538809856266	0.03462177727145294	0.03443363672876946	0.04749064126418109	0.1229956270137358	0.2146568687968069	0.03300100818477503	0.003251080087471288	0.01827730811255372	0.01000000231095034	0.07988201331511516	0.009999999637991364	0.03011181716507952	0.254493088611358	0.08378864342684768	0.2636858751738785	0.02964728589854514	0.112666003748679	0.03384360842425614	0.01521117148416729	0.01000002199390333	0.0162433819160252	0.04070607503229752	0.05540265629523503	0.08169265698625294	0.09801401593388803
0.03917408333333333	-0.3375862045622375	0.1194226188036244	0.8893048833491479	0.1458999074346645	0.6249964129816173	0.2552591022749428	-0.4319878753812835	-0.3196583125510976	-0.09176131068940106	0.07079018968105825	0.002517473514309351	1.386340025067346	-0.06009583482262763	0.4183525644639536	-2.01095306203463	0.7271996080678075	-3.177850280472333	0.8110370267004324	-2.231656940277396	-0.2552497897271738	0.01928656211833662	0.01127908836627525	0.06976058767690081	0.01222817780739468	0.03676851242412472	0.2342692574326461	0.07451309513099316	0.209861950219632	0.04706134142760314	0.09683933680883143	0.03121347963684077	0.01470205317728096	0.02297408895357448	0.0241782622692322	0.03619212626698425	0.08385786885897677	0.1488866883871098	0.08507992582158179	0.005267537937073346	0.02655462188465416	0.01000000269595042	0.1367878812933687	0.009999994190009107	0.01000008828785798	0.3018890907278652	0.1575772936163702	0.5173717550498128	0.009999991891297372	0.2153320112755546	0.05768721094455002	0.02042229966637706	0.01000000556273963	0.009999993033081219	0.009999991186149304	0.01000000547868526	0.009999993877504871	0.1860280402308803
0.04896760416666666	-0.337611425515603	0.1327419530767998	0.8890309525839106	0.1508767428623207	0.6058457836780348	0.2618821184328027	-0.4637891538571361	-0.3119127182925003	-0.1125458859119035	0.06693042362908334	-0.002187294938084766	1.332122798815687	0.006406211438335445	0.5910517235299063	-1.898948230165699	0.6154136661119008	-3.299308657866382	0.7571902324975205	-1.955475435138213	-0.4773110219529365	0.03075701350181199	0.01064756705685843	0.09616440430297653	0.01112959931624126	0.02402803556763396	0.2415435016915237	0.1159841459263361	0.3110218040444682	0.02967202090039976	0.1244533875361049	0.03979363569466329	0.01612478037399512	0.02181596880718329	0.01730841371685826	0.02371586435142562	0.05131839320406555	0.09150260454637804	0.1093149158159521	0.002974812739839977	0.05720773031951677	0.01000000345813806	0.1232035682787243	0.009999994514895857	0.01000005199814332	0.2111179444998995	0.1812247006951533	0.4600525653487088	0.009999992045120767	0.1126660072202061	0.04205383654799223	0.01521114808273817	0.02946960065901777	0.009999998441452579	0.009999992133243632	0.01185160496949779	0.009999999395129196	0.1001767651010284
0.058761125	-0.3375216961643355	0.1454842710771236	0.8894744642501689	0.1573407643074232	0.587820752565967	0.2671189929074508	-0.4962748396375584	-0.3050926402832521	-0.1289385249267011	0.06253144387226098	0.02599223945174297	1.268503695789806	0.08641785391194637	0.7220607084002233	-1.781087171989536	0.4441263994023502	-3.317617646308765	0.6220312002771271	-1.334750448230857	-0.3653662052683938	0.05112379099435353	0.0103340693317233	0.1042027642554883	0.01058294647330496	0.01731833494602912	0.2121868444833054	0.1477260196944967	0.3495139015401204	0.0203167203252437	0.09499780195764697	0.03663002631315424	0.01422427449276774	0.03074941136298548	0.01379032423087146	0.01715343155442789	0.03349605355945812	0.05543493102780997	0.08451389036810801	0.0006820875426066094	0.08786083875437936	0.01000000422032571	0.1096192552640799	0.009999994839782606	0.01000001570842867	0.1203467982719338	0.2048721077739364	0.4027333756476046	0.009999992198944161	0.01000000316485765	0.02642046215143444	0.009999996499099275	0.04893919575529591	0.01000000384982394	0.009999993080337961	0.01370320446031031	0.01000000491275352	0.01432548997117639
0.06855464583333332	-0.3373104319495988	0.1576159033178417	0.8906824589297607	0.1652441826457656	0.5709288209058575	0.270907497351382	-0.5286276899883702	-0.2992255105851618	-0.1412500413325653	0.05818510112293865	0.01565793387389037	1.210415340049925	0.1564518629539041	0.8903385963018917	-1.670132129077787	0.3346457580364623	-3.27970750507774	0.5752599166728259	-1.179279784366604	-0.4776365925833603	0.07486277095803014	0.01016891392635271	0.1016116425978296	0.01029483052159605	0.01373695893356451	0.1659644736644656	0.1603836683625839	0.347968806309737	0.01528997433832647	0.05754768334584884	0.02967750750865509	0.01214765341449344	0.05446243438675856	0.02213775546148298	0.0136519036343839	0.02355857760510151	0.03435846348230603	0.05653477319545078	0.003355259592021897	0.1170712362420952	0.01000005222818702	0.08813966968773933	0.009999996713678771	0.01000000807875981	0.06517340085457732	0.1566033670201993	0.2923527830586984	0.009999993967668007	0.00999999858532662	0.01821627172582666	0.009999994972967226	0.1094677593649224	0.04861807234323278	0.009999994741976305	0.01185162974062833	0.01000000976184106	0.0276371050718461
0.07834816666666666	-0.3372442567397275	0.1692208882570675	0.89246401395413	0.1747483225017652	0.5550763553545096	0.2737735382345532	-0.5603252884195045	-0.2938421281237508	-0.1520334764934368	0.05404939610245645	-0.003637350832406129	1.160953549023428	0.2035484251412794	1.048954691656796	-1.56881088719857	0.2557439828111189	-3.183804295455996	0.5232419609603	-1.0226908179921	-0.3223504742713833	0.1001548522028647	0.01008714747878985	0.0907377467808938	0.01015205657864874	0.01193242014398727	0.1132402503435715	0.1482122979997132	0.3093228581441543	0.01273891961613219	0.03563393671045694	0.02202160661949982	0.01110918998037248	0.09384608524566812	0.04494548004383489	0.01188830586825393	0.01745509334577054	0.02283205782154511	0.04672609476807466	0.006028431641437185	0.146281633729811	0.01000010023604833	0.06666008411139883	0.009999998587574938	0.01000000044909095	0.0100000034372208	0.108334626266462	0.1819721904697922	0.009999995736391853	0.009999994005795595	0.01001208130021888	0.009999993446835179	0.1699963229745489	0.08723614083664163	0.009999996403614653	0.01000005502094634	0.01000001461092859	0.04094872017251581
0.0881416875	-0.3374274116080095	0.1803780779028986	0.8945696683992475	0.18584063940519	0.5403691251253034	0.2760203028427863	-0.5911124294703297	-0.2892904128867358	-0.1591074628884184	0.05119556129573347	-0.03151657672901232	1.118730060099423	0.223543767821981	1.212044208739508	-1.439117924890239	0.2028647821999472	-3.098572392282983	0.4102019938458318	-0.4441539588695682	-0.2536694577126082	0.1183281114040767	0.01004408552165638	0.08328816912967991	0.01007685562723002	0.01097924895645375	0.07052602962251225	0.1317589107852701	0.267592675532306	0.01138954276996605	0.02341398942649566	0.01618290617706386	0.01056141003499041	0.1276083900860388	0.06987907647470755	0.01095683269030367	0.01380753409796164	0.01660243450775563	0.04358435641699644	0.005134098895558347	0.1401456607624824	0.01000006901374175	0.07955288473030651	0.009999997604809702	0.01000000164283418	0.01722939701396987	0.1068606934056201	0.1944695603136239	0.009999995555408137	0.009999993325464265	0.01000608790252625	0.009999993115130572	0.176494256423061	0.1100221422484336	0.01000000185951392	0.0100000306578406	0.01000000617397618	0.03913980793298935
0.09793520833333333	-0.3378175152120735	0.1911569998133696	0.896785429847392	0.1984056949768389	0.5268007865405118	0.2777427897322413	-0.6209217647194714	-0.2857309398903167	-0.1611683427752253	0.04921357468296985	-0.04589972803133593	1.083704979934268	0.226034108257871	1.349712446357554	-1.336230252757431	0.1486777442846232	-2.984120071911845	0.320609576247622	0.001068990862763154	-0.1443045582425074	0.1258224790096429	0.01002275731244619	0.0848118965907005	0.01003963017534968	0.0105053021860207	0.04823794317890215	0.1212322393150476	0.2439645271153039	0.01071723588471275	0.016994079033107	0.01320487076582287	0.01028959869295017	0.1486411121637079	0.09288994803321249	0.01049372820262707	0.0119690319583611	0.01342216140674028	0.04106102842285558	0.004239766149679511	0.1340096877951538	0.01000003779143516	0.0924456853492142	0.00999999662204447	0.01000000283657741	0.02445879059071895	0.1053867605447782	0.2069669301574555	0.009999995374424418	0.009999992645132934	0.01000009450483363	0.009999992783425966	0.182992189871573	0.1328081436602256	0.01000000731541318	0.01000000629473486	0.009999997737023758	0.03733089569346291
0.1077287291666667	-0.3382923848354344	0.2016233733094178	0.8989686723030005	0.2121997410920243	0.5140260426564055	0.2789308718119066	-0.6494281066757012	-0.2828221693478719	-0.1598085872512431	0.04752677345091938	-0.05028216247454664	1.054358527155334	0.2186952663868954	1.465557874999533	-1.277974313485056	0.0943747417768203	-2.835558007101457	0.2812567524942639	0.2824226497831823	-0.1825610569691653	0.1304336813600712	0.01001152055685357	0.08780219892950439	0.01002002604576547	0.01025553557698144	0.03657169460978377	0.1150890073229255	0.2308799634381112	0.01036281930432856	0.01356975544092404	0.01162706280832919	0.01014640242643259	0.1651069055162522	0.1124246547827874	0.01024968489535576	0.01099785672157067	0.01173786961981537	0.04092190113004503	0.004859770886252772	0.139633189640835	0.01000004299971923	0.09097945893425928	0.009999996678394947	0.01000000240255253	0.02219996126893187	0.1074500761900041	0.2088152771613828	0.00999999547340326	0.009999992348395581	0.01000008008730896	0.009999992578860247	0.1961863865785327	0.1436343003949074	0.01000002298259593	0.01000000557537134	0.009999997842530832	0.04368418211536635
0.11752225	-0.3387868342270264	0.2118216092315173	0.9010469861115386	0.227078270765976	0.5016634921855933	0.2795996625847162	-0.6764268667481187	-0.2800682534711284	-0.1555227780847566	0.0459826181570543	-0.04989824267466038	1.028946823289302	0.2046059316386251	1.571182043905196	-1.252053495428051	0.04262981408813608	-2.676246752506424	0.2889856754387878	0.598617858588682	-0.115173882847426	0.1354364160756185	0.01000596274522703	0.08880891945881013	0.01001032466997248	0.01013178865097388	0.02923437735176345	0.112393114383243	0.223183588508168	0.01018712981507781	0.01184570721921174	0.01084002465263079	0.01007549454193346	0.1799581277038022	0.1277597909521582	0.010128785245995	0.01051491251175324	0.0108972699891407	0.04387353786996259	0.005479775622826032	0.1452566914865163	0.0100000482080033	0.08951323251930439	0.009999996734745425	0.01000000196852766	0.0199411319471448	0.10951339183523	0.2106636241653101	0.009999995572382105	0.009999992051658226	0.01000006566978429	0.009999992374294525	0.2093805832854923	0.1544604571295893	0.01000003864977868	0.01000000485600782	0.009999997948037905	0.05003746853726979
0.1273157708333333	-0.3392746232448109	0.2217842394252177	0.902962704778442	0.2429848185860704	0.4894689307537351	0.2797863361092675	-0.7018605443674242	-0.2771485357754319	-0.1478672479122948	0.04461902396099309	-0.04925070209897995	1.006005014102201	0.1861771467626582	1.67590484794872	-1.241369866215691	-0.004191573064942201	-2.515284922127808	0.3112942464895253	0.9544041142533799	-0.1430256448383326	0.1388809243963783	0.01000303724547265	0.08894396662731241	0.01000521590394846	0.0100666112881985	0.024634432729852	0.1107503419936441	0.2176465006860061	0.01009458690301317	0.0109351864298087	0.01042504143420419	0.01003815048168384	0.1919476828305131	0.1396192108634161	0.01042853430329788	0.01026039963088285	0.01045401041982517	0.04768257622299102	0.00539637335113552	0.1427016541942916	0.01000004889246741	0.08877968680286626	0.009999996788995996	0.01000000216043687	0.01938904300619898	0.1076046729142519	0.206060012798218	0.009999995659032984	0.009999991892335802	0.01000005822845034	0.009999992278546067	0.212665322455419	0.1586902376168121	0.0113559556023514	0.01000000232301005	0.009999996537510828	0.05379783301192446
0.1371092916666667	-0.3397423882225008	0.2315344370134582	0.9046850554142206	0.259878923817769	0.4772881873425584	0.2795237593987536	-0.7256458940690337	-0.2738920830348572	-0.1370318395305785	0.04357818076935426	-0.04580900032037005	0.9855645486048291	0.1651169604268506	1.772857708543211	-1.249231625557865	-0.04911456318141001	-2.33963074979464	0.3577525776813297	1.248001928601884	-0.04926275447695148	0.1398411774330038	0.01000158998651859	0.08869515225723662	0.01000268796807572	0.01003434982834501	0.02199270939802002	0.1089897420520269	0.2124290766825801	0.01004877353655676	0.01048254448221414	0.01021926059732795	0.01001966847097369	0.2004339538975238	0.1481789980403328	0.01126070430271122	0.01013429704316492	0.01023417952424901	0.05144416031539119	0.005312971079445008	0.1401466169020669	0.01000004957693151	0.08804614108642811	0.009999996843246565	0.01000000235234608	0.01883695406525317	0.1056959539932738	0.2014564014311258	0.009999995745683863	0.009999991733013379	0.0100000507871164	0.009999992182797608	0.2159500616253457	0.162920018104035	0.01271187255492413	0.009999999790012275	0.009999995126983749	0.05755819748657912
0.1469028125	-0.340178450138767	0.2410947616577765	0.9061923787254781	0.277695784244559	0.4649867344542628	0.2788457875520685	-0.7476239793167404	-0.2701514192918543	-0.1237031773509327	0.04303028101083649	-0.04253144477723482	0.9670785113445913	0.14260708080804	1.864090162300084	-1.26366263260548	-0.08966522166255038	-2.147453956789401	0.4058240499131414	1.469069903128428	-0.04663339791984833	0.1398177140524718	0.01000083111889935	0.08760163076525204	0.01000135684162379	0.01001736022781745	0.01930035874065694	0.108115658616535	0.2083019913749025	0.01002464670446996	0.01024401344296451	0.01011086090830314	0.01000993559078413	0.2063145525676922	0.153736641399278	0.01161437535532822	0.01006787803657856	0.0101183769649581	0.0555672644143959	0.005297488555582546	0.1394666249076664	0.01000006119658341	0.08457510256059969	0.009999997108283032	0.01000000234455783	0.01441852171158964	0.1079824720193628	0.201328065211252	0.009999995918107988	0.009999991649482638	0.01000005198155507	0.009999992143524716	0.2160946243393602	0.1613012481840592	0.01135614375566504	0.009999999072777613	0.009999994675310419	0.06287854893042635
0.1566963333333333	-0.3405615337174099	0.2504818465081866	0.9074764166204424	0.2963605432757067	0.4525224217197148	0.2777610849245089	-0.7676845383168133	-0.2659496382114993	-0.1083523556659114	0.04297804756264188	-0.03498994177651358	0.9501860985343593	0.1195183610890172	1.946012719654618	-1.282490317508158	-0.1321757600270195	-1.948039966404953	0.4519204148053715	1.660960565192065	0.05196055811071146	0.1395241123367655	0.01000046148793002	0.08545155732643935	0.01000069830890811	0.01000895277208469	0.01573382737661303	0.1085976371982031	0.2056761772918551	0.0100127069816653	0.01012584015083685	0.01005719382916015	0.01000511934977212	0.2099826812334462	0.1563618600811459	0.0111064243909687	0.01003500131826888	0.01006104179280429	0.06021715856216899	0.005282006031720083	0.1387866329132658	0.0100000728162353	0.08110406403477124	0.0099999973733195	0.01000000233676959	0.01000008935792612	0.1102689900454518	0.2011997289913782	0.009999996090532114	0.009999991565951901	0.01000005317599374	0.009999992104251818	0.2162391870533747	0.1596824782640835	0.01000041495640595	0.009999998355542952	0.009999994223637091	0.06819890037427358
0.1664898541666666	-0.3408486116788186	0.2597093878096516	0.9085337678375485	0.315786587503962	0.4398788998891063	0.276244543692395	-0.7857815338162036	-0.261365742839312	-0.09120962929914105	0.04342540532948306	-0.02343824526313404	0.9344167196671112	0.09654758286743513	2.019803582384459	-1.299128470985578	-0.1773996913195753	-1.746190475808149	0.4834878932715738	1.832190311265866	0.0499423194396398	0.1388120081980642	0.01000027327921245	0.08214676590475734	0.01000035179220988	0.01000452534622359	0.01292138809646193	0.1115966883617809	0.2052895352285727	0.01000641943764072	0.0100635989678142	0.01002893485198801	0.01000258309881755	0.2122372289294173	0.1566277501315239	0.0105601624312802	0.01001768737222767	0.01003084637321265	0.06496640585160464	0.00507914118396965	0.1368840085527167	0.01000008793082473	0.0751516632372301	0.009999998158721025	0.01000000224122053	0.01000005019591172	0.1204177586614388	0.2076793891487763	0.009999995937820329	0.009999991527009193	0.01000006830528685	0.009999992082142379	0.21581320444304	0.154709652132334	0.01000021374834106	0.009999997851936521	0.009999993814123921	0.07286581981928696
0.176283375	-0.3410167430923914	0.2687879344497056	0.9093701859274818	0.3358969524397178	0.4270841507729251	0.2742888474429315	-0.8018583075247383	-0.2564932406837597	-0.07261558139983056	0.04416281469560329	-0.01069907644625345	0.9197589081609009	0.07440013835125829	2.085762400927852	-1.313373446904876	-0.2218585257704302	-1.535477043379394	0.5108587247914602	1.957344584226452	0.1111939235602075	0.1376083683122727	0.0100001877861523	0.07763772338753243	0.01000018072681545	0.01000233448887243	0.01150972104813349	0.1176230730414085	0.207512102976966	0.01000330808539977	0.01003279120899234	0.0100149574837986	0.01000132809484046	0.2134746645881717	0.1547812246864698	0.01028900488177907	0.0100091191466386	0.01001590268812967	0.06964180185268318	0.004876276336219217	0.1349813841921675	0.01000010304541417	0.06919926243968898	0.009999998944122549	0.01000000214567148	0.01000001103389732	0.1305665272774258	0.2141590493061744	0.009999995785108544	0.009999991488066481	0.01000008343457997	0.009999992060032943	0.2153872218327054	0.1497368260005845	0.01000001254027617	0.009999997348330091	0.009999993404610752	0.07753273926430033
0.1860768958333333	-0.341070261289494	0.2777276395656914	0.9099960076297585	0.3566258653254866	0.4141815014784427	0.2719196940146527	-0.815812791280754	-0.2513925036544065	-0.053063940494235	0.04505394119155179	-0.0001407757179069069	0.9060577720312423	0.05375412130742856	2.145487152733832	-1.320586765844718	-0.2617199178499681	-1.311710404878572	0.5286635228204284	2.030008443277742	0.08167780844661872	0.1367744979670083	0.010039542351505	0.07176003938254143	0.01000009145167522	0.01000118065670201	0.0107645859238998	0.1261546412329805	0.2110900217648184	0.01000166959320113	0.01001656715027012	0.01025505103452075	0.01000066720268326	0.2143079542981117	0.1513458772298207	0.01014611010136911	0.01000460695652716	0.01000803306250179	0.07430221866265704	0.004617228786799642	0.1360621713628267	0.01014702498644479	0.06027422499509796	0.01000000135393216	0.01000000173647952	0.01000000504417825	0.14476744123308	0.2196256604886368	0.009999995694836434	0.009999991478151424	0.0109231177929782	0.009999992041352049	0.2159955411442261	0.1430546347612514	0.01000000573674507	0.009999997255169762	0.009999993181908398	0.08228939064275426
0.1958704166666667	-0.3410177483198332	0.2865384527095645	0.9104299461558736	0.3778827084621744	0.4012368715083371	0.2691672710958282	-0.8275008780374714	-0.2461800687746408	-0.03295983517061235	0.04597592200023513	0.0109542530494229	0.8934370216185574	0.03521439924325858	2.193574547326137	-1.321946599775544	-0.3001285365394517	-1.072641044382068	0.5336692854291437	2.070167016001291	0.1174948878936561	0.1367305503036631	0.01013322506127729	0.06443349110633831	0.01000004849432229	0.01000060951246328	0.01039447040195265	0.136942475541935	0.2153667413208634	0.01000085878931386	0.01000853856018686	0.01083963483120683	0.01000034017240299	0.2150557583239479	0.1465744320718385	0.01007534828071892	0.01000237415580875	0.01000413877944609	0.07897192090407815	0.004358181237380066	0.137142958533486	0.01029394692747542	0.05134918755050695	0.01000000376374177	0.01000000132728756	0.009999999054459176	0.1589683551887342	0.2250922716710992	0.009999995604564325	0.009999991468236363	0.01184615215137643	0.009999992022671156	0.2166038604557469	0.1363724435219182	0.009999998933213969	0.009999997162009432	0.009999992959206049	0.08704604202120816
0.2056639375	-0.3408560839397888	0.2952306770364541	0.9106939866444598	0.3995523767158843	0.3883200403142926	0.2660476968942155	-0.8367702727454032	-0.2410063523855566	-0.01261830328679455	0.04693721042946843	0.02184886281312757	0.8818744298356426	0.01907066597848589	2.229804244699644	-1.314873128630751	-0.336269037149582	-0.8182580133602343	0.5209128919605815	2.07777779784328	0.08972111327384012	0.1358026391221621	0.01108000132855406	0.05694570550417166	0.01000002761779247	0.01000030882376582	0.0101994532770207	0.1474237671469951	0.2197628342523487	0.010000431810544	0.01000431068395771	0.0134757727459338	0.01000016796713101	0.2150140140877154	0.1404692513192233	0.01003807934397885	0.01000119840258146	0.01000208797638952	0.0833207335778664	0.00401591101779018	0.1321093719391509	0.01353263620402533	0.04499350740281922	0.01000000842549503	0.01000000191798376	0.009999998039938151	0.1661986610911405	0.22906427229128	0.009999995631372556	0.009999991504734995	0.019864104728117	0.009999992066723938	0.2134786360138516	0.1271547222832215	0.009999997141790172	0.009999997371290405	0.009999992857707259	0.09041754654066565
0.2154574583333333	-0.3405939352565245	0.3038159659749085	0.9108106059650372	0.4215202088036357	0.3755022236398614	0.2625939064680075	-0.8434876716389736	-0.2360156467619851	0.007617525494355205	0.04794688791624419	0.03147482066344031	0.8715990350037325	0.005108542418649584	2.254464566169351	-1.301726186443478	-0.3683810537460724	-0.5514810126035844	0.496295440286604	2.048580682655623	0.1273767390411544	0.1331720582542326	0.01317762795281803	0.04989459475162349	0.01000001964280389	0.01000016033649246	0.01010285874185065	0.1564511799660105	0.2239804096766206	0.01000022054787635	0.01000221863801061	0.01878291133860925	0.01000008277945943	0.2138100471697942	0.1330277005318359	0.01001963366300516	0.01000061672377997	0.01000107314513869	0.08720688597820872	0.003673640798200293	0.1270757853448159	0.01677132548057524	0.0386378272551315	0.01000001308724829	0.01000000250867995	0.009999997025417127	0.1734289669935467	0.2330362729114607	0.009999995658180785	0.009999991541233625	0.02788205730485757	0.00999999211077672	0.2103534115719562	0.1179370010445248	0.009999995350366379	0.009999997580571376	0.009999992756208468	0.09378905106012318
0.2252509791666666	-0.3402520474565462	0.3123072948491363	0.9108002962128631	0.4436799779049115	0.362843761710446	0.2588562928743242	-0.8475428317620405	-0.2313134233356408	0.02739049478406951	0.04909004321867358	0.03809994889087635	0.8627481511804641	-0.006934341636399624	2.268599904116263	-1.282699383431726	-0.3940743600291384	-0.2752473568748171	0.462570931616032	1.984524550491882	0.1151211993671443	0.1295721304664155	0.01545268567421414	0.04231088350050569	0.01000001830483448	0.01000008259173117	0.01005198430443697	0.1643978905717597	0.2274781516182712	0.0100001094127168	0.01000111700732719	0.02504661654157907	0.01000003798297319	0.2111960373991146	0.1242471876055331	0.01000991936990605	0.01000031066893476	0.01000053871777617	0.09056962535284895	0.003225314379748948	0.1220554996925377	0.0186932207349003	0.02924553542401576	0.01000002019066233	0.01000000372801105	0.009999996308613215	0.1792406428721502	0.2338623738930206	0.0099999960671266	0.009999991654995549	0.0349713857622142	0.009999992312338262	0.2036758900925216	0.1062410981759128	0.009999994576412334	0.009999998374096285	0.009999992761427269	0.09593106543317029
0.2350445	-0.3398524572598054	0.320720065063265	0.9106802597298174	0.4659097454859578	0.3503905337668933	0.2548913639744943	-0.848851475614442	-0.2269827887767877	0.04639321364221698	0.05037896765893161	0.04325861073126488	0.855556048740486	-0.01729948279288361	2.268759421096782	-1.259813989725816	-0.4148026236829864	0.00940333479420387	0.4204108072082924	1.891282721141066	0.1571452237994638	0.1253602727412225	0.01754194905046169	0.03375596578002946	0.01000002123132027	0.01000004473838303	0.01002680390894616	0.1714212752546086	0.2299716372539906	0.01000005462786992	0.01000057195769528	0.03164194763549629	0.01000001591879463	0.2070339052076442	0.1141244794786438	0.01000511195582464	0.0100001596288665	0.01000027427670337	0.093378931004964	0.002776987961297603	0.1170352140402596	0.02061511598922538	0.01985324359290003	0.01000002729407637	0.01000000494734214	0.009999995591809302	0.1850523187507536	0.2346884748745804	0.009999996476072415	0.009999991768757472	0.04206071421957083	0.009999992513899804	0.196998368613087	0.09454519530730074	0.009999993802458288	0.00999999916762119	0.009999992766646069	0.09807307980621741
0.2448380208333333	-0.3394114820932438	0.3290707765745216	0.9104659731772625	0.4880710686202878	0.3381849498860837	0.2507505556416049	-0.8473364975665268	-0.2231127956628585	0.06435225565502931	0.05187681348766069	0.0464820380531122	0.8501234913005384	-0.02628778850662008	2.254411919149988	-1.232410897344468	-0.429813657274607	0.300574296282094	0.3692306948365549	1.772653267756272	0.1556666596391826	0.1195890801636979	0.01966204059958877	0.02584932782387592	0.01000002881205098	0.01000002570382299	0.01001354320127034	0.17760562275495	0.2315687594647805	0.01000002608490022	0.01000028503763796	0.03872752986338359	0.01000000445852425	0.2013251675994631	0.1028241053920438	0.01000258009404351	0.01000008090652535	0.01000013506672383	0.09559645641422888	0.002218852043085875	0.106592757807122	0.02297876658656862	0.01492664681119764	0.01000004437999019	0.01000000736621756	0.0099999951354789	0.1892876997323201	0.2340122025469164	0.009999997306311395	0.009999992060881625	0.0504912836313163	0.009999992951294877	0.1873430871203011	0.08118098787713708	0.009999993376373464	0.01000000159924575	0.009999992926557826	0.09890514909869848
0.2546315416666666	-0.3389481584830205	0.3373778394849186	0.9101687602321534	0.5100172586497443	0.3262582729876423	0.2464922850046504	-0.8429524817652697	-0.2197638832258469	0.08104374588559408	0.05356369308722	0.04782253499140327	0.8466422777683609	-0.03423443273898363	2.224825659473235	-1.20285654058888	-0.4387903817250793	0.5953086087334988	0.3139974578551061	1.632427544577121	0.1957490669008822	0.1117828706012455	0.02189433784127754	0.01930220976562017	0.01000004119465161	0.01000001750720309	0.01000698091964698	0.1829831978571504	0.2323219102410882	0.01000001238081577	0.01000014321249171	0.04636549298099919	0.009999999008768773	0.1940645900496781	0.09043130336802341	0.01000132705786955	0.01000004318188694	0.01000006626419304	0.09720163502870129	0.001660716124874148	0.09615030157398444	0.02534241718391187	0.01000005002949525	0.01000006146590401	0.01000000978509298	0.009999994679148498	0.1935230807138865	0.2333359302192525	0.009999998136550371	0.009999992353005778	0.05892185304306179	0.009999993388689952	0.1776878056275152	0.06781678044697341	0.00999999295028864	0.01000000403087031	0.009999993086469584	0.09973721839117959
0.2644250625	-0.338486076991858	0.3456606119451501	0.909797716871894	0.5316037373791731	0.3146329745675087	0.2421824960565747	-0.835674551725884	-0.2169713350718354	0.09626711258583692	0.05544874886212683	0.04642046184491239	0.845222996305444	-0.04141605201481677	2.180454086898442	-1.171675946384727	-0.4404461985371779	0.8908604996253876	0.2567871832962661	1.473901086595256	0.1940766168890265	0.1024229041183971	0.02374066689536612	0.01476312277611614	0.01143246093457854	0.01000001433115812	0.01000352507531176	0.1872196375899292	0.2329600692689323	0.01000000561671868	0.01000006885132587	0.05384313493353666	0.009999996451738363	0.1847088379877232	0.07673426445370303	0.01000066707231117	0.01000002564858717	0.01000003018297835	0.09819708790262176	0.001100940836699707	0.08407593058990841	0.02602673555015514	0.01000003244902093	0.0153497848975318	0.01000001218594808	0.00999999453836913	0.1944164041178424	0.2347127740836861	0.009999999188283719	0.009999993335973114	0.06566713266264144	0.009999994220370605	0.1624797360145048	0.05169463810497314	0.009999992757350184	0.01000001086754732	0.009999993523430591	0.09933217020362155
0.2742185833333333	-0.3380413034215038	0.3539408033079224	0.9093599465397318	0.5526663867298681	0.3032997343253021	0.2378827592218265	-0.825505223948324	-0.2147243920342777	0.1098634294094424	0.05746038868025358	0.04428796941424033	0.846115174696202	-0.04786119129463921	2.117850979447884	-1.143213398373259	-0.4367375728326134	1.185780163832035	0.2025758096575116	1.300156872093417	0.2215996359401803	0.09174602625712711	0.02500953313274119	0.01246509598021929	0.01482660250498551	0.01000001397247606	0.01000181496826059	0.1901403355056272	0.2338708157352589	0.0100000028010572	0.01000003255282828	0.06088862646894082	0.009999995606631971	0.1729526984097433	0.06162771750507427	0.01000034040260056	0.01000002042661878	0.01000001255017379	0.09858105243917184	0.0005411655485252682	0.07200155960583236	0.02671105391639841	0.01000001486854661	0.02069950832915959	0.01000001458680318	0.009999994397589767	0.1953097275217983	0.2360896179481198	0.01000000024001707	0.009999994318940452	0.0724124122822211	0.00999999505205126	0.1472716664014944	0.03557249576297288	0.009999992564411728	0.01000001770422434	0.0099999939603916	0.0989271220160635
0.2840121041666667	-0.3376221109289695	0.3622414888311115	0.9088623811849779	0.5730240220251146	0.2922292775762035	0.2336479650470013	-0.8124537715776214	-0.2129909953220321	0.1217118612984905	0.05955110280804087	0.04004642507135656	0.8494452885113597	-0.05372876483057282	2.036944869091463	-1.117441910166148	-0.4256729974137712	1.47979953023632	0.1531498918589078	1.120496545505173	0.2087064408623526	0.07906121538612218	0.02547355022550748	0.0112501415570637	0.01926375952295796	0.01000001471278206	0.01000091447142592	0.1914458682712561	0.235374944088373	0.01000000155555329	0.01000001656966421	0.06576049622830633	0.009999995727600132	0.1578685686557429	0.04652924259409978	0.01000016837852746	0.01000002032006141	0.01000000357400178	0.09875523285285324	-0.000267208206072636	0.05469936994311341	0.02534648635073637	0.01000001175670133	0.02663262770398717	0.01000001621428576	0.009999994664916001	0.1920149880019743	0.2396722999887192	0.0100000003196372	0.0100000052445145	0.07100699277322754	0.009999996526186473	0.1234170492327645	0.02278631418743002	0.009999992709486524	0.0100000223288081	0.009999994779038072	0.09903943917720648
0.293805625	-0.3372818210964451	0.3705871949159907	0.9083079736997738	0.5925137289743125	0.2814146303448606	0.2295921894112191	-0.796515317840545	-0.2116906114326677	0.1318303537284784	0.06161389697812807	0.02817473264216075	0.8553091229108103	-0.05946930065944124	1.940605561621297	-1.090972836044509	-0.4001790067990931	1.775353906616647	0.1141473822818546	0.9468744339385599	0.2158979157569612	0.06401608815422934	0.02503925531774823	0.01064522038067788	0.0244028250329037	0.01000001590127583	0.0100004690245532	0.1909713505239952	0.2376425499898726	0.01000000097948139	0.01000001418037441	0.06772527712816599	0.009999996532167207	0.1389139987224628	0.03214644598835469	0.0100000833315507	0.01000002260360271	0.009999999546019257	0.09890243700981398	-0.00107558196067054	0.03739718028039445	0.02398191878507434	0.01000000864485605	0.03256574707881477	0.01000001784176834	0.009999994932242235	0.1887202484821503	0.2432549820293186	0.01000000039925733	0.01000001617008855	0.06960157326423398	0.009999998000321687	0.09956243206403469	0.01000013261188716	0.00999999285456132	0.01000002695339186	0.00999999559768454	0.09915175633834945
0.3035991458333333	-0.3371123977540084	0.3790026722122893	0.9076967229069867	0.6109978760443846	0.2708796890205175	0.2258780529360639	-0.7776808566938566	-0.2107258910676981	0.1402117489244874	0.06356692057082459	0.006396603576933982	0.8637073939371875	-0.06529629527112202	1.830763537458138	-1.060692578976121	-0.3574080463716571	2.066493812988103	0.08267504877206465	0.7649067561386211	0.1864453341165316	0.04848870458082613	0.02361455434865148	0.01032636088595204	0.03352128726750071	0.0100000211509341	0.01000023471887462	0.1888281128333437	0.2405192209691155	0.01000000064505294	0.01259418376749005	0.06606462275172824	0.009999997941344459	0.1187038315685809	0.02153704753697069	0.01000003883277761	0.01000002329146031	0.00999999781107346	0.09872224309266377	-0.001654294167172615	0.0236985921600968	0.02047489454420079	0.01000000432798564	0.05275865870043788	0.0100000338390024	0.009999995717611166	0.1824158063158985	0.2475911443250918	0.01000000022244865	0.01970060169556044	0.05924216792023065	0.01000000054709296	0.08116440460571797	0.01000009219174131	0.009999993812730004	0.01000002149454432	0.009999996411214717	0.09790280167987127
0.3133926666666667	-0.3371570737224092	0.3875132065848422	0.9070302266887094	0.6283063460680794	0.2606338057655688	0.2226092798389739	-0.7561262306475057	-0.2100749641094663	0.1468157629423024	0.0653344291348123	-0.0155479110282592	0.8747213604241866	-0.0707513362889943	1.700512735683674	-1.031942365938079	-0.3092283904386495	2.330856865349098	0.0500655444876593	0.5839036069108809	0.1780126583779427	0.03342102253591983	0.0211575628337568	0.01016832409126453	0.04777020905058353	0.01000003183009981	0.01000011917739089	0.1850626582222376	0.2439224308392638	0.01000000039025154	0.01872244227355234	0.06039340211996722	0.009999999925216477	0.09869657047892082	0.01600536981509841	0.01000001729813829	0.0100000208740984	0.009999997363578008	0.09807635870173446	-0.00223300637367469	0.01000000403979914	0.01696787030332724	0.01000000001111523	0.07295157032206101	0.01000004983623646	0.009999996502980096	0.1761113641496467	0.2519273066208651	0.01000000004563997	0.02940118722103234	0.04888276257622733	0.01000000309386424	0.06276637714740127	0.01000005177159546	0.009999994770898687	0.01000001603569678	0.009999997224744891	0.0966538470213931
0.3231861875	-0.3373904337037191	0.3961444812264371	0.9063135947122087	0.6442239336310838	0.2506497359114704	0.2198055805729014	-0.7321832383236031	-0.2097856927853267	0.1516921552246553	0.06689530262505892	-0.0316626299203007	0.8883297473376276	-0.07555837663717999	1.547452137962561	-1.007450173162728	-0.2630777340814233	2.552445717660857	0.008240552628470758	0.4093980711722086	0.144583713662865	0.02222115963158201	0.01820409170522539	0.01008508056218933	0.06393358676408911	0.01432464647293567	0.01000006008676891	0.1791110381660297	0.2475542817569818	0.01000000015860408	0.02504929476902227	0.05295088690719216	0.01000000304368188	0.08002610341697591	0.01306089776275562	0.01000000693391609	0.01000001811989649	0.009999997529995098	0.09651183962957008	-0.002450133142505841	0.009999999774294529	0.01348401035682866	0.009999998486618157	0.09178031912817976	0.02620149573728005	0.0100000024397824	0.1639322347558398	0.2557886797077656	0.009999999817488017	0.03380111657354466	0.03999666360664215	0.0100000088779777	0.04953549447488513	0.01000004520156195	0.009999997676639647	0.01000001469014631	0.009999998101444195	0.09251499195527749
0.3329797083333333	-0.3377685258813599	0.404920815301498	0.9055510150799306	0.6585640286314861	0.2408914500250769	0.2174613784571756	-0.7062538881550303	-0.2099285974047	0.1547849322473773	0.06824161097834054	-0.04510463506934902	0.9043449117362754	-0.08013461255083931	1.37836249177287	-0.9858335208051927	-0.2153914224745387	2.736504206785207	-0.03819197818832616	0.2196596766666626	0.13419488525702	0.01636530939457944	0.01496940506732828	0.01004387200983518	0.080885843950198	0.02449604675182615	0.01000003384697905	0.1706617525281248	0.2512570144926954	0.009999999928722497	0.03036327703227867	0.04473261696967464	0.0100000075087911	0.06328685059497804	0.01158199609026487	0.01000000327347221	0.0100000160773233	0.009999998055235692	0.09381622034771625	-0.002667259911336991	0.009999995508789918	0.01000015041033008	0.009999996962121087	0.1106090679342985	0.04240294163832364	0.01000000837658471	0.1517531053620329	0.2596500527946661	0.009999999589336063	0.03820104592605698	0.03111056463705696	0.01000001466209118	0.03630461180236901	0.01000003863152844	0.01000000058238061	0.01000001334459583	0.009999998978143496	0.08837613688916189
0.3427732291666667	-0.3382707408300136	0.4138652699603025	0.9047438001016195	0.6711842634699698	0.2313308829750588	0.2155977234317971	-0.6786769061868968	-0.2105377922633943	0.1559777941879436	0.06935301470871852	-0.05714131983579776	0.9225750473532506	-0.08471151352854107	1.198321315213296	-0.9666317669876571	-0.1649520796212557	2.888503579608695	-0.0870065588095611	0.02549217180279428	0.09398910280715364	0.0132459711118714	0.01252922015495288	0.01002216983292854	0.09695040341055593	0.03698620805157322	0.01000002751759504	0.1627910938571069	0.2551887398436248	0.009999999704176038	0.03579041729753051	0.03833041881582808	0.01000001180001395	0.05058820452223432	0.0108012861793968	0.01000000225895753	0.01000001577542395	0.00999999877523782	0.09050686736332449	-0.002864561072351693	0.009999994799269383	0.01000011765686548	0.009999996302847289	0.1239841157622361	0.05773471869167311	0.01000003175807641	0.1495729132466214	0.2644899947161028	0.009999999378026165	0.04484506865724541	0.03098193932903798	0.01000001746918886	0.03465699252286193	0.01000003406321068	0.01000000176330067	0.01000001725977883	0.009999999960676147	0.08426001343934079
0.35256675	-0.338881591278232	0.4229974699197671	0.9038917791079393	0.6820242718979522	0.2219572425841194	0.2142352712789483	-0.6498073141720316	-0.2116482880233822	0.155314600187019	0.0701064138116041	-0.06728981268081251	0.9426856277781067	-0.08928474683489054	1.01481062093965	-0.94765998500334	-0.1130374517097562	3.000476698135201	-0.1405659680587111	-0.1593778468301935	0.0610843801414535	0.01167786946640362	0.01130669268338849	0.01001142972916096	0.1114816353798786	0.050553353861566	0.0100000361976814	0.1571290438714439	0.2594339355845351	0.009999999486316481	0.04174842090089568	0.03487924315596425	0.01000001534147987	0.04285665993330442	0.01041343080589428	0.01000000235354226	0.01000001760392881	0.009999999627866277	0.08682407617013409	-0.003061862233366394	0.009999994089748847	0.01000008490340088	0.009999995643573492	0.1373591635901736	0.07306649574502257	0.01000005513956811	0.1473927211312099	0.2693299366375395	0.009999999166716268	0.05148909138843383	0.030853314021019	0.01000002027628655	0.03300937324335487	0.01000002949489292	0.01000000294422073	0.01000002117496183	0.01000000094320879	0.08014388998951971
0.3623602708333333	-0.3395858836935529	0.4323345105924265	0.9029950067113163	0.6910805489671882	0.2127857154971807	0.2133898372721354	-0.6200672158934261	-0.2133321278194849	0.1529587843110782	0.07036737597370289	-0.07531050363751077	0.9643432090444228	-0.09369632337838789	0.8349626777133931	-0.9246742501437473	-0.06062484323596184	3.064901179413691	-0.2067294651142249	-0.3093889195428248	-0.00837485685483158	0.01084994171728477	0.01066162395733581	0.0100057737381638	0.1231993750189875	0.06008248786655206	0.01000003990706009	0.155458471997607	0.264731222504052	0.009999999186494296	0.0471447507162498	0.03391576346344197	0.01000001685562155	0.03949281818045087	0.01020906037878976	0.01000000219051662	0.0100000220700178	0.01000000036016921	0.08386645892360223	-0.002953056063671662	0.009999994151966129	0.01000014060033198	0.009999995437768616	0.1413334438447447	0.06982378685048996	0.01000003403067536	0.1577402929659412	0.2787424493686351	0.009999998638191707	0.05489271250652639	0.0345356210978484	0.01000001681961463	0.03792341528718346	0.01000002648183214	0.01000000124665745	0.01000003124230951	0.01000000124769569	0.07997522774866744
0.3721537916666666	-0.3403326499270405	0.4418909911320273	0.9020595770579262	0.6983851990540971	0.2038582291884626	0.2130280153686711	-0.5899325509694348	-0.2157646376060926	0.1494960958475952	0.06993095012188613	-0.07596367346886987	0.9874989019163688	-0.09717920224578126	0.6570992294725644	-0.8978227952176144	-0.014275808868802	3.08105377600131	-0.2934568442299824	-0.3854196567939362	-0.08133386265064144	0.01043853207583304	0.01034140656265563	0.01000297488052773	0.1314973353175725	0.06358288390628471	0.01000003107863564	0.1586196618415354	0.2714740822087006	0.009999998771135235	0.05155494324056539	0.03519377428194551	0.01000001585858575	0.04007115591961555	0.01010782719057739	0.01000000125226648	0.01000002936577521	0.01000000087634615	0.08213948822614871	-0.00284424989397693	0.009999994214183412	0.01000019629726308	0.009999995231963738	0.1453077240993158	0.06658107795595734	0.01000001292178261	0.1680878648006724	0.2881549620997306	0.009999998109667148	0.05829633362461896	0.0382179281746778	0.01000001336294271	0.04283745733101205	0.01000002346877135	0.009999999549094172	0.01000004130965719	0.01000000155218259	0.07980656550781516
0.3819473125	-0.3410423866500523	0.4516811014384358	0.9010966260226753	0.7039620955138461	0.1952243511241449	0.2130803660688972	-0.5598705668563512	-0.2191878578311814	0.1456223817196939	0.06863114992637803	-0.06878465028885873	1.012009282847963	-0.09931868317160188	0.4837566751525982	-0.8630203062576808	0.02516645273839504	3.051648975724937	-0.4101724045817083	-0.4044976870566349	-0.1833516402766167	0.01022174399378935	0.01017270066643144	0.01000150098123936	0.1365648567933316	0.06519191740325882	0.01000002146994109	0.1631635491519615	0.2795094157850858	0.009999998300132392	0.05457902332249468	0.03708058010225424	0.01000001428507574	0.04231176521041133	0.01005450853640213	0.01000000022706431	0.01000004176220995	0.01000000115715232	0.08081427895600536	-0.002878705264477803	0.00999999430221641	0.0100001710756419	0.009999995304206828	0.1426418040617172	0.06763558338489328	0.01000001058303199	0.1718804671179777	0.2997850148745682	0.009999997573419886	0.05799470502955072	0.04001273551810344	0.01000001209873795	0.04657479536342835	0.01000002144851306	0.009999998867761402	0.01000006550530299	0.0100000013526506	0.0785367245579302
0.3917408333333333	-0.3416761822948511	0.4617172680244107	0.900117209744287	0.7078989675073984	0.1870000195508256	0.2135248644214066	-0.5302862074548603	-0.2238878360991562	0.1415958953815282	0.0663544287117699	-0.06045524100511981	1.037747690631682	-0.1005416790133398	0.3221789297954846	-0.8141865834878217	0.06580727033364525	2.983514858237011	-0.5541920924852117	-0.4166182855331115	-0.2808373988610275	0.01011435465972639	0.01008913736491895	0.01000077170388944	0.1384091871459308	0.06654289133374773	0.01000001553390861	0.1673832304771472	0.2887555239163917	0.009999997796169086	0.05603893143843677	0.03891701352463699	0.01000001286782191	0.04525440621191714	0.01002811739828197	0.009999999375579596	0.01000006011942132	0.01000000119529913	0.07951115355502009	-0.002913160634978676	0.009999994390249407	0.01000014585402073	0.009999995376449916	0.1399758840241185	0.06869008881382922	0.01000000824428137	0.175673069435283	0.3114150676494057	0.009999997037172624	0.05769307643448247	0.04180754286152908	0.01000001083453319	0.05031213339584464	0.01000001942825477	0.009999998186428632	0.0100000897009488	0.0100000011531186	0.07726688360804525
0.4015343541666667	-0.3422293829229993	0.4720119318833254	0.8991299427889932	0.7103137367455524	0.1793202370808509	0.2143827217418897	-0.5015379897635398	-0.2301129663321427	0.1374338598555166	0.06297336522572056	-0.05012990495217051	1.064959738005132	-0.1007380220453305	0.1698554867118995	-0.7555918834192794	0.1072512314171933	2.881748678338737	-0.7186262768112496	-0.4329222369951794	-0.4117799548627466	0.0100577943090214	0.01004510927052105	0.01000038779174348	0.1370480064500688	0.06909804323241621	0.01000007073885489	0.171480274207766	0.3004537031618483	0.009999997199103274	0.05692202737266857	0.04051362618012481	0.01000001145913822	0.04792392769550727	0.01001421848873081	0.009999998558557512	0.01000011632210326	0.01000000147678662	0.07833174146751765	-0.002419238557860439	0.009999994338570104	0.01000009735606021	0.009999995781901057	0.1307766590168683	0.07528230560802221	0.01000022755953343	0.1797572854775266	0.3324368804562054	0.009999996210725021	0.05821031845316732	0.04275041626784714	0.01000000933209562	0.05159269466509855	0.01000001781813687	0.009999997333226956	0.01000024472136316	0.01000000228064073	0.07646863376125826
0.411327875	-0.3426113121808822	0.4825838413678997	0.8981506438389527	0.711204355667885	0.1721720234884503	0.2155838735626087	-0.4739509855077699	-0.2379938244273819	0.1331243859788402	0.05824680655612856	-0.02547877581347796	1.094365863069942	-0.09891447968654182	0.01092206073697424	-0.7056313689494892	0.135913722564288	2.746375742425233	-0.8923192870723042	-0.4467276513421663	-0.5556099155974183	0.01002979922077717	0.01002329405971478	0.01000019803048536	0.1324360996965005	0.07347412420118178	0.01000020884973915	0.1755523472591495	0.3152618898395561	0.009999996486157353	0.05763393704810177	0.04179387810005523	0.01000001000309154	0.04992752774618183	0.01000733978771027	0.009999997723258063	0.01000022244593996	0.01000000218567762	0.07732150548412527	-0.001925316480742203	0.009999994286890801	0.01000004885809969	0.0099999961873522	0.121577434009618	0.0818745224022152	0.01000044687478548	0.1838415015197702	0.3534586932630051	0.009999995384277418	0.05872756047185216	0.0436932896741652	0.01000000782965805	0.05287325593435248	0.01000001620801896	0.009999996480025281	0.01000039974177753	0.01000000340816286	0.07567038391447126
0.4211213958333333	-0.3426790146406231	0.4934554629729205	0.8971996086430529	0.7104911921584606	0.165459248617528	0.2170024022372944	-0.4478300611493113	-0.2476116407754558	0.128655174266589	0.05194538648552546	0.007278858138356739	1.126090560106067	-0.09549717143404364	-0.153716580991746	-0.6607139645788418	0.1599210337198653	2.591347885792433	-1.071121645271964	-0.4734825608407681	-0.7329809608483084	0.010015056536627	0.0100117954391311	0.0100000985022897	0.1259820133436191	0.07623290384284492	0.01288255045247031	0.1809024419614154	0.3305471105838264	0.009999995784248965	0.05301364625314792	0.03888418600106065	0.01000001328883348	0.04719959445862799	0.01000371910845326	0.009999998933794892	0.010000257357712	0.0100000026866477	0.07649847562902558	-0.002091911436384924	0.009999994643380845	0.01000004717614915	0.009999997366981709	0.1125249128196094	0.07779182410353004	0.0207815051289	0.1942023763898826	0.3665340620694782	0.009999994799366035	0.03795159085163314	0.02867625560993172	0.01000002409201698	0.0364655615916549	0.01000002364115792	0.01000000328768296	0.01000020287893317	0.01000000302126425	0.07528213497278596
0.4309149166666666	-0.3425544135901097	0.5046463101488198	0.8962763284356404	0.7082492344108381	0.1593190280393102	0.2188366665124991	-0.4231276288187084	-0.2589606626829629	0.1237029144120976	0.04385587502930285	0.01379280251402482	1.159557039218133	-0.09324644896299521	-0.301283174584412	-0.5887062503025159	0.2208138534965493	2.456696054804104	-1.245860284001799	-0.5453741239357717	-0.9207679452885473	0.01000776125524542	0.01000610455665658	0.01000004985009283	0.1183746992017054	0.07589724661046506	0.01968629226824591	0.1881693899049058	0.3449106964460527	0.009999995141445641	0.04069623089711115	0.03009921044872897	0.01000002313015982	0.03793012235889762	0.01000193126166449	0.01000000297190993	0.01000017518060448	0.01000000273908035	0.07587031438126378	-0.002258506392027645	0.009999994999870889	0.01000004549419861	0.009999998546611216	0.1034723916296008	0.07370912580484487	0.03156256338301451	0.2045632512599949	0.3796094308759513	0.009999994214454648	0.01717562123141412	0.01365922154569824	0.01000004035437591	0.02005786724895733	0.01000003107429687	0.01000001009534063	0.0100000060160888	0.01000000263436564	0.07489388603110067
0.4407084375	-0.3425180274610001	0.5161745381915602	0.8953663312896389	0.7046330861392213	0.1540176512777973	0.2214801722916153	-0.3995839777426563	-0.2719568519619242	0.1179657207323996	0.03373038516897148	0.002205214356136474	1.19526931700873	-0.0919782416760961	-0.4439134946470158	-0.5029393367344602	0.3097963487968343	2.329591140256735	-1.407376435276761	-0.6060664703591302	-1.151558268631456	0.01000391954094648	0.01000310583847892	0.01000002458537355	0.1119071011876151	0.07637681765699272	0.02649885329467635	0.1984715693467874	0.3608022698066561	0.009999994433139703	0.03377420904145761	0.02326705290633597	0.01000003055517882	0.02923370552107321	0.01000098899459532	0.01000000512492079	0.01000009382916651	0.01000000250588157	0.07741470286354503	-0.001476586472937432	0.009999994735863897	0.01000003973374808	0.009999998969009922	0.1024483921599269	0.07978982550649023	0.03565427434923627	0.224555829305402	0.4046815346530595	0.009999993283071195	0.03337864064124383	0.01768663591308467	0.01000003627026525	0.01916422534795947	0.01000002244012541	0.01000000498379874	0.0100000146981455	0.01000000195789503	0.08319729548209093
0.4505019583333333	-0.3423434106580505	0.528069269850177	0.8944867316342667	0.6994226771711619	0.1492913337424124	0.224723721529178	-0.3779232276741204	-0.2865113046176077	0.1122273250260502	0.02121147478237273	0.04202180742299232	1.234403179255727	-0.08703877530881433	-0.6268577505869704	-0.4712695825474991	0.3433527174369117	2.072176321899165	-1.564083608021997	-0.5456195977897285	-1.409544263223379	0.01000201843002498	0.01000161909296917	0.01000001229738435	0.107715618333531	0.07937164082755785	0.03190350537868624	0.2123406954949536	0.3795527757290877	0.009999993612138483	0.03790906879901444	0.02171513279822451	0.01000003216596513	0.02423006420156738	0.01000051838204558	0.01000000360799283	0.01000005796122847	0.01000000204874878	0.08198145893056431	-0.0006946665538472188	0.009999994471856908	0.01000003397329754	0.009999999391408628	0.1014243926902531	0.08587052520813561	0.03974598531545802	0.2445484073508092	0.4297536384301677	0.009999992351687748	0.04958166005107353	0.0217140502804711	0.01000003218615459	0.01827058344696161	0.01000001380595395	0.009999999872256849	0.0100000233802022	0.01000000128142442	0.09150070493308117
0.4602954791666667	-0.341481025093109	0.5403579718353205	0.8936757041019513	0.6923137949152597	0.1446488940181369	0.22795426459093	-0.3599059492922851	-0.3027740104657092	0.10689852206981	0.006171155920018888	0.1171152656130109	1.273533997174012	-0.08058866762257821	-0.7882325155238398	-0.4419580562554926	0.3339865872313011	1.553321828182541	-1.787822512128719	-0.6095658886195618	-1.64806761652081	0.01000101811449109	0.01000085576132866	0.01000000759894949	0.1031670089551868	0.07757252195159239	0.03181963418982483	0.2203078176675529	0.3863651505315547	0.009999993356869779	0.04033748998763343	0.02359657134018104	0.01000002976598333	0.02751895484082392	0.01000027222595247	0.01000000175814737	0.01475250306422686	0.01000001671125763	0.08489363363214746	-0.0006058361358344704	0.009999997682318903	0.01000011142158566	0.01000000567761154	0.0931737557290091	0.06616145284630262	0.02487299866347152	0.2241141128508228	0.3740625281857066	0.009999993724880854	0.03747956879355518	0.02890691102775579	0.01000002319899001	0.04190544181248677	0.01000002663199723	0.009999999865130336	0.02781261952378448	0.01000005737576569	0.08612791822651057
0.470089	-0.340381986850184	0.552982295348278	0.8928690224637698	0.6847016310657769	0.141317013964333	0.2316104316653843	-0.3485545785030342	-0.3221325601010182	0.0989762781370135	-0.0107975901315333	0.09035022414072995	1.302942682775577	-0.08615127137477649	-0.7296362307976256	-0.2036314791984204	0.4302722267626336	0.7108870152187463	-2.196306450019786	-1.075243421681396	-1.803361200363028	0.0100005247621112	0.01000051717700739	0.01000000844978231	0.09697713936887781	0.06763673066721103	0.02450083470589351	0.2175539514169039	0.3726227414065634	0.009999993924274612	0.03577752347555811	0.02807415139289431	0.01000002403825959	0.04059716036662868	0.01000015690343646	0.01000000083921479	0.0259183882729715	0.01000005230448053	0.08410808700861584	-0.0005170057178217217	0.0100000008927809	0.01000018886987378	0.01000001196381445	0.08492311876776516	0.04645238048446963	0.01000001201148503	0.2036798183508365	0.3183714179412456	0.009999995098073963	0.02537747753603684	0.03609977177504048	0.01000001421182544	0.06554030017801193	0.0100000394580405	0.00999999985800382	0.04562521566736678	0.01000011347010696	0.08075513151993999
