DataType=double
version=3
OpenSimVersion=4.6-2026-06-22-85aaf64
endheader
time	ground_force_r_vx	ground_force_r_vy	ground_force_r_vz	ground_force_r_px	ground_force_r_py	ground_force_r_pz	ground_force_l_vx	ground_force_l_vy	ground_force_l_vz	ground_force_l_px	ground_force_l_py	ground_force_l_pz	ground_torque_r_x	ground_torque_r_y	ground_torque_r_z	ground_torque_l_x	ground_torque_l_y	ground_torque_l_z
0	-788.2992116979714	2181.899048306362	371.3096690399254	1.753030131090369	0	-0.0594313726680261	-0.6509028758349474	0.2727248452852425	0.06686141524440918	1.244230116151937	0	0.1466122038350436	0	2.689921529963613e-08	0	0	-0.000878581817287144	0
0.006435659104614581	133.0731844885761	1768.294384983352	108.0916844031576	1.758394236287887	0	-0.06087268001483669	-0.9734982324945803	0.3998807057622469	0.1012807042267014	1.26605140207904	0	0.1456893604218284	0	6.277520867570274e-07	0	0	-0.0009378435019216091	0
0.01287131820922916	-659.2749045891586	1557.767869787694	355.4220136808798	1.752828891134105	0	-0.05916941510345042	-1.167108282633556	0.4731030972222422	0.1100487560094566	1.288412335802348	0	0.1447786496690439	0	3.705025392264361e-06	0	0	-0.0006798993635966366	0
0.01930697731384374	122.7442267713355	1388.225905516598	108.7013447552907	1.759654317181674	0	-0.06136293238310127	-1.080031124363288	0.4340135604757283	0.07865725022866683	1.311430124216541	0	0.1441281583846735	0	2.183553888812639e-05	0	0	-0.0003062424164853028	0
0.02574263641845832	-501.9154018281943	1347.157391306314	282.1540961210944	1.7540743954779	0	-0.05998094192176875	-0.760378914494274	0.3050313653087185	0.03323895229238288	1.335066278772369	0	0.143967983714119	0	6.014307888335679e-05	0	0	-6.397424927520601e-05	0
0.03217829552307291	120.9099055984365	1221.948146581423	87.15039878299663	1.760570666928641	0	-0.06204134843798809	-0.4141858034957262	0.1663887815947054	0.002308454684113586	1.359135297777809	0	0.1444638660703977	0	0.0002088594470421867	0	0	2.196264654386396e-07	0
0.03861395462768748	-353.1477970749947	1204.621871875026	221.8276262474101	1.755776308741732	0	-0.060794687097619	-0.167056094475326	0.06757546082418973	-0.006617143234423274	1.383207478255198	0	0.1456553013414648	0	0.0004709844902208715	0	0	-1.258161149118864e-07	0
0.04504961373230207	116.6567879128102	1085.097043403414	71.34032441532355	1.761424900682848	0	-0.06253158717430311	-0.04471114074136808	0.01824156548009367	-0.003981708667392373	1.407041393969578	0	0.1475478672927943	0	0.001483052676363172	0	0	-4.16168974282094e-11	0
0.05148527283691665	-232.9659368765241	1074.563465371188	181.0320794574252	1.757577952039801	0	-0.06135690491668735	-0.001450194405800501	0.0005960333778837045	-0.0001842175853918967	1.431406654993201	0	0.1501374705500212	0	0.003650535352164752	0	0	-6.055214923222918e-15	0
0.05792093194153122	113.7854088851088	961.912417020723	59.15022725653487	1.762372295587551	0	-0.0628629443042117	7.368756040564667e-06	-3.028269705012122e-06	1.068332733214709e-06	1.456549289899773	0	0.1529744720777277	0	0.01239201411726754	0	0	-1.670772488459107e-18	0
0.06435659104614581	-131.110791706585	949.923571756906	141.6473864367422	1.759583706765942	0	-0.06185449006057379	2.481538665957687e-09	-1.013183203096477e-09	3.572205376727659e-10	1.482656738497176	0	0.1556582156113101	0	0.04605158206348392	0	0	-1.016087984944825e-21	0
0.07079225015076039	122.042156814649	845.6095854476653	45.64208209102667	1.763996078388247	0	-0.06319224811069889	8.69267094942121e-13	-3.503923563583764e-13	1.144232504746117e-13	1.509909789093875	0	0.1579784849469196	0	0.2853001162505677	0	0	-1.687405030703953e-24	0
0.07722790925537497	-53.49605977233812	840.5803531987879	110.565748243565	1.764434264635725	0	-0.06277138050694833	6.630709524163973e-16	-2.630263922434086e-16	7.402957492447846e-17	0	0	0	0	2.153780467654485	0	0	-7.961454915219696e-18	0
0.08366356835998955	94.31639202800898	799.9485383098665	56.63665188764097	1.782443702359035	0	-0.06788253381810593	1.377154767772446e-18	-5.365364733793566e-19	1.242578749339704e-19	0	0	0	0	2.406164500113718	0	0	2.683675287746276e-20	0
0.09009922746460414	-106.0208256208455	905.702926225453	107.0347462505805	1.819085645019787	0	-0.07544006961105476	1.023603762995558e-20	-3.915120104992191e-21	6.826103380222865e-22	0	0	0	0	5.609854794024983	0	0	5.615196099761931e-22	0
0.09653488656921873	41.08989837481771	772.4168312417447	12.56986337774722	1.852880695597867	0	-0.0824165628336084	3.074362274604906e-22	-1.153723212863034e-22	1.385606532727189e-23	0	0	0	0	4.438135703948497	0	0	2.702561900433452e-23	0
0.1029705456738333	-51.13178165018673	692.9478386173615	38.04131738410386	1.878135690906023	0	-0.08705905120429819	5.752316120708494e-23	-2.116180062305077e-23	1.596706120346866e-24	0	0	0	0	0.5728408681553674	0	0	6.59982807919335e-24	0
0.1094062047784479	24.38825660612669	618.8638551907279	0.5089862638932346	1.90819871180787	0	-0.09321116257555528	4.257473992922851e-23	-1.533631439374141e-23	8.192560025124423e-25	0	0	0	0	-0.1996125385042405	0	0	5.442741678164964e-24	0
0.1158418638830624	-13.87558660060646	618.9740428940324	37.38468227632517	1.915116245424097	0	-0.09382323237803997	1.98984799386824e-23	-7.016886390752792e-24	4.502114021776157e-25	0	0	0	0	0.1668795915306731	0	0	2.419272672984993e-24	0
0.122277522987677	45.41126011918165	648.7456803584963	12.4794939593635	1.915134314750929	0	-0.09362931532470285	2.045283498712067e-24	-7.061856026994686e-25	7.703054118839932e-26	0	0	0	0	-0.03541409154653508	0	0	1.955940554677896e-25	0
0.1287131820922916	27.49751658161291	641.6760035603435	42.08173861034737	1.915257626318986	0	-0.09319934621225533	5.956977536179992e-26	-2.015557722116984e-26	3.434712345706709e-27	0	0	0	0	-0.1536870529885022	0	0	3.611667516980184e-27	0
0.1351488411969062	61.22313871476423	660.1367605114965	25.09780496827446	1.916394330520157	0	-0.09424594034900372	-0	-0	-0	0	0	0	0	-0.7564130145499846	0	0	0	0
0.1415845003015208	51.73526170700578	662.0690176680588	54.33579139408224	1.917355569941859	0	-0.09521604918877195	-0	-0	-0	0	0	0	0	-1.55030151947237	0	0	0	0
0.1480201594061353	73.96990268900905	674.0705404232141	49.32338224142929	1.918472570892298	0	-0.09565980667245512	-0	-0	-0	0	0	0	0	-0.2384754737465187	0	0	0	0
0.1544558185107499	73.67008766326958	668.7391701347727	74.89829666134099	1.919255009859202	0	-0.09585846132258415	-0	-0	-0	0	0	0	0	0.5374561942338687	0	0	0	0
0.1608914776153645	92.80018677507034	685.8079116016235	64.57042763445004	1.920182734733046	0	-0.09660215067386008	-0	-0	-0	0	0	0	0	1.151433234235697	0	0	0	0
0.1673271367199791	94.41068303923991	684.3921830442199	83.34842470761318	1.920766749378448	0	-0.09681679201806442	-0	-0	-0	0	0	0	0	1.54421965373146	0	0	0	0
0.1737627958245937	112.0494231005858	698.6040032252101	72.78246518898607	1.92143495198312	0	-0.09734819078984043	-0	-0	-0	0	0	0	0	1.99380074962059	0	0	0	0
0.1801984549292083	114.2185943259122	696.8076884362545	88.11751037062096	1.921835154316933	0	-0.09743353769392264	-0	-0	-0	0	0	0	0	2.264525684444237	0	0	0	0
0.1866341140338229	130.5157746208826	706.2419691727415	78.33540179641754	1.922364677937353	0	-0.09783243064173393	-0	-0	-0	0	0	0	0	2.628367895860293	0	0	0	0
0.1930697731384374	135.8795460012816	698.6944727553381	90.18611963515579	1.922734648377553	0	-0.09787146174709489	-0	-0	-0	0	0	0	0	2.845913916976826	0	0	0	0
0.199505432243052	153.9102469625064	696.5839104438186	80.07960000897718	1.923261260708309	0	-0.09822013745985142	-0	-0	-0	0	0	0	0	3.156247253104993	0	0	0	0
0.2059410913476666	160.806711094916	678.2935958424913	88.83558037045881	1.923656054863893	0	-0.09827070936030848	-0	-0	-0	0	0	0	0	3.33377919394556	0	0	0	0
0.2123767504522812	174.6670801484315	664.218191131473	79.47216445039554	1.924146511010006	0	-0.09860353091368661	-0	-0	-0	0	0	0	0	3.584949043073095	0	0	0	0
0.2188124095568958	172.302278349228	638.2864909268779	88.57312866573595	1.924440310017342	0	-0.09867158733891918	-0	-0	-0	0	0	0	0	3.729895613325283	0	0	0	0
0.2252480686615103	177.2820475920736	611.7572609408057	80.1649642614185	1.924893862860744	0	-0.09903408321404651	-0	-0	-0	0	0	0	0	3.9270237140137	0	0	0	0
0.2316837277661249	173.2873183253058	564.4458615492609	83.74361599818383	1.925334606336455	0	-0.09921197647772304	-0	-0	-0	0	0	0	0	3.9693960699596	0	0	0	0
0.2381193868707395	173.1808988402638	505.9828791687358	71.1198661157454	1.926063326687738	0	-0.09976614744339807	-0	-0	-0	0	0	0	0	3.986118083837169	0	0	0	0
0.2445550459753541	155.8332470994114	419.2168638175417	68.86074245758724	1.927009699173156	0	-0.1003814902924175	-0	-0	-0	0	0	0	0	3.784598884152388	0	0	0	0
0.2509907050799686	126.3866364299415	322.3985977047437	49.8747214744348	1.928623467475143	0	-0.1020519963290476	-0	-0	-0	0	0	0	0	3.530125501553641	0	0	0	0
0.2574263641845833	74.05584201386829	219.9104768914751	36.36367387982657	1.931564876267652	0	-0.1053556804817475	-0	-0	-0	0	0	0	0	3.15307327311875	0	0	0	0
0.2638620232891978	18.48050385066153	110.4090869212222	21.15930989764064	1.940297137353019	0	-0.1143977608388572	-0	-0	-0	0	0	0	0	2.359742896885095	0	0	0	0
0.2702976823938124	-15.30768824760709	18.87562348877529	8.011504018802531	1.969386510019208	0	-0.145064089155101	-0	-0	-0	0	0	0	0	-4.888841646710773e-05	0	0	0	0
0.276733341498427	0.1671718246891755	-0.1757474300592966	-0.07896285268112525	1.973005706497943	0	-0.1462374805185116	-6.462370708233104e-09	1.453099887688925e-09	-3.195952215575631e-10	2.500347074932578	0	0.03514407987774287	0	-7.022160630754115e-15	0	0	-1.788851580799946e-14	0
0.2831690006030416	0.005037425419798388	-0.004256693896591212	-0.001204497571055286	1.979619764614336	0	-0.1475459753937683	-1.266969770053347e-05	2.87487839052738e-06	-1.055684515135971e-06	2.509863500479121	0	0.03979674187819799	0	-4.336808689942018e-19	0	0	-6.614441067483373e-14	0
0.2896046597076561	0.06435714197168782	-0.04605661985039444	-0.003889616279016896	1.989176735293962	0	-0.1478719474155456	-0.01554510384611473	0.003584670785808103	-0.001982144035462453	2.520467199206657	0	0.04426955919342855	0	-9.107298248878237e-17	0	0	-3.281316190983929e-14	0
0.2960403188122707	-0.2999755863189801	0.1848091403592256	-0.007295301027134003	2.001542812919583	0	-0.1473637760292811	-8.397721230217341	1.994628067585432	-1.537677557577665	2.532527817049153	0	0.04820697248970156	0	-9.041396104025878e-13	0	0	-1.998401444325282e-14	0
0.3024759779168853	-0.4504570558747336	0.245302996634853	-0.02654754702454694	2.016683318503153	0	-0.1463651131838467	-499.123729882566	134.4208610032296	-101.3277565507318	2.54688578925231	0	0.05044620940799591	0	-1.200541096396668e-08	0	0	-5.684341886080801e-14	0
0.3089116370214999	-0.572299713148831	0.2842236921948511	-0.04924209316075574	2.034452118798109	0	-0.1452799098459131	-2156.167876691281	1401.781840254627	-82.63648574496582	2.562472356960055	0	0.05457579559089241	0	-4.337748118028728e-05	0	0	-3.183231456205249e-12	0
0.3153472961261145	-0.8822850952816281	0.4195383699451443	-0.08488561235661458	2.040710788275046	0	-0.1349276242778032	293.4922037179911	2243.040033073456	-53.57744011741316	2.575423609679241	0	0.05544992623001768	0	0.001329865176503214	0	0	-1.247957470695837e-08	0
0.321782955230729	-1.063767846542979	0.4837195013964321	-0.1242423101910206	2.060312781019817	0	-0.1335600808221502	-1165.072098458584	1967.837541473066	-279.2822784425658	2.568311266799829	0	0.05465241262595669	0	0.001426416680616549	0	0	-6.146477744550793e-07	0
0.3282186143353436	-1.231632645480968	0.5358536873133803	-0.1441146507864977	2.081413239556974	0	-0.1326511068893791	355.0511190544692	1637.957867352754	-161.9040968786907	2.57762152753672	0	0.0554518046567733	0	0.001195936173832512	0	0	-1.430877705388411e-05	0
0.3346542734399582	-1.262809302848303	0.5298537446392363	-0.1224473063002077	2.103125237890615	0	-0.1318429810411774	-941.5283939294496	1527.301444038359	-268.6438489389254	2.567986081103647	0	0.05491171300677179	0	0.000783774078095989	0	0	-5.704472039269604e-05	0
0.3410899325445728	-1.054415481647117	0.4312444051637108	-0.06353569118916445	2.125684962868923	0	-0.1315383835766653	298.3457971411972	1362.248750254039	-146.3262151175607	2.578578923431017	0	0.0561140130376538	0	0.0003407730906443418	0	0	-0.0003665653912889866	0
0.3475255916491874	-0.6792139187220304	0.2751869372261863	-0.006987792069750553	2.14955870513942	0	-0.1324369269994955	-697.0415393138886	1359.514879399456	-214.4020565575846	2.569499265565482	0	0.05581659058580606	0	3.239297633338134e-05	0	0	-0.0007507586179826831	0
0.353961250753802	-0.3307752440066189	0.1348466053111865	0.0176848120947808	2.174729238753941	0	-0.1350360401060158	252.284202511535	1216.329297322461	-116.5755221489136	2.579012817750407	0	0.05689183221796119	0	-3.037610148727554e-05	0	0	-0.002772663297719191	0
0.3603969098584165	-0.1135105846499212	0.04708929067214466	0.01387049167345466	2.199815957220928	0	-0.1387522252714144	-479.8800160781129	1231.557133031833	-171.8301892544056	2.571525525659745	0	0.05656552655786959	0	6.569553987166576e-07	0	0	-0.005102935736886138	0
0.3668325689630311	-0.02009307162266442	0.008472858760429093	0.003621302321610534	2.223105016607351	0	-0.1422786556210403	217.0324742677572	1084.946909908173	-86.82159512808528	2.579564169278724	0	0.05750651185622653	0	1.250975382310893e-10	0	0	-0.01881851941061541	0
0.3732682280676456	0.0001468887382016182	-6.253806987602558e-05	-3.161299556459045e-05	2.247046565532437	0	-0.1464149609976464	-293.5124869249195	1095.528285382446	-131.79933279178	2.573969033584028	0	0.05713697785956583	0	1.441189290303513e-14	0	0	-0.05868552067261135	0
0.3797038871722602	1.72584056062022e-08	-7.320046131692789e-09	-3.794542403769507e-09	2.27201896574388	0	-0.15052981275184	198.7582648532313	950.4171893563905	-57.25336296195122	2.58110817851733	0	0.05813131789330307	0	3.811730980705607e-18	0	0	-0.4435330658900511	0
0.3861395462768748	8.658033522250473e-13	-3.626047661007077e-13	-1.748783048134336e-13	2.298226043488953	0	-0.154201853642301	-159.1012736273648	960.198213811267	-110.4432809152095	2.580475826797658	0	0.05893352455703588	0	1.586675646773546e-21	0	0	-1.606736584674195	0
0.3925752053814894	5.920402411292265e-17	-2.437911128634928e-17	-1.031852157035656e-17	0	0	0	127.1771359085963	876.6232020475314	-70.33270712773127	2.604960162308157	0	0.0677089743620372	0	1.468849708343464e-17	0	0	-0.8883843744714	0
0.399010864486104	8.983953623728005e-21	-3.635603828373557e-21	-1.267101552376863e-21	0	0	0	-193.5014756355408	1000.999235418357	-112.7983564586302	2.641208286875569	0	0.07972735531624649	0	1.550797493189783e-21	0	0	-7.095864342687833	0
0.4054465235907186	-0	-0	-0	0	0	0	55.96961613455234	787.8336628278969	-13.07913268881667	2.679968005486054	0	0.09136764112253402	0	0	0	0	-3.864560294064006	0
0.4118821826953332	-0	-0	-0	0	0	0	-119.9700017017233	699.425232469379	-44.09637819796622	2.704138167483762	0	0.09826488051896934	0	0	0	0	-0.6278785370885487	0
0.4183178417999477	-0	-0	-0	0	0	0	33.88886004832052	649.6839120549953	-5.819031581527598	2.726907045118096	0	0.1046708815064644	0	0	0	0	-0.1026756572625249	0
0.4247535009045623	-0	-0	-0	0	0	0	-45.57579234179391	652.7008972121433	-33.41553683755655	2.72604396837162	0	0.1035330978042757	0	0	0	0	-0.04021133898233131	0
0.4311891600091769	-0	-0	-0	0	0	0	50.35698125837549	666.411703104686	-15.81849487793692	2.72759236104103	0	0.1035241565905131	0	0	0	0	0.02115159911843278	0
0.4376248191137915	-0	-0	-0	0	0	0	4.108544106928409	652.3756415264264	-35.58778729329637	2.727835515993805	0	0.1039688775514115	0	0	0	0	0.6422529568806681	0
0.4440604782184061	-0	-0	-0	0	0	0	63.1997305655227	681.413994705107	-33.10379906343556	2.729768714870077	0	0.1055734476408192	0	0	0	0	1.479157750281701	0
0.4504961373230206	-0	-0	-0	0	0	0	32.01797662635653	664.4641590398211	-60.55780329155635	2.730610891330584	0	0.1056178636196549	0	0	0	0	-0.4370829534703091	0
0.4569317964276352	-0	-0	-0	0	0	0	80.87815581447067	686.6581220521061	-62.22441698316313	2.732361985484321	0	0.1064858821190197	0	0	0	0	-1.473190879293753	0
0.4633674555322498	-0	-0	-0	0	0	0	60.08543884199879	679.7991151819972	-74.05530001660078	2.733214175877926	0	0.1071106002676811	0	0	0	0	-2.34791023715394	0
0.4698031146368644	-0	-0	-0	0	0	0	97.38886743139373	700.0826302303265	-75.58385561630341	2.734587808768158	0	0.1077632483807699	0	0	0	0	-3.314176754271045	0
0.4762387737414789	-0	-0	-0	0	0	0	82.02158691530182	694.5870695431013	-82.9308698872249	2.735261078584123	0	0.1082570122941035	0	0	0	0	-3.993937775945284	0
0.4826744328460936	-0	-0	-0	0	0	0	112.6377798156693	712.0435740119851	-85.10240674218326	2.736341635557355	0	0.1087669438555024	0	0	0	0	-4.855654691702398	0
0.4891100919507081	-0	-0	-0	0	0	0	104.0587512179266	704.1877759771328	-89.19205629398391	2.736923535876341	0	0.109218738975548	0	0	0	0	-5.412604549915613	0
0.4955457510553227	-0	-0	-0	0	0	0	134.7776305660023	710.9144640470956	-90.38634845874613	2.737875068998121	0	0.1096824101389949	0	0	0	0	-6.150801058947707	0
0.5019814101599372	-0	-0	-0	0	0	0	130.8725343194326	694.092504647885	-92.00902880043266	2.738418605609831	0	0.1101269726719137	0	0	0	0	-6.555714361710557	0
0.5084170692645519	-0	-0	-0	0	0	0	156.5352110882897	690.0495717812067	-93.57013764415349	2.739234298193212	0	0.1105419193284391	0	0	0	0	-7.125179014102855	0
0.5148527283691665	-0	-0	-0	0	0	0	146.1510609217167	672.4340553892634	-96.38035225303085	2.7396169903023	0	0.1109246780130446	0	0	0	0	-7.419316802465403	0
0.521288387473781	-0	-0	-0	0	0	0	164.4170728008837	662.6498088545237	-97.7683587291145	2.740271238225866	0	0.1112616075584487	0	0	0	0	-7.808659211844144	0
0.5277240465783956	-0	-0	-0	0	0	0	156.5534660369204	631.7323286080486	-96.02913159812556	2.740621634957801	0	0.1116006680772192	0	0	0	0	-7.818198690413737	0
0.5341597056830102	-0	-0	-0	0	0	0	173.3372298937684	598.7662114993068	-92.82262368586916	2.741264307191416	0	0.1119096596546413	0	0	0	0	-7.8036300026601	0
0.5405953647876247	-0	-0	-0	0	0	0	164.9245049633095	544.8121962388265	-86.14810543236476	2.741659859723836	0	0.1122685903697599	0	0	0	0	-7.414595378168286	0
0.5470310238922393	-0	-0	-0	0	0	0	165.6637941319146	478.3280084581806	-71.25217676233844	2.742455089885387	0	0.1129248101485329	0	0	0	0	-6.834000735063569	0
0.553466682996854	-0	-0	-0	0	0	0	128.0348557477853	379.929683742296	-46.18751980501355	2.743408929393161	0	0.1143811462909206	0	0	0	0	-5.66974456835122	0
0.5599023421014685	-0	-0	-0	0	0	0	88.26704853516353	250.7930722948225	-32.66728264936716	2.745592835517322	0	0.1166243749004623	0	0	0	0	-3.998933245728736	0
0.5663380012060831	-0	-0	-0	0	0	0	18.11322495898877	79.07775289321657	-21.31586617705548	2.754650072828048	0	0.1257350860845414	0	0	0	0	-1.551445926489393	0
0.5727736603106977	-0	-0	-0	0	0	0	-0.9204189263493597	4.095643039388641	-3.595716989078886	2.781559306196219	0	0.1545355645493099	0	0	0	0	1.262164067483695e-06	0
0.5792093194153123	-0	-0	-0	0	0	0	0.0001500066271564945	-0.0004440706661507133	0.0004157020009900383	2.783013572989569	0	0.1571528127879977	0	0	0	0	1.428978463335895e-16	0
0.5856449785199268	-0	-0	-0	0	0	0	3.295334936806525e-06	-4.495739141907933e-06	3.430967291379186e-06	2.786711802035887	0	0.1602325711943567	0	0	0	0	0	0
0.5920806376245414	-0	-0	-0	0	0	0	1.898716269826016e-05	-1.732077775065799e-05	7.286139317145547e-06	2.793557755136409	0	0.1619776395164942	0	0	0	0	0	0
0.598516296729156	-4.498857823057198e-09	1.00510758315874e-09	3.053369421102179e-10	3.352357876703511	0	-0.04152140874464036	0.00145313174939338	-0.00106830154778205	0.0001506297117406034	2.803308327874345	0	0.1621569899226186	0	0	0	0	-4.228388472693467e-18	0
0.6049519558337706	-1.011210172194192e-05	2.286994690357405e-06	9.463244557530303e-07	3.36124015975174	0	-0.04566937751201679	-0.04375484193831482	0.02745980582732244	0.0005718489844267153	2.815839469130764	0	0.1614677381607946	0	0	0	0	3.897448119447033e-12	0
0.6113876149383851	-0.0118908745858232	0.002743003847085545	0.001533538127923963	3.371796509548189	0	-0.04971998667204724	-0.1139148921863828	0.06304353615445078	0.006921003415160118	2.830936057471142	0	0.1603524088426898	0	1.129651927556097e-14	0	0	7.692613929882741e-07	0
0.6178232740429997	-5.471929934172475	1.303579079407491	0.9611070654736532	3.3844352656667	0	-0.05346082507588577	-0.1557981753184204	0.07857634822151664	0.01059790154170036	2.838984714445994	0	0.1514129439645596	0	4.440892098500626e-16	0	0	-0.0001526894174288911	0
0.6242589331476143	-354.611365217897	91.55309684051697	69.75873394822916	3.400585392769209	0	-0.05594178941551952	-0.1850135915125016	0.08661952924245944	0.01271760529921762	2.855435184522036	0	0.1487236009490123	0	2.842170943040401e-14	0	0	-0.0002517113834159812	0
0.6306945922522289	-2108.630064038593	1123.46074246544	113.2155685534735	3.416182572859643	0	-0.05954338168846087	-0.2506214909465889	0.1108912786981111	0.0178161605389343	2.875275663257715	0	0.1480253717621547	0	5.684341886080801e-14	0	0	-0.0003946601267360642	0
0.6371302513568434	-52.97520408794981	2303.315237856609	-3.973943470928232	3.429835336922131	0	-0.06080478623458413	-0.3958969977973799	0.1695421468566436	0.03501319653811172	2.896144051883759	0	0.1474148929512571	0	2.249151975775021e-10	0	0	-0.0006319962611221475	0
0.6435659104614581	-788.2992116961128	2181.899048302942	371.3096690395892	3.426301498290167	0	-0.0594313726679923	-0.6509028758233439	0.2727248452803818	0.066861415243228	2.917501483351771	0	0.1466122038350735	0	2.689898792596068e-08	0	0	-0.0008785818172713789	0
