DataType=double
version=3
OpenSimVersion=4.6-2026-06-22-85aaf64
endheader
time	ground_force_r_vx	ground_force_r_vy	ground_force_r_vz	ground_force_r_px	ground_force_r_py	ground_force_r_pz	ground_force_l_vx	ground_force_l_vy	ground_force_l_vz	ground_force_l_px	ground_force_l_py	ground_force_l_pz	ground_torque_r_x	ground_torque_r_y	ground_torque_r_z	ground_torque_l_x	ground_torque_l_y	ground_torque_l_z
0	-556.6555405094289	2197.675204028744	475.0993766603208	1.681049684681484	0	-0.08076408902409209	-0.764535489003954	0.2731438463999707	0.08359639736525672	1.153141203180695	0	0.1571152277583248	0	9.831637726165354e-09	0	0	-0.000219806678927667	0
0.006026141815187637	-4.974263675133971	1786.500446867378	127.5990518855704	1.684218909867736	0	-0.08255882781504177	-1.099841793678812	0.3881791006497834	0.1108235229625999	1.176917258198531	0	0.1553370900410936	0	1.768279673797224e-07	0	0	-0.0002001218472693911	0
0.01205228363037527	-464.4822037370817	1579.601303925112	469.4972808281379	1.681171549433648	0	-0.08020498341133417	-1.243968013420897	0.436436537408754	0.1062541458404792	1.201316300433177	0	0.1537954995818461	0	1.028021642923704e-06	0	0	-0.0001186237827034142	0
0.01807842544556291	10.56743249202068	1430.478867230026	132.9884852793718	1.685204872715979	0	-0.08304278745249395	-1.027586751213292	0.3590627657707435	0.06163449306290195	1.226497643614783	0	0.152698463767801	0	4.44413879563399e-06	0	0	-4.008086568633995e-05	0
0.02410456726075055	-351.288234681107	1382.120821513387	384.5401511093835	1.682143760503875	0	-0.08101203285711792	-0.5660568123992319	0.1981890891033635	0.01186298079739956	1.25247883774142	0	0.1524392321695624	0	1.123380445733346e-05	0	0	-4.323684081767448e-06	0
0.03013070907593818	32.87368004840105	1271.206968268122	110.8522586921831	1.685963271845763	0	-0.08377973708960637	-0.1828133827149436	0.06437931041709954	-0.006150611932969555	1.279170602805785	0	0.1534058456477466	0	2.674297792282232e-05	0	0	8.928405497571346e-10	0
0.03615685089112582	-240.4146593860756	1241.430260497707	308.583473362268	1.683274044225324	0	-0.08197688750503225	-0.01473072901769087	0.005229257445065227	-0.0012223172618539	1.306460573380263	0	0.155416039316307	0	4.675994296121644e-05	0	0	-8.06746162929084e-14	0
0.04218299270631346	57.05307579219712	1146.056897336053	96.52333962417751	1.686628685648352	0	-0.08440718934416722	3.73874666255262e-05	-1.332530677366598e-05	4.289546479975521e-06	1.33450954969332	0	0.1581014999157495	0	8.915351619975809e-05	0	0	-7.275165983967186e-18	0
0.04820913452150109	-142.2003054005701	1130.866035143696	252.4674093191938	1.684499897819151	0	-0.08285045043839447	6.266967777995929e-09	-2.231958102436937e-09	7.991060622781518e-10	1.363431919927209	0	0.1610040574959932	0	0.0001540232422030385	0	0	-1.289367779817032e-21	0
0.05423527633668873	83.40421063223346	1049.580354530285	88.54447487667802	1.687387665331012	0	-0.08489390060993958	6.241405484646614e-13	-2.208443968668519e-13	7.882509691740604e-14	1.393409307089833	0	0.1637839250007738	0	0.0003248658802590398	0	0	-5.295970355546949e-25	0
0.06026141815187637	-56.90427618613789	1034.01931162087	207.308055533528	1.685892984288629	0	-0.08359506203925746	9.684727573820265e-17	-3.396061357192813e-17	1.121760454402489e-17	0	0	0	0	0.0007961532735976107	0	0	1.197509403689033e-19	0
0.06628755996706401	118.4793153165234	952.5855737775364	73.42015424584098	1.688556191781328	0	-0.0853550058988015	3.437939186469856e-20	-1.192120899677104e-20	3.538723564461399e-21	0	0	0	0	0.002960271037309781	0	0	6.324210868056038e-22	0
0.07231370178225163	22.43413884571983	926.6555844217924	161.1426711564395	1.687794090042974	0	-0.08427879388926023	-0	-0	-0	0	0	0	0	0.01909523214732189	0	0	0	0
0.07833984359743928	145.3758119868888	845.0865100728275	67.83731004885603	1.690644896340746	0	-0.08563739001177613	-0	-0	-0	0	0	0	0	0.1740337391077276	0	0	0	0
0.08436598541262692	56.85355388526784	801.2847261686906	142.0644442462385	1.694627380786159	0	-0.0862578707056455	-0	-0	-0	0	0	0	0	-1.440917723358865	0	0	0	0
0.09039212722781456	92.42314508700861	768.1324212346136	79.91666622308418	1.725068305219145	0	-0.09542592305174907	-0	-0	-0	0	0	0	0	-1.12018586844556	0	0	0	0
0.09641826904300219	-51.63400979290643	929.5211970177672	98.41169266688875	1.779669445807553	0	-0.1066221700119775	-0	-0	-0	0	0	0	0	11.29505781347927	0	0	0	0
0.1024444108581898	29.80970272435863	770.1394805469852	30.8247412341761	1.82476100627846	0	-0.1150980179637601	-0	-0	-0	0	0	0	0	3.152523427615478	0	0	0	0
0.1084705526733775	-26.71685214330477	746.1637545507741	44.58523775789443	1.843117784458623	0	-0.1172124076950891	-0	-0	-0	0	0	0	0	2.47789071948155	0	0	0	0
0.1144966944885651	61.46633661549139	764.5139750321553	45.14441840480257	1.844509719747916	0	-0.1161949754908869	-0	-0	-0	0	0	0	0	2.738640505278752	0	0	0	0
0.1205228363037527	42.90382803111414	755.4040820055263	57.68032946570139	1.845190000043332	0	-0.1155428244805009	-0	-0	-0	0	0	0	0	2.883937993836881	0	0	0	0
0.1265489781189404	86.60519889150679	739.8463624873189	63.34136047804306	1.846423209262754	0	-0.1152244474970226	-0	-0	-0	0	0	0	0	2.904256925779421	0	0	0	0
0.132575119934128	77.5418609128694	724.302445503688	71.03107207155141	1.847040380068721	0	-0.1149448095343776	-0	-0	-0	0	0	0	0	2.977764961985258	0	0	0	0
0.1386012617493156	104.5922390318092	715.4279948216113	76.33136975118528	1.847987216232554	0	-0.1147743280408371	-0	-0	-0	0	0	0	0	3.062554626234174	0	0	0	0
0.1446274035645033	102.6009905854195	704.1645966902843	80.16096299841033	1.848527314546553	0	-0.1145995012112135	-0	-0	-0	0	0	0	0	3.155463494810363	0	0	0	0
0.1506535453796909	122.5705497537475	699.7643342150366	84.07717970541897	1.849247899974241	0	-0.1144808094196908	-0	-0	-0	0	0	0	0	3.279352658549641	0	0	0	0
0.1566796871948786	124.0836597606849	690.8102174252917	85.66299660003774	1.849682498608429	0	-0.1144017215595398	-0	-0	-0	0	0	0	0	3.381773039080144	0	0	0	0
0.1627058290100662	140.3459467248689	687.077926840115	88.54796339079128	1.85023376539655	0	-0.1143742063912364	-0	-0	-0	0	0	0	0	3.523313573862964	0	0	0	0
0.1687319708252538	143.2316416402925	677.5702075220526	88.91776158655021	1.850584069498925	0	-0.1143988504214593	-0	-0	-0	0	0	0	0	3.627254119504528	0	0	0	0
0.1747581126404415	157.8574498006289	670.1843298408411	90.53890605544653	1.851048925467895	0	-0.1144366426297762	-0	-0	-0	0	0	0	0	3.763063693172114	0	0	0	0
0.1807842544556291	163.1638036512802	653.6385469876711	88.76721372611503	1.851403433374844	0	-0.1145070334765267	-0	-0	-0	0	0	0	0	3.838110127707182	0	0	0	0
0.1868103962708167	177.9853632480278	633.1108825233766	87.56489328823417	1.851883306322393	0	-0.1145736445555685	-0	-0	-0	0	0	0	0	3.900095968052995	0	0	0	0
0.1928365380860044	182.6968048585173	600.0112840066838	83.15205633009344	1.852275325557934	0	-0.1147015681714678	-0	-0	-0	0	0	0	0	3.869395186348356	0	0	0	0
0.198862679901192	191.9262254352786	558.950620320844	79.03875224535315	1.852786648878209	0	-0.1148551623081509	-0	-0	-0	0	0	0	0	3.800203428320259	0	0	0	0
0.2048888217163796	189.1956889945616	505.0536421945153	71.82530189690624	1.853245320748667	0	-0.1151102612177696	-0	-0	-0	0	0	0	0	3.649852535178383	0	0	0	0
0.2109149635315673	185.36717512144	442.3452066002189	65.32671024523381	1.853901387190733	0	-0.1154728757988326	-0	-0	-0	0	0	0	0	3.491013432179699	0	0	0	0
0.2169411053467549	163.2574982586467	364.8847541784686	57.55458846116115	1.854739632835437	0	-0.1161812026545746	-0	-0	-0	0	0	0	0	3.27608684943803	0	0	0	0
0.2229672471619426	127.6804605895881	276.9586299114048	44.19935352167973	1.856299921364393	0	-0.1178229014229194	-0	-0	-0	0	0	0	0	3.027450545312036	0	0	0	0
0.2289933889771302	72.83027345242203	188.3614085059256	24.02559227720687	1.859488905640531	0	-0.1218038603955759	-0	-0	-0	0	0	0	0	2.718174690368691	0	0	0	0
0.2350195307923178	12.68809200896063	86.39782996254411	14.52960330088728	1.870356609765115	0	-0.1333526588361323	-0	-0	-0	0	0	0	0	1.835924331343012	0	0	0	0
0.2410456726075055	-13.67598015409622	16.42036960335448	6.494529952798167	1.895869236169649	0	-0.1607165026888951	-0	-0	-0	0	0	0	0	-3.171442072513742e-06	0	0	0	0
0.2470718144226931	0.04516305868614531	-0.04641601751715619	-0.02034560204906367	1.899554336272129	0	-0.1618069901754258	-0	-0	-0	0	0	0	0	-6.938893903907228e-18	0	0	0	0
0.2530979562378807	0.0001608156095951085	-0.0001353921126399091	-4.246568694238928e-05	1.906215226320669	0	-0.1631057640788869	-0	-0	-0	0	0	0	0	0	0	0	0	0
0.2591240980530684	0.001505113548211056	-0.001079125052530823	-0.0001566761438250003	1.915721336625082	0	-0.1636315533438096	-9.116128668893383e-09	1.925421744404727e-09	-4.385671944277414e-10	2.498426745531391	0	0.06231400668455653	0	-5.421010862427522e-20	0	0	-2.067951531382569e-25	0
0.265150239868256	0.01483544736523019	-0.009092041938386065	-0.0001124169426841756	1.928113133045321	0	-0.1633196569037739	-1.521308603093027e-05	3.253292019462387e-06	-1.197908659580525e-06	2.506781018069278	0	0.06696115682554048	0	1.355252715606881e-19	0	0	-1.822220835933698e-14	0
0.2711763816834437	-0.07814069330560412	0.04139808694960969	-0.003773087039387366	1.943638262155951	0	-0.1622778262558702	-0.0151138354562389	0.003296549838114517	-0.001786226473312551	2.516386728454867	0	0.0712523977526003	0	-5.399413555151611e-14	0	0	-8.077739865886002e-15	0
0.2772025234986313	-0.2556631686621462	0.120149073438998	-0.02019452558746708	1.96184775750795	0	-0.1606977656103801	-6.629215722963713	1.492224642760847	-1.117388999153248	2.52775678617174	0	0.07500341422559868	0	-1.361808500688344e-08	0	0	-4.440892098500626e-16	0
0.2832286653138189	-0.3374121982117781	0.1447426992596447	-0.03011141014149283	1.980673703229612	0	-0.1577434104373649	-425.8489831474279	104.4473768794059	-83.22879329926201	2.542262338911806	0	0.07725441191997731	0	6.355838619050841e-05	0	0	2.842170943040401e-14	0
0.2892548071290065	-0.4612954290865149	0.184541958146098	-0.04406758880298694	2.000762102411733	0	-0.1546622216868296	-2336.939550751342	1215.654873419793	-184.7396260961922	2.557498875219288	0	0.08085738613592439	0	0.0002153581093072288	0	0	-2.273736754432321e-13	0
0.2952809489441942	-0.6905940172726227	0.2629931228702423	-0.0796818076951446	2.023456965686057	0	-0.1527488212994964	24.87127782694981	2266.352793350935	-42.5211022020633	2.571522318767012	0	0.08235231392872393	0	0.00029552131227778	0	0	-4.359606009529671e-10	0
0.3013070907593818	-1.064540843677217	0.3911956225297249	-0.1404699790341843	2.046662222217901	0	-0.1505227898319497	-881.4643221847168	2081.979856970728	-435.4811134988914	2.567069561330444	0	0.08083026471376467	0	0.0003240980585297315	0	0	-3.47008608514443e-08	0
0.3073332325745695	-1.456785695667111	0.5214978447517657	-0.1945414188298057	2.070326966226408	0	-0.1481665071847704	186.4688828913583	1723.84636183443	-163.5898569162644	2.573229041485035	0	0.08233909238100254	0	0.0002694505429447491	0	0	-7.167050171119627e-07	0
0.3133593743897571	-1.458697784956954	0.5139999449683224	-0.1690967428517605	2.094789793044956	0	-0.1460920287363182	-716.3202291350864	1576.792589640451	-426.3342386728652	2.566971353439726	0	0.0806220099177007	0	0.0001399058468418701	0	0	-3.716177843671176e-06	0
0.3193855162049448	-0.9017938233507361	0.3151207409831308	-0.06948890473370264	2.120409725522227	0	-0.1447495001244162	162.893844522179	1423.649560295367	-158.0023983420165	2.574243499446718	0	0.08291224296884424	0	3.263885786186638e-05	0	0	-2.01886732611456e-05	0
0.3254116580201324	-0.2900132022128639	0.1018168136034221	-0.004872986126428436	2.147118578563629	0	-0.1447706454986837	-529.2939627442142	1396.206579644093	-348.1141995781275	2.568252119929987	0	0.08150032991440809	0	-1.461916860189677e-07	0	0	-5.022679090416204e-05	0
0.3314377998353201	-0.01810790156293391	0.006449778562442728	0.001130482567953108	2.174125448955314	0	-0.1464983939905093	147.9604875594894	1263.949721412903	-130.0861338561056	2.574840198056314	0	0.08369852436862635	0	1.235439701929852e-13	0	0	-0.0001547159644132989	0
0.3374639416505077	2.179591355263267e-05	-7.897365514122154e-06	-2.914854169544208e-06	2.201673588563324	0	-0.1498492094475945	-358.2858745362927	1258.16909264668	-283.6721814479559	2.569804427993994	0	0.08242653568760885	0	1.467061064644448e-18	0	0	-0.000300145703704402	0
0.3434900834656953	3.640195329636953e-09	-1.330864139016581e-09	-6.451600197742171e-10	2.229891831250493	0	-0.1540695639076351	142.4945871812533	1142.076936434347	-112.4039309058491	2.57536879871122	0	0.08436459498225492	0	7.692779696743157e-23	0	0	-0.0007786545279486745	0
0.3495162252808829	2.313232426353595e-13	-8.46006475288017e-14	-4.452328173227513e-14	2.259028456183469	0	-0.1584659625565843	-214.6476952123194	1140.584785690595	-235.5115201475445	2.571521069190751	0	0.08321042010523748	0	-1.262177448353619e-29	0	0	-0.0016785079545798	0
0.3555423670960706	9.700641361708293e-18	-3.517336854217787e-18	-1.800298008801092e-18	0	0	0	150.3685667105752	1022.278271284583	-88.56241541476494	2.576213902469891	0	0.08497322491723158	0	2.545300076435633e-18	0	0	-0.005605618825853753	0
0.3615685089112582	-0	-0	-0	0	0	0	-84.6827194841933	1008.649286563868	-178.7737958403997	2.573674533080876	0	0.08400353767752908	0	0	0	0	-0.02697496950975165	0
0.3675946507264458	-0	-0	-0	0	0	0	167.7109436163474	891.9857384530666	-67.4999047165601	2.578051915847471	0	0.08554775999811538	0	0	0	0	-0.2648826096364871	0
0.3736207925416335	-0	-0	-0	0	0	0	-6.512236096982505	865.6450438190731	-145.7804499534066	2.580012228059143	0	0.08584094423514096	0	0	0	0	-1.482378048590988	0
0.3796469343568211	-0	-0	-0	0	0	0	110.2598344393639	815.0981794071621	-81.702959287182	2.608571654327816	0	0.09563762284125626	0	0	0	0	-0.5233106312938105	0
0.3856730761720087	-0	-0	-0	0	0	0	-112.5993252736288	1003.711117739082	-125.7261106770018	2.661717408411564	0	0.1088654021618752	0	0	0	0	-11.99989807077446	0
0.3916992179871964	-0	-0	-0	0	0	0	29.35789809336192	805.3541055471974	-26.79249408400517	2.708353594478472	0	0.11938976998621	0	0	0	0	-3.597691339332002	0
0.397725359802384	-0	-0	-0	0	0	0	-70.95606459758513	761.266460477137	-58.02019120668272	2.728783393333542	0	0.1226459988338127	0	0	0	0	-2.261652049859492	0
0.4037515016175717	-0	-0	-0	0	0	0	57.14454858155583	781.1037701367724	-40.76028631493897	2.730358241386464	0	0.1217789838176015	0	0	0	0	-2.642023169567295	0
0.4097776434327593	-0	-0	-0	0	0	0	18.06100590487391	763.9970940650102	-66.18746112790562	2.730916113050156	0	0.1210451979609534	0	0	0	0	-2.772152967160793	0
0.4158037852479469	-0	-0	-0	0	0	0	83.91756471526261	749.7097545171937	-59.96411517707876	2.732411780240388	0	0.120966149484716	0	0	0	0	-2.859981816185496	0
0.4218299270631345	-0	-0	-0	0	0	0	61.91448982590884	728.2016720721281	-77.44525059170807	2.732945075510337	0	0.1206264723111309	0	0	0	0	-2.936091642484854	0
0.4278560688783222	-0	-0	-0	0	0	0	101.2614978230536	725.0306307504495	-74.31746490485951	2.734090091522543	0	0.1206581772222129	0	0	0	0	-3.150821186633522	0
0.4338822106935099	-0	-0	-0	0	0	0	90.43258918856866	710.6891317755262	-85.82594302043388	2.734616563051355	0	0.1204341318386215	0	0	0	0	-3.310345847417523	0
0.4399083525086975	-0	-0	-0	0	0	0	118.3691696751251	713.066801460598	-83.29623339274183	2.735537017447119	0	0.1204885091315858	0	0	0	0	-3.627457248049922	0
0.4459344943238851	-0	-0	-0	0	0	0	113.5530038603796	701.7280592365391	-91.2771592308051	2.736029588915099	0	0.1203907970333378	0	0	0	0	-3.845122753231038	0
0.4519606361390728	-0	-0	-0	0	0	0	135.7389392859032	703.9519080856951	-89.38567026416548	2.73679697869908	0	0.1205409131970657	0	0	0	0	-4.213698454559591	0
0.4579867779542604	-0	-0	-0	0	0	0	133.394634253793	692.633291662243	-95.91272844004706	2.737240301183058	0	0.120606710560621	0	0	0	0	-4.449562502715764	0
0.464012919769448	-0	-0	-0	0	0	0	152.4220540447383	690.1183461734133	-94.27792147687815	2.737906818648268	0	0.1208535946790888	0	0	0	0	-4.797718568143324	0
0.4700390615846357	-0	-0	-0	0	0	0	153.3481056190398	671.684163960339	-97.71645472184207	2.738340043277574	0	0.1209944709050669	0	0	0	0	-4.959334791108233	0
0.4760652033998233	-0	-0	-0	0	0	0	172.857087045366	655.9396979829664	-93.46892227220174	2.738975005008745	0	0.1212380533036676	0	0	0	0	-5.166690888171331	0
0.482091345215011	-0	-0	-0	0	0	0	175.1212167314689	624.1474655122202	-93.43821293779584	2.739417529331489	0	0.1214128013945134	0	0	0	0	-5.188536675450223	0
0.4881174870301986	-0	-0	-0	0	0	0	189.2726999551678	590.5008491607988	-87.06880363701981	2.740054903846954	0	0.1217240324229395	0	0	0	0	-5.23564751352589	0
0.4941436288453862	-0	-0	-0	0	0	0	185.4151441873914	540.0062406017579	-83.62644121990583	2.740549169120198	0	0.1220316070754834	0	0	0	0	-5.102285659273463	0
0.5001697706605738	-0	-0	-0	0	0	0	188.725415221162	486.7092199838485	-75.18433011598577	2.741284055460005	0	0.1225205689229984	0	0	0	0	-4.995440905707056	0
0.5061959124757615	-0	-0	-0	0	0	0	172.438359886311	420.0591381467666	-70.21254187331733	2.74201537145545	0	0.1231510349853011	0	0	0	0	-4.762800805467492	0
0.5122220542909491	-0	-0	-0	0	0	0	148.25450376439	341.196262804399	-53.55163409844425	2.743341755428226	0	0.1245913668629454	0	0	0	0	-4.420373948683618	0
0.5182481961061367	-0	-0	-0	0	0	0	94.31137255421586	239.0383195791906	-31.20284845177001	2.745846883517555	0	0.1277944566351214	0	0	0	0	-3.666488639633442	0
0.5242743379213244	-0	-0	-0	0	0	0	34.40035629875163	116.1540515493998	-17.61972525411948	2.753156798657283	0	0.1356486794440951	0	0	0	0	-2.319820877800147	0
0.5303004797365121	-0	-0	-0	0	0	0	-9.901926171887864	15.94598752727003	-7.991340838529075	2.781223322465578	0	0.1666899762248449	0	0	0	0	6.496885145779174e-05	0
0.5363266215516996	-0	-0	-0	0	0	0	0.004144606222222697	-0.005891038969554326	0.004086803481972801	2.783632553916858	0	0.1680769154495683	0	0	0	0	1.821459649775647e-16	0
0.5423527633668873	-0	-0	-0	0	0	0	3.155133789987334e-06	-3.472457794327799e-06	2.097095916585687e-06	2.788179568421107	0	0.1702950418375612	0	0	0	0	8.470329472543003e-22	0
0.548378905182075	-0	-0	-0	0	0	0	2.563920927729171e-05	-2.2665182149774e-05	9.066333878561897e-06	2.795185757925157	0	0.1719034722488117	0	0	0	0	3.388131789017201e-21	0
0.5544050469972626	-0	-0	-0	0	0	0	0.0002842037270423705	-0.0002062286345589355	3.794785798637399e-05	2.804918340651983	0	0.1724107039349073	0	0	0	0	-1.355252715606881e-20	0
0.5604311888124501	-7.401415718258752e-09	1.549263810740407e-09	3.530089882791192e-10	3.415063779775803	0	-0.06345178710258129	0.00404465955360048	-0.002450504845007699	5.94806139843667e-07	2.817920876072611	0	0.1718104725651618	0	0	0	0	-9.537590986083422e-19	0
0.5664573306276378	-1.362311906539474e-05	2.887688139489758e-06	9.925912916252135e-07	3.423281098300836	0	-0.06756254141662664	-0.05625655498497899	0.02935782405231959	0.003700481006999372	2.8339874410325	0	0.1704237918741314	0	-4.235164736271502e-22	0	0	1.733238552681371e-12	0
0.5724834724428255	-0.01329840387290727	0.002874880760254836	0.001423687665991914	3.433214399144747	0	-0.07152401972847568	-0.1089665036031418	0.05065197649116096	0.01012179589995653	2.852554745972626	0	0.1686845363428812	0	0	0	0	7.954093679159169e-07	0
0.5785096142580131	-5.288870221889249	1.179066126126099	0.8086992134148002	3.445298838922463	0	-0.07515404500756184	-0.1410037633058322	0.05996586696857593	0.01412199900512917	2.870507170336072	0	0.1645272578522629	0	-4.440892098500626e-16	0	0	-4.490300150430254e-05	0
0.5845357560732007	-351.3302720076903	83.64976280236542	63.75672758492352	3.46111659903825	0	-0.0775323253149821	-0.1833797066242967	0.0726043500434712	0.01862805771315335	2.891903884559796	0	0.1624725882219886	0	2.842170943040401e-14	0	0	-7.495649585758518e-05	0
0.5905618978883884	-2246.584304127387	1035.819098422052	180.6681145723333	3.476544539014008	0	-0.08079149620285371	-0.2759594941628503	0.1035629284088667	0.02798138673557166	2.914585235122815	0	0.1608219880977583	0	0	0	0	-0.0001160484768498032	0
0.596588039703576	-259.988865946878	2284.798967039819	6.631000336937391	3.49079780331173	0	-0.08250232649119899	-0.4624360498776144	0.1682272245845167	0.04973579299765667	2.937663707769409	0	0.1590280671177481	0	7.417355618599686e-11	0	0	-0.0001751954434725256	0
0.6026141815187637	-556.6555405094326	2197.675204028751	475.0993766603327	3.488892229237776	0	-0.08076408902409241	-0.7645354890040132	0.2731438463999918	0.08359639736526371	2.960983747736986	0	0.1571152277583244	0	9.831865099840797e-09	0	0	-0.0002198066789277087	0
