DataType=double
version=3
OpenSimVersion=4.6-2026-06-22-85aaf64
endheader
time	ground_force_r_vx	ground_force_r_vy	ground_force_r_vz	ground_force_r_px	ground_force_r_py	ground_force_r_pz	ground_force_l_vx	ground_force_l_vy	ground_force_l_vz	ground_force_l_px	ground_force_l_py	ground_force_l_pz	ground_torque_r_x	ground_torque_r_y	ground_torque_r_z	ground_torque_l_x	ground_torque_l_y	ground_torque_l_z
0	-1424.585343398262	2056.697201746885	93.694241159496	1.765711909574869	0	-0.0383909120007815	-0.6099442474416045	0.3176004107004528	0.1272972860451287	1.254393747433009	0	0.09366766576941053	0	9.455638405597711e-08	0	0	-0.001592216801604207	0
0.007461260869775489	451.5182456813827	1602.425816223388	195.8272256909184	1.778051803092689	0	-0.03782073058018832	-0.8476836917992645	0.4276459330987021	0.1672237176862725	1.277501139039683	0	0.09425148107430963	0	2.688084464352869e-06	0	0	-0.001354821058917044	0
0.01492252173955098	-1166.762611913599	1439.127052690254	83.34864973796208	1.764324804071949	0	-0.03905455590647518	-0.8863849997037457	0.4397896547671885	0.1203570868276632	1.301741851664244	0	0.09585662605492414	0	7.25156374414837e-06	0	0	-0.0004920010529234353	0
0.02238378260932647	381.1071058602056	1263.67204821844	155.9545258962224	1.77937816693958	0	-0.03852318085316916	-0.6618621761160368	0.3297990803560659	0.02050901293552915	1.326074883919431	0	0.09872971207926663	0	5.449198471296768e-05	0	0	1.048546472708425e-05	0
0.02984504347910196	-876.4854739464466	1239.601993618767	52.62973684139542	1.766260941984224	0	-0.03990613628868753	-0.3548722607462523	0.180509985478969	-0.03125091455828166	1.348233363215357	0	0.101959583269655	0	7.694988424589155e-05	0	0	-1.591815456718215e-06	0
0.03730630434887745	310.2270526803543	1076.122145178382	110.914393582867	1.779908765925213	0	-0.0393016586515461	-0.1259194035458291	0.06520607944556706	-0.02380292985560394	1.367683762700614	0	0.1049314511931904	0	0.000339473951129321	0	0	-2.062220116894053e-10	0
0.04476756521865293	-620.8354796641134	1077.564560808452	37.53402727096192	1.76884138482521	0	-0.0403784625283838	-0.01351266756939127	0.007055144326236486	-0.003418925525237019	1.388001644061243	0	0.1089640223072364	0	0.0004734344955608094	0	0	-5.672545766444159e-15	0
0.05222882608842843	235.18687434314	913.6676247789114	78.47156249432608	1.780258333439137	0	-0.03978285531602625	5.014069691493251e-06	-2.593009522015043e-06	1.375569965109434e-06	1.409633441598412	0	0.1134653536462322	0	0.002059007044692862	0	0	-3.396602118489744e-19	0
0.05969008695820392	-424.823662549256	937.5067641776934	44.9812836130894	1.771620902415417	0	-0.04033642823553928	4.802921276732686e-11	-2.434180906423235e-11	1.252799202637977e-11	1.43281030001567	0	0.1178678279341072	0	0.004235802143313094	0	0	-2.917750363810094e-23	0
0.06715134782797939	185.7611289883462	788.137923270295	55.05709565934102	1.780974616838675	0	-0.04003289985186928	4.53682541383186e-16	-2.243943005304844e-16	1.066182731851968e-16	0	0	0	0	0.02390675521044727	0	0	-1.000799341315455e-16	0
0.07461260869775489	-241.3518509574709	792.82753169852	23.97239585288697	1.77519230476069	0	-0.04044737027890875	1.291531342511306e-20	-6.222145006575234e-21	2.554825054230627e-21	0	0	0	0	0.1211187864814178	0	0	-2.173214396455302e-21	0
0.08207386956753038	176.8722412234253	646.1582288261748	21.61250162112262	1.785862425302504	0	-0.04083993843688673	-0	-0	-0	0	0	0	0	0.908016888041729	0	0	0	0
0.08953513043730586	-148.194745952978	694.8401004397638	35.34360293160747	1.799124362151989	0	-0.04525483043747676	-0	-0	-0	0	0	0	0	-1.849726214052104	0	0	0	0
0.09699639130708136	55.5990075209249	721.1814401441645	18.94506076422362	1.851324868882218	0	-0.05534103511178563	-0	-0	-0	0	0	0	0	5.134314299197452	0	0	0	0
0.1044576521768569	-111.6581149515763	691.9941198299434	13.3971241090077	1.87300239654651	0	-0.05968617390052286	-0	-0	-0	0	0	0	0	0.6252012712174668	0	0	0	0
0.1119189130466323	34.7570487378169	641.5417547982947	-9.232557822065161	1.908246211542706	0	-0.06690481786322668	-0	-0	-0	0	0	0	0	0.3907009092833178	0	0	0	0
0.1193801739164078	-72.0261302928218	590.5640640646986	17.40598729858685	1.922493966894022	0	-0.06957850050662188	-0	-0	-0	0	0	0	0	-0.6702811701915721	0	0	0	0
0.1268414347861833	46.9152561717388	613.9030557060327	3.286887091889185	1.932411454992025	0	-0.07144195372369523	-0	-0	-0	0	0	0	0	0.05165276733993984	0	0	0	0
0.1343026956559588	-15.07667958050932	585.6076754448198	24.25178943711254	1.931641410919848	0	-0.07096224890109516	-0	-0	-0	0	0	0	0	-0.07421471295165105	0	0	0	0
0.1417639565257343	68.97188960563551	608.7529042238149	11.95529462888337	1.932989329001778	0	-0.07113717861569829	-0	-0	-0	0	0	0	0	-0.1411986280752231	0	0	0	0
0.1492252173955098	23.84844606459142	567.525908158417	28.03122070993005	1.932574618079843	0	-0.0709003034564839	-0	-0	-0	0	0	0	0	-0.1930942157252531	0	0	0	0
0.1566864782652853	86.72762511607961	581.2539207408636	17.42175413941685	1.933665475411318	0	-0.07112120427390742	-0	-0	-0	0	0	0	0	-0.2507093859513532	0	0	0	0
0.1641477391350608	52.94533648890538	539.8715987245437	27.35292818876832	1.933378818347073	0	-0.07096327338443081	-0	-0	-0	0	0	0	0	-0.2661492990950265	0	0	0	0
0.1716090000048362	103.3567741230974	545.5891316812971	14.95490720262221	1.934393630037285	0	-0.07127550430132137	-0	-0	-0	0	0	0	0	-0.3233398864729473	0	0	0	0
0.1790702608746117	77.3997409208021	509.4846856160031	20.98177964052398	1.934763572897859	0	-0.07216251522069037	-0	-0	-0	0	0	0	0	-0.8357540765701472	0	0	0	0
0.1865315217443872	95.04056168146161	533.2144426099082	23.44576037469417	1.936117675877333	0	-0.07373336962488855	-0	-0	-0	0	0	0	0	-1.481397999635796	0	0	0	0
0.1939927826141627	14.63453471451572	553.2480394836548	60.99070666267703	1.935354122688187	0	-0.07297187857175121	-0	-0	-0	0	0	0	0	-0.5444109388049014	0	0	0	0
0.2014540434839382	16.2746702734886	643.8932499238438	75.92671748649124	1.935864707756511	0	-0.07300428067849922	-0	-0	-0	0	0	0	0	-0.197233423339128	0	0	0	0
0.2089153043537137	2.113591928864825	709.2245861966958	91.91484703587687	1.936086335698607	0	-0.0730368139473685	-0	-0	-0	0	0	0	0	-0.04888489347754899	0	0	0	0
0.2163765652234892	59.13133523704736	787.4153917304668	86.05032176108779	1.937009042244046	0	-0.07318325519769629	-0	-0	-0	0	0	0	0	0.2115390916976878	0	0	0	0
0.2238378260932647	70.21851627452355	828.0773257879964	91.80831050047145	1.937242634754713	0	-0.07312529383088562	-0	-0	-0	0	0	0	0	0.3432877279941806	0	0	0	0
0.2312990869630402	123.6156387271435	869.0058562397794	85.04045287071014	1.937927516833004	0	-0.07322197659119591	-0	-0	-0	0	0	0	0	0.5408279369646323	0	0	0	0
0.2387603478328157	124.1506500206631	880.266546250909	94.13927424899843	1.938018092397335	0	-0.07314690102125475	-0	-0	-0	0	0	0	0	0.721228810302506	0	0	0	0
0.2462216087025912	165.9088237751074	891.5034471083439	89.10660138844827	1.93862998197614	0	-0.07328929749047063	-0	-0	-0	0	0	0	0	1.032602314505596	0	0	0	0
0.2536828695723666	163.2379543280504	870.5970814795305	94.96057603786876	1.938787749453864	0	-0.07330700715427407	-0	-0	-0	0	0	0	0	1.332628518954351	0	0	0	0
0.2611441304421421	196.1607354842355	838.6445594641658	86.84147091049878	1.939465799068887	0	-0.07354870177277711	-0	-0	-0	0	0	0	0	1.685182468612084	0	0	0	0
0.2686053913119176	184.8324752183264	768.4319531881652	87.10260180594132	1.939711965481603	0	-0.07368193763558122	-0	-0	-0	0	0	0	0	1.929750814546509	0	0	0	0
0.2760666521816931	202.1539191008843	681.5777855537929	72.91587240119466	1.940535432010162	0	-0.07410249656552272	-0	-0	-0	0	0	0	0	2.139567615234654	0	0	0	0
0.2835279130514686	175.7396342738828	555.7980367650856	62.2552164748004	1.941079034993318	0	-0.07460992415924363	-0	-0	-0	0	0	0	0	2.18908790869672	0	0	0	0
0.2909891739212441	156.9291519251672	416.6553227001369	41.09251665316383	1.942393183016076	0	-0.07578666765532546	-0	-0	-0	0	0	0	0	2.182858084136114	0	0	0	0
0.2984504347910196	85.93202505633025	265.8698172944112	27.52140851381585	1.943741629997654	0	-0.07808373303216735	-0	-0	-0	0	0	0	0	2.031333165287613	0	0	0	0
0.3059116956607951	35.76493774258375	120.6443758731008	13.8093283374692	1.950034142213591	0	-0.08502026845903489	-0	-0	-0	0	0	0	0	1.768230455805938	0	0	0	0
0.3133729565305705	-10.98117267220194	14.02461665597502	2.866325619278212	1.983991186390227	0	-0.1266494142788362	-0	-0	-0	0	0	0	0	-8.477929627481728e-05	0	0	0	0
0.320834217400346	-0.01549198464395164	0.01638929626996401	0.004632076654326706	1.987898062495031	0	-0.1272291464288701	-0	-0	-0	0	0	0	0	-3.432150397220113e-14	0	0	0	0
0.3282954782701215	0.008824555570640585	-0.007657240719276146	0.0002966490753490747	1.994822850890006	0	-0.127118506365932	-2.251455729428695e-08	5.711121138472286e-09	-1.035715781587251e-09	2.538702616835272	0	0.01310445454942734	0	-1.40837862205867e-16	0	0	0	0
0.335756739139897	-0.04645949434022626	0.03522406418132995	-0.01125004446737804	2.00464156360175	0	-0.1249795001547496	-0.0002578251989478894	6.562591665344943e-05	-1.903590458856447e-05	2.546815401463843	0	0.01623889636088622	0	-6.187203527296958e-13	0	0	6.776263578034403e-21	0
0.3432180000096725	-0.2860368839016058	0.1927552500652541	-0.08429590401932291	2.016859805622992	0	-0.1217069430434275	-1.311333282216887	0.3367428141179006	-0.1430348124158673	2.556534661955498	0	0.01876974972232346	0	-2.494903922345415e-09	0	0	5.551115123125783e-17	0
0.350679260879448	-0.2490976772719364	0.1554629701946339	-0.0723206274854601	2.030802191965829	0	-0.1181061434176667	-465.7228592300494	138.5909498949471	-43.33972265501016	2.567771236877196	0	0.01898296016848355	0	-9.0886546638691e-07	0	0	0	0
0.3581405217492235	-0.2933552135407063	0.1736551762131365	-0.08065282322766916	2.039617509326422	0	-0.1096566974904347	-1797.281482706686	1788.048102354012	314.7984500548707	2.583820241970335	0	0.02217515731412319	0	0.0003211116133561842	0	0	1.000444171950221e-11	0
0.3656017826189989	-0.5310262873394781	0.3111469676811096	-0.1405356865643279	2.034942702506849	0	-0.09172192365382065	556.572131765831	2271.222661791273	-286.0807735651353	2.595362988142112	0	0.02084839949522745	0	0.001646490447440307	0	0	-1.736528201945475e-05	0
0.3730630434887744	-0.5818476393376003	0.3258566381798357	-0.1596457032854692	2.056098047060066	0	-0.09170418767535601	-1542.009317293568	1759.323337996575	197.2614435210949	2.584803588480286	0	0.02410528918087148	0	0.001515284391379768	0	0	-0.007028929191164934	0
0.3805243043585499	-0.6066584055428424	0.3242492070358612	-0.1494782154531419	2.07972434095315	0	-0.09283077684263175	476.3885179256621	1430.302851460654	-306.8528587991598	2.601896689113985	0	0.02183762410897662	0	0.001007495518578705	0	0	-2.172566311168566	0
0.3879855652283254	-0.5621957370730343	0.2906799385537655	-0.1065595296658587	2.103358386783506	0	-0.09393930819057474	-1359.321115437376	1587.132664484212	154.6105626425743	2.599238918670847	0	0.03197988044618714	0	0.0004040590587889026	0	0	7.271327890592829	0
0.3954468260981009	-0.4202135299528822	0.214467612954871	-0.04530733536779184	2.126280539686983	0	-0.09524982289918776	329.8969401679407	1401.650539471627	-279.7214748478555	2.624275118531676	0	0.03271020965771618	0	5.600932044803886e-05	0	0	-13.68548457926136	0
0.4029080869678764	-0.2437814778275731	0.1256622067482205	-0.0005202541300799933	2.147694626857154	0	-0.09703611681661978	-1018.128764072707	1343.251308887966	188.0473112770651	2.602171676496086	0	0.03041405055302444	0	-1.773071735828701e-07	0	0	-0.5359096375747754	0
0.4103693478376519	-0.0981229760820323	0.05183697899721975	0.01262885588664186	2.166366486895876	0	-0.09916505684027911	317.5984434782352	1157.205479467007	-189.2201333968396	2.620795835893203	0	0.02867749890772026	0	2.081702588085932e-10	0	0	-6.313866269341815	0
0.4178306087074274	-0.01609557159703618	0.008754469401114677	0.004067170443195333	2.185382789531193	0	-0.103103768150912	-728.1986247572279	1171.944331092441	133.0043422852459	2.60258170024948	0	0.02810374104897343	0	1.554312234475219e-15	0	0	-2.13934352051848	0
0.4252918695772029	9.42266863777196e-06	-5.210322094127203e-06	-3.210605870208267e-06	2.205246648496019	0	-0.1083958938469227	267.4027466984404	1004.87980642184	-131.2069851398927	2.62141988527663	0	0.02806199301848553	0	1.524659305057741e-20	0	0	-3.374256341582566	0
0.4327531304469783	7.686817183292769e-12	-4.22466913035838e-12	-2.825038142224217e-12	2.22658071251764	0	-0.1141391603704089	-516.1611440828045	1072.576354884937	64.67918300119112	2.613848181010093	0	0.0302313149454761	0	0	0	0	0.2225772466658213	0
0.4402143913167538	3.287098400371628e-18	-1.758887732584807e-18	-1.127688916490416e-18	0	0	0	184.14491010604	953.2931646215065	-106.4335120154069	2.637984239676727	0	0.03430512283118693	0	2.14427377571837e-18	0	0	-3.97218226438531	0
0.4476756521865293	-0	-0	-0	0	0	0	-374.3183538725052	990.8259719633847	6.213403389007789	2.637529185438312	0	0.03717427692938175	0	0	0	0	1.122233048849193	0
0.4551369130563048	-0	-0	-0	0	0	0	133.2466598601907	856.4974516703553	-65.60763654933197	2.666382564978798	0	0.04482529127600703	0	0	0	0	-4.278887364427732	0
0.4625981739260803	-0	-0	-0	0	0	0	-237.8451440620099	821.2077435492997	-10.1025666798839	2.671915646126304	0	0.0485390132375715	0	0	0	0	1.074868721097179	0
0.4700594347958558	-0	-0	-0	0	0	0	106.1348465937715	680.2225149594275	-17.69822780920019	2.709838341564645	0	0.060922790421673	0	0	0	0	-1.219553328170896	0
0.4775206956656313	-0	-0	-0	0	0	0	-137.4671231964441	622.6015783686346	-15.57718186329018	2.718973443096707	0	0.06502813150398601	0	0	0	0	0.6845226178700656	0
0.4849819565354068	-0	-0	-0	0	0	0	80.76508811366074	581.6584569509894	-14.09296752910162	2.746223454144019	0	0.07404142493512847	0	0	0	0	-0.1466996529880475	0
0.4924432174051823	-0	-0	-0	0	0	0	-68.96202099946566	553.7619695922341	-15.16806073387389	2.743685822450172	0	0.07360311103491206	0	0	0	0	-0.02177073073756475	0
0.4999044782749578	-0	-0	-0	0	0	0	86.75247928564379	591.1475370759455	-20.2728175902054	2.746043733495207	0	0.07344823915466811	0	0	0	0	0.03391307560989532	0
0.5073657391447333	-0	-0	-0	0	0	0	-15.01887349449247	540.1607745218404	-9.937899559212749	2.744797503897394	0	0.07356320732757722	0	0	0	0	0.03560127627736875	0
0.5148270000145087	-0	-0	-0	0	0	0	96.12288174715185	566.7453495483177	-24.00151201426904	2.746719335809617	0	0.07337049466579794	0	0	0	0	0.0569562101452874	0
0.5222882608842842	-0	-0	-0	0	0	0	20.47820355489369	513.8020188314709	-6.229820053464558	2.745779078676208	0	0.07365835140646125	0	0	0	0	0.05188021606047499	0
0.5297495217540596	-0	-0	-0	0	0	0	107.8095303230472	530.7730050430781	-20.44350379159735	2.747456299748721	0	0.07356443489973671	0	0	0	0	0.1105738599209971	0
0.5372107826238351	-0	-0	-0	0	0	0	48.04963171774155	486.0349595408085	1.568603894238248	2.747251838568603	0	0.07527524619141873	0	0	0	0	0.769930820304439	0
0.5446720434936106	-0	-0	-0	0	0	0	98.00355293666557	517.8598325263213	-29.4519336281914	2.749087996181196	0	0.07641930342489819	0	0	0	0	1.251316036461972	0
0.5521333043633861	-0	-0	-0	0	0	0	-10.07730281484817	526.4825029154712	-47.76022267063576	2.748251252756226	0	0.07634093378299046	0	0	0	0	-0.3651406510609831	0
0.5595945652331616	-0	-0	-0	0	0	0	20.31200965188469	626.8311749435683	-90.43350169422544	2.749636541180752	0	0.07686522031398449	0	0	0	0	-0.7785585277927396	0
0.5670558261029371	-0	-0	-0	0	0	0	-23.29727116197413	688.6883221308425	-87.39939004811677	2.749909565541687	0	0.07786855911079978	0	0	0	0	-1.368125511499869	0
0.5745170869727126	-0	-0	-0	0	0	0	59.1098771982374	772.5713428064764	-105.7236420929653	2.751292826702553	0	0.07805675706636016	0	0	0	0	-2.040452716934794	0
0.5819783478424881	-0	-0	-0	0	0	0	42.23184751914427	812.6295974246043	-93.8859962400953	2.751198592263596	0	0.07831151364675908	0	0	0	0	-2.248316934608511	0
0.5894396087122636	-0	-0	-0	0	0	0	120.4346597852603	858.2682368993765	-107.5584392385831	2.751980793255671	0	0.07805272110885941	0	0	0	0	-2.425106660075244	0
0.5969008695820391	-0	-0	-0	0	0	0	100.047489014836	866.0105866635926	-93.97157166170459	2.751631792649359	0	0.07806046996745435	0	0	0	0	-2.338408054650756	0
0.6043621304518146	-0	-0	-0	0	0	0	164.3845534040947	880.0294171508743	-105.8061209635955	2.752253941743246	0	0.07778503664081278	0	0	0	0	-2.408726983508302	0
0.61182339132159	-0	-0	-0	0	0	0	136.233907956486	868.7743165333527	-95.69582319149754	2.751893632728549	0	0.07783299926009681	0	0	0	0	-2.449531965981123	0
0.6192846521913655	-0	-0	-0	0	0	0	190.5415850011259	851.3396038168439	-104.3203996983492	2.752600909823605	0	0.07767998835990951	0	0	0	0	-2.621151878389526	0
0.626745913061141	-0	-0	-0	0	0	0	162.8155109476697	793.2544828880186	-87.39224376167279	2.752448321808077	0	0.0779039465485941	0	0	0	0	-2.671753533419235	0
0.6342071739309165	-0	-0	-0	0	0	0	205.6377933127493	718.2849540334628	-85.00266169009245	2.753419671956842	0	0.07800178748835136	0	0	0	0	-2.769038284018364	0
0.641668434800692	-0	-0	-0	0	0	0	171.2371872423832	611.2103844471466	-54.93811001435234	2.753650290199624	0	0.07875025510646608	0	0	0	0	-2.821710812432173	0
0.6491296956704675	-0	-0	-0	0	0	0	176.484349968231	473.4681249215847	-42.99998622344261	2.755248512473819	0	0.07962676881656712	0	0	0	0	-2.824240149813789	0
0.656590956540243	-0	-0	-0	0	0	0	91.07913867719338	304.0819297178128	-13.67201812381801	2.756303980019491	0	0.08222593140553686	0	0	0	0	-2.449681436713114	0
0.6640522174100185	-0	-0	-0	0	0	0	50.7244749876761	131.1134101897131	-9.789502705496659	2.762484652226712	0	0.08799342408246191	0	0	0	0	-1.844607963035486	0
0.671513478279794	-0	-0	-0	0	0	0	-10.51500368695366	14.68562443161423	0.7957353325674962	2.795995343348957	0	0.1302619475656947	0	0	0	0	0.0009575152179803759	0
0.6789747391495695	-0	-0	-0	0	0	0	0.08062328153796144	-0.09281205960833482	0.03009727054031423	2.799095785070102	0	0.130432844608594	0	0	0	0	1.342953526162205e-13	0
0.686436000019345	-0	-0	-0	0	0	0	0.002550321532440054	-0.002423238702751043	2.114599314676971e-05	2.804620825384752	0	0.1304996198796906	0	0	0	0	6.776263578034403e-20	0
0.6938972608891204	-6.764994495799796e-11	1.649329646763123e-11	4.757783084345494e-12	3.344795943695233	0	-0.01905162212125889	0.02638905783011011	-0.02231707133805835	-0.005643180299535516	2.812560457060089	0	0.1288930580723308	0	0	0	0	1.786765180256111e-15	0
0.7013585217588959	-6.671390388338945e-07	1.645856948054284e-07	6.50047902853152e-08	3.352374969758841	0	-0.02335961409550859	-0.09852319313233975	0.07313243974199643	0.02623191878799965	2.822904515104721	0	0.1263772328773428	0	0	0	0	3.419098337786863e-12	0
0.7088197826286714	-0.003003450440048593	0.0007564908691433561	0.0004118795505902833	3.362050997821545	0	-0.0277127038646733	-0.1478400433025913	0.09736075503794427	0.0389381250045862	2.835734958371432	0	0.1233801699011153	0	0	0	0	3.05896109137338e-08	0
0.7162810434984469	-4.047144552454413	1.057909729987214	0.7774867181659983	3.3742676860983	0	-0.03179724101618988	-0.1348223152937012	0.08036959447722024	0.03457091419973862	2.854848464297527	0	0.1236766824087419	0	0	0	0	0.000109214308865388	0
0.7237423043682224	-412.0644779616138	123.7374806702021	81.77014107191523	3.389724359732559	0	-0.03389292147158543	-0.244455443422275	0.1413431841012543	0.04081262823533567	2.837345572880769	0	0.09507157433886496	0	0	0	0	-0.0006749047353703658	0
0.7312035652379979	-2015.751968360772	1660.495415843425	-79.99024210818159	3.404994679778669	0	-0.03820157161824027	-0.3019789211315983	0.1665896141327388	0.04410054931082366	2.852915140815483	0	0.09265933833013551	0	2.273736754432321e-13	0	0	-0.0009362388094374674	0
0.7386648261077734	411.62372828688	2634.522124056594	116.4134957170275	3.416355056320504	0	-0.03805212709993511	-0.4101611688007811	0.2202805470027872	0.0737922878817243	2.873621647210667	0	0.09312790804098067	0	2.014871824940201e-09	0	0	-0.001302731518136063	0
0.7461260869775489	-1424.585343356196	2056.697201692458	93.6942411519976	3.407189300925834	0	-0.03839091200089757	-0.6099442473300722	0.3176004106423993	0.127297286021895	2.89587113878407	0	0.09366766576937555	0	9.455629879084881e-08	0	0	-0.001592216801315438	0
