DataType=double
version=3
OpenSimVersion=4.6-2026-06-22-85aaf64
endheader
time	ground_force_r_vx	ground_force_r_vy	ground_force_r_vz	ground_force_r_px	ground_force_r_py	ground_force_r_pz	ground_force_l_vx	ground_force_l_vy	ground_force_l_vz	ground_force_l_px	ground_force_l_py	ground_force_l_pz	ground_torque_r_x	ground_torque_r_y	ground_torque_r_z	ground_torque_l_x	ground_torque_l_y	ground_torque_l_z
0	-471.0588895987087	518.9575077430416	211.3244712276426	1.687765177952767	0	-0.0329703805092388	-0.00951937637388295	0.002912045276503678	0.0005743072182262917	1.194498413847388	0	-0.03089520336573962	0	5.684341886080801e-14	0	0	-1.192517677907822e-07	0
0.004464838534311134	-167.5446087705373	1118.894545577566	146.9167977897482	1.691330086047589	0	-0.03391243137924899	-0.01682139352137945	0.005107704991307854	0.0006938919918211753	1.213857372812288	0	-0.03183300965987462	0	-5.684341886080801e-14	0	0	-1.272238716690808e-07	0
0.008929677068622268	-360.6757039119367	1584.372062461295	147.0306302571722	1.691509430453795	0	-0.03411798891590898	-0.03250929881837647	0.009806651073421272	0.0007610333761910259	1.233408830205369	0	-0.03226198669602765	0	2.842170943040401e-14	0	0	-1.072788129794899e-07	0
0.0133945156029334	-158.2839236362791	1786.388127628929	152.5057681337762	1.693255392015731	0	-0.03428465907789572	-0.06479954554866571	0.0194275869524919	0.0006198245032136821	1.253106976575802	0	-0.03243932283297891	0	-5.684341886080801e-14	0	0	-6.965019365260967e-08	0
0.01785935413724454	-302.8505678023674	1760.495240089032	136.0430959958723	1.693155353482971	0	-0.03451898572240733	-0.1251166661834562	0.03727476811765355	-7.655725879648574e-05	1.273064170364382	0	-0.03247076497333088	0	-1.733724275254644e-12	0	0	-3.278390705686396e-08	0
0.02232419267155567	-145.048993384766	1642.197703451918	113.7860843738183	1.694676520522941	0	-0.0347756504507	-0.2210612459899413	0.06540767706614499	-0.001832507592175186	1.29343340504307	0	-0.03238835155773186	0	-3.731770448212046e-11	0	0	-4.327654778372297e-09	0
0.0267890312058668	-311.0137113208705	1529.923547745738	104.6622128237915	1.694135091083877	0	-0.03493145719828435	-0.346087647744404	0.1016875012259337	-0.005039655543668512	1.314327179878873	0	-0.03218078509574971	0	-6.269260666158516e-10	0	0	1.53732921471042e-08	0
0.03125386974017794	-218.8561054191091	1480.411505761029	88.27138217437873	1.695548182848373	0	-0.03514974279141977	-0.474193206080359	0.1383345957373138	-0.009713096652619768	1.335830058962671	0	-0.03183485699992683	0	-1.096100277209189e-08	0	0	2.76169634088469e-08	0
0.03571870827448907	-327.3539766260484	1465.124122320773	96.54833526319278	1.695462463077652	0	-0.03516792140425153	-0.5767074214103303	0.1671962607789416	-0.01463652210779557	1.357903505443418	0	-0.03137489880782512	0	-1.749679654494685e-07	0	0	3.368443569212731e-08	0
0.0401835468088002	-206.953845942913	1427.407424891614	83.27365859931901	1.697170081624309	0	-0.03531292240691154	-0.6353926818586338	0.1832774125570826	-0.01921772673770435	1.380490819961641	0	-0.03078184761608062	0	-2.175091566414267e-06	0	0	3.481813715469628e-08	0
0.04464838534311134	-236.7363074828982	1359.56796093982	83.61734569794653	1.697461913245333	0	-0.03528610498492938	-0.6433677857631551	0.1846728170556462	-0.02234642135800435	1.403560761526652	0	-0.03007236978755307	0	-1.711939964366138e-05	0	0	3.18981735122903e-08	0
0.04911322387742247	-109.2369853906592	1255.674344451522	59.89306549646354	1.699106459835472	0	-0.03543516584591808	-0.6081618434872392	0.1736572608699684	-0.02331882631704615	1.427087235136905	0	-0.02926548798427803	0	-9.246709950616605e-05	0	0	2.657324291166496e-08	0
0.05357806241173361	-120.1103565468627	1146.261851897989	57.37123063055976	1.699356876091866	0	-0.03536340756848209	-0.5419260233100818	0.1539041382262991	-0.02184855041613669	1.451039340356521	0	-0.02840789772389981	0	-0.000378028133198427	0	0	2.046103274311317e-08	0
0.05804290094604474	-29.39828774390872	1039.876805961729	39.12204928514137	1.700772359037836	0	-0.03547648701356924	-0.4577811899239724	0.1292570465603077	-0.01843020557995318	1.475396931135863	0	-0.02754724953895962	0	-0.001450680492652623	0	0	1.464622026783879e-08	0
0.06250773948035587	-42.53567728143096	952.4727704637057	42.63038328799244	1.701003114066416	0	-0.03535404282965704	-0.3690151575838859	0.1035726780306273	-0.01395590768537492	1.5001433881688	0	-0.02674319886696225	0	-0.005415179599367548	0	0	9.734972199887393e-09	0
0.06697257801466701	13.70555203692816	867.20351791911	31.35971162847829	1.702232938044425	0	-0.03545602494353833	-0.2880145262004138	0.0803640738625138	-0.009566274328060216	1.525247112515135	0	-0.02605109470251165	0	-0.0218333874465273	0	0	5.801097468713379e-09	0
0.07143741654897814	2.059198803587795	794.6483655159558	34.35124420848884	1.702640610824623	0	-0.03540338781936034	-0.2238997567786254	0.06215648056237542	-0.006066873188567205	1.550626075513128	0	-0.02550328255363716	0	-0.09139193930845835	0	0	1.581878484105403e-09	0
0.07590225508328928	31.35623422552099	725.9386144685835	26.15889759679488	1.704174827470363	0	-0.03560446594664291	-0.1777007458854387	0.04913420526959862	-0.003620964878781473	1.576177300388907	0	-0.02511524461913598	0	-0.4040555233401548	0	0	-9.348916179402478e-09	0
0.0803670936176004	11.76695187752206	676.367246073278	28.59264076807998	1.706806194721652	0	-0.03575335066532478	-0.1446257220491697	0.03986774574417687	-0.001990870810898064	1.601809895919544	0	-0.0248758471237456	0	-1.107357171139789	0	0	-5.258880931028817e-08	0
0.08483193215191152	4.275311790314771	652.1316517984761	21.30188157324653	1.713747844038966	0	-0.03589836662482041	-0.1229578360415045	0.03383512109066551	-0.0009613924586155956	1.627415016303833	0	-0.02476838404963492	0	1.00834244441949	0	0	-2.207299711531798e-07	0
0.08929677068622267	-40.40375756417038	683.7782298989654	30.28347739001431	1.725275295645006	0	-0.03611699677811431	-0.113834985065518	0.03133409552560242	-0.0002731433987995821	1.652780220771004	0	-0.02478373994308422	0	4.821637307290892	0	0	-8.147203544718422e-07	0
0.09376160922053382	-49.99696828535824	731.2369772795906	36.45160319230512	1.73725776891842	0	-0.03652067658868369	-0.114008356803892	0.03143570629260809	0.0002964294427458173	1.677654460662086	0	-0.02491919044636464	0	5.913986958085538	0	0	-2.705852072686695e-06	0
0.09822644775484494	-20.85040702301312	745.8566583203044	26.98154249925573	1.745651772638493	0	-0.03707773586395052	-0.1146776583298817	0.03165308364054088	0.0008536520982973439	1.70182795647885	0	-0.02519113851381196	0	5.262639519606608	0	0	-8.208087160695328e-06	0
0.1026912862891561	-12.6580905250861	793.8591968653578	23.50443703788059	1.758501543238459	0	-0.03797729264057167	-0.110666671516451	0.03053804855256686	0.001312226424905425	1.72463968066709	0	-0.02563259984854301	0	4.742705703757679	0	0	-2.27502277571341e-05	0
0.1071561248234672	-25.0810614311159	842.2633142828357	27.24187208068954	1.76965026474687	0	-0.03935170776037438	-0.1028746672675168	0.02836934335328563	0.001459227354920961	1.744215177144887	0	-0.02624570179830095	0	4.678143713428504	0	0	-5.633530312071974e-05	0
0.1116209633577784	-10.2006675577196	877.8323702282843	29.38196851328169	1.779735230635027	0	-0.04097872117322818	-0.09421953149595427	0.02596665861799385	0.001108764724408167	1.756556274918614	0	-0.02696702526202765	0	4.002432245142799	0	0	-0.0001195452997530249	0
0.1160858018920895	-2.428809338930005	920.7087225111912	32.87987256517206	1.789820041515418	0	-0.04255886735185855	-0.0892818140871354	0.0245882001857373	0.000172519492250654	1.756311168921452	0	-0.02754544522660757	0	3.818474816448443	0	0	-0.0002020880480454324	0
0.1205506404264006	8.701847842671331	964.7229926321627	35.95282049785775	1.799993909841637	0	-0.04402218098808266	-0.09433390159190062	0.02594926717617081	-0.001380062616021416	1.744399802851414	0	-0.02747531323478975	0	3.940881079542585	0	0	-0.0002448206478417483	0
0.1250154789607117	13.02580048771695	997.6969314884503	36.34350782900612	1.809714302507753	0	-0.0452930217066328	-0.1155673298276978	0.0317326922438928	-0.003501083451739473	1.734911518252616	0	-0.02652131237205733	0	3.953466557536906	0	0	-0.0001979600520209488	0
0.1294803174950229	26.26660289264877	1030.488222563267	35.20874453820854	1.820384215716137	0	-0.04645702125192765	-0.1557775547854413	0.0426813737538071	-0.006072247339475229	1.739416948530613	0	-0.02511025040788483	0	3.446555998677454	0	0	-0.000108207922446632	0
0.133945156029334	37.86060220158729	1071.09221562492	35.13610117967372	1.832444083168376	0	-0.04768552439400168	-0.2117759539915327	0.05790921240565974	-0.008867243753194401	1.755524144439911	0	-0.02368914177209627	0	2.435746395577858	0	0	-4.087673500985725e-05	0
0.1384099945636451	43.2245038165871	1100.904043741562	37.26134475707049	1.845311958210173	0	-0.04907365439219908	-0.2744380726410948	0.07492563349140668	-0.01158319563922603	1.777082036167843	0	-0.02236382410414959	0	1.598627594655625	0	0	-8.428484330851027e-06	0
0.1428748330979563	42.42490735799112	1108.731103087573	43.10504621468194	1.858369309105009	0	-0.05052573662788073	-0.3322990217789942	0.09062583055311224	-0.01391415161832142	1.800746083087927	0	-0.02111309766909217	0	1.640850449126276	0	0	3.487732924654929e-07	0
0.1473396716322674	60.86689425039263	1169.319290694131	53.55502814677374	1.861206485760329	0	-0.05104206612365102	-0.3739712400129342	0.1019342088391902	-0.01550308228885502	1.825137821017488	0	-0.01990932676164647	0	2.38183368463315	0	0	2.504384142079652e-08	0
0.1518045101665785	79.21480216848062	1226.697633651491	65.25495618785349	1.862321461812304	0	-0.05129292399166506	-0.3877144468608439	0.1056293157909861	-0.01585495781503043	1.849789100631483	0	-0.01874000717646732	0	2.88024356044545	0	0	4.590141079729992e-10	0
0.1562693487008897	93.10420546310723	1270.97122152044	74.77087492903418	1.863406418130099	0	-0.0513378975381987	-0.366248970536823	0.09971974979341175	-0.01457956118047672	1.874732323702371	0	-0.01762214517632478	0	3.235588444731604	0	0	3.362407574591941e-12	0
0.1607341872352008	108.0081299242819	1294.712242343839	80.25384812667794	1.864364490467455	0	-0.05112408478485575	-0.3120649784759474	0.084913054130767	-0.01191832972693647	1.899992289267395	0	-0.01655803878738457	0	3.471112972399368	0	0	1.392289061818985e-14	0
0.165199025769512	123.6040299497631	1301.781851921062	83.08933703050322	1.865198149526476	0	-0.05067476617850739	-0.2381022427653656	0.06474778806459439	-0.008624031233048508	1.925583926088304	0	-0.01555098282196337	0	3.565031527905433	0	0	4.163336342344337e-17	0
0.1696638643038231	139.5582798741237	1292.128947223246	83.6061352651823	1.86595364325275	0	-0.0500162023887333	-0.1633074974747496	0.04437346534912894	-0.005565307491794248	1.951511768602736	0	-0.01460048891256719	0	3.593755787116066	0	0	-1.734723475976807e-18	0
0.1741287028381342	155.2356304918548	1270.172531827533	83.28104670205249	1.86665166552067	0	-0.04919039189559504	-0.1019845665608115	0.02767880503268651	-0.003257792546801474	1.977766618944441	0	-0.01370882274847277	0	3.573224886113195	0	0	-1.734723475976807e-18	0
0.1785935413724453	169.7255092514254	1238.010699816457	82.45624115305705	1.867310217220329	0	-0.04824104724047268	-0.05967630789773665	0.01616884981164757	-0.001779124718266634	2.004318863541377	0	-0.01287798065298928	0	3.498119062304767	0	0	4.336808689942018e-19	0
0.1830583799067565	183.4587471553116	1198.627863230594	81.90036233651792	1.867945385795213	0	-0.04719077747739137	-0.0339357401524857	0.009174496297600849	-0.0009393937880183019	2.031124286453198	0	-0.01210760154135351	0	3.411793795873052	0	0	0	0
0.1875232184410676	195.8276515855163	1153.539534144712	81.45168232778342	1.868565527552758	0	-0.04604518513438265	-0.01922788038310041	0.005187368641020892	-0.0004911511618339335	2.058112315526817	0	-0.01139304159336033	0	3.356649488686003	0	0	2.168404344971009e-19	0
0.1919880569753788	207.3617885561335	1104.441227925854	80.76654155711549	1.869172788985393	0	-0.04481411784962409	-0.01109737352382395	0.002988612888201702	-0.0002604795320580371	2.085222457562125	0	-0.01072375229790016	0	3.375820373034401	0	0	0	0
0.1964528955096899	217.1944567189004	1050.821850324295	79.5438423292285	1.869768676344789	0	-0.04352525076424121	-0.006690304016040547	0.001797626286127815	-0.0001446914308075272	2.112436540130517	0	-0.01008280725909057	0	3.47230825525142	0	0	-1.084202172485504e-19	0
0.200917734044001	221.9671413016822	982.2650724445322	77.09135979462962	1.870392571680994	0	-0.04216372633565749	-0.004299484352124206	0.001151165643595971	-8.70368512788256e-05	2.139744103507863	0	-0.009444436251165611	0	3.565246881385519	0	0	2.710505431213761e-20	0
0.2053825725783121	220.3735816230098	892.0924434580724	74.01316522126947	1.871138623575915	0	-0.0408035128923414	-0.002978651366609123	0.0007937805128155045	-5.726690981326543e-05	2.167109480174611	0	-0.008802137483197872	0	3.602785198674098	0	0	2.710505431213761e-20	0
0.2098474111126233	209.9428123852787	778.7453438700458	69.32729499231056	1.872062663169504	0	-0.03948102519461759	-0.002272730851448299	0.000602266047974895	-4.304642575716495e-05	2.194480083261971	0	-0.008126132339189643	0	3.519676488101425	0	0	1.355252715606881e-20	0
0.2143122496469344	187.2400161458403	645.4728266437065	64.85493699751017	1.872930472840898	0	-0.03871021993595498	-0.001920272101816274	0.0005056928582650205	-3.688955400259937e-05	2.221770721059718	0	-0.007405987769837486	0	3.053528881701467	0	0	1.355252715606881e-20	0
0.2187770881812456	162.1113424130426	507.6282434598519	54.77976306316117	1.873781221942486	0	-0.03920924800605118	-0.001715040207757503	0.000448794235581195	-3.426429291971544e-05	2.248914497149795	0	-0.006634694904143658	0	2.292000288951172	0	0	-1.355252715606881e-20	0
0.2232419267155567	135.4929375989852	382.9065158564035	36.69485865540179	1.875285070420899	0	-0.04033524684468594	-0.001553141537825705	0.0004041111494465648	-3.233760023755529e-05	2.275925142060667	0	-0.005831103858334039	0	1.782799039318121	0	0	1.355252715606881e-20	0
0.2277067652498678	108.7003692964411	285.4139848043267	11.86040775645101	1.877398041696314	0	-0.04233658950565085	-0.001424545578681198	0.0003689135605283828	-3.090378595011577e-05	2.302841480278642	0	-0.005004281721080552	0	1.47327107747244	0	0	0	0
0.2321716037841789	82.1826378929709	209.5131310505135	-14.87130556994986	1.880123172035885	0	-0.04525326309936244	-0.001361370572883805	0.0003511489958240903	-3.103161211122592e-05	2.329674582846721	0	-0.004153705027316996	0	1.229650709108405	0	0	0	0
0.2366364423184901	35.36004970528317	113.93646786381	-13.92804752041594	1.886557096403965	0	-0.051075616301087	-0.001397974293011557	0.0003596923550442539	-3.407082422689471e-05	2.356329045457014	0	-0.003281733077483376	0	0.7122676188463153	0	0	1.355252715606881e-20	0
0.2411012808528012	-7.923304289499671	21.98361295164747	6.053543770370085	1.917014459610103	0	-0.07628298589635885	-0.001540010033104575	0.0003970583604657776	-4.202309028465983e-05	2.382506064519369	0	-0.002329758756857631	0	3.333351553891362e-06	0	0	1.355252715606881e-20	0
0.2455661193871124	0.3219778671792181	-0.3790933905555249	-0.1689999993009154	1.917903205531607	0	-0.07651633564412882	-0.001775292369005804	0.0004616384228813995	-5.63706572695975e-05	2.40794724764832	0	-0.001266675395536525	0	7.66053886991358e-15	0	0	0	0
0.2500309579214235	0.002600307981507519	-0.00230925189790897	-9.131418532033211e-05	1.921418494932798	0	-0.0771415387157615	-0.002103429201919554	0.0005541211825002184	-7.903863924529283e-05	2.432669095359178	0	-7.077621364203904e-05	0	-2.710505431213761e-20	0	0	2.710505431213761e-20	0
0.2544957964557346	0.001293392552147921	-0.0009725175296470222	0.0003268421319601723	1.927457727702424	0	-0.07605764006721298	-0.002583024352347699	0.0006908689398195317	-0.0001152923321250221	2.456720783003738	0	0.001277651250865265	0	0	0	0	0	0
0.2589606349900457	0.004410383890916835	-0.002898208501602951	0.001371910935952385	1.935641394264726	0	-0.07367352700952391	-0.003301786663681416	0.0008976233822366983	-0.0001708183247525631	2.480111585593549	0	0.002726682204677678	0	0	0	0	1.084202172485504e-19	0
0.2634254735243569	0.03025576049119707	-0.0179626038924739	0.008850858537764477	1.945492783792455	0	-0.07089725150584067	-0.004341100881326544	0.001200700205949037	-0.0002502168297946025	2.502833662059023	0	0.004204917746073433	0	3.469446951953614e-18	0	0	1.084202172485504e-19	0
0.267890312058668	0.04659219566518991	-0.02515903496206377	0.01229990214790555	1.956857206421356	0	-0.06802637372999261	-0.005726504109205361	0.001614663151748711	-0.0003528076316549246	2.524865461962337	0	0.005640050978917382	0	7.181755190543981e-16	0	0	0	0
0.2723551505929792	0.002220767524535938	-0.001092081263458843	0.0005447819726524107	1.969856460135602	0	-0.06501366427468386	-0.007452577349565414	0.002153200440359568	-0.0004741553373196475	2.54608712674953	0	0.006992549302691432	0	4.532912673688161e-13	0	0	0	0
0.2768199891272903	-0.04318014152070141	0.01951732266982969	-0.01020974007694978	1.984493081347582	0	-0.06175200512853812	-0.009721921837959309	0.002911678615638139	-0.0006209045048297788	2.566067641257107	0	0.008203089178631951	0	8.697823711267816e-11	0	0	2.168404344971009e-19	0
0.2812848276616015	-0.0283294469550744	0.01192006301506358	-0.006610301933096038	2.000668667116122	0	-0.05819903189894368	-0.01325574010936606	0.004174678583037948	-0.0008327070153820292	2.584398025760143	0	0.009250287034765856	0	2.928980401967207e-09	0	0	-4.336808689942018e-19	0
0.2857496661959126	-0.01488658385862895	0.00590334558724499	-0.003464841435586675	2.018308604362791	0	-0.05446943605631506	-0.01957593118470442	0.006542065940908073	-0.001212206411264692	2.601028901854981	0	0.01017955541805373	0	4.258777380142936e-08	0	0	8.673617379884035e-19	0
0.2902145047302237	-0.01145626578933836	0.004332717659319431	-0.002671890717536867	2.039743991603792	0	-0.05291260873515828	-0.03215935550204641	0.01145746660504915	-0.002006183061491005	2.615994204443937	0	0.01105028582101804	0	4.328942190432936e-07	0	0	8.673617379884035e-19	0
0.2946793432645348	-0.01590434450618957	0.005754758232102587	-0.003649518604435728	2.043071677585363	0	-0.03411874778517367	-0.0602178359091832	0.02295169033891824	-0.00388848101186306	2.629334436977799	0	0.01189274927625306	0	-2.306341567994905e-07	0	0	0	0
0.2991441817988459	-0.02047889490963943	0.007165259719944958	-0.004604280229918866	2.051603446218575	0	-0.01955047984389297	-0.1308307997886456	0.0534993422117513	-0.008953894782532385	2.641097225132012	0	0.01271707579082647	0	2.102974955127401e-06	0	0	0	0
0.3036090203331571	-0.01894039580604496	0.006452368682442752	-0.004164086193827116	2.068682770659185	0	-0.01239035971996851	-0.3327342974399207	0.1463981416985954	-0.02464922974516862	2.651352200816852	0	0.0135285491351703	0	3.700762448951775e-06	0	0	1.387778780781446e-17	0
0.3080738588674682	-0.01658598309288443	0.005523116054217075	-0.003531373886385907	2.086643352267134	0	-0.005967182969214773	-0.9875990574067021	0.4685240062569687	-0.08049815745620739	2.660209829354269	0	0.01432360428593264	0	4.169711485092244e-06	0	0	2.775557561562891e-17	0
0.3125386974017794	-0.0148340742120475	0.004843649863426956	-0.003044473519639975	2.104529658750403	0	0.0004354077961601291	-3.344393730922615	1.711236407406052	-0.3037425203643035	2.667829115611866	0	0.01509905372324777	0	4.088504846471233e-06	0	0	0	0
0.3170035359360905	-0.01405270440928489	0.00451122059113296	-0.002784016004253431	2.122179269375797	0	0.006867984925695037	-12.21070658641464	6.731534738286035	-1.247197976586766	2.674370061713019	0	0.01584341535284585	0	3.865080288882779e-06	0	0	-8.881784197001252e-16	0
0.3214683744704016	-0.01444664386005405	0.00457103216308164	-0.002784513510048885	2.139692249535324	0	0.01321048038007047	-41.8059256094793	24.99499078531781	-4.921608063368144	2.679861901119276	0	0.01654930914723871	0	3.747173776827255e-06	0	0	0	0
0.3259332130047128	-0.01631851476639048	0.005101510739392005	-0.003085058470145531	2.15723579272997	0	0.01928742805447908	-107.0079228556229	70.80389807982206	-15.49806473406946	2.684416192358198	0	0.01720033929664348	0	3.81521393719858e-06	0	0	-7.105427357601002e-15	0
0.3303980515390239	-0.02044266598898943	0.006330935396505017	-0.003773380397865158	2.174922804647984	0	0.02487385458071499	-335.9693104767854	290.943205991953	-83.449642762194	2.687639008029534	0	0.01761684764556046	0	4.080806441528195e-06	0	0	2.842170943040401e-14	0
0.334862890073335	-0.02858324093144214	0.00879136923162647	-0.005091298100088183	2.19290630666555	0	0.02975204177904736	-276.4856763764336	838.1564272342292	-193.3540326613808	2.691036944093646	0	0.01782339253389705	0	4.568110343753165e-06	0	0	0	0
0.3393277286076462	-0.0440263665436211	0.01346392050714291	-0.007480950746915224	2.211329374090542	0	0.03385021527020405	-166.3808822375147	1379.752206173855	-45.04103810672184	2.692766746384944	0	0.01877970093684344	0	4.999971986840296e-06	0	0	0	0
0.3437925671419573	-0.07236036415423922	0.02199714837728636	-0.01159766190896589	2.230267558415487	0	0.03720461274866164	-265.0718468900077	1685.456076263099	-192.0236750843597	2.693297864702322	0	0.01832970723338897	0	5.223542471271408e-06	0	0	-1.13686837721616e-13	0
0.3482574056762685	-0.1196593336031764	0.03613432944131548	-0.01778687889816923	2.249775742883489	0	0.03987786469208827	-138.4186494263252	1744.92941000685	-87.22497746354482	2.69464627273595	0	0.01900962570098712	0	5.436504289933752e-06	0	0	1.13686837721616e-13	0
0.3527222442105795	-0.1872859610700947	0.05614678548379208	-0.02518376345338455	2.269895282109502	0	0.04192168105608068	-201.3760571975276	1639.228493266576	-146.5600506289721	2.694875204284723	0	0.01877874162472992	0	5.900521588129981e-06	0	0	1.477928890381008e-12	0
0.3571870827448907	-0.2690887614629051	0.08002805545364704	-0.03141271341747803	2.29066076305692	0	0.0433416806477494	-178.3931858649	1521.08478546512	-68.58422123019794	2.695609153013963	0	0.01937337978112023	0	6.74774459538674e-06	0	0	2.478373062331229e-11	0
0.3616519212792019	-0.3507740715638034	0.1034452881130689	-0.03361302813160331	2.312072979286826	0	0.04421663430573109	-290.3073159725635	1464.942614514457	-116.8152729065995	2.69546149874639	0	0.01909377351933136	0	7.389689762507534e-06	0	0	3.581703822419513e-10	0
0.3661167598135129	-0.4192472920978574	0.1226659430535452	-0.03109596847039289	2.334048831564183	0	0.04469220485583131	-254.983346873893	1463.82920799986	-72.7008776925865	2.696517661362897	0	0.01951238140854218	0	7.016760510625275e-06	0	0	5.477090780914295e-09	0
0.3705815983478241	-0.4699205852797615	0.1366073131539796	-0.02503294217834485	2.356478019536012	0	0.04490416718006442	-283.2720237304252	1457.26759303776	-101.8766694710547	2.69702765484476	0	0.01930782063523839	0	5.234107711013514e-06	0	0	6.522856210722239e-08	0
0.3750464368821353	-0.5011682257869496	0.1449266945367197	-0.01736008276346361	2.379271211065216	0	0.04498475652563003	-179.4332791083738	1402.129408996504	-63.47803409277363	2.698508445432198	0	0.01962412965957185	0	2.584511711686832e-06	0	0	5.930305349011178e-07	0
0.3795112754164464	-0.5113448399976852	0.1471110848092894	-0.01033260458967696	2.402405259944369	0	0.04500088776838172	-153.0078059399746	1294.716558801484	-69.94388421557682	2.699210752214038	0	0.01951518834521916	0	5.200337233925156e-07	0	0	3.631470008258475e-06	0
0.3839761139507575	-0.4997276708396607	0.1429984942400197	-0.004642679416771306	2.425882312820822	0	0.04496117860844336	-69.10416672022134	1170.137716637965	-39.61211359586744	2.700466077443722	0	0.01976635242531797	0	-4.725673517450707e-07	0	0	1.793694825380499e-05	0
0.3884409524850687	-0.4681662774390742	0.1332118402727612	-0.0006002641663734685	2.449698968146905	0	0.04487650783436722	-58.55000611068057	1055.445354081377	-44.49178551429362	2.700985621943097	0	0.0196571088675389	0	-5.342725221736157e-07	0	0	7.694446770756258e-05	0
0.3929057910193798	-0.4179454848331859	0.1182151775266357	0.001795525644862319	2.473868555407707	0	0.04474716687609898	-7.955558848204048	955.1068632160983	-26.87927822308185	2.702044879920637	0	0.01983353485482901	0	1.776585203958417e-07	0	0	0.00033731357699196	0
0.3973706295536908	-0.3541704718394879	0.09956628323938349	0.002746142134203772	2.498402781816844	0	0.04458457490027502	-8.150556791028823	874.7516394861187	-31.56512443289532	2.702510446076446	0	0.01974253721357503	0	1.310053981211021e-06	0	0	0.001528710180267012	0
0.401835468088002	-0.2883860483272612	0.08061089432001035	0.002754884245428848	2.523275603621305	0	0.04439900193425179	20.40901951564318	805.5513163670882	-22.72990993621653	2.703452290514692	0	0.01986867305695304	0	2.440262978629579e-06	0	0	0.007738031698160341	0
0.4063003066223132	-0.2306209711195488	0.06415361502349394	0.002347454575796523	2.54842781143756	0	0.04420470840001718	16.87172063112626	747.9259286570046	-25.56728356670489	2.704017396548918	0	0.01985885073491845	0	3.303278455149203e-06	0	0	0.04270959181990008	0
0.4107651451566243	-0.1860337093102599	0.05156122493248254	0.001950347207420769	2.573760065717098	0	0.04400988581211875	31.58366671504112	693.3807866507476	-19.71718487462084	2.705258956081688	0	0.02005518132282643	0	3.798518301898965e-06	0	0	0.2533500592221074	0
0.4152299836909354	-0.1549510225606182	0.04284424747608643	0.00170290260689039	2.599162370865606	0	0.04381783333865847	19.42021993739334	651.4356877043563	-20.30666411633125	2.708093312791243	0	0.02026017055669911	0	4.036273393088347e-06	0	0	0.9988104453484112	0
0.4196948222252466	-0.1341042574239158	0.03703170792014276	0.001538590507702723	2.624542460904476	0	0.0436182134538101	-0.638364367878684	642.3892895782888	-15.29750830380394	2.716348898874812	0	0.02035025514848637	0	4.218054601153737e-06	0	0	-0.8467218022605394	0
0.4241596607595577	-0.1215344302209869	0.03355229241510872	0.001426548178810315	2.649805763430499	0	0.04340478899716867	-49.7788239124716	699.4962982171148	-25.76332458741238	2.731795507874992	0	0.02052179460635193	0	4.536770597733924e-06	0	0	-4.764422809183785	0
0.4286244992938689	-0.11678902680502	0.03227211637450857	0.001435073010911556	2.674819014305413	0	0.0431618124145554	-64.71651008892225	769.5047899186476	-33.2374428395054	2.746668925751831	0	0.02091267222739644	0	5.257652723422452e-06	0	0	-6.227467687043301	0
0.43308933782818	-0.1175875328063652	0.03253893901719425	0.001594814112456298	2.699407256402768	0	0.04286049375293941	-35.17953464589107	788.9187977020923	-23.11679353309355	2.75516291784965	0	0.02151231194013111	0	6.942401611999098e-06	0	0	-5.864530656610285	0
0.4375541763624911	-0.117860584985513	0.03263440118283306	0.001804670642096185	2.723328721737122	0	0.04244189061486134	-24.78797795567004	837.3729395633868	-21.6624569109689	2.76605155774119	0	0.02249649317354532	0	1.094400083562295e-05	0	0	-4.960105481574907	0
0.4420190148968022	-0.1131179503418548	0.03130202507363083	0.00197660844210122	2.745786138073051	0	0.04174302489340513	-26.11282202048274	893.971241479938	-24.16173474644625	2.776393940402419	0	0.02399124643363787	0	2.037192354290614e-05	0	0	-4.59515222696227	0
0.4464838534311134	-0.1032502160129915	0.02852822337074761	0.002147722194196215	2.76450373447516	0	0.04033027064283935	-14.44671790214725	947.0636807884514	-31.42651420676894	2.786386262603707	0	0.02568934430305944	0	4.017471523516496e-05	0	0	-3.86273468847368	0
0.4509486919654245	-0.09185752286325227	0.0253238921140885	0.00244837131602839	2.774450409227819	0	0.03725864552723335	-5.893199519543857	991.7166648101414	-36.59027578091032	2.795772779384685	0	0.02732452710128526	0	7.227511587327377e-05	0	0	-3.64787168477001	0
0.4554135304997357	-0.08620995753687803	0.02370012608722245	0.003089219215527949	2.769959580621865	0	0.03143095406449913	7.125993137931087	1029.06769287734	-44.14252471815586	2.805162225750233	0	0.0287624036735765	0	0.0001014100206245573	0	0	-3.867393165347792	0
0.4598783690340468	-0.09359632651895293	0.02565317412434407	0.004263818307933219	2.756236273539407	0	0.02371492774833558	21.60504690333329	1068.245206604876	-46.41513419171267	2.81569257659963	0	0.03006228205932441	0	9.820960244330545e-05	0	0	-4.065739950064099	0
0.4643432075683579	-0.1180841894285052	0.03228093548106134	0.006035439293436136	2.750316188416023	0	0.01724854796419056	39.18537003024106	1111.23929618234	-46.5154018837636	2.828300351050542	0	0.03140038086555003	0	6.655287103443305e-05	0	0	-3.24347772597838	0
0.468808046102669	-0.158990298335604	0.04337848785146804	0.008334080720246549	2.759183832360272	0	0.01338990669706564	41.51768338093393	1132.284872469497	-45.53357423774733	2.841740683178457	0	0.03286483627031539	0	3.317027978017376e-05	0	0	-2.223432040681274	0
0.4732728846369802	-0.2100039699392098	0.05722877667391394	0.01087869698302731	2.777748021690385	0	0.01124973920297829	40.71005457187618	1130.858179457676	-49.23193023563869	2.85542367282408	0	0.03440914493219976	0	1.13112303298038e-05	0	0	-1.697588597235921	0
0.4777377231712913	-0.2596938653927874	0.07073952810671991	0.01315660440599527	2.800330572246535	0	0.009797912691511619	48.3803049136746	1166.640806566617	-58.3115464210892	2.862568080389577	0	0.03537229438455045	0	1.40023731147465e-06	0	0	-2.198177370586023	0
0.4822025617056024	-0.2936309939276531	0.07997260005812985	0.01453478205974356	2.824483771763027	0	0.00858806331705159	67.96796194158956	1243.122433967495	-71.34572571129203	2.863595729972357	0	0.03569142543033126	0	-1.008510494768244e-07	0	0	-2.74441117297124	0
0.4866674002399135	-0.2979706771106726	0.08114452938409694	0.01436988922080804	2.849137955199546	0	0.007436684700754669	81.88924926696177	1297.289369889397	-80.86055605418535	2.864725570704852	0	0.03582439602101416	0	-1.698784064807501e-09	0	0	-3.158802720407778	0
0.4911322387742247	-0.2676060554025083	0.07286836684671111	0.01245968193769426	2.874140802788364	0	0.006319613969611633	97.91442188743903	1323.218481496428	-87.22949784896342	2.865713256540128	0	0.03566338946584231	0	-8.453959754461948e-12	0	0	-3.409005737995784	0
0.4955970773085359	-0.2103283399986618	0.05726923603090742	0.009350901665626072	2.89952093251111	0	0.005247834493598159	114.106172846702	1328.177418977022	-88.8346190905867	2.866557106782086	0	0.03525553938767517	0	-1.921379721991912e-14	0	0	-3.476999164165818	0
0.500061915842847	-0.143512628233863	0.03908083457342293	0.006043265857470901	2.925279989964755	0	0.004220264975503899	131.1287252453325	1317.786487771245	-89.25983344974586	2.867314458350241	0	0.03462977838435793	0	-3.469446951953614e-17	0	0	-3.4720071498283	0
0.5045267543771582	-0.08456900771349904	0.02303389118490851	0.003360538484934511	2.951410524971451	0	0.003238009069402213	146.8501818081486	1294.83053236323	-87.60466289941117	2.868009587174947	0	0.03383286241631128	0	-1.734723475976807e-18	0	0	-3.477752382635799	0
0.5089915929114692	-0.04361056074655049	0.01187606356295622	0.001636487471953365	2.977894443590408	0	0.00230017468433151	162.4157174634676	1263.883359852874	-86.46208644345779	2.868654166191035	0	0.0328829972883443	0	0	0	0	-3.436613754660272	0
0.5134564314457803	-0.02023895322664949	0.005507470028103595	0.0007196651735386149	3.004695341842571	0	0.001407761819425752	176.3454907048778	1226.137145939589	-84.21754005078256	2.869247933736803	0	0.03182239573917513	0	4.336808689942018e-19	0	0	-3.344424881708164	0
0.5179212699800915	-0.008851231021354503	0.002405783615599971	0.0002980052945230259	3.031752944664743	0	0.000564999601881496	189.8414663883632	1182.899378565927	-83.41895629041871	2.869832377837646	0	0.03066353916655958	0	-2.168404344971009e-19	0	0	-3.284624209712206	0
0.5223861085144027	-0.003914853542148416	0.001062395944349225	0.0001243765998204499	3.059005411511705	0	-0.0002288570027048618	201.2949138838781	1133.804503485573	-81.89191644811275	2.870414665023546	0	0.02944421253595434	0	0	0	0	-3.314264782756339	0
0.5268509470487137	-0.001850648060364174	0.0005014425281282265	5.535865903022719e-05	3.086376882018567	0	-0.0009814957648040367	212.1528449553558	1080.600714138374	-81.11482302333509	2.870998099241232	0	0.02816340510790847	0	0	0	0	-3.426881155529856	0
0.5313157855830249	-0.0009656457358858736	0.0002613002741977398	2.723114990573575e-05	3.113802655387984	0	-0.001706898601146719	218.7408732806024	1015.745005689731	-78.5595213408242	2.871595577151293	0	0.02683410432650812	0	-1.355252715606881e-20	0	0	-3.567387999689259	0
0.5357806241173361	-0.0005651001691006859	0.0001526361291002046	1.511771440560735e-05	3.141262346898249	0	-0.002419251734446391	222.0289269352145	934.1848931644797	-75.6245306650741	2.872279240865364	0	0.02546674026234818	0	0	0	0	-3.677633312338259	0
0.5402454626516472	-0.0003655636156838639	9.843890832735359e-05	9.327945821542167e-06	3.168756014322193	0	-0.00312151294469779	216.01191731635	834.9993129852478	-70.99905739757814	2.873041684342034	0	0.02418213199555776	0	3.388131789017201e-21	0	0	-3.698231758072609	0
0.5447103011859583	-0.0002734573583096723	7.330529658283959e-05	6.844202264421757e-06	3.196237942204057	0	-0.003852023605125738	198.7701231491807	712.3749176937511	-65.15777263860474	2.873899038692504	0	0.02307806339007965	0	-3.388131789017201e-21	0	0	-3.473078605677557	0
0.5491751397202694	-0.000222620755554709	5.932287905349902e-05	5.512432385688757e-06	3.223645684991225	0	-0.004599930340729377	174.8190114339427	573.5632104165695	-58.68795839030536	2.874416222012393	0	0.02322663356225099	0	0	0	0	-2.745641034676481	0
0.5536399782545806	-0.0001838065155546102	4.867803910844997e-05	4.557710329123603e-06	3.250911801188744	0	-0.005372828580796142	146.7530016626976	432.0999003954249	-46.69371358249475	2.875167841914637	0	0.02349625121034694	0	1.694065894508601e-21	0	0	-2.187439889137266	0
0.5581048167888917	-0.000157321702710579	4.144105953773794e-05	3.964464868234421e-06	3.277990642450201	0	-0.006180325945670866	118.4932186161587	318.8132046723342	-19.79707064088401	2.876217677574666	0	0.02448101293957062	0	1.694065894508601e-21	0	0	-1.830450456907904	0
0.5625696553232028	-0.0001429973846625083	3.750235710194812e-05	3.62326230888211e-06	3.304845138938841	0	-0.006976439484046044	91.45347173672509	236.1438408336992	17.90908313565728	2.87806337001984	0	0.02688732820591873	0	1.694065894508601e-21	0	0	-1.566714921443875	0
0.567034493857514	-0.0001419790934099776	3.709989525636456e-05	3.533532052524816e-06	3.331442506679722	0	-0.007717705766147669	42.71069522918663	135.5446232460458	21.84514591686495	2.882159978904113	0	0.03095470431132685	0	0	0	0	-0.9999617877839242	0
0.5714993323918252	-0.000161310855880552	4.199695164885163e-05	4.011032339940136e-06	3.357728658659142	0	-0.008454624980869447	-8.904309182332945	18.44214856665413	-3.371732103117902	2.918918878718733	0	0.06098164976458924	0	0	0	0	0.001865683602643387	0
0.5759641709261363	-0.0002114581210053262	5.490113264640929e-05	5.497216000362862e-06	3.383537462153035	0	-0.00923656969367964	0.02094532217571353	-0.02453988479216294	0.01141337119119539	2.919748821475966	0	0.06079204636996171	0	0	0	0	-7.119443923286894e-13	0
0.5804290094604474	-0.0003021540195539897	7.861150558080343e-05	8.699169112784697e-06	3.408590726679397	0	-0.01012674052759891	6.335397513416404e-06	-5.672448412527585e-06	9.302264312050774e-07	2.923326969145122	0	0.06155791697516596	0	0	0	0	-4.235164736271502e-22	0
0.5848938479947585	-0.0004559193481347109	0.0001196318744143873	1.53761155013193e-05	3.432765561569849	0	-0.0111840205438595	6.643659442152139e-05	-5.031864987879727e-05	-1.224974136155183e-05	2.929307455091009	0	0.0607683958491088	0	1.355252715606881e-20	0	0	0	0
0.5893586865290696	-0.0007226542667686314	0.0001919741698549353	2.903534158374595e-05	3.456184373095402	0	-0.01240662921035348	0.0006756821719296801	-0.0004527580549239292	-0.0001873207729944063	2.93727340309242	0	0.0586583663046389	0	2.710505431213761e-20	0	0	0	0
0.5938235250633808	-0.001186850694933082	0.0003197903108809575	5.620812797575202e-05	3.47893446800421	0	-0.01376777345160989	0.001554522641655723	-0.0009546251408462594	-0.0004236893620128399	2.946779999016229	0	0.05613996120772358	0	-5.421010862427522e-20	0	0	0	0
0.5982883635976919	-0.001958122452799365	0.0005358551679795138	0.0001060751470115471	3.501096496344215	0	-0.01520702193094196	0.003111810346101816	-0.00176850938053018	-0.0007823658450874933	2.957584004224763	0	0.05353482060932669	0	0	0	0	-4.336808689942018e-19	0
0.602753202132003	-0.003148837592553787	0.0008768536794382722	0.000188924678491239	3.522712866976151	0	-0.01668467576983412	0.01252370028002826	-0.006570867740865006	-0.00291599539691586	2.969706867351902	0	0.05086804819318622	0	0	0	0	-7.702172233337023e-16	0
0.6072180406663141	-0.004866646112019033	0.001385713888280491	0.0003151715045203976	3.543649960084041	0	-0.01816261372518142	0.000630668618171346	-0.0003049771043582986	-0.0001360754760168737	2.983287548257718	0	0.0481234371271643	0	0	0	0	-2.230235852766771e-13	0
0.6116828792006254	-0.007252406294399449	0.002128758970266915	0.0004966723144125463	3.563679479079832	0	-0.01960743785229395	-0.001544826852486709	0.000691418678792692	0.0003141692845560521	2.998429423577241	0	0.04524427625180479	0	-2.168404344971009e-19	0	0	-1.917743177801134e-11	0
0.6161477177349365	-0.01065468456105071	0.003259609015323681	0.0007604636594144964	3.582480175384329	0	-0.02097741029338304	0.0004934181014008848	-0.0002065737029572398	-9.674857836052043e-05	3.01499489476833	0	0.04217006654253224	0	0	0	0	-5.940336097369839e-10	0
0.6206125562692476	-0.01604894201767595	0.005176302258058554	0.001188371700326422	3.599780908119279	0	-0.02226709527778278	0.000802708605606733	-0.0003182157205566834	-0.0001532707968232116	3.032556658298138	0	0.03875088780626004	0	-8.673617379884035e-19	0	0	-8.754551474488177e-09	0
0.6250773948035587	-0.02579090944440308	0.008833074139060966	0.001999955803157249	3.615550966269443	0	-0.02350563247203668	0.0004286038297152237	-0.0001619062415962176	-7.964508809905605e-05	3.044327894529617	0	0.02940680758124161	0	8.673617379884035e-19	0	0	-7.951706854655936e-08	0
0.6295422333378698	-0.04568679393086055	0.0166826520146159	0.003766486540592392	3.62979081442299	0	-0.02471571021896993	-9.092250216979396e-05	3.525617766877337e-05	1.755853025646262e-05	3.191959858984659	0	0.1356444038532603	0	0	0	0	-8.017797400842352e-07	0
0.634007071872181	-0.09167139460694522	0.03583351186224423	0.008141141382387199	3.642484122694197	0	-0.02589643235894931	-0.003142693287354305	0.001098983047636531	0.0005312819892960939	3.054655174328798	0	-0.002269681010954213	0	3.469446951953614e-18	0	0	5.673263807331325e-07	0
0.6384719104064921	-0.2124197404661497	0.08921921747811203	0.02051004270777591	3.65364994229457	0	-0.027041138423636	-0.003863501656299812	0.001317550210363015	0.0006081628241800625	3.073776369528477	0	-0.006318630532513808	0	0	0	0	4.687562433832327e-07	0
0.6429367489408032	-0.5728250378209911	0.2592843183301476	0.06065129178337419	3.663368483107172	0	-0.02814707851714804	-0.003729867857540457	0.001243872705420011	0.0005445367733589148	3.093043979983028	0	-0.01021188649884388	0	0	0	0	2.919885406667787e-07	0
0.6474015874751144	-1.783187649783253	0.871060756079544	0.2086120954991791	3.671765413771537	0	-0.02920832125187352	-0.003507116150799853	0.001146432140832033	0.0004773089196028765	3.111894305664538	0	-0.01437024521100035	0	-1.110223024625157e-16	0	0	1.516792390882527e-07	0
0.6518664260094256	-6.19495987840367	3.269004344005026	0.8096183277573087	3.678975269596424	0	-0.03022474034231992	-0.003448021700916346	0.001107149847996086	0.0004312458594196832	3.130143073155638	0	-0.01876163582323195	0	0	0	0	5.181900789583485e-08	0
0.6563312645437367	-22.12141223837746	12.65199937333957	3.282215367954215	3.685108412794639	0	-0.03118394463099568	-0.003701664843461777	0.001170155674064618	0.0004119287599537275	3.148079404643247	0	-0.02296077202066421	0	-1.77635683940025e-15	0	0	-1.677413808049734e-08	0
0.6607961030780478	-66.15336467815716	41.63866234386814	11.50068355668862	3.690146974959631	0	-0.03205804884753637	-0.004458511302490058	0.001390907792354374	0.0004257654990218319	3.166161637115275	0	-0.02651273291565524	0	0	0	0	-6.337492577945802e-08	0
0.6652609416123589	-177.3591112669999	128.8925288532955	40.44680445528426	3.694153138424732	0	-0.0328184440184474	-0.006109499553266004	0.001885333553836528	0.000478492045540158	3.184676188575536	0	-0.02916211889692059	0	-2.842170943040401e-14	0	0	-9.579148026335992e-08	0
0.6697257801466701	-471.0588897746933	518.9575079345248	211.3244713041356	3.696942518391198	0	-0.0329703805088728	-0.009519376381869626	0.002912045278949075	0.0005743072187079483	3.203675754284766	0	-0.03089520336549551	0	0	0	0	-1.192517678958414e-07	0
