DataType=double
version=3
OpenSimVersion=4.6-2026-06-22-85aaf64
endheader
time	ground_force_r_vx	ground_force_r_vy	ground_force_r_vz	ground_force_r_px	ground_force_r_py	ground_force_r_pz	ground_force_l_vx	ground_force_l_vy	ground_force_l_vz	ground_force_l_px	ground_force_l_py	ground_force_l_pz	ground_torque_r_x	ground_torque_r_y	ground_torque_r_z	ground_torque_l_x	ground_torque_l_y	ground_torque_l_z
0	-331.8895093000836	2004.493361753372	-134.5102993851336	1.83390411072223	0	-0.04719457864602696	-0.104169803834174	0.07913673611868537	0.04665804877041479	1.375028914148431	0	0.05750837651488817	0	4.64911181552452e-07	0	0	-0.0001164462416865103	0
0.008709172848634417	-35.09619962540815	1495.330742677286	225.9203622463105	1.836318570805246	0	-0.0447624135557721	-0.05659619212619001	0.04241485150766831	0.02400163749354858	1.394763193270507	0	0.05880918001312806	0	6.530234884394304e-06	0	0	8.470903908180949e-08	0
0.01741834569726883	-210.9393393419992	1238.944003690609	-130.8790979183204	1.834813723449684	0	-0.04865105974934993	-0.01731400168861433	0.01265751341630241	0.005452844267873727	1.407254808513571	0	0.05613618087365835	0	2.315906954208913e-05	0	0	1.232521029681521e-15	0
0.02612751854590325	-9.038616556464328	1064.186462681444	144.2667115446967	1.837649294061312	0	-0.04547915146060195	-0.0007250383667444544	0.0005176975502340136	0.0001266239347660294	1.420895109295353	0	0.05512686724540388	0	0.0001026366580845206	0	0	0	0
0.03483669139453767	-104.3817335519485	951.0633469185988	-114.1192770313411	1.836891741748089	0	-0.04897655270559775	4.931603788494408e-08	-3.480666753383595e-08	-1.179296242459218e-09	1.435627259950278	0	0.05607573828906173	0	0.0002420524645287969	0	0	-4.135903062765138e-25	0
0.04354586424317209	18.26887062167113	847.9265452104802	77.47630218916021	1.839275562570778	0	-0.04598992034540478	2.088715805560582e-13	-1.473958540065055e-13	2.507022539839485e-14	1.451383861006025	0	0.059025453999031	0	0.0008240312178031672	0	0	0	0
0.0522550370918065	-25.37256149752699	780.0051471204108	-80.44068258018781	1.839183989031622	0	-0.04825287081540312	3.758308454692396e-19	-2.652440588336325e-19	8.560034574594438e-20	0	0	0	0	0.002102149445704526	0	0	-1.019017539098035e-19	0
0.06096420994044093	26.67674857196502	721.7222575220333	53.01638319532749	1.840737479974059	0	-0.04568267205367463	-0	-0	-0	0	0	0	0	0.005904464059696579	0	0	0	0
0.06967338278907534	17.18650474535415	681.9782376023011	-41.28699171511673	1.841378987748576	0	-0.04692205755258112	-0	-0	-0	0	0	0	0	0.01850876049851991	0	0	0	0
0.07838255563770975	40.15854725534582	642.6015712288062	37.8487229204566	1.843256033119125	0	-0.04520090246917789	-0	-0	-0	0	0	0	0	-0.01293179143679879	0	0	0	0
0.08709172848634418	45.00319691821251	618.2240538758223	-16.49591886278338	1.849080502043116	0	-0.04684772330050038	-0	-0	-0	0	0	0	0	-0.6269008749354157	0	0	0	0
0.09580090133497859	15.87358676398239	649.7641929723542	30.528554868517	1.869973295824733	0	-0.05036595714517717	-0	-0	-0	0	0	0	0	0.7510994756486582	0	0	0	0
0.104510074183613	-14.29690386690657	747.5778817223514	3.696640273046267	1.903259147982314	0	-0.05801880948505398	-0	-0	-0	0	0	0	0	2.627417694098868	0	0	0	0
0.1132192470322474	-15.85754718503085	741.8201492667519	20.01817280785196	1.925215154067669	0	-0.0625521503309831	-0	-0	-0	0	0	0	0	1.943561078755742	0	0	0	0
0.1219284198808819	-15.76746202638922	732.033820594182	3.226694846226589	1.944125091697225	0	-0.06682932939153026	-0	-0	-0	0	0	0	0	0.409505233845235	0	0	0	0
0.1306375927295163	-12.39572970365813	702.0042719876392	17.98940228539211	1.958661212658078	0	-0.069846471694078	-0	-0	-0	0	0	0	0	-0.6047938884355375	0	0	0	0
0.1393467655781507	-3.651456770752099	691.4970299485528	9.25786235068928	1.971223866418325	0	-0.07273253125396942	-0	-0	-0	0	0	0	0	-1.016495501958062	0	0	0	0
0.1480559384267851	0.5162668714880074	671.9361887821472	21.7911634032189	1.98061915499375	0	-0.07472910187906912	-0	-0	-0	0	0	0	0	-1.162373577457224	0	0	0	0
0.1567651112754195	16.9445017029032	664.6190741329731	14.90500711325966	1.988545572574157	0	-0.07667603340142971	-0	-0	-0	0	0	0	0	-0.7576332837214856	0	0	0	0
0.1654742841240539	23.8950092055066	648.8864488627639	25.03448323813739	1.993769100877381	0	-0.07784611507791897	-0	-0	-0	0	0	0	0	-0.2493955934214398	0	0	0	0
0.1741834569726884	38.82684593513662	650.2750025143807	15.69864646369024	1.995640551974153	0	-0.0784771276977302	-0	-0	-0	0	0	0	0	0.03421038188809788	0	0	0	0
0.1828926298213228	45.47434024103406	639.6062179328735	22.44365662409137	1.995772545199387	0	-0.07847076561100155	-0	-0	-0	0	0	0	0	-0.004151426822780024	0	0	0	0
0.1916018026699572	58.12275352022034	631.246786525913	15.57400556316993	1.996056702603738	0	-0.07876323357123934	-0	-0	-0	0	0	0	0	-0.02126939905981118	0	0	0	0
0.2003109755185916	63.48826981620312	611.3037273112601	22.67768894708036	1.996230067491875	0	-0.07886565283378497	-0	-0	-0	0	0	0	0	-0.04774011662668443	0	0	0	0
0.209020148367226	75.58688781472765	596.3531936883508	14.41945019656861	1.996532569875721	0	-0.07930012453395582	-0	-0	-0	0	0	0	0	-0.1120835657963184	0	0	0	0
0.2177293212158604	72.5058857650842	581.5212507488852	22.70597963472754	1.996876997800099	0	-0.07993851267215268	-0	-0	-0	0	0	0	0	-0.4466059108381941	0	0	0	0
0.2264384940644949	61.70324108474777	590.1996841423701	23.34706092190093	1.997460056582682	0	-0.08111364208006026	-0	-0	-0	0	0	0	0	-0.985430170557585	0	0	0	0
0.2351476669131293	37.4801114413595	605.9263838518536	42.49719017445061	1.997441952176123	0	-0.08094767607750984	-0	-0	-0	0	0	0	0	-0.2573345375359679	0	0	0	0
0.2438568397617637	20.48380122052055	657.1092489680821	49.469990147491	1.997351819911203	0	-0.08095589809703116	-0	-0	-0	0	0	0	0	-0.1215131287164155	0	0	0	0
0.2525660126103981	19.55649159231947	718.5705233408291	61.87560736985918	1.997475338289254	0	-0.08091876859164748	-0	-0	-0	0	0	0	0	-0.1730252082897863	0	0	0	0
0.2612751854590325	47.7963534721823	771.227823868679	55.88294443521055	1.997911097716074	0	-0.08112754887384983	-0	-0	-0	0	0	0	0	-0.2458193576527492	0	0	0	0
0.2699843583076669	70.83278021354111	805.0080084062554	60.42861032513793	1.998208782775172	0	-0.08114318644959995	-0	-0	-0	0	0	0	0	-0.295001172009421	0	0	0	0
0.2786935311563014	92.79451360409777	830.3350905331038	57.61739831250183	1.998484493764907	0	-0.08128978048601296	-0	-0	-0	0	0	0	0	-0.2963631211913906	0	0	0	0
0.2874027040049358	108.4009478429417	842.9476422608875	64.84332515870754	1.998701443884542	0	-0.08129915583019853	-0	-0	-0	0	0	0	0	-0.2233989791467081	0	0	0	0
0.2961118768535702	126.3620181705145	848.1123227681796	62.92699416358303	1.998983223538242	0	-0.0814358715161726	-0	-0	-0	0	0	0	0	-0.05495703905343419	0	0	0	0
0.3048210497022046	139.814256131932	833.1335696220775	67.55681069388631	1.999278143188975	0	-0.08146721360984456	-0	-0	-0	0	0	0	0	0.1875808406908277	0	0	0	0
0.313530222550839	153.0480056347648	797.5959035744906	61.39771497305694	1.999657523548261	0	-0.08165778286276147	-0	-0	-0	0	0	0	0	0.4661863863484967	0	0	0	0
0.3222393953994734	160.0271236448841	739.320779208437	62.52461007313869	2.00007202002968	0	-0.08176658228420038	-0	-0	-0	0	0	0	0	0.7499210748600547	0	0	0	0
0.3309485682481079	166.843812254794	663.9000009906056	54.02370050257728	2.000643465341827	0	-0.08207522590005913	-0	-0	-0	0	0	0	0	1.044977368624643	0	0	0	0
0.3396577410967423	151.4711264559457	558.7834389425591	52.79908489183822	2.001165334336237	0	-0.08240886701347665	-0	-0	-0	0	0	0	0	1.293623573098344	0	0	0	0
0.3483669139453767	118.006549687394	434.2192154227478	43.3819143448087	2.001868473152488	0	-0.08327931294378112	-0	-0	-0	0	0	0	0	1.488860582390473	0	0	0	0
0.3570760867940111	70.75879194469182	282.9388012017254	39.86131755544542	2.003385140863942	0	-0.08482868772867096	-0	-0	-0	0	0	0	0	1.56708264286425	0	0	0	0
0.3657852596426455	19.14547746833673	102.5541168320197	22.18586426668416	2.009186498102552	0	-0.09069138656117674	-0	-0	-0	0	0	0	0	1.209180803807406	0	0	0	0
0.3744944324912799	-5.248403586463791	8.335411462450924	2.395018388321141	2.048446231589712	0	-0.1345383827264928	-0	-0	-0	0	0	0	0	-0.0003058751772142543	0	0	0	0
0.3832036053399144	-0.7401675844645346	0.7895400837819909	0.1521516310780146	2.052496161320942	0	-0.1349515355947357	-6.627743923905452e-09	1.889274415507457e-09	-1.884566107557095e-10	2.534167629572828	0	-0.02622713143121915	0	-8.431710329936948e-10	0	0	0	0
0.3919127781885488	-6.566423892452035e-06	6.050432484005974e-06	-1.170865827142537e-06	2.059320880035898	0	-0.1338534789795825	-0.0003359431922043404	9.55527802395498e-05	-2.135589672243419e-05	2.541877997365305	0	-0.02332968902161404	0	-9.734013543579708e-11	0	0	0	0
0.4006219510371832	-0.2101883469367253	0.1775805231719425	-0.06630086977475451	2.06822308058609	0	-0.131233126721465	-4.186749743335747	1.197793989485204	-0.4364790479151044	2.552413450339076	0	-0.02132618833431292	0	-5.419071719137136e-09	0	0	2.220446049250313e-16	0
0.4093311238858176	-0.2095522994299406	0.1663730969085278	-0.06897309366852108	2.078493831021828	0	-0.1282500529174759	-726.6903008853411	350.4344173056809	-35.48335081374015	2.559335245355387	0	-0.02118862765620755	0	-1.109953871120117e-06	0	0	8.526512829121202e-14	0
0.418040296734452	-0.1635789843253586	0.1245517912877411	-0.05938341714329016	2.093642529141344	0	-0.1274533266174767	-174.7415754196874	2316.568980787875	154.8848500425341	2.574353732463742	0	-0.0200270318998259	0	-0.0001632131494923722	0	0	3.319587449368555e-08	0
0.4267494695830865	-0.140634669884789	0.1068159842290847	-0.05804408413429208	2.099205048199152	0	-0.119347485737613	-91.72713334790218	2362.898608596135	-198.4675452303348	2.57683931729989	0	-0.0209660327580462	0	5.519278739106459e-05	0	0	-9.491798891758663e-05	0
0.4354586424317209	-0.09692742551093841	0.0723939695046425	-0.04244714104827346	2.113495395278448	0	-0.1165663262451956	-165.4395083726723	1604.89315487069	118.3699255541263	2.577897245033719	0	-0.01834099925908353	0	-1.721248098328354e-05	0	0	-0.3095357256892726	0
0.4441678152803553	-0.05023768793935337	0.03680291674576396	-0.01969087116620235	2.124739661521555	0	-0.1120846714642141	-162.2074954321259	1438.959316897242	-217.6436344032894	2.588489789823959	0	-0.01593542140785223	0	-4.424977285977238e-08	0	0	-2.350646769476157	0
0.4528769881289897	-0.01434693637035011	0.01032433162774791	-0.004196016600778222	2.137659972441964	0	-0.1093943592514978	-196.5223539839074	1408.61983879311	79.49042903348996	2.600995056891814	0	-0.008328967309234717	0	-1.347307682086907e-13	0	0	-0.2941832719735089	0
0.4615861609776242	-0.001246651799029539	0.0008899007132764861	-0.0001857167481302057	2.151243739126326	0	-0.1085696193504961	-96.54583001778758	1172.282108174099	-136.0148579128126	2.596307591169257	0	-0.01404589718117399	0	3.794707603699266e-19	0	0	-3.217651799916837	0
0.4702953338262586	1.440014101047448e-06	-1.038190605940068e-06	-6.055014500367009e-08	2.165294547441647	0	-0.1103851472902198	-80.87516383273643	1073.571429610451	91.15680735803662	2.598323608293418	0	-0.01139417943308875	0	2.646977960169689e-23	0	0	-0.2894567574649614	0
0.479004506674893	2.753499658384011e-11	-2.054161972373824e-11	-7.111099475059626e-12	2.17959680619353	0	-0.1150553575198493	-51.19297371176523	966.1082549832024	-98.62870586438103	2.595592654982663	0	-0.01557458554116006	0	0	0	0	-1.136944459583276	0
0.4877136795235275	4.796333122413243e-17	-3.685658916007473e-17	-2.014064995861349e-17	0	0	0	-31.00675925891411	903.3760183401827	63.17814692198068	2.597241327028406	0	-0.01351849139805864	0	3.838969732842994e-17	0	0	-0.4820172150895701	0
0.4964228523721619	-0	-0	-0	0	0	0	-27.16160533950628	858.9201514570595	-73.87155282323596	2.599390660639275	0	-0.01504570086893955	0	0	0	0	-0.4630461272104469	0
0.5051320252207961	-0	-0	-0	0	0	0	5.774148645129478	825.9019093851708	44.64789110905915	2.609982097797153	0	-0.01032276645212876	0	0	0	0	-0.1424081013414735	0
0.5138411980694306	-0	-0	-0	0	0	0	-13.36664016437753	791.2764829535417	-47.70089653439395	2.622661511765247	0	-0.007313044498676745	0	0	0	0	-1.027754828820605	0
0.522550370918065	-0	-0	-0	0	0	0	16.91716784791453	751.8809956688227	31.49286503750832	2.641873080899253	0	-5.229487685614036e-05	0	0	0	0	-0.4863040578269562	0
0.5312595437666995	-0	-0	-0	0	0	0	-9.738274265932006	710.130543914689	-24.80442087674001	2.659613430255305	0	0.005372041354162116	0	0	0	0	-0.9534933888286616	0
0.5399687166153339	-0	-0	-0	0	0	0	9.840468565103537	682.7106523570262	15.08132730600825	2.677991102016928	0	0.01198668286516724	0	0	0	0	-0.3684268051662585	0
0.5486778894639683	-0	-0	-0	0	0	0	-12.55333884464164	661.6452272095522	-20.55649043508856	2.691387473936159	0	0.01618917349556125	0	0	0	0	0.2459394905250392	0
0.5573870623126027	-0	-0	-0	0	0	0	9.417499625547229	650.3655839949658	4.250581670122946	2.705514995227014	0	0.0212483496619953	0	0	0	0	0.2910161208554314	0
0.5660962351612372	-0	-0	-0	0	0	0	-0.5164828903229756	629.0546553198369	-21.73303704259174	2.71607295293523	0	0.02463342807455403	0	0	0	0	0.6647895328503211	0
0.5748054080098716	-0	-0	-0	0	0	0	20.21592734515918	619.2379766551429	-2.913574402163883	2.725884584007094	0	0.02830445827523403	0	0	0	0	0.242235285891736	0
0.583514580858506	-0	-0	-0	0	0	0	18.65682064869438	608.808226802073	-23.78502475569017	2.72991132552385	0	0.0294584784862953	0	0	0	0	-0.0546736142213291	0
0.5922237537071404	-0	-0	-0	0	0	0	38.75677891852222	619.4945819958263	-3.026250629887164	2.730172856986338	0	0.02971443190835276	0	0	0	0	-0.0223377666136777	0
0.6009329265557748	-0	-0	-0	0	0	0	41.31967865711202	606.5462891691608	-19.47662105663592	2.730398982613702	0	0.02954197941780812	0	0	0	0	-0.01541580622244965	0
0.6096420994044092	-0	-0	-0	0	0	0	57.2371345743185	601.2795580124927	-3.39488647400862	2.730804037941422	0	0.02991914214080676	0	0	0	0	-0.01102178125003839	0
0.6183512722530436	-0	-0	-0	0	0	0	61.22731323112873	577.3458484788998	-18.18057728136523	2.731034523257066	0	0.02983119340365441	0	0	0	0	0.005072330443674389	0
0.627060445101678	-0	-0	-0	0	0	0	75.33100668242074	560.3013035374513	-2.261039254687715	2.731463393429738	0	0.03037800087435099	0	0	0	0	0.07158276648028838	0
0.6357696179503125	-0	-0	-0	0	0	0	59.31392103081816	547.6779902087379	-24.65323934448451	2.731732676391308	0	0.03096647396817179	0	0	0	0	0.4658134379585448	0
0.6444787907989469	-0	-0	-0	0	0	0	23.63799884229086	584.1629355731131	-35.11906875545012	2.732051595177917	0	0.03200715495857313	0	0	0	0	0.6470294105250218	0
0.6531879636475814	-0	-0	-0	0	0	0	-3.932122386789465	634.866835396813	-67.74545414384563	2.732210321203472	0	0.03184288419310569	0	0	0	0	-0.04339729595420749	0
0.6618971364962157	-0	-0	-0	0	0	0	5.336347072707673	703.5808822023926	-62.79202257028332	2.732674881219616	0	0.03224978462445476	0	0	0	0	-0.1528455348239959	0
0.6706063093448502	-0	-0	-0	0	0	0	21.51889910566544	760.51784678077	-75.09957269538529	2.732986948110856	0	0.03219013232473541	0	0	0	0	-0.1379360273344616	0
0.6793154821934846	-0	-0	-0	0	0	0	49.75971686202366	810.2506788954938	-62.50604069119753	2.733304638656204	0	0.03238536855034986	0	0	0	0	-0.0311731644220572	0
0.6880246550421191	-0	-0	-0	0	0	0	71.17319707210311	838.0983635484528	-71.43549517428016	2.733490027533859	0	0.03227145685805582	0	0	0	0	0.0961344939218236	0
0.6967338278907534	-0	-0	-0	0	0	0	93.37391006564221	857.6303689261752	-61.53640295766651	2.733701897647127	0	0.03245838554590867	0	0	0	0	0.1862180484494615	0
0.7054430007393879	-0	-0	-0	0	0	0	107.1327990903902	864.0012784005862	-73.22046160210685	2.733835492252175	0	0.03239602347907295	0	0	0	0	0.2186476453513251	0
0.7141521735880222	-0	-0	-0	0	0	0	120.181397821589	872.724849377269	-68.04417651796014	2.733997282971794	0	0.03259926466535345	0	0	0	0	0.1443658671948072	0
0.7228613464366567	-0	-0	-0	0	0	0	131.1845155181888	863.5638456527614	-78.41834804346331	2.734204291429811	0	0.03259109141822678	0	0	0	0	-0.02791514399322637	0
0.731570519285291	-0	-0	-0	0	0	0	144.257950099972	837.8946011269585	-69.29346560954723	2.734517865726769	0	0.03286959985715276	0	0	0	0	-0.2731006518955041	0
0.7402796921339255	-0	-0	-0	0	0	0	152.9474484698665	788.1483738639438	-74.98350530839946	2.734888585347909	0	0.0329469698757504	0	0	0	0	-0.5679291791392984	0
0.7489888649825599	-0	-0	-0	0	0	0	161.3751340479522	725.8606638371294	-62.56206415884645	2.735374351798774	0	0.03333261765861717	0	0	0	0	-0.9266638239141969	0
0.7576980378311944	-0	-0	-0	0	0	0	149.2542195276974	624.4405643387269	-63.32603134926168	2.735823204379071	0	0.03359579056853027	0	0	0	0	-1.252407059724902	0
0.7664072106798288	-0	-0	-0	0	0	0	119.3632424029496	488.7095574308325	-44.40017745627646	2.73645126482261	0	0.03452570981280089	0	0	0	0	-1.484876818011074	0
0.7751163835284632	-0	-0	-0	0	0	0	74.84409100842994	313.6175140130019	-39.18279602173654	2.737720294452495	0	0.03586913675220505	0	0	0	0	-1.512900308126021	0
0.7838255563770976	-0	-0	-0	0	0	0	23.60344900853042	113.7108627610325	-17.52302736797698	2.742069146313172	0	0.04096390035052228	0	0	0	0	-1.095299408865706	0
0.7925347292257321	-0	-0	-0	0	0	0	-3.623971513466422	6.98886419451308	-1.493606234193592	2.779997760031641	0	0.08897178116089433	0	0	0	0	0.0004268548276353812	0
0.8012439020743665	-0	-0	-0	0	0	0	-0.467131514956917	0.5074639549249965	-0.06913763976942063	2.783853044087596	0	0.08911933555026171	0	0	0	0	2.924354036704102e-09	0
0.8099530749230008	-6.520898111807176e-12	1.81749094658526e-12	2.447345327499591e-13	3.258919297518378	0	-0.03136355881682251	0.0242953579492018	-0.02324765796604275	-0.005396893523877762	2.790134024244582	0	0.08769302480611853	0	-1.009741958682895e-28	0	0	4.030284127265471e-10	0
0.8186622477716352	-4.58322991920367e-07	1.289834990221895e-07	3.216797930215102e-08	3.265242646677276	0	-0.03549728352468023	-0.1993417684396103	0.1759567279164879	0.07401143407782529	2.798429317122602	0	0.08484011722444865	0	0	0	0	9.941587741923996e-08	0
0.8273714206202697	-0.006352451111489517	0.001817234234745873	0.000735252595750597	3.275245426721706	0	-0.03934197278780577	-0.2108707739891065	0.1737087733217883	0.08208207981966598	2.80899807391049	0	0.08227310784504648	0	0	0	0	3.893443638927629e-05	0
0.8360805934689041	-12.56971460949431	3.738273170170918	2.204098135469625	3.289043455573345	0	-0.04284794138973393	-0.1091918347243709	0.08219757203784453	0.04618659552227697	2.851226212205751	0	0.1034502520667553	0	-8.881784197001252e-16	0	0	0.001058708360019422	0
0.8447897663175385	-692.9227289516405	336.9286532199777	75.0584615224207	3.299592820160036	0	-0.04391220923124179	-0.28284130589884	0.216340627961817	0.06087449886917974	2.791826552229433	0	0.047202210601576	0	0	0	0	-0.0008768256708389099	0
0.8534989391661729	-445.7328232793024	2271.006160549683	-177.4295546140432	3.313094778934839	0	-0.04591572438489742	-0.2687409332505726	0.2031228750592219	0.05871424636145823	2.80135112399029	0	0.04383864868329908	0	-1.70530256582424e-12	0	0	-0.0008646020812395627	0
0.8622081120148074	-90.0063275400762	2775.202635106381	289.7955559349184	3.31564069233377	0	-0.04461642866422958	-0.1778904030118789	0.1357188440852413	0.06225601287509455	2.824776937399615	0	0.0488787480745671	0	6.011873665556777e-09	0	0	-0.0005706787945249925	0
0.8709172848634418	-331.8895092906557	2004.493361748113	-134.5102993915679	3.314463494992071	0	-0.04719457864606356	-0.1041698038362392	0.07913673612027393	0.04665804877137718	2.855588298418267	0	0.0575083765147742	0	4.649112383958709e-07	0	0	-0.0001164462416899936	0
